{"type": "FeatureCollection", "features": [{"type": "Feature", "geometry": {"type": "Point", "coordinates": [2.481701, 48.882519]}, "properties": {"numparc": 1522, "etat de la localisation": "autre", "ID BDGEO": "81", "horodatage": "2022-05-27 15:27:42", "distance (en metres)": 2106.33, "station": "CHATEAU DE VILLEMOMBLE", "marker-color": "#818181"}}, {"type": "Feature", "geometry": {"type": "Point", "coordinates": [2.484442, 48.877506]}, "properties": {"numparc": 1522, "etat de la localisation": "autre", "ID BDGEO": "81", "horodatage": "2022-05-27 15:31:36", "distance (en metres)": 2035.96, "station": "CHATEAU DE VILLEMOMBLE", "marker-color": "#818181"}}, {"type": "Feature", "geometry": {"type": "Point", "coordinates": [2.480132, 48.877117]}, "properties": {"numparc": 1522, "etat de la localisation": "autre", "ID BDGEO": "81", "horodatage": "2022-05-27 15:33:16", "distance (en metres)": 2346.62, "station": "CHATEAU DE VILLEMOMBLE", "marker-color": "#818181"}}, {"type": "Feature", "geometry": {"type": "Point", "coordinates": [2.482144, 48.87402]}, "properties": {"numparc": 1522, "etat de la localisation": "autre", "ID BDGEO": "81", "horodatage": "2022-05-27 15:35:27", "distance (en metres)": 2352.08, "station": "CHATEAU DE VILLEMOMBLE", "marker-color": "#818181"}}, {"type": "Feature", "geometry": {"type": "Point", "coordinates": [2.477714, 48.872787]}, "properties": {"numparc": 1522, "etat de la localisation": "autre", "ID BDGEO": "81", "horodatage": "2022-05-27 15:37:21", "distance (en metres)": 2702.39, "station": "CHATEAU DE VILLEMOMBLE", "marker-color": "#818181"}}, {"type": "Feature", "geometry": {"type": "Point", "coordinates": [2.470062, 48.871075]}, "properties": {"numparc": 1522, "etat de la localisation": "autre", "ID BDGEO": "391", "horodatage": "2022-05-27 15:39:19", "distance (en metres)": 2381.77, "station": "MAIRIE DE MONTREUIL-METRO.", "marker-color": "#818181"}}, {"type": "Feature", "geometry": {"type": "Point", "coordinates": [2.465497, 48.870026]}, "properties": {"numparc": 1522, "etat de la localisation": "autre", "ID BDGEO": "391", "horodatage": "2022-05-27 15:40:45", "distance (en metres)": 2032.34, "station": "MAIRIE DE MONTREUIL-METRO.", "marker-color": "#818181"}}, {"type": "Feature", "geometry": {"type": "Point", "coordinates": [2.460666, 48.868576]}, "properties": {"numparc": 1522, "etat de la localisation": "autre", "ID BDGEO": "391", "horodatage": "2022-05-27 15:42:32", "distance (en metres)": 1645.35, "station": "MAIRIE DE MONTREUIL-METRO.", "marker-color": "#818181"}}, {"type": "Feature", "geometry": {"type": "Point", "coordinates": [2.456734, 48.867222]}, "properties": {"numparc": 1522, "etat de la localisation": "autre", "ID BDGEO": "391", "horodatage": "2022-05-27 15:43:56", "distance (en metres)": 1321.03, "station": "MAIRIE DE MONTREUIL-METRO.", "marker-color": "#818181"}}, {"type": "Feature", "geometry": {"type": "Point", "coordinates": [2.449101, 48.863342]}, "properties": {"numparc": 1522, "etat de la localisation": "autre", "ID BDGEO": "391", "horodatage": "2022-05-27 15:47:05", "distance (en metres)": 627.31, "station": "MAIRIE DE MONTREUIL-METRO.", "marker-color": "#818181"}}, {"type": "Feature", "geometry": {"type": "Point", "coordinates": [2.444047, 48.86087]}, "properties": {"numparc": 1522, "etat de la localisation": "autre", "ID BDGEO": "391", "horodatage": "2022-05-27 15:48:42", "distance (en metres)": 213.4, "station": "MAIRIE DE MONTREUIL-METRO.", "marker-color": "#818181"}}, {"type": "Feature", "geometry": {"type": "Point", "coordinates": [2.510404, 48.884121]}, "properties": {"station": "CHATEAU DE VILLEMOMBLE", "ID BDGEO": "81", "marker-color": "#56B3FF"}}, {"type": "Feature", "geometry": {"type": "Point", "coordinates": [2.441172, 48.861194]}, "properties": {"station": "MAIRIE DE MONTREUIL-METRO.", "ID BDGEO": "391", "marker-color": "#56B3FF"}}]}