{"type": "FeatureCollection", "features": [{"type": "Feature", "geometry": {"type": "Point", "coordinates": [2.370675, 48.820938]}, "properties": {"etat de la localisation": "Mission suivante non connue", "numparc": 5702, "duree": "", "horodatage": "2022-10-06 06:28:10", "marker-color": "#7156FF"}}, {"type": "Feature", "geometry": {"type": "Point", "coordinates": [2.355081, 48.8321]}, "properties": {"etat de la localisation": "Deviation programmee", "numparc": 5702, "duree": "", "horodatage": "2022-10-06 07:58:03", "marker-color": "#56FF93"}}, {"type": "Feature", "geometry": {"type": "Point", "coordinates": [2.355095, 48.832077]}, "properties": {"etat de la localisation": "Deviation programmee", "numparc": 5702, "duree": "", "horodatage": "2022-10-06 10:27:05", "marker-color": "#56FF93"}}, {"type": "Feature", "geometry": {"type": "Point", "coordinates": [2.333655, 48.858219]}, "properties": {"etat de la localisation": "Mission suivante non connue", "numparc": 5702, "duree": "", "horodatage": "2022-10-06 11:45:17", "marker-color": "#7156FF"}}, {"type": "Feature", "geometry": {"type": "Point", "coordinates": [2.333655, 48.858219]}, "properties": {"etat de la localisation": "Mission inconnue", "numparc": 5702, "duree": "", "horodatage": "2022-10-06 11:45:26", "marker-color": "#FF9F56"}}, {"type": "Feature", "geometry": {"type": "Point", "coordinates": [2.356968, 48.829964]}, "properties": {"etat de la localisation": "Delocalise", "numparc": 5702, "duree": "00:05:08", "horodatage": "2022-10-06 12:23:27", "marker-color": "#FF565E"}}, {"type": "Feature", "geometry": {"type": "Point", "coordinates": [2.371347, 48.820564]}, "properties": {"etat de la localisation": "Mission suivante non connue", "numparc": 5702, "duree": "", "horodatage": "2022-10-06 12:36:26", "marker-color": "#7156FF"}}, {"type": "Feature", "geometry": {"type": "Point", "coordinates": [2.371019, 48.820778]}, "properties": {"etat de la localisation": "Hors service", "numparc": 5702, "duree": "", "horodatage": "2022-10-06 13:14:08", "marker-color": "#707070"}}, {"type": "Feature", "geometry": {"type": "Point", "coordinates": [2.355103, 48.832111]}, "properties": {"etat de la localisation": "Deviation programmee", "numparc": 5702, "duree": "", "horodatage": "2022-10-06 15:24:21", "marker-color": "#56FF93"}}, {"type": "Feature", "geometry": {"type": "Point", "coordinates": [2.355094, 48.832069]}, "properties": {"etat de la localisation": "Deviation programmee", "numparc": 5702, "duree": "", "horodatage": "2022-10-06 18:07:01", "marker-color": "#56FF93"}}, {"type": "Feature", "geometry": {"type": "Point", "coordinates": [2.371522, 48.814785]}, "properties": {"etat de la localisation": "Hors service", "numparc": 5702, "duree": "", "horodatage": "2022-10-06 18:31:51", "marker-color": "#707070"}}]}