{"type": "FeatureCollection", "features": [{"type": "Feature", "geometry": {"type": "Point", "coordinates": [2.443556, 48.861126]}, "properties": {"alarme": "VEHICULE DELOCALISE", "numparc": 4939, "type": "EXPLOITATION", "duree": "00:22:32", "horodatage": "2022-03-06 18:22:37", "statut": "start", "marker-color": "#ff0000"}}, {"type": "Feature", "geometry": {"type": "Point", "coordinates": [2.443406, 48.862404]}, "properties": {"alarme": "VEHICULE DELOCALISE", "numparc": 4939, "type": "EXPLOITATION", "duree": "00:22:32", "horodatage": "2022-03-06 18:45:09", "statut": "end", "marker-color": "#2fe184"}}]}