{"type": "FeatureCollection", "features": [{"type": "Feature", "geometry": {"type": "Point", "coordinates": [2.449509, 49.019924]}, "properties": {"etat de la localisation": "Mission inconnue", "numparc": 1632, "duree": "", "horodatage": "2023-03-17 09:28:44", "marker-color": "#FF9F56"}}, {"type": "Feature", "geometry": {"type": "Point", "coordinates": [2.449509, 49.019924]}, "properties": {"etat de la localisation": "Mission inconnue", "numparc": 1632, "duree": "", "horodatage": "2023-03-17 09:29:03", "marker-color": "#FF9F56"}}, {"type": "Feature", "geometry": {"type": "Point", "coordinates": [2.449509, 49.019924]}, "properties": {"etat de la localisation": "Mission inconnue", "numparc": 1632, "duree": "", "horodatage": "2023-03-17 09:29:16", "marker-color": "#FF9F56"}}, {"type": "Feature", "geometry": {"type": "Point", "coordinates": [2.449509, 49.019924]}, "properties": {"etat de la localisation": "Mission inconnue", "numparc": 1632, "duree": "", "horodatage": "2023-03-17 09:32:34", "marker-color": "#FF9F56"}}, {"type": "Feature", "geometry": {"type": "Point", "coordinates": [2.449509, 49.019924]}, "properties": {"etat de la localisation": "Hors service", "numparc": 1632, "duree": "", "horodatage": "2023-03-17 09:41:11", "marker-color": "#707070"}}, {"type": "Feature", "geometry": {"type": "Point", "coordinates": [2.449472, 49.019894]}, "properties": {"etat de la localisation": "Mission inconnue", "numparc": 1632, "duree": "", "horodatage": "2023-03-17 09:47:03", "marker-color": "#FF9F56"}}, {"type": "Feature", "geometry": {"type": "Point", "coordinates": [2.449472, 49.019894]}, "properties": {"etat de la localisation": "Hors service", "numparc": 1632, "duree": "", "horodatage": "2023-03-17 09:53:42", "marker-color": "#707070"}}, {"type": "Feature", "geometry": {"type": "Point", "coordinates": [2.449435, 49.01992]}, "properties": {"etat de la localisation": "Mission inconnue", "numparc": 1632, "duree": "", "horodatage": "2023-03-17 09:58:39", "marker-color": "#FF9F56"}}, {"type": "Feature", "geometry": {"type": "Point", "coordinates": [2.449433, 49.019913]}, "properties": {"etat de la localisation": "Hors service", "numparc": 1632, "duree": "", "horodatage": "2023-03-17 10:07:47", "marker-color": "#707070"}}, {"type": "Feature", "geometry": {"type": "Point", "coordinates": [2.449469, 49.019936]}, "properties": {"etat de la localisation": "Mission inconnue", "numparc": 1632, "duree": "", "horodatage": "2023-03-17 10:17:37", "marker-color": "#FF9F56"}}, {"type": "Feature", "geometry": {"type": "Point", "coordinates": [2.449429, 49.01989]}, "properties": {"etat de la localisation": "Mission inconnue", "numparc": 1632, "duree": "", "horodatage": "2023-03-17 10:20:01", "marker-color": "#FF9F56"}}]}