{"type": "FeatureCollection", "features": [{"type": "Feature", "geometry": {"type": "Point", "coordinates": [2.325879, 48.874588]}, "properties": {"alarme": "VEHICULE DELOCALISE", "numparc": 1366, "type": "EXPLOITATION", "duree": "00:00:59", "horodatage": "2022-02-09 11:33:55", "statut": "start", "marker-color": "#ff0000"}}, {"type": "Feature", "geometry": {"type": "Point", "coordinates": [2.316485, 48.886448]}, "properties": {"alarme": "VEHICULE DELOCALISE", "numparc": 1366, "type": "EXPLOITATION", "duree": "01:02:00", "horodatage": "2022-02-09 11:42:53", "statut": "start", "marker-color": "#ff0000"}}, {"type": "Feature", "geometry": {"type": "Point", "coordinates": [2.317071, 48.862957]}, "properties": {"alarme": "VEHICULE DELOCALISE", "numparc": 1366, "type": "EXPLOITATION", "duree": "00:24:35", "horodatage": "2022-02-09 13:29:37", "statut": "start", "marker-color": "#ff0000"}}, {"type": "Feature", "geometry": {"type": "Point", "coordinates": [2.321676, 48.866539]}, "properties": {"alarme": "VEHICULE DELOCALISE", "numparc": 1437, "type": "EXPLOITATION", "duree": "00:24:03", "horodatage": "2022-02-09 13:42:39", "statut": "start", "marker-color": "#ff0000"}}, {"type": "Feature", "geometry": {"type": "Point", "coordinates": [2.324948, 48.856861]}, "properties": {"alarme": "VEHICULE DELOCALISE", "numparc": 1366, "type": "EXPLOITATION", "duree": "00:28:01", "horodatage": "2022-02-09 14:10:29", "statut": "start", "marker-color": "#ff0000"}}, {"type": "Feature", "geometry": {"type": "Point", "coordinates": [2.324673, 48.874596]}, "properties": {"alarme": "VEHICULE DELOCALISE", "numparc": 1366, "type": "EXPLOITATION", "duree": "00:00:46", "horodatage": "2022-02-09 15:52:01", "statut": "start", "marker-color": "#ff0000"}}, {"type": "Feature", "geometry": {"type": "Point", "coordinates": [2.319935, 48.842022]}, "properties": {"alarme": "VEHICULE DELOCALISE", "numparc": 1471, "type": "EXPLOITATION", "duree": "00:00:14", "horodatage": "2022-02-09 18:24:18", "statut": "start", "marker-color": "#ff0000"}}, {"type": "Feature", "geometry": {"type": "Point", "coordinates": [2.282808, 48.89447]}, "properties": {"alarme": "VEHICULE DELOCALISE", "numparc": 1437, "type": "EXPLOITATION", "duree": "00:09:53", "horodatage": "2022-02-09 19:08:46", "statut": "start", "marker-color": "#ff0000"}}, {"type": "Feature", "geometry": {"type": "Point", "coordinates": [2.310632, 48.888065]}, "properties": {"alarme": "VEHICULE DELOCALISE", "numparc": 1437, "type": "EXPLOITATION", "duree": "00:03:22", "horodatage": "2022-02-09 22:01:21", "statut": "start", "marker-color": "#ff0000"}}, {"type": "Feature", "geometry": {"type": "Point", "coordinates": [2.300004, 48.891655]}, "properties": {"alarme": "VEHICULE DELOCALISE", "numparc": 1471, "type": "EXPLOITATION", "duree": "00:05:29", "horodatage": "2022-02-09 22:03:09", "statut": "start", "marker-color": "#ff0000"}}, {"type": "Feature", "geometry": {"type": "Point", "coordinates": [2.297433, 48.894096]}, "properties": {"alarme": "VEHICULE DELOCALISE", "numparc": 1471, "type": "EXPLOITATION", "duree": "00:01:19", "horodatage": "2022-02-09 22:43:14", "statut": "start", "marker-color": "#ff0000"}}, {"type": "Feature", "geometry": {"type": "Point", "coordinates": [2.324504, 48.875572]}, "properties": {"alarme": "VEHICULE DELOCALISE", "numparc": 1366, "type": "EXPLOITATION", "duree": "00:00:59", "horodatage": "2022-02-09 11:34:54", "statut": "end", "marker-color": "#2fe184"}}, {"type": "Feature", "geometry": {"type": "Point", "coordinates": [2.303601, 48.89016]}, "properties": {"alarme": "VEHICULE DELOCALISE", "numparc": 1366, "type": "EXPLOITATION", "duree": "01:02:00", "horodatage": "2022-02-09 12:44:53", "statut": "end", "marker-color": "#2fe184"}}, {"type": "Feature", "geometry": {"type": "Point", "coordinates": [2.320667, 48.841854]}, "properties": {"alarme": "VEHICULE DELOCALISE", "numparc": 1366, "type": "EXPLOITATION", "duree": "00:24:35", "horodatage": "2022-02-09 13:54:12", "statut": "end", "marker-color": "#2fe184"}}, {"type": "Feature", "geometry": {"type": "Point", "coordinates": [2.322785, 48.86763]}, "properties": {"alarme": "VEHICULE DELOCALISE", "numparc": 1437, "type": "EXPLOITATION", "duree": "00:24:03", "horodatage": "2022-02-09 14:06:42", "statut": "end", "marker-color": "#2fe184"}}, {"type": "Feature", "geometry": {"type": "Point", "coordinates": [2.31069, 48.888184]}, "properties": {"alarme": "VEHICULE DELOCALISE", "numparc": 1366, "type": "EXPLOITATION", "duree": "00:28:01", "horodatage": "2022-02-09 14:38:30", "statut": "end", "marker-color": "#2fe184"}}, {"type": "Feature", "geometry": {"type": "Point", "coordinates": [2.325541, 48.875221]}, "properties": {"alarme": "VEHICULE DELOCALISE", "numparc": 1366, "type": "EXPLOITATION", "duree": "00:00:46", "horodatage": "2022-02-09 15:52:47", "statut": "end", "marker-color": "#2fe184"}}, {"type": "Feature", "geometry": {"type": "Point", "coordinates": [2.319923, 48.842007]}, "properties": {"alarme": "VEHICULE DELOCALISE", "numparc": 1471, "type": "EXPLOITATION", "duree": "00:00:14", "horodatage": "2022-02-09 18:24:32", "statut": "end", "marker-color": "#2fe184"}}, {"type": "Feature", "geometry": {"type": "Point", "coordinates": [2.289912, 48.893814]}, "properties": {"alarme": "VEHICULE DELOCALISE", "numparc": 1437, "type": "EXPLOITATION", "duree": "00:09:53", "horodatage": "2022-02-09 19:18:39", "statut": "end", "marker-color": "#2fe184"}}, {"type": "Feature", "geometry": {"type": "Point", "coordinates": [2.319998, 48.882465]}, "properties": {"alarme": "VEHICULE DELOCALISE", "numparc": 1437, "type": "EXPLOITATION", "duree": "00:03:22", "horodatage": "2022-02-09 22:04:43", "statut": "end", "marker-color": "#2fe184"}}, {"type": "Feature", "geometry": {"type": "Point", "coordinates": [2.289521, 48.893253]}, "properties": {"alarme": "VEHICULE DELOCALISE", "numparc": 1471, "type": "EXPLOITATION", "duree": "00:05:29", "horodatage": "2022-02-09 22:08:38", "statut": "end", "marker-color": "#2fe184"}}, {"type": "Feature", "geometry": {"type": "Point", "coordinates": [2.299741, 48.893211]}, "properties": {"alarme": "VEHICULE DELOCALISE", "numparc": 1471, "type": "EXPLOITATION", "duree": "00:01:19", "horodatage": "2022-02-09 22:44:33", "statut": "end", "marker-color": "#2fe184"}}]}