{"type": "FeatureCollection", "features": [{"type": "Feature", "geometry": {"type": "Point", "coordinates": [2.427186, 48.878757]}, "properties": {"etat de la localisation": "Mission inconnue", "numparc": 4949, "duree": "", "horodatage": "2021-12-13 06:37:17", "marker-color": "#FF9F56"}}, {"type": "Feature", "geometry": {"type": "Point", "coordinates": [2.427937, 48.872307]}, "properties": {"etat de la localisation": "Deviation programmee", "numparc": 4949, "duree": "", "horodatage": "2021-12-13 07:00:33", "marker-color": "#56FF93"}}, {"type": "Feature", "geometry": {"type": "Point", "coordinates": [2.416951, 48.864525]}, "properties": {"etat de la localisation": "Deviation programmee", "numparc": 4949, "duree": "", "horodatage": "2021-12-13 07:11:20", "marker-color": "#56FF93"}}, {"type": "Feature", "geometry": {"type": "Point", "coordinates": [2.412277, 48.864563]}, "properties": {"etat de la localisation": "Deviation programmee", "numparc": 4949, "duree": "", "horodatage": "2021-12-13 08:28:49", "marker-color": "#56FF93"}}, {"type": "Feature", "geometry": {"type": "Point", "coordinates": [2.416753, 48.864418]}, "properties": {"etat de la localisation": "Hors service", "numparc": 4949, "duree": "", "horodatage": "2021-12-13 08:31:20", "marker-color": "#707070"}}, {"type": "Feature", "geometry": {"type": "Point", "coordinates": [2.416767, 48.863514]}, "properties": {"etat de la localisation": "Delocalise", "numparc": 4949, "duree": "00:00:34", "horodatage": "2021-12-13 08:33:06", "marker-color": "#FF565E"}}, {"type": "Feature", "geometry": {"type": "Point", "coordinates": [2.427952, 48.872257]}, "properties": {"etat de la localisation": "Deviation programmee", "numparc": 4949, "duree": "", "horodatage": "2021-12-13 09:03:08", "marker-color": "#56FF93"}}, {"type": "Feature", "geometry": {"type": "Point", "coordinates": [2.416954, 48.864536]}, "properties": {"etat de la localisation": "Deviation programmee", "numparc": 4949, "duree": "", "horodatage": "2021-12-13 09:21:12", "marker-color": "#56FF93"}}, {"type": "Feature", "geometry": {"type": "Point", "coordinates": [2.412329, 48.864616]}, "properties": {"etat de la localisation": "Deviation programmee", "numparc": 4949, "duree": "", "horodatage": "2021-12-13 10:56:54", "marker-color": "#56FF93"}}, {"type": "Feature", "geometry": {"type": "Point", "coordinates": [2.416745, 48.864452]}, "properties": {"etat de la localisation": "Hors service", "numparc": 4949, "duree": "", "horodatage": "2021-12-13 10:58:53", "marker-color": "#707070"}}, {"type": "Feature", "geometry": {"type": "Point", "coordinates": [2.416902, 48.863831]}, "properties": {"etat de la localisation": "Delocalise", "numparc": 4949, "duree": "00:00:36", "horodatage": "2021-12-13 11:00:44", "marker-color": "#FF565E"}}, {"type": "Feature", "geometry": {"type": "Point", "coordinates": [2.427945, 48.872303]}, "properties": {"etat de la localisation": "Deviation programmee", "numparc": 4949, "duree": "", "horodatage": "2021-12-13 11:40:35", "marker-color": "#56FF93"}}, {"type": "Feature", "geometry": {"type": "Point", "coordinates": [2.416981, 48.864536]}, "properties": {"etat de la localisation": "Deviation programmee", "numparc": 4949, "duree": "", "horodatage": "2021-12-13 11:54:30", "marker-color": "#56FF93"}}, {"type": "Feature", "geometry": {"type": "Point", "coordinates": [2.412323, 48.864647]}, "properties": {"etat de la localisation": "Deviation programmee", "numparc": 4949, "duree": "", "horodatage": "2021-12-13 13:29:54", "marker-color": "#56FF93"}}, {"type": "Feature", "geometry": {"type": "Point", "coordinates": [2.416771, 48.864445]}, "properties": {"etat de la localisation": "Hors service", "numparc": 4949, "duree": "", "horodatage": "2021-12-13 13:31:31", "marker-color": "#707070"}}, {"type": "Feature", "geometry": {"type": "Point", "coordinates": [2.417012, 48.863979]}, "properties": {"etat de la localisation": "Delocalise", "numparc": 4949, "duree": "00:00:32", "horodatage": "2021-12-13 13:33:49", "marker-color": "#FF565E"}}, {"type": "Feature", "geometry": {"type": "Point", "coordinates": [2.431876, 48.875763]}, "properties": {"etat de la localisation": "Mission suivante non connue", "numparc": 4949, "duree": "", "horodatage": "2021-12-13 13:48:49", "marker-color": "#7156FF"}}, {"type": "Feature", "geometry": {"type": "Point", "coordinates": [2.431307, 48.875046]}, "properties": {"etat de la localisation": "Mission suivante non connue", "numparc": 4949, "duree": "", "horodatage": "2021-12-13 13:50:14", "marker-color": "#7156FF"}}, {"type": "Feature", "geometry": {"type": "Point", "coordinates": [2.43108, 48.874786]}, "properties": {"etat de la localisation": "Mission inconnue", "numparc": 4949, "duree": "", "horodatage": "2021-12-13 13:50:23", "marker-color": "#FF9F56"}}, {"type": "Feature", "geometry": {"type": "Point", "coordinates": [2.427631, 48.878918]}, "properties": {"etat de la localisation": "Mission inconnue", "numparc": 4949, "duree": "", "horodatage": "2021-12-13 13:55:21", "marker-color": "#FF9F56"}}, {"type": "Feature", "geometry": {"type": "Point", "coordinates": [2.427523, 48.878319]}, "properties": {"etat de la localisation": "Hors service", "numparc": 4949, "duree": "", "horodatage": "2021-12-13 14:00:49", "marker-color": "#707070"}}, {"type": "Feature", "geometry": {"type": "Point", "coordinates": [2.416858, 48.864548]}, "properties": {"etat de la localisation": "Deviation programmee", "numparc": 4949, "duree": "", "horodatage": "2021-12-13 17:16:24", "marker-color": "#56FF93"}}, {"type": "Feature", "geometry": {"type": "Point", "coordinates": [2.412311, 48.86462]}, "properties": {"etat de la localisation": "Deviation programmee", "numparc": 4949, "duree": "", "horodatage": "2021-12-13 18:56:18", "marker-color": "#56FF93"}}, {"type": "Feature", "geometry": {"type": "Point", "coordinates": [2.416738, 48.864433]}, "properties": {"etat de la localisation": "Hors service", "numparc": 4949, "duree": "", "horodatage": "2021-12-13 18:57:35", "marker-color": "#707070"}}, {"type": "Feature", "geometry": {"type": "Point", "coordinates": [2.416738, 48.863499]}, "properties": {"etat de la localisation": "Delocalise", "numparc": 4949, "duree": "00:00:31", "horodatage": "2021-12-13 18:59:21", "marker-color": "#FF565E"}}, {"type": "Feature", "geometry": {"type": "Point", "coordinates": [2.427926, 48.872303]}, "properties": {"etat de la localisation": "Deviation programmee", "numparc": 4949, "duree": "", "horodatage": "2021-12-13 19:51:23", "marker-color": "#56FF93"}}, {"type": "Feature", "geometry": {"type": "Point", "coordinates": [2.416942, 48.864513]}, "properties": {"etat de la localisation": "Deviation programmee", "numparc": 4949, "duree": "", "horodatage": "2021-12-13 20:03:46", "marker-color": "#56FF93"}}, {"type": "Feature", "geometry": {"type": "Point", "coordinates": [2.412345, 48.864616]}, "properties": {"etat de la localisation": "Deviation programmee", "numparc": 4949, "duree": "", "horodatage": "2021-12-13 21:15:07", "marker-color": "#56FF93"}}, {"type": "Feature", "geometry": {"type": "Point", "coordinates": [2.416722, 48.864483]}, "properties": {"etat de la localisation": "Hors service", "numparc": 4949, "duree": "", "horodatage": "2021-12-13 21:16:22", "marker-color": "#707070"}}, {"type": "Feature", "geometry": {"type": "Point", "coordinates": [2.416812, 48.863796]}, "properties": {"etat de la localisation": "Delocalise", "numparc": 4949, "duree": "00:03:53", "horodatage": "2021-12-13 21:18:11", "marker-color": "#FF565E"}}, {"type": "Feature", "geometry": {"type": "Point", "coordinates": [2.427904, 48.872318]}, "properties": {"etat de la localisation": "Deviation programmee", "numparc": 4949, "duree": "", "horodatage": "2021-12-13 21:56:54", "marker-color": "#56FF93"}}, {"type": "Feature", "geometry": {"type": "Point", "coordinates": [2.416906, 48.864532]}, "properties": {"etat de la localisation": "Deviation programmee", "numparc": 4949, "duree": "", "horodatage": "2021-12-13 22:05:14", "marker-color": "#56FF93"}}, {"type": "Feature", "geometry": {"type": "Point", "coordinates": [2.412306, 48.864578]}, "properties": {"etat de la localisation": "Deviation programmee", "numparc": 4949, "duree": "", "horodatage": "2021-12-13 23:02:35", "marker-color": "#56FF93"}}, {"type": "Feature", "geometry": {"type": "Point", "coordinates": [2.416788, 48.864426]}, "properties": {"etat de la localisation": "Hors service", "numparc": 4949, "duree": "", "horodatage": "2021-12-13 23:03:31", "marker-color": "#707070"}}, {"type": "Feature", "geometry": {"type": "Point", "coordinates": [2.41691, 48.863701]}, "properties": {"etat de la localisation": "Delocalise", "numparc": 4949, "duree": "00:01:21", "horodatage": "2021-12-13 23:04:27", "marker-color": "#FF565E"}}, {"type": "Feature", "geometry": {"type": "Point", "coordinates": [2.427264, 48.87883]}, "properties": {"etat de la localisation": "Hors service", "numparc": 4949, "duree": "", "horodatage": "2021-12-13 23:21:03", "marker-color": "#707070"}}]}