{"type": "FeatureCollection", "features": [{"type": "Feature", "geometry": {"type": "Point", "coordinates": [2.658885, 48.842346]}, "properties": {"etat de la localisation": "Mission inconnue", "numparc": 5899, "duree": "", "horodatage": "2022-12-21 04:59:57", "marker-color": "#FF9F56"}}, {"type": "Feature", "geometry": {"type": "Point", "coordinates": [2.660492, 48.842327]}, "properties": {"etat de la localisation": "Delocalise", "numparc": 5904, "duree": "00:01:47", "horodatage": "2022-12-21 05:04:49", "marker-color": "#FF565E"}}, {"type": "Feature", "geometry": {"type": "Point", "coordinates": [2.658885, 48.842346]}, "properties": {"etat de la localisation": "Hors service", "numparc": 5899, "duree": "", "horodatage": "2022-12-21 05:15:02", "marker-color": "#707070"}}, {"type": "Feature", "geometry": {"type": "Point", "coordinates": [2.658803, 48.842815]}, "properties": {"etat de la localisation": "Mission inconnue", "numparc": 5894, "duree": "", "horodatage": "2022-12-21 05:28:21", "marker-color": "#FF9F56"}}, {"type": "Feature", "geometry": {"type": "Point", "coordinates": [2.660535, 48.842422]}, "properties": {"etat de la localisation": "Delocalise", "numparc": 5874, "duree": "00:06:23", "horodatage": "2022-12-21 05:54:18", "marker-color": "#FF565E"}}, {"type": "Feature", "geometry": {"type": "Point", "coordinates": [2.658832, 48.842388]}, "properties": {"etat de la localisation": "Delocalise", "numparc": 5865, "duree": "00:04:19", "horodatage": "2022-12-21 06:12:36", "marker-color": "#FF565E"}}, {"type": "Feature", "geometry": {"type": "Point", "coordinates": [2.658803, 48.842495]}, "properties": {"etat de la localisation": "Delocalise", "numparc": 5896, "duree": "00:01:39", "horodatage": "2022-12-21 06:33:54", "marker-color": "#FF565E"}}, {"type": "Feature", "geometry": {"type": "Point", "coordinates": [2.658856, 48.842491]}, "properties": {"etat de la localisation": "Delocalise", "numparc": 5892, "duree": "00:00:45", "horodatage": "2022-12-21 06:47:25", "marker-color": "#FF565E"}}, {"type": "Feature", "geometry": {"type": "Point", "coordinates": [2.659877, 48.842144]}, "properties": {"etat de la localisation": "Delocalise", "numparc": 5900, "duree": "00:06:21", "horodatage": "2022-12-21 06:52:49", "marker-color": "#FF565E"}}, {"type": "Feature", "geometry": {"type": "Point", "coordinates": [2.582323, 48.843601]}, "properties": {"etat de la localisation": "Mission suivante non connue", "numparc": 5893, "duree": "", "horodatage": "2022-12-21 07:06:14", "marker-color": "#7156FF"}}, {"type": "Feature", "geometry": {"type": "Point", "coordinates": [2.658837, 48.842304]}, "properties": {"etat de la localisation": "Hors service", "numparc": 5892, "duree": "", "horodatage": "2022-12-21 09:15:16", "marker-color": "#707070"}}, {"type": "Feature", "geometry": {"type": "Point", "coordinates": [2.659323, 48.842178]}, "properties": {"etat de la localisation": "Mission inconnue", "numparc": 5892, "duree": "", "horodatage": "2022-12-21 09:52:05", "marker-color": "#FF9F56"}}, {"type": "Feature", "geometry": {"type": "Point", "coordinates": [2.659338, 48.842056]}, "properties": {"etat de la localisation": "Hors service", "numparc": 5892, "duree": "", "horodatage": "2022-12-21 09:53:47", "marker-color": "#707070"}}, {"type": "Feature", "geometry": {"type": "Point", "coordinates": [2.660666, 48.842281]}, "properties": {"etat de la localisation": "Hors service", "numparc": 5904, "duree": "", "horodatage": "2022-12-21 11:24:26", "marker-color": "#707070"}}, {"type": "Feature", "geometry": {"type": "Point", "coordinates": [2.658751, 48.842789]}, "properties": {"etat de la localisation": "Hors service", "numparc": 5894, "duree": "", "horodatage": "2022-12-21 12:03:30", "marker-color": "#707070"}}, {"type": "Feature", "geometry": {"type": "Point", "coordinates": [2.62788, 48.838783]}, "properties": {"etat de la localisation": "Mission suivante non connue", "numparc": 5900, "duree": "", "horodatage": "2022-12-21 12:40:46", "marker-color": "#7156FF"}}, {"type": "Feature", "geometry": {"type": "Point", "coordinates": [2.582873, 48.843658]}, "properties": {"etat de la localisation": "Hors service", "numparc": 5900, "duree": "", "horodatage": "2022-12-21 13:22:58", "marker-color": "#707070"}}, {"type": "Feature", "geometry": {"type": "Point", "coordinates": [2.627739, 48.838795]}, "properties": {"etat de la localisation": "Mission suivante non connue", "numparc": 5899, "duree": "", "horodatage": "2022-12-21 13:33:38", "marker-color": "#7156FF"}}, {"type": "Feature", "geometry": {"type": "Point", "coordinates": [2.660764, 48.841995]}, "properties": {"etat de la localisation": "Hors service", "numparc": 5900, "duree": "", "horodatage": "2022-12-21 13:45:50", "marker-color": "#707070"}}, {"type": "Feature", "geometry": {"type": "Point", "coordinates": [2.583287, 48.874393]}, "properties": {"etat de la localisation": "Mission suivante non connue", "numparc": 5899, "duree": "", "horodatage": "2022-12-21 14:18:48", "marker-color": "#7156FF"}}, {"type": "Feature", "geometry": {"type": "Point", "coordinates": [2.627743, 48.83876]}, "properties": {"etat de la localisation": "Mission suivante non connue", "numparc": 5899, "duree": "", "horodatage": "2022-12-21 15:21:46", "marker-color": "#7156FF"}}, {"type": "Feature", "geometry": {"type": "Point", "coordinates": [2.582208, 48.843521]}, "properties": {"etat de la localisation": "Hors service", "numparc": 5874, "duree": "", "horodatage": "2022-12-21 15:59:27", "marker-color": "#707070"}}, {"type": "Feature", "geometry": {"type": "Point", "coordinates": [2.655631, 48.842899]}, "properties": {"etat de la localisation": "Mission inconnue", "numparc": 5892, "duree": "", "horodatage": "2022-12-21 16:51:51", "marker-color": "#FF9F56"}}, {"type": "Feature", "geometry": {"type": "Point", "coordinates": [2.582878, 48.843643]}, "properties": {"etat de la localisation": "Mission suivante non connue", "numparc": 5892, "duree": "", "horodatage": "2022-12-21 17:02:05", "marker-color": "#7156FF"}}, {"type": "Feature", "geometry": {"type": "Point", "coordinates": [2.627801, 48.83876]}, "properties": {"etat de la localisation": "Mission suivante non connue", "numparc": 5899, "duree": "", "horodatage": "2022-12-21 17:07:08", "marker-color": "#7156FF"}}, {"type": "Feature", "geometry": {"type": "Point", "coordinates": [2.627891, 48.838753]}, "properties": {"etat de la localisation": "Mission suivante non connue", "numparc": 5893, "duree": "", "horodatage": "2022-12-21 17:20:27", "marker-color": "#7156FF"}}, {"type": "Feature", "geometry": {"type": "Point", "coordinates": [2.658829, 48.842625]}, "properties": {"etat de la localisation": "Hors service", "numparc": 5892, "duree": "", "horodatage": "2022-12-21 17:35:49", "marker-color": "#707070"}}, {"type": "Feature", "geometry": {"type": "Point", "coordinates": [2.582685, 48.842728]}, "properties": {"etat de la localisation": "Mission suivante non connue", "numparc": 5893, "duree": "", "horodatage": "2022-12-21 17:55:03", "marker-color": "#7156FF"}}, {"type": "Feature", "geometry": {"type": "Point", "coordinates": [2.658794, 48.842518]}, "properties": {"etat de la localisation": "Hors service", "numparc": 5896, "duree": "", "horodatage": "2022-12-21 18:45:29", "marker-color": "#707070"}}, {"type": "Feature", "geometry": {"type": "Point", "coordinates": [2.660763, 48.842022]}, "properties": {"etat de la localisation": "Hors service", "numparc": 5899, "duree": "", "horodatage": "2022-12-21 18:51:26", "marker-color": "#707070"}}, {"type": "Feature", "geometry": {"type": "Point", "coordinates": [2.658829, 48.842274]}, "properties": {"etat de la localisation": "Hors service", "numparc": 5874, "duree": "", "horodatage": "2022-12-21 19:22:43", "marker-color": "#707070"}}, {"type": "Feature", "geometry": {"type": "Point", "coordinates": [2.660267, 48.842312]}, "properties": {"etat de la localisation": "Hors service", "numparc": 5893, "duree": "", "horodatage": "2022-12-21 19:36:05", "marker-color": "#707070"}}, {"type": "Feature", "geometry": {"type": "Point", "coordinates": [2.627811, 48.838696]}, "properties": {"etat de la localisation": "Mission suivante non connue", "numparc": 5865, "duree": "", "horodatage": "2022-12-21 20:22:36", "marker-color": "#7156FF"}}, {"type": "Feature", "geometry": {"type": "Point", "coordinates": [2.628001, 48.838833]}, "properties": {"etat de la localisation": "Mission suivante non connue", "numparc": 5865, "duree": "", "horodatage": "2022-12-21 20:23:25", "marker-color": "#7156FF"}}, {"type": "Feature", "geometry": {"type": "Point", "coordinates": [2.628001, 48.838833]}, "properties": {"etat de la localisation": "Mission inconnue", "numparc": 5865, "duree": "", "horodatage": "2022-12-21 20:23:29", "marker-color": "#FF9F56"}}, {"type": "Feature", "geometry": {"type": "Point", "coordinates": [2.583222, 48.874393]}, "properties": {"etat de la localisation": "Mission suivante non connue", "numparc": 5865, "duree": "", "horodatage": "2022-12-21 20:59:22", "marker-color": "#7156FF"}}, {"type": "Feature", "geometry": {"type": "Point", "coordinates": [2.660373, 48.842342]}, "properties": {"etat de la localisation": "Hors service", "numparc": 5898, "duree": "", "horodatage": "2022-12-21 22:12:54", "marker-color": "#707070"}}, {"type": "Feature", "geometry": {"type": "Point", "coordinates": [2.659417, 48.842968]}, "properties": {"etat de la localisation": "Hors service", "numparc": 5887, "duree": "", "horodatage": "2022-12-21 22:24:53", "marker-color": "#707070"}}, {"type": "Feature", "geometry": {"type": "Point", "coordinates": [2.659428, 48.842804]}, "properties": {"etat de la localisation": "Hors service", "numparc": 5865, "duree": "", "horodatage": "2022-12-21 22:53:54", "marker-color": "#707070"}}, {"type": "Feature", "geometry": {"type": "Point", "coordinates": [2.658976, 48.842052]}, "properties": {"etat de la localisation": "Mission inconnue", "numparc": 5865, "duree": "", "horodatage": "2022-12-21 23:16:15", "marker-color": "#FF9F56"}}, {"type": "Feature", "geometry": {"type": "Point", "coordinates": [2.660061, 48.842453]}, "properties": {"etat de la localisation": "Hors service", "numparc": 5865, "duree": "", "horodatage": "2022-12-21 23:19:54", "marker-color": "#707070"}}, {"type": "Feature", "geometry": {"type": "Point", "coordinates": [2.660489, 48.842197]}, "properties": {"etat de la localisation": "Mission inconnue", "numparc": 5898, "duree": "", "horodatage": "2022-12-22 00:00:04", "marker-color": "#FF9F56"}}, {"type": "Feature", "geometry": {"type": "Point", "coordinates": [2.660489, 48.842197]}, "properties": {"etat de la localisation": "Hors service", "numparc": 5898, "duree": "", "horodatage": "2022-12-22 00:15:09", "marker-color": "#707070"}}]}