{"type": "FeatureCollection", "features": [{"type": "Feature", "geometry": {"type": "Point", "coordinates": [2.44013, 48.882946]}, "properties": {"numparc": 4946, "etat de la localisation": "autre", "ID BDGEO": "566", "horodatage": "2022-02-11 16:14:46", "distance (en metres)": 59.53, "station": "CARNOT", "marker-color": "#818181"}}, {"type": "Feature", "geometry": {"type": "Point", "coordinates": [2.449105, 48.90696]}, "properties": {"numparc": 4946, "etat de la localisation": "autre", "ID BDGEO": "112", "horodatage": "2022-02-11 16:31:08", "distance (en metres)": 41.36, "station": "BOBIGNY PABLO PICASSO", "marker-color": "#818181"}}, {"type": "Feature", "geometry": {"type": "Point", "coordinates": [2.440947, 48.882271]}, "properties": {"numparc": 4946, "etat de la localisation": "autre", "ID BDGEO": "412", "horodatage": "2022-02-11 17:05:26", "distance (en metres)": 106.29, "station": "CARNOT", "marker-color": "#818181"}}, {"type": "Feature", "geometry": {"type": "Point", "coordinates": [2.440368, 48.874264]}, "properties": {"numparc": 4946, "etat de la localisation": "autre", "ID BDGEO": "122", "horodatage": "2022-02-11 17:11:40", "distance (en metres)": 257.34, "station": "ALEXANDRE DUMAS", "marker-color": "#818181"}}, {"type": "Feature", "geometry": {"type": "Point", "coordinates": [2.441628, 48.863007]}, "properties": {"numparc": 4946, "etat de la localisation": "autre", "ID BDGEO": "404", "horodatage": "2022-02-11 17:19:11", "distance (en metres)": 163.32, "station": "MAIRIE DE MONTREUIL", "marker-color": "#818181"}}, {"type": "Feature", "geometry": {"type": "Point", "coordinates": [2.442484, 48.862503]}, "properties": {"numparc": 4946, "etat de la localisation": "autre", "ID BDGEO": "404", "horodatage": "2022-02-11 17:30:53", "distance (en metres)": 88.73, "station": "MAIRIE DE MONTREUIL", "marker-color": "#818181"}}, {"type": "Feature", "geometry": {"type": "Point", "coordinates": [2.442484, 48.862503]}, "properties": {"numparc": 4946, "etat de la localisation": "autre", "ID BDGEO": "404", "horodatage": "2022-02-11 17:34:02", "distance (en metres)": 88.73, "station": "MAIRIE DE MONTREUIL", "marker-color": "#818181"}}, {"type": "Feature", "geometry": {"type": "Point", "coordinates": [2.443045, 48.862484]}, "properties": {"numparc": 4946, "etat de la localisation": "autre", "ID BDGEO": "404", "horodatage": "2022-02-11 17:34:45", "distance (en metres)": 47.64, "station": "MAIRIE DE MONTREUIL", "marker-color": "#818181"}}, {"type": "Feature", "geometry": {"type": "Point", "coordinates": [2.443941, 48.862774]}, "properties": {"numparc": 4946, "etat de la localisation": "autre", "ID BDGEO": "404", "horodatage": "2022-02-11 17:35:37", "distance (en metres)": 40.29, "station": "MAIRIE DE MONTREUIL", "marker-color": "#818181"}}, {"type": "Feature", "geometry": {"type": "Point", "coordinates": [2.440141, 48.882965]}, "properties": {"numparc": 4946, "etat de la localisation": "autre", "ID BDGEO": "566", "horodatage": "2022-02-11 18:01:08", "distance (en metres)": 57.28, "station": "CARNOT", "marker-color": "#818181"}}, {"type": "Feature", "geometry": {"type": "Point", "coordinates": [2.44019, 48.883045]}, "properties": {"numparc": 4946, "etat de la localisation": "autre", "ID BDGEO": "566", "horodatage": "2022-02-11 18:01:57", "distance (en metres)": 47.7, "station": "CARNOT", "marker-color": "#818181"}}, {"type": "Feature", "geometry": {"type": "Point", "coordinates": [2.44048, 48.883429]}, "properties": {"station": "CARNOT", "ID BDGEO": "566", "marker-color": "#56B3FF"}}, {"type": "Feature", "geometry": {"type": "Point", "coordinates": [2.449022, 48.907327]}, "properties": {"station": "BOBIGNY PABLO PICASSO", "ID BDGEO": "112", "marker-color": "#56B3FF"}}, {"type": "Feature", "geometry": {"type": "Point", "coordinates": [2.440807, 48.883222]}, "properties": {"station": "CARNOT", "ID BDGEO": "412", "marker-color": "#56B3FF"}}, {"type": "Feature", "geometry": {"type": "Point", "coordinates": [2.441039, 48.876536]}, "properties": {"station": "ALEXANDRE DUMAS", "ID BDGEO": "122", "marker-color": "#56B3FF"}}, {"type": "Feature", "geometry": {"type": "Point", "coordinates": [2.443694, 48.86245]}, "properties": {"station": "MAIRIE DE MONTREUIL", "ID BDGEO": "404", "marker-color": "#56B3FF"}}]}