{"type": "FeatureCollection", "features": [{"type": "Feature", "geometry": {"type": "Point", "coordinates": [2.441306, 48.861622]}, "properties": {"numparc": 4942, "etat de la localisation": "autre", "ID BDGEO": "72", "horodatage": "2023-01-29 21:02:22", "distance (en metres)": 5643.39, "station": "CHATEAU DE VILLEMOMBLE", "marker-color": "#818181"}}, {"type": "Feature", "geometry": {"type": "Point", "coordinates": [2.441306, 48.861622]}, "properties": {"numparc": 4942, "etat de la localisation": "autre", "ID BDGEO": "72", "horodatage": "2023-01-29 21:11:50", "distance (en metres)": 5643.39, "station": "CHATEAU DE VILLEMOMBLE", "marker-color": "#818181"}}, {"type": "Feature", "geometry": {"type": "Point", "coordinates": [2.441323, 48.861679]}, "properties": {"numparc": 4942, "etat de la localisation": "autre", "ID BDGEO": "72", "horodatage": "2023-01-29 21:14:46", "distance (en metres)": 5639.46, "station": "CHATEAU DE VILLEMOMBLE", "marker-color": "#818181"}}, {"type": "Feature", "geometry": {"type": "Point", "coordinates": [2.450161, 48.863628]}, "properties": {"numparc": 4942, "etat de la localisation": "autre", "ID BDGEO": "72", "horodatage": "2023-01-29 21:18:34", "distance (en metres)": 4964.63, "station": "CHATEAU DE VILLEMOMBLE", "marker-color": "#818181"}}, {"type": "Feature", "geometry": {"type": "Point", "coordinates": [2.45388, 48.865189]}, "properties": {"numparc": 4942, "etat de la localisation": "autre", "ID BDGEO": "72", "horodatage": "2023-01-29 21:20:36", "distance (en metres)": 4643.39, "station": "CHATEAU DE VILLEMOMBLE", "marker-color": "#818181"}}, {"type": "Feature", "geometry": {"type": "Point", "coordinates": [2.458314, 48.867741]}, "properties": {"numparc": 4942, "etat de la localisation": "autre", "ID BDGEO": "72", "horodatage": "2023-01-29 21:23:08", "distance (en metres)": 4227.01, "station": "CHATEAU DE VILLEMOMBLE", "marker-color": "#818181"}}, {"type": "Feature", "geometry": {"type": "Point", "coordinates": [2.461807, 48.868912]}, "properties": {"numparc": 4942, "etat de la localisation": "autre", "ID BDGEO": "72", "horodatage": "2023-01-29 21:24:49", "distance (en metres)": 3940.35, "station": "CHATEAU DE VILLEMOMBLE", "marker-color": "#818181"}}, {"type": "Feature", "geometry": {"type": "Point", "coordinates": [2.465425, 48.869957]}, "properties": {"numparc": 4942, "etat de la localisation": "autre", "ID BDGEO": "72", "horodatage": "2023-01-29 21:25:55", "distance (en metres)": 3651.46, "station": "CHATEAU DE VILLEMOMBLE", "marker-color": "#818181"}}, {"type": "Feature", "geometry": {"type": "Point", "coordinates": [2.470104, 48.871025]}, "properties": {"numparc": 4942, "etat de la localisation": "autre", "ID BDGEO": "72", "horodatage": "2023-01-29 21:27:08", "distance (en metres)": 3291.72, "station": "CHATEAU DE VILLEMOMBLE", "marker-color": "#818181"}}, {"type": "Feature", "geometry": {"type": "Point", "coordinates": [2.478415, 48.87281]}, "properties": {"numparc": 4942, "etat de la localisation": "autre", "ID BDGEO": "72", "horodatage": "2023-01-29 21:29:10", "distance (en metres)": 2660.26, "station": "CHATEAU DE VILLEMOMBLE", "marker-color": "#818181"}}, {"type": "Feature", "geometry": {"type": "Point", "coordinates": [2.48391, 48.874889]}, "properties": {"numparc": 4942, "etat de la localisation": "autre", "ID BDGEO": "72", "horodatage": "2023-01-29 21:31:28", "distance (en metres)": 2196.89, "station": "CHATEAU DE VILLEMOMBLE", "marker-color": "#818181"}}, {"type": "Feature", "geometry": {"type": "Point", "coordinates": [2.48535, 48.878231]}, "properties": {"numparc": 4942, "etat de la localisation": "autre", "ID BDGEO": "72", "horodatage": "2023-01-29 21:33:30", "distance (en metres)": 1950.55, "station": "CHATEAU DE VILLEMOMBLE", "marker-color": "#818181"}}, {"type": "Feature", "geometry": {"type": "Point", "coordinates": [2.481847, 48.882614]}, "properties": {"numparc": 4942, "etat de la localisation": "autre", "ID BDGEO": "81", "horodatage": "2023-01-29 21:34:51", "distance (en metres)": 2094.81, "station": "CHATEAU DE VILLEMOMBLE", "marker-color": "#818181"}}, {"type": "Feature", "geometry": {"type": "Point", "coordinates": [2.481723, 48.882576]}, "properties": {"numparc": 4942, "etat de la localisation": "autre", "ID BDGEO": "81", "horodatage": "2023-01-29 21:36:14", "distance (en metres)": 2104.19, "station": "CHATEAU DE VILLEMOMBLE", "marker-color": "#818181"}}, {"type": "Feature", "geometry": {"type": "Point", "coordinates": [2.482099, 48.874023]}, "properties": {"numparc": 4942, "etat de la localisation": "autre", "ID BDGEO": "81", "horodatage": "2023-01-29 21:41:24", "distance (en metres)": 2354.77, "station": "CHATEAU DE VILLEMOMBLE", "marker-color": "#818181"}}, {"type": "Feature", "geometry": {"type": "Point", "coordinates": [2.47767, 48.872814]}, "properties": {"numparc": 4942, "etat de la localisation": "autre", "ID BDGEO": "81", "horodatage": "2023-01-29 21:43:25", "distance (en metres)": 2703.86, "station": "CHATEAU DE VILLEMOMBLE", "marker-color": "#818181"}}, {"type": "Feature", "geometry": {"type": "Point", "coordinates": [2.470047, 48.871094]}, "properties": {"numparc": 4942, "etat de la localisation": "autre", "ID BDGEO": "391", "horodatage": "2023-01-29 21:44:49", "distance (en metres)": 2381.77, "station": "MAIRIE DE MONTREUIL-METRO.", "marker-color": "#818181"}}, {"type": "Feature", "geometry": {"type": "Point", "coordinates": [2.456704, 48.867207]}, "properties": {"numparc": 4942, "etat de la localisation": "autre", "ID BDGEO": "391", "horodatage": "2023-01-29 21:47:41", "distance (en metres)": 1318.28, "station": "MAIRIE DE MONTREUIL-METRO.", "marker-color": "#818181"}}, {"type": "Feature", "geometry": {"type": "Point", "coordinates": [2.452728, 48.864548]}, "properties": {"numparc": 4942, "etat de la localisation": "autre", "ID BDGEO": "391", "horodatage": "2023-01-29 21:50:14", "distance (en metres)": 923.96, "station": "MAIRIE DE MONTREUIL-METRO.", "marker-color": "#818181"}}, {"type": "Feature", "geometry": {"type": "Point", "coordinates": [2.449067, 48.863323]}, "properties": {"numparc": 4942, "etat de la localisation": "autre", "ID BDGEO": "391", "horodatage": "2023-01-29 21:51:07", "distance (en metres)": 624.21, "station": "MAIRIE DE MONTREUIL-METRO.", "marker-color": "#818181"}}, {"type": "Feature", "geometry": {"type": "Point", "coordinates": [2.444, 48.860832]}, "properties": {"numparc": 4942, "etat de la localisation": "autre", "ID BDGEO": "391", "horodatage": "2023-01-29 21:52:31", "distance (en metres)": 210.78, "station": "MAIRIE DE MONTREUIL-METRO.", "marker-color": "#818181"}}, {"type": "Feature", "geometry": {"type": "Point", "coordinates": [2.510485, 48.884103]}, "properties": {"station": "CHATEAU DE VILLEMOMBLE", "ID BDGEO": "72", "marker-color": "#56B3FF"}}, {"type": "Feature", "geometry": {"type": "Point", "coordinates": [2.510404, 48.884121]}, "properties": {"station": "CHATEAU DE VILLEMOMBLE", "ID BDGEO": "81", "marker-color": "#56B3FF"}}, {"type": "Feature", "geometry": {"type": "Point", "coordinates": [2.441172, 48.861194]}, "properties": {"station": "MAIRIE DE MONTREUIL-METRO.", "ID BDGEO": "391", "marker-color": "#56B3FF"}}]}