{"type": "FeatureCollection", "features": [{"type": "Feature", "geometry": {"type": "Point", "coordinates": [2.428167, 48.878643]}, "properties": {"etat de la localisation": "Delocalise", "numparc": 4939, "duree": "00:17:28", "horodatage": "2022-05-05 06:25:02", "marker-color": "#FF565E"}}, {"type": "Feature", "geometry": {"type": "Point", "coordinates": [2.453178, 48.876934]}, "properties": {"etat de la localisation": "Deviation programmee", "numparc": 4939, "duree": "", "horodatage": "2022-05-05 07:40:15", "marker-color": "#56FF93"}}, {"type": "Feature", "geometry": {"type": "Point", "coordinates": [2.45313, 48.876938]}, "properties": {"etat de la localisation": "Deviation programmee", "numparc": 4939, "duree": "", "horodatage": "2022-05-05 09:09:07", "marker-color": "#56FF93"}}, {"type": "Feature", "geometry": {"type": "Point", "coordinates": [2.453089, 48.876965]}, "properties": {"etat de la localisation": "Deviation programmee", "numparc": 4939, "duree": "", "horodatage": "2022-05-05 10:36:20", "marker-color": "#56FF93"}}, {"type": "Feature", "geometry": {"type": "Point", "coordinates": [2.453151, 48.87693]}, "properties": {"etat de la localisation": "Deviation programmee", "numparc": 4939, "duree": "", "horodatage": "2022-05-05 11:56:07", "marker-color": "#56FF93"}}, {"type": "Feature", "geometry": {"type": "Point", "coordinates": [2.453157, 48.87693]}, "properties": {"etat de la localisation": "Deviation programmee", "numparc": 4939, "duree": "", "horodatage": "2022-05-05 13:15:17", "marker-color": "#56FF93"}}, {"type": "Feature", "geometry": {"type": "Point", "coordinates": [2.458335, 48.881325]}, "properties": {"etat de la localisation": "Delocalise", "numparc": 4939, "duree": "00:00:57", "horodatage": "2022-05-05 13:31:58", "marker-color": "#FF565E"}}, {"type": "Feature", "geometry": {"type": "Point", "coordinates": [2.458098, 48.88509]}, "properties": {"etat de la localisation": "Delocalise", "numparc": 4939, "duree": "00:01:05", "horodatage": "2022-05-05 13:33:47", "marker-color": "#FF565E"}}, {"type": "Feature", "geometry": {"type": "Point", "coordinates": [2.4531, 48.876984]}, "properties": {"etat de la localisation": "Deviation programmee", "numparc": 4939, "duree": "", "horodatage": "2022-05-05 14:34:40", "marker-color": "#56FF93"}}, {"type": "Feature", "geometry": {"type": "Point", "coordinates": [2.453155, 48.876926]}, "properties": {"etat de la localisation": "Deviation programmee", "numparc": 4939, "duree": "", "horodatage": "2022-05-05 16:01:12", "marker-color": "#56FF93"}}, {"type": "Feature", "geometry": {"type": "Point", "coordinates": [2.453114, 48.876945]}, "properties": {"etat de la localisation": "Deviation programmee", "numparc": 4939, "duree": "", "horodatage": "2022-05-05 17:47:42", "marker-color": "#56FF93"}}, {"type": "Feature", "geometry": {"type": "Point", "coordinates": [2.453101, 48.876991]}, "properties": {"etat de la localisation": "Deviation programmee", "numparc": 4939, "duree": "", "horodatage": "2022-05-05 19:24:19", "marker-color": "#56FF93"}}, {"type": "Feature", "geometry": {"type": "Point", "coordinates": [2.453112, 48.876839]}, "properties": {"etat de la localisation": "Deviation programmee", "numparc": 4939, "duree": "", "horodatage": "2022-05-05 20:47:51", "marker-color": "#56FF93"}}, {"type": "Feature", "geometry": {"type": "Point", "coordinates": [2.453078, 48.876919]}, "properties": {"etat de la localisation": "Deviation programmee", "numparc": 4939, "duree": "", "horodatage": "2022-05-05 22:05:51", "marker-color": "#56FF93"}}, {"type": "Feature", "geometry": {"type": "Point", "coordinates": [2.427332, 48.878979]}, "properties": {"etat de la localisation": "Hors service", "numparc": 4939, "duree": "", "horodatage": "2022-05-05 23:02:19", "marker-color": "#707070"}}]}