{"type": "FeatureCollection", "features": [{"type": "Feature", "geometry": {"type": "Point", "coordinates": [2.409473, 48.877197]}, "properties": {"etat de la localisation": "Hors service", "numparc": 1593, "duree": "", "horodatage": "2023-05-21 19:54:22", "marker-color": "#707070"}}, {"type": "Feature", "geometry": {"type": "Point", "coordinates": [2.357029, 48.88065]}, "properties": {"etat de la localisation": "Delocalise", "numparc": 1593, "duree": "00:01:25", "horodatage": "2023-05-21 20:48:09", "marker-color": "#FF565E"}}, {"type": "Feature", "geometry": {"type": "Point", "coordinates": [2.35714, 48.880703]}, "properties": {"etat de la localisation": "Delocalise", "numparc": 1576, "duree": "00:01:22", "horodatage": "2023-05-21 21:29:32", "marker-color": "#FF565E"}}, {"type": "Feature", "geometry": {"type": "Point", "coordinates": [2.409125, 48.877003]}, "properties": {"etat de la localisation": "Hors service", "numparc": 1593, "duree": "", "horodatage": "2023-05-21 21:30:22", "marker-color": "#707070"}}, {"type": "Feature", "geometry": {"type": "Point", "coordinates": [2.409381, 48.877083]}, "properties": {"etat de la localisation": "Hors service", "numparc": 1593, "duree": "", "horodatage": "2023-05-21 21:48:02", "marker-color": "#707070"}}, {"type": "Feature", "geometry": {"type": "Point", "coordinates": [2.357828, 48.880653]}, "properties": {"etat de la localisation": "Delocalise", "numparc": 1593, "duree": "00:00:08", "horodatage": "2023-05-21 22:16:52", "marker-color": "#FF565E"}}, {"type": "Feature", "geometry": {"type": "Point", "coordinates": [2.357116, 48.880611]}, "properties": {"etat de la localisation": "Delocalise", "numparc": 1593, "duree": "00:00:58", "horodatage": "2023-05-21 22:28:22", "marker-color": "#FF565E"}}, {"type": "Feature", "geometry": {"type": "Point", "coordinates": [2.409271, 48.877144]}, "properties": {"etat de la localisation": "Hors service", "numparc": 1593, "duree": "", "horodatage": "2023-05-21 23:03:44", "marker-color": "#707070"}}, {"type": "Feature", "geometry": {"type": "Point", "coordinates": [2.357358, 48.881062]}, "properties": {"etat de la localisation": "Hors service", "numparc": 1593, "duree": "", "horodatage": "2023-05-21 23:47:01", "marker-color": "#707070"}}, {"type": "Feature", "geometry": {"type": "Point", "coordinates": [2.409408, 48.877064]}, "properties": {"etat de la localisation": "Hors service", "numparc": 1593, "duree": "", "horodatage": "2023-05-22 00:26:49", "marker-color": "#707070"}}, {"type": "Feature", "geometry": {"type": "Point", "coordinates": [2.427454, 48.878906]}, "properties": {"etat de la localisation": "Hors service", "numparc": 1576, "duree": "", "horodatage": "2023-05-22 00:42:32", "marker-color": "#707070"}}, {"type": "Feature", "geometry": {"type": "Point", "coordinates": [2.427448, 48.879326]}, "properties": {"etat de la localisation": "Hors service", "numparc": 1593, "duree": "", "horodatage": "2023-05-22 01:18:52", "marker-color": "#707070"}}]}