{"type": "FeatureCollection", "features": [{"type": "Feature", "geometry": {"type": "Point", "coordinates": [2.428206, 48.895962]}, "properties": {"alarme": "VEHICULE DELOCALISE", "numparc": 1526, "type": "EXPLOITATION", "duree": "00:03:28", "horodatage": "2023-04-29 09:22:00", "statut": "start", "marker-color": "#ff0000"}}, {"type": "Feature", "geometry": {"type": "Point", "coordinates": [2.42824, 48.895962]}, "properties": {"alarme": "VEHICULE DELOCALISE", "numparc": 1543, "type": "EXPLOITATION", "duree": "00:02:30", "horodatage": "2023-04-29 17:49:13", "statut": "start", "marker-color": "#ff0000"}}, {"type": "Feature", "geometry": {"type": "Point", "coordinates": [2.432439, 48.89447]}, "properties": {"alarme": "VEHICULE DELOCALISE", "numparc": 1540, "type": "EXPLOITATION", "duree": "00:01:45", "horodatage": "2023-04-29 18:17:00", "statut": "start", "marker-color": "#ff0000"}}, {"type": "Feature", "geometry": {"type": "Point", "coordinates": [2.426457, 48.84882]}, "properties": {"alarme": "VEHICULE DELOCALISE", "numparc": 1539, "type": "EXPLOITATION", "duree": "00:01:13", "horodatage": "2023-04-29 19:43:03", "statut": "start", "marker-color": "#ff0000"}}, {"type": "Feature", "geometry": {"type": "Point", "coordinates": [2.428322, 48.89595]}, "properties": {"alarme": "VEHICULE DELOCALISE", "numparc": 1529, "type": "EXPLOITATION", "duree": "00:03:06", "horodatage": "2023-04-29 20:21:32", "statut": "start", "marker-color": "#ff0000"}}, {"type": "Feature", "geometry": {"type": "Point", "coordinates": [2.428221, 48.895939]}, "properties": {"alarme": "VEHICULE DELOCALISE", "numparc": 1529, "type": "EXPLOITATION", "duree": "00:02:29", "horodatage": "2023-04-30 00:59:53", "statut": "start", "marker-color": "#ff0000"}}, {"type": "Feature", "geometry": {"type": "Point", "coordinates": [2.435095, 48.89378]}, "properties": {"alarme": "VEHICULE DELOCALISE", "numparc": 1526, "type": "EXPLOITATION", "duree": "00:03:28", "horodatage": "2023-04-29 09:25:28", "statut": "end", "marker-color": "#2fe184"}}, {"type": "Feature", "geometry": {"type": "Point", "coordinates": [2.435144, 48.893761]}, "properties": {"alarme": "VEHICULE DELOCALISE", "numparc": 1543, "type": "EXPLOITATION", "duree": "00:02:30", "horodatage": "2023-04-29 17:51:43", "statut": "end", "marker-color": "#2fe184"}}, {"type": "Feature", "geometry": {"type": "Point", "coordinates": [2.43503, 48.893745]}, "properties": {"alarme": "VEHICULE DELOCALISE", "numparc": 1540, "type": "EXPLOITATION", "duree": "00:01:45", "horodatage": "2023-04-29 18:18:45", "statut": "end", "marker-color": "#2fe184"}}, {"type": "Feature", "geometry": {"type": "Point", "coordinates": [2.425695, 48.849735]}, "properties": {"alarme": "VEHICULE DELOCALISE", "numparc": 1539, "type": "EXPLOITATION", "duree": "00:01:13", "horodatage": "2023-04-29 19:44:16", "statut": "end", "marker-color": "#2fe184"}}, {"type": "Feature", "geometry": {"type": "Point", "coordinates": [2.43514, 48.893745]}, "properties": {"alarme": "VEHICULE DELOCALISE", "numparc": 1529, "type": "EXPLOITATION", "duree": "00:03:06", "horodatage": "2023-04-29 20:24:38", "statut": "end", "marker-color": "#2fe184"}}, {"type": "Feature", "geometry": {"type": "Point", "coordinates": [2.435139, 48.89378]}, "properties": {"alarme": "VEHICULE DELOCALISE", "numparc": 1529, "type": "EXPLOITATION", "duree": "00:02:29", "horodatage": "2023-04-30 01:02:22", "statut": "end", "marker-color": "#2fe184"}}]}