{"type": "FeatureCollection", "features": [{"type": "Feature", "geometry": {"type": "Point", "coordinates": [2.449703, 49.020599]}, "properties": {"numparc": 6918, "etat de la localisation": "autre", "ID BDGEO": "597", "horodatage": "2021-10-01 07:16:26", "distance (en metres)": 23916.34, "station": "PORTE D'ORLEANS.", "marker-color": "#818181"}}, {"type": "Feature", "geometry": {"type": "Point", "coordinates": [2.449552, 49.020138]}, "properties": {"numparc": 6918, "etat de la localisation": "autre", "ID BDGEO": "597", "horodatage": "2021-10-01 07:19:38", "distance (en metres)": 23864.69, "station": "PORTE D'ORLEANS.", "marker-color": "#818181"}}, {"type": "Feature", "geometry": {"type": "Point", "coordinates": [2.449988, 49.019306]}, "properties": {"numparc": 6918, "etat de la localisation": "autre", "ID BDGEO": "597", "horodatage": "2021-10-01 07:43:03", "distance (en metres)": 23791.37, "station": "PORTE D'ORLEANS.", "marker-color": "#818181"}}, {"type": "Feature", "geometry": {"type": "Point", "coordinates": [2.449988, 49.019306]}, "properties": {"numparc": 6918, "etat de la localisation": "autre", "ID BDGEO": "597", "horodatage": "2021-10-01 07:44:13", "distance (en metres)": 23791.37, "station": "PORTE D'ORLEANS.", "marker-color": "#818181"}}, {"type": "Feature", "geometry": {"type": "Point", "coordinates": [2.449988, 49.019306]}, "properties": {"numparc": 6918, "etat de la localisation": "autre", "ID BDGEO": "597", "horodatage": "2021-10-01 07:44:24", "distance (en metres)": 23791.37, "station": "PORTE D'ORLEANS.", "marker-color": "#818181"}}, {"type": "Feature", "geometry": {"type": "Point", "coordinates": [2.450242, 49.0196]}, "properties": {"numparc": 6918, "etat de la localisation": "autre", "ID BDGEO": "597", "horodatage": "2021-10-01 08:10:09", "distance (en metres)": 23828.64, "station": "PORTE D'ORLEANS.", "marker-color": "#818181"}}, {"type": "Feature", "geometry": {"type": "Point", "coordinates": [2.450074, 49.020031]}, "properties": {"numparc": 6918, "etat de la localisation": "autre", "ID BDGEO": "597", "horodatage": "2021-10-01 08:11:55", "distance (en metres)": 23868.23, "station": "PORTE D'ORLEANS.", "marker-color": "#818181"}}, {"type": "Feature", "geometry": {"type": "Point", "coordinates": [2.450074, 49.020039]}, "properties": {"numparc": 6918, "etat de la localisation": "autre", "ID BDGEO": "597", "horodatage": "2021-10-01 08:18:20", "distance (en metres)": 23869.01, "station": "PORTE D'ORLEANS.", "marker-color": "#818181"}}, {"type": "Feature", "geometry": {"type": "Point", "coordinates": [2.363789, 48.607227]}, "properties": {"numparc": 6909, "etat de la localisation": "autre", "ID BDGEO": "604", "horodatage": "2021-10-01 09:15:09", "distance (en metres)": 16803.0, "station": "MAIRIE DE FRESNES", "marker-color": "#818181"}}, {"type": "Feature", "geometry": {"type": "Point", "coordinates": [2.363789, 48.607227]}, "properties": {"numparc": 6909, "etat de la localisation": "autre", "ID BDGEO": "604", "horodatage": "2021-10-01 09:15:31", "distance (en metres)": 16803.0, "station": "MAIRIE DE FRESNES", "marker-color": "#818181"}}, {"type": "Feature", "geometry": {"type": "Point", "coordinates": [2.363796, 48.607235]}, "properties": {"numparc": 6909, "etat de la localisation": "autre", "ID BDGEO": "604", "horodatage": "2021-10-01 09:17:46", "distance (en metres)": 16802.26, "station": "MAIRIE DE FRESNES", "marker-color": "#818181"}}, {"type": "Feature", "geometry": {"type": "Point", "coordinates": [2.450084, 49.020042]}, "properties": {"numparc": 6918, "etat de la localisation": "autre", "ID BDGEO": "597", "horodatage": "2021-10-01 09:37:27", "distance (en metres)": 23869.68, "station": "PORTE D'ORLEANS.", "marker-color": "#818181"}}, {"type": "Feature", "geometry": {"type": "Point", "coordinates": [2.450084, 49.020042]}, "properties": {"numparc": 6918, "etat de la localisation": "autre", "ID BDGEO": "597", "horodatage": "2021-10-01 09:39:20", "distance (en metres)": 23869.68, "station": "PORTE D'ORLEANS.", "marker-color": "#818181"}}, {"type": "Feature", "geometry": {"type": "Point", "coordinates": [2.450084, 49.020042]}, "properties": {"numparc": 6918, "etat de la localisation": "autre", "ID BDGEO": "597", "horodatage": "2021-10-01 09:40:32", "distance (en metres)": 23869.68, "station": "PORTE D'ORLEANS.", "marker-color": "#818181"}}, {"type": "Feature", "geometry": {"type": "Point", "coordinates": [2.450084, 49.020042]}, "properties": {"numparc": 6918, "etat de la localisation": "autre", "ID BDGEO": "597", "horodatage": "2021-10-01 09:40:55", "distance (en metres)": 23869.68, "station": "PORTE D'ORLEANS.", "marker-color": "#818181"}}, {"type": "Feature", "geometry": {"type": "Point", "coordinates": [2.449889, 49.020481]}, "properties": {"numparc": 6918, "etat de la localisation": "autre", "ID BDGEO": "597", "horodatage": "2021-10-01 09:46:54", "distance (en metres)": 23909.34, "station": "PORTE D'ORLEANS.", "marker-color": "#818181"}}, {"type": "Feature", "geometry": {"type": "Point", "coordinates": [2.450238, 49.019894]}, "properties": {"numparc": 6918, "etat de la localisation": "autre", "ID BDGEO": "597", "horodatage": "2021-10-01 09:57:28", "distance (en metres)": 23858.69, "station": "PORTE D'ORLEANS.", "marker-color": "#818181"}}, {"type": "Feature", "geometry": {"type": "Point", "coordinates": [2.450238, 49.019894]}, "properties": {"numparc": 6918, "etat de la localisation": "autre", "ID BDGEO": "597", "horodatage": "2021-10-01 10:04:09", "distance (en metres)": 23858.69, "station": "PORTE D'ORLEANS.", "marker-color": "#818181"}}, {"type": "Feature", "geometry": {"type": "Point", "coordinates": [2.450238, 49.019894]}, "properties": {"numparc": 6918, "etat de la localisation": "autre", "ID BDGEO": "597", "horodatage": "2021-10-01 10:04:26", "distance (en metres)": 23858.69, "station": "PORTE D'ORLEANS.", "marker-color": "#818181"}}, {"type": "Feature", "geometry": {"type": "Point", "coordinates": [2.450238, 49.019894]}, "properties": {"numparc": 6918, "etat de la localisation": "autre", "ID BDGEO": "597", "horodatage": "2021-10-01 10:04:43", "distance (en metres)": 23858.69, "station": "PORTE D'ORLEANS.", "marker-color": "#818181"}}, {"type": "Feature", "geometry": {"type": "Point", "coordinates": [2.450238, 49.019894]}, "properties": {"numparc": 6918, "etat de la localisation": "autre", "ID BDGEO": "597", "horodatage": "2021-10-01 10:14:53", "distance (en metres)": 23858.69, "station": "PORTE D'ORLEANS.", "marker-color": "#818181"}}, {"type": "Feature", "geometry": {"type": "Point", "coordinates": [2.450238, 49.019894]}, "properties": {"numparc": 6918, "etat de la localisation": "autre", "ID BDGEO": "597", "horodatage": "2021-10-01 10:20:51", "distance (en metres)": 23858.69, "station": "PORTE D'ORLEANS.", "marker-color": "#818181"}}, {"type": "Feature", "geometry": {"type": "Point", "coordinates": [2.388425, 48.753868]}, "properties": {"numparc": 6909, "etat de la localisation": "autre", "ID BDGEO": "615", "horodatage": "2021-10-01 10:43:02", "distance (en metres)": 4781.06, "station": "EMILE ZOLA", "marker-color": "#818181"}}, {"type": "Feature", "geometry": {"type": "Point", "coordinates": [2.388407, 48.753868]}, "properties": {"numparc": 6909, "etat de la localisation": "autre", "ID BDGEO": "615", "horodatage": "2021-10-01 11:29:24", "distance (en metres)": 4779.74, "station": "EMILE ZOLA", "marker-color": "#818181"}}, {"type": "Feature", "geometry": {"type": "Point", "coordinates": [2.325454, 48.821613]}, "properties": {"station": "PORTE D'ORLEANS.", "ID BDGEO": "597", "marker-color": "#56B3FF"}}, {"type": "Feature", "geometry": {"type": "Point", "coordinates": [2.321731, 48.755767]}, "properties": {"station": "MAIRIE DE FRESNES", "ID BDGEO": "604", "marker-color": "#56B3FF"}}, {"type": "Feature", "geometry": {"type": "Point", "coordinates": [2.323511, 48.758023]}, "properties": {"station": "EMILE ZOLA", "ID BDGEO": "615", "marker-color": "#56B3FF"}}]}