{"type": "FeatureCollection", "features": [{"type": "Feature", "geometry": {"type": "Point", "coordinates": [2.426898, 48.879337]}, "properties": {"numparc": 1496, "etat de la localisation": "autre", "ID BDGEO": "221", "horodatage": "2023-05-21 06:15:36", "distance (en metres)": 3591.02, "station": "LAGNY SORTIE", "marker-color": "#818181"}}, {"type": "Feature", "geometry": {"type": "Point", "coordinates": [2.367099, 48.884045]}, "properties": {"numparc": 1593, "etat de la localisation": "autre", "ID BDGEO": "199", "horodatage": "2023-05-22 00:54:45", "distance (en metres)": 773.87, "station": "GARE DU NORD#", "marker-color": "#818181"}}, {"type": "Feature", "geometry": {"type": "Point", "coordinates": [2.367099, 48.884045]}, "properties": {"numparc": 1593, "etat de la localisation": "autre", "ID BDGEO": "199", "horodatage": "2023-05-22 00:57:24", "distance (en metres)": 773.87, "station": "GARE DU NORD#", "marker-color": "#818181"}}, {"type": "Feature", "geometry": {"type": "Point", "coordinates": [2.412787, 48.876579]}, "properties": {"numparc": 1593, "etat de la localisation": "autre", "ID BDGEO": "217", "horodatage": "2023-05-22 01:09:39", "distance (en metres)": 2982.67, "station": "LAGNY ENTREE", "marker-color": "#818181"}}, {"type": "Feature", "geometry": {"type": "Point", "coordinates": [2.427226, 48.878754]}, "properties": {"numparc": 1593, "etat de la localisation": "autre", "ID BDGEO": "217", "horodatage": "2023-05-22 01:14:36", "distance (en metres)": 3514.6, "station": "LAGNY ENTREE", "marker-color": "#818181"}}, {"type": "Feature", "geometry": {"type": "Point", "coordinates": [2.427448, 48.879326]}, "properties": {"numparc": 1593, "etat de la localisation": "autre", "ID BDGEO": "217", "horodatage": "2023-05-22 01:18:03", "distance (en metres)": 3579.23, "station": "LAGNY ENTREE", "marker-color": "#818181"}}, {"type": "Feature", "geometry": {"type": "Point", "coordinates": [2.406817, 48.849868]}, "properties": {"station": "LAGNY SORTIE", "ID BDGEO": "221", "marker-color": "#56B3FF"}}, {"type": "Feature", "geometry": {"type": "Point", "coordinates": [2.357504, 48.881109]}, "properties": {"station": "GARE DU NORD#", "ID BDGEO": "199", "marker-color": "#56B3FF"}}, {"type": "Feature", "geometry": {"type": "Point", "coordinates": [2.407267, 48.850002]}, "properties": {"station": "LAGNY ENTREE", "ID BDGEO": "217", "marker-color": "#56B3FF"}}]}