{"type": "FeatureCollection", "features": [{"type": "Feature", "geometry": {"type": "Point", "coordinates": [2.348713, 48.85741]}, "properties": {"etat de la localisation": "Mission suivante non connue", "numparc": 1380, "duree": "", "horodatage": "2023-03-13 04:54:01", "marker-color": "#7156FF"}}, {"type": "Feature", "geometry": {"type": "Point", "coordinates": [2.348713, 48.85741]}, "properties": {"etat de la localisation": "Hors service", "numparc": 1380, "duree": "", "horodatage": "2023-03-13 05:05:25", "marker-color": "#707070"}}, {"type": "Feature", "geometry": {"type": "Point", "coordinates": [2.328437, 48.823048]}, "properties": {"etat de la localisation": "Hors service", "numparc": 1377, "duree": "", "horodatage": "2023-03-13 05:06:38", "marker-color": "#707070"}}, {"type": "Feature", "geometry": {"type": "Point", "coordinates": [2.327191, 48.824596]}, "properties": {"etat de la localisation": "Delocalise", "numparc": 1380, "duree": "00:09:11", "horodatage": "2023-03-13 05:30:39", "marker-color": "#FF565E"}}, {"type": "Feature", "geometry": {"type": "Point", "coordinates": [2.328461, 48.823322]}, "properties": {"etat de la localisation": "Hors service", "numparc": 1380, "duree": "", "horodatage": "2023-03-13 05:39:50", "marker-color": "#707070"}}, {"type": "Feature", "geometry": {"type": "Point", "coordinates": [2.329437, 48.822845]}, "properties": {"etat de la localisation": "Hors service", "numparc": 1466, "duree": "", "horodatage": "2023-03-13 06:28:01", "marker-color": "#707070"}}, {"type": "Feature", "geometry": {"type": "Point", "coordinates": [2.328424, 48.82317]}, "properties": {"etat de la localisation": "Mission inconnue", "numparc": 1380, "duree": "", "horodatage": "2023-03-13 07:28:42", "marker-color": "#FF9F56"}}, {"type": "Feature", "geometry": {"type": "Point", "coordinates": [2.328424, 48.82317]}, "properties": {"etat de la localisation": "Hors service", "numparc": 1380, "duree": "", "horodatage": "2023-03-13 07:29:49", "marker-color": "#707070"}}, {"type": "Feature", "geometry": {"type": "Point", "coordinates": [2.328088, 48.823586]}, "properties": {"etat de la localisation": "Mission inconnue", "numparc": 1466, "duree": "", "horodatage": "2023-03-13 07:47:19", "marker-color": "#FF9F56"}}, {"type": "Feature", "geometry": {"type": "Point", "coordinates": [2.328125, 48.823536]}, "properties": {"etat de la localisation": "Delocalise", "numparc": 1412, "duree": "00:02:32", "horodatage": "2023-03-14 00:08:02", "marker-color": "#FF565E"}}, {"type": "Feature", "geometry": {"type": "Point", "coordinates": [2.328068, 48.823551]}, "properties": {"etat de la localisation": "Delocalise", "numparc": 1411, "duree": "00:01:58", "horodatage": "2023-03-14 00:14:26", "marker-color": "#FF565E"}}, {"type": "Feature", "geometry": {"type": "Point", "coordinates": [2.348727, 48.857361]}, "properties": {"etat de la localisation": "Hors service", "numparc": 1414, "duree": "", "horodatage": "2023-03-14 01:36:40", "marker-color": "#707070"}}, {"type": "Feature", "geometry": {"type": "Point", "coordinates": [2.293105, 48.690922]}, "properties": {"etat de la localisation": "Hors service", "numparc": 1412, "duree": "", "horodatage": "2023-03-14 02:11:22", "marker-color": "#707070"}}]}