{"type": "FeatureCollection", "features": [{"type": "Feature", "geometry": {"type": "Point", "coordinates": [2.297278, 48.722118]}, "properties": {"etat de la localisation": "Delocalise", "numparc": 5833, "duree": "00:00:57", "horodatage": "2022-10-12 05:22:14", "marker-color": "#FF565E"}}, {"type": "Feature", "geometry": {"type": "Point", "coordinates": [2.297095, 48.721878]}, "properties": {"etat de la localisation": "Hors service", "numparc": 5833, "duree": "", "horodatage": "2022-10-12 05:23:11", "marker-color": "#707070"}}, {"type": "Feature", "geometry": {"type": "Point", "coordinates": [2.23935, 48.772648]}, "properties": {"etat de la localisation": "Delocalise", "numparc": 5833, "duree": "00:03:25", "horodatage": "2022-10-12 06:26:18", "marker-color": "#FF565E"}}, {"type": "Feature", "geometry": {"type": "Point", "coordinates": [2.219032, 48.785282]}, "properties": {"etat de la localisation": "Mission suivante non connue", "numparc": 5825, "duree": "", "horodatage": "2022-10-12 07:00:18", "marker-color": "#7156FF"}}, {"type": "Feature", "geometry": {"type": "Point", "coordinates": [2.296505, 48.721512]}, "properties": {"etat de la localisation": "Delocalise", "numparc": 5822, "duree": "00:02:16", "horodatage": "2022-10-12 07:28:03", "marker-color": "#FF565E"}}, {"type": "Feature", "geometry": {"type": "Point", "coordinates": [2.296783, 48.721462]}, "properties": {"etat de la localisation": "Hors service", "numparc": 5822, "duree": "", "horodatage": "2022-10-12 07:30:19", "marker-color": "#707070"}}, {"type": "Feature", "geometry": {"type": "Point", "coordinates": [2.295022, 48.760651]}, "properties": {"etat de la localisation": "Delocalise", "numparc": 5846, "duree": "00:01:27", "horodatage": "2022-10-12 07:32:34", "marker-color": "#FF565E"}}, {"type": "Feature", "geometry": {"type": "Point", "coordinates": [2.297781, 48.721298]}, "properties": {"etat de la localisation": "Hors service", "numparc": 5822, "duree": "", "horodatage": "2022-10-12 07:49:02", "marker-color": "#707070"}}, {"type": "Feature", "geometry": {"type": "Point", "coordinates": [2.29779, 48.72105]}, "properties": {"etat de la localisation": "Delocalise", "numparc": 5822, "duree": "00:17:46", "horodatage": "2022-10-12 07:49:29", "marker-color": "#FF565E"}}, {"type": "Feature", "geometry": {"type": "Point", "coordinates": [2.295419, 48.760746]}, "properties": {"etat de la localisation": "Delocalise", "numparc": 5822, "duree": "00:03:24", "horodatage": "2022-10-12 08:18:24", "marker-color": "#FF565E"}}, {"type": "Feature", "geometry": {"type": "Point", "coordinates": [2.302636, 48.762291]}, "properties": {"etat de la localisation": "Delocalise", "numparc": 5822, "duree": "00:04:31", "horodatage": "2022-10-12 08:21:53", "marker-color": "#FF565E"}}, {"type": "Feature", "geometry": {"type": "Point", "coordinates": [2.239294, 48.775047]}, "properties": {"etat de la localisation": "Delocalise", "numparc": 5833, "duree": "00:00:49", "horodatage": "2022-10-12 08:59:30", "marker-color": "#FF565E"}}, {"type": "Feature", "geometry": {"type": "Point", "coordinates": [2.219006, 48.785263]}, "properties": {"etat de la localisation": "Mission suivante non connue", "numparc": 5826, "duree": "", "horodatage": "2022-10-12 09:16:29", "marker-color": "#7156FF"}}, {"type": "Feature", "geometry": {"type": "Point", "coordinates": [2.219006, 48.785263]}, "properties": {"etat de la localisation": "Mission inconnue", "numparc": 5826, "duree": "", "horodatage": "2022-10-12 09:24:15", "marker-color": "#FF9F56"}}, {"type": "Feature", "geometry": {"type": "Point", "coordinates": [2.259405, 48.765697]}, "properties": {"etat de la localisation": "Deviation programmee", "numparc": 5833, "duree": "", "horodatage": "2022-10-12 09:45:15", "marker-color": "#56FF93"}}, {"type": "Feature", "geometry": {"type": "Point", "coordinates": [2.219043, 48.785301]}, "properties": {"etat de la localisation": "Mission suivante non connue", "numparc": 5825, "duree": "", "horodatage": "2022-10-12 09:48:06", "marker-color": "#7156FF"}}, {"type": "Feature", "geometry": {"type": "Point", "coordinates": [2.259421, 48.765675]}, "properties": {"etat de la localisation": "Deviation programmee", "numparc": 5822, "duree": "", "horodatage": "2022-10-12 09:49:17", "marker-color": "#56FF93"}}, {"type": "Feature", "geometry": {"type": "Point", "coordinates": [2.301744, 48.762131]}, "properties": {"etat de la localisation": "Mission suivante non connue", "numparc": 5846, "duree": "", "horodatage": "2022-10-12 10:01:58", "marker-color": "#7156FF"}}, {"type": "Feature", "geometry": {"type": "Point", "coordinates": [2.259412, 48.765686]}, "properties": {"etat de la localisation": "Deviation programmee", "numparc": 5835, "duree": "", "horodatage": "2022-10-12 10:09:32", "marker-color": "#56FF93"}}, {"type": "Feature", "geometry": {"type": "Point", "coordinates": [2.259401, 48.76569]}, "properties": {"etat de la localisation": "Deviation programmee", "numparc": 5826, "duree": "", "horodatage": "2022-10-12 10:10:54", "marker-color": "#56FF93"}}, {"type": "Feature", "geometry": {"type": "Point", "coordinates": [2.23945, 48.77256]}, "properties": {"etat de la localisation": "Delocalise", "numparc": 5833, "duree": "00:02:53", "horodatage": "2022-10-12 10:16:59", "marker-color": "#FF565E"}}, {"type": "Feature", "geometry": {"type": "Point", "coordinates": [2.248358, 48.770584]}, "properties": {"etat de la localisation": "Delocalise", "numparc": 5826, "duree": "00:04:42", "horodatage": "2022-10-12 10:38:13", "marker-color": "#FF565E"}}, {"type": "Feature", "geometry": {"type": "Point", "coordinates": [2.259429, 48.765697]}, "properties": {"etat de la localisation": "Deviation programmee", "numparc": 5825, "duree": "", "horodatage": "2022-10-12 10:50:55", "marker-color": "#56FF93"}}, {"type": "Feature", "geometry": {"type": "Point", "coordinates": [2.259405, 48.765678]}, "properties": {"etat de la localisation": "Deviation programmee", "numparc": 5833, "duree": "", "horodatage": "2022-10-12 10:57:01", "marker-color": "#56FF93"}}, {"type": "Feature", "geometry": {"type": "Point", "coordinates": [2.259392, 48.765656]}, "properties": {"etat de la localisation": "Deviation programmee", "numparc": 5822, "duree": "", "horodatage": "2022-10-12 11:06:37", "marker-color": "#56FF93"}}, {"type": "Feature", "geometry": {"type": "Point", "coordinates": [2.259407, 48.765678]}, "properties": {"etat de la localisation": "Deviation programmee", "numparc": 5826, "duree": "", "horodatage": "2022-10-12 11:18:24", "marker-color": "#56FF93"}}, {"type": "Feature", "geometry": {"type": "Point", "coordinates": [2.297102, 48.722057]}, "properties": {"etat de la localisation": "Delocalise", "numparc": 5860, "duree": "00:02:21", "horodatage": "2022-10-12 11:26:19", "marker-color": "#FF565E"}}, {"type": "Feature", "geometry": {"type": "Point", "coordinates": [2.259374, 48.765678]}, "properties": {"etat de la localisation": "Deviation programmee", "numparc": 5835, "duree": "", "horodatage": "2022-10-12 11:26:57", "marker-color": "#56FF93"}}, {"type": "Feature", "geometry": {"type": "Point", "coordinates": [2.239534, 48.772533]}, "properties": {"etat de la localisation": "Delocalise", "numparc": 5833, "duree": "00:03:04", "horodatage": "2022-10-12 11:27:05", "marker-color": "#FF565E"}}, {"type": "Feature", "geometry": {"type": "Point", "coordinates": [2.294949, 48.760628]}, "properties": {"etat de la localisation": "Delocalise", "numparc": 5823, "duree": "00:01:32", "horodatage": "2022-10-12 11:28:23", "marker-color": "#FF565E"}}, {"type": "Feature", "geometry": {"type": "Point", "coordinates": [2.218979, 48.78529]}, "properties": {"etat de la localisation": "Mission suivante non connue", "numparc": 5826, "duree": "", "horodatage": "2022-10-12 11:34:03", "marker-color": "#7156FF"}}, {"type": "Feature", "geometry": {"type": "Point", "coordinates": [2.259394, 48.765682]}, "properties": {"etat de la localisation": "Deviation programmee", "numparc": 5823, "duree": "", "horodatage": "2022-10-12 11:44:48", "marker-color": "#56FF93"}}, {"type": "Feature", "geometry": {"type": "Point", "coordinates": [2.298069, 48.721497]}, "properties": {"etat de la localisation": "Hors service", "numparc": 5825, "duree": "", "horodatage": "2022-10-12 11:50:40", "marker-color": "#707070"}}, {"type": "Feature", "geometry": {"type": "Point", "coordinates": [2.298122, 48.721458]}, "properties": {"etat de la localisation": "Hors service", "numparc": 5833, "duree": "", "horodatage": "2022-10-12 11:55:29", "marker-color": "#707070"}}, {"type": "Feature", "geometry": {"type": "Point", "coordinates": [2.296581, 48.72168]}, "properties": {"etat de la localisation": "Delocalise", "numparc": 5837, "duree": "00:08:32", "horodatage": "2022-10-12 11:56:16", "marker-color": "#FF565E"}}, {"type": "Feature", "geometry": {"type": "Point", "coordinates": [2.219035, 48.785282]}, "properties": {"etat de la localisation": "Mission suivante non connue", "numparc": 5823, "duree": "", "horodatage": "2022-10-12 12:01:37", "marker-color": "#7156FF"}}, {"type": "Feature", "geometry": {"type": "Point", "coordinates": [2.296836, 48.721527]}, "properties": {"etat de la localisation": "Hors service", "numparc": 5837, "duree": "", "horodatage": "2022-10-12 12:04:48", "marker-color": "#707070"}}, {"type": "Feature", "geometry": {"type": "Point", "coordinates": [2.259337, 48.765682]}, "properties": {"etat de la localisation": "Deviation programmee", "numparc": 5860, "duree": "", "horodatage": "2022-10-12 12:05:20", "marker-color": "#56FF93"}}, {"type": "Feature", "geometry": {"type": "Point", "coordinates": [2.219639, 48.785686]}, "properties": {"etat de la localisation": "Mission suivante non connue", "numparc": 5860, "duree": "", "horodatage": "2022-10-12 12:20:13", "marker-color": "#7156FF"}}, {"type": "Feature", "geometry": {"type": "Point", "coordinates": [2.219639, 48.785686]}, "properties": {"etat de la localisation": "Mission suivante non connue", "numparc": 5860, "duree": "", "horodatage": "2022-10-12 12:20:21", "marker-color": "#7156FF"}}, {"type": "Feature", "geometry": {"type": "Point", "coordinates": [2.219044, 48.785297]}, "properties": {"etat de la localisation": "Mission suivante non connue", "numparc": 5860, "duree": "", "horodatage": "2022-10-12 12:20:44", "marker-color": "#7156FF"}}, {"type": "Feature", "geometry": {"type": "Point", "coordinates": [2.259395, 48.765675]}, "properties": {"etat de la localisation": "Deviation programmee", "numparc": 5822, "duree": "", "horodatage": "2022-10-12 12:21:18", "marker-color": "#56FF93"}}, {"type": "Feature", "geometry": {"type": "Point", "coordinates": [2.298108, 48.721474]}, "properties": {"etat de la localisation": "Hors service", "numparc": 5835, "duree": "", "horodatage": "2022-10-12 12:26:30", "marker-color": "#707070"}}, {"type": "Feature", "geometry": {"type": "Point", "coordinates": [2.301779, 48.762058]}, "properties": {"etat de la localisation": "Mission suivante non connue", "numparc": 5846, "duree": "", "horodatage": "2022-10-12 12:29:26", "marker-color": "#7156FF"}}, {"type": "Feature", "geometry": {"type": "Point", "coordinates": [2.259392, 48.765709]}, "properties": {"etat de la localisation": "Deviation programmee", "numparc": 5826, "duree": "", "horodatage": "2022-10-12 12:29:51", "marker-color": "#56FF93"}}, {"type": "Feature", "geometry": {"type": "Point", "coordinates": [2.259325, 48.765652]}, "properties": {"etat de la localisation": "Deviation programmee", "numparc": 5837, "duree": "", "horodatage": "2022-10-12 12:45:48", "marker-color": "#56FF93"}}, {"type": "Feature", "geometry": {"type": "Point", "coordinates": [2.2594, 48.765656]}, "properties": {"etat de la localisation": "Deviation programmee", "numparc": 5823, "duree": "", "horodatage": "2022-10-12 13:00:08", "marker-color": "#56FF93"}}, {"type": "Feature", "geometry": {"type": "Point", "coordinates": [2.297418, 48.721771]}, "properties": {"etat de la localisation": "Hors service", "numparc": 5821, "duree": "", "horodatage": "2022-10-12 13:18:10", "marker-color": "#707070"}}, {"type": "Feature", "geometry": {"type": "Point", "coordinates": [2.259361, 48.765675]}, "properties": {"etat de la localisation": "Deviation programmee", "numparc": 5860, "duree": "", "horodatage": "2022-10-12 13:23:01", "marker-color": "#56FF93"}}, {"type": "Feature", "geometry": {"type": "Point", "coordinates": [2.259427, 48.765697]}, "properties": {"etat de la localisation": "Deviation programmee", "numparc": 5828, "duree": "", "horodatage": "2022-10-12 13:28:59", "marker-color": "#56FF93"}}, {"type": "Feature", "geometry": {"type": "Point", "coordinates": [2.259372, 48.765671]}, "properties": {"etat de la localisation": "Deviation programmee", "numparc": 5822, "duree": "", "horodatage": "2022-10-12 13:38:06", "marker-color": "#56FF93"}}, {"type": "Feature", "geometry": {"type": "Point", "coordinates": [2.298128, 48.721462]}, "properties": {"etat de la localisation": "Hors service", "numparc": 5837, "duree": "", "horodatage": "2022-10-12 13:47:11", "marker-color": "#707070"}}, {"type": "Feature", "geometry": {"type": "Point", "coordinates": [2.259363, 48.765675]}, "properties": {"etat de la localisation": "Deviation programmee", "numparc": 5826, "duree": "", "horodatage": "2022-10-12 13:54:49", "marker-color": "#56FF93"}}, {"type": "Feature", "geometry": {"type": "Point", "coordinates": [2.249768, 48.769417]}, "properties": {"etat de la localisation": "Delocalise", "numparc": 5860, "duree": "00:08:26", "horodatage": "2022-10-12 13:57:44", "marker-color": "#FF565E"}}, {"type": "Feature", "geometry": {"type": "Point", "coordinates": [2.298083, 48.721455]}, "properties": {"etat de la localisation": "Hors service", "numparc": 5823, "duree": "", "horodatage": "2022-10-12 14:02:38", "marker-color": "#707070"}}, {"type": "Feature", "geometry": {"type": "Point", "coordinates": [2.295213, 48.76067]}, "properties": {"etat de la localisation": "Delocalise", "numparc": 5833, "duree": "00:02:12", "horodatage": "2022-10-12 14:04:30", "marker-color": "#FF565E"}}, {"type": "Feature", "geometry": {"type": "Point", "coordinates": [2.297827, 48.721714]}, "properties": {"etat de la localisation": "Hors service", "numparc": 5853, "duree": "", "horodatage": "2022-10-12 14:08:25", "marker-color": "#707070"}}, {"type": "Feature", "geometry": {"type": "Point", "coordinates": [2.297827, 48.721714]}, "properties": {"etat de la localisation": "Hors service", "numparc": 5853, "duree": "", "horodatage": "2022-10-12 14:08:52", "marker-color": "#707070"}}, {"type": "Feature", "geometry": {"type": "Point", "coordinates": [2.25939, 48.765682]}, "properties": {"etat de la localisation": "Deviation programmee", "numparc": 5821, "duree": "", "horodatage": "2022-10-12 14:09:53", "marker-color": "#56FF93"}}, {"type": "Feature", "geometry": {"type": "Point", "coordinates": [2.297096, 48.721657]}, "properties": {"etat de la localisation": "Delocalise", "numparc": 5853, "duree": "00:07:56", "horodatage": "2022-10-12 14:15:25", "marker-color": "#FF565E"}}, {"type": "Feature", "geometry": {"type": "Point", "coordinates": [2.25942, 48.765675]}, "properties": {"etat de la localisation": "Deviation programmee", "numparc": 5825, "duree": "", "horodatage": "2022-10-12 14:25:09", "marker-color": "#56FF93"}}, {"type": "Feature", "geometry": {"type": "Point", "coordinates": [2.25942, 48.765682]}, "properties": {"etat de la localisation": "Deviation programmee", "numparc": 5833, "duree": "", "horodatage": "2022-10-12 14:30:35", "marker-color": "#56FF93"}}, {"type": "Feature", "geometry": {"type": "Point", "coordinates": [2.29737, 48.721729]}, "properties": {"etat de la localisation": "Hors service", "numparc": 5846, "duree": "", "horodatage": "2022-10-12 14:32:32", "marker-color": "#707070"}}, {"type": "Feature", "geometry": {"type": "Point", "coordinates": [2.298091, 48.721451]}, "properties": {"etat de la localisation": "Hors service", "numparc": 5822, "duree": "", "horodatage": "2022-10-12 14:33:54", "marker-color": "#707070"}}, {"type": "Feature", "geometry": {"type": "Point", "coordinates": [2.294958, 48.760597]}, "properties": {"etat de la localisation": "Delocalise", "numparc": 5853, "duree": "00:01:36", "horodatage": "2022-10-12 14:40:30", "marker-color": "#FF565E"}}, {"type": "Feature", "geometry": {"type": "Point", "coordinates": [2.259388, 48.765656]}, "properties": {"etat de la localisation": "Deviation programmee", "numparc": 5860, "duree": "", "horodatage": "2022-10-12 14:41:31", "marker-color": "#56FF93"}}, {"type": "Feature", "geometry": {"type": "Point", "coordinates": [2.297609, 48.72147]}, "properties": {"etat de la localisation": "Mission inconnue", "numparc": 5837, "duree": "", "horodatage": "2022-10-12 14:47:01", "marker-color": "#FF9F56"}}, {"type": "Feature", "geometry": {"type": "Point", "coordinates": [2.259388, 48.765667]}, "properties": {"etat de la localisation": "Deviation programmee", "numparc": 5835, "duree": "", "horodatage": "2022-10-12 14:51:31", "marker-color": "#56FF93"}}, {"type": "Feature", "geometry": {"type": "Point", "coordinates": [2.25935, 48.765678]}, "properties": {"etat de la localisation": "Deviation programmee", "numparc": 5828, "duree": "", "horodatage": "2022-10-12 14:54:10", "marker-color": "#56FF93"}}, {"type": "Feature", "geometry": {"type": "Point", "coordinates": [2.298223, 48.721577]}, "properties": {"etat de la localisation": "Hors service", "numparc": 5826, "duree": "", "horodatage": "2022-10-12 14:56:53", "marker-color": "#707070"}}, {"type": "Feature", "geometry": {"type": "Point", "coordinates": [2.294954, 48.76059]}, "properties": {"etat de la localisation": "Delocalise", "numparc": 5837, "duree": "00:02:23", "horodatage": "2022-10-12 15:05:56", "marker-color": "#FF565E"}}, {"type": "Feature", "geometry": {"type": "Point", "coordinates": [2.259405, 48.765678]}, "properties": {"etat de la localisation": "Deviation programmee", "numparc": 5853, "duree": "", "horodatage": "2022-10-12 15:08:18", "marker-color": "#56FF93"}}, {"type": "Feature", "geometry": {"type": "Point", "coordinates": [2.259397, 48.765682]}, "properties": {"etat de la localisation": "Deviation programmee", "numparc": 5821, "duree": "", "horodatage": "2022-10-12 15:23:13", "marker-color": "#56FF93"}}, {"type": "Feature", "geometry": {"type": "Point", "coordinates": [2.259385, 48.765675]}, "properties": {"etat de la localisation": "Deviation programmee", "numparc": 5837, "duree": "", "horodatage": "2022-10-12 15:29:28", "marker-color": "#56FF93"}}, {"type": "Feature", "geometry": {"type": "Point", "coordinates": [2.259412, 48.765675]}, "properties": {"etat de la localisation": "Deviation programmee", "numparc": 5825, "duree": "", "horodatage": "2022-10-12 15:46:39", "marker-color": "#56FF93"}}, {"type": "Feature", "geometry": {"type": "Point", "coordinates": [2.259409, 48.765701]}, "properties": {"etat de la localisation": "Deviation programmee", "numparc": 5833, "duree": "", "horodatage": "2022-10-12 15:52:59", "marker-color": "#56FF93"}}, {"type": "Feature", "geometry": {"type": "Point", "coordinates": [2.219051, 48.785393]}, "properties": {"etat de la localisation": "Mission suivante non connue", "numparc": 5825, "duree": "", "horodatage": "2022-10-12 16:00:39", "marker-color": "#7156FF"}}, {"type": "Feature", "geometry": {"type": "Point", "coordinates": [2.259387, 48.765675]}, "properties": {"etat de la localisation": "Deviation programmee", "numparc": 5860, "duree": "", "horodatage": "2022-10-12 16:02:18", "marker-color": "#56FF93"}}, {"type": "Feature", "geometry": {"type": "Point", "coordinates": [2.259416, 48.765682]}, "properties": {"etat de la localisation": "Deviation programmee", "numparc": 5835, "duree": "", "horodatage": "2022-10-12 16:16:01", "marker-color": "#56FF93"}}, {"type": "Feature", "geometry": {"type": "Point", "coordinates": [2.259421, 48.765675]}, "properties": {"etat de la localisation": "Deviation programmee", "numparc": 5828, "duree": "", "horodatage": "2022-10-12 16:17:46", "marker-color": "#56FF93"}}, {"type": "Feature", "geometry": {"type": "Point", "coordinates": [2.298377, 48.721813]}, "properties": {"etat de la localisation": "Mission inconnue", "numparc": 5822, "duree": "", "horodatage": "2022-10-12 16:32:04", "marker-color": "#FF9F56"}}, {"type": "Feature", "geometry": {"type": "Point", "coordinates": [2.259378, 48.765678]}, "properties": {"etat de la localisation": "Deviation programmee", "numparc": 5853, "duree": "", "horodatage": "2022-10-12 16:33:21", "marker-color": "#56FF93"}}, {"type": "Feature", "geometry": {"type": "Point", "coordinates": [2.298634, 48.721851]}, "properties": {"etat de la localisation": "Hors service", "numparc": 5822, "duree": "", "horodatage": "2022-10-12 16:34:08", "marker-color": "#707070"}}, {"type": "Feature", "geometry": {"type": "Point", "coordinates": [2.259406, 48.765678]}, "properties": {"etat de la localisation": "Deviation programmee", "numparc": 5821, "duree": "", "horodatage": "2022-10-12 16:45:12", "marker-color": "#56FF93"}}, {"type": "Feature", "geometry": {"type": "Point", "coordinates": [2.219012, 48.785393]}, "properties": {"etat de la localisation": "Mission suivante non connue", "numparc": 5853, "duree": "", "horodatage": "2022-10-12 16:48:01", "marker-color": "#7156FF"}}, {"type": "Feature", "geometry": {"type": "Point", "coordinates": [2.259371, 48.765644]}, "properties": {"etat de la localisation": "Deviation programmee", "numparc": 5837, "duree": "", "horodatage": "2022-10-12 17:03:27", "marker-color": "#56FF93"}}, {"type": "Feature", "geometry": {"type": "Point", "coordinates": [2.276217, 48.763401]}, "properties": {"etat de la localisation": "Delocalise", "numparc": 5825, "duree": "00:00:27", "horodatage": "2022-10-12 17:08:44", "marker-color": "#FF565E"}}, {"type": "Feature", "geometry": {"type": "Point", "coordinates": [2.259362, 48.765697]}, "properties": {"etat de la localisation": "Deviation programmee", "numparc": 5825, "duree": "", "horodatage": "2022-10-12 17:15:52", "marker-color": "#56FF93"}}, {"type": "Feature", "geometry": {"type": "Point", "coordinates": [2.259392, 48.765701]}, "properties": {"etat de la localisation": "Deviation programmee", "numparc": 5833, "duree": "", "horodatage": "2022-10-12 17:23:40", "marker-color": "#56FF93"}}, {"type": "Feature", "geometry": {"type": "Point", "coordinates": [2.259376, 48.765671]}, "properties": {"etat de la localisation": "Deviation programmee", "numparc": 5860, "duree": "", "horodatage": "2022-10-12 17:30:09", "marker-color": "#56FF93"}}, {"type": "Feature", "geometry": {"type": "Point", "coordinates": [2.218991, 48.785141]}, "properties": {"etat de la localisation": "Mission suivante non connue", "numparc": 5825, "duree": "", "horodatage": "2022-10-12 17:33:50", "marker-color": "#7156FF"}}, {"type": "Feature", "geometry": {"type": "Point", "coordinates": [2.252113, 48.767872]}, "properties": {"etat de la localisation": "Delocalise", "numparc": 5860, "duree": "00:00:18", "horodatage": "2022-10-12 17:38:36", "marker-color": "#FF565E"}}, {"type": "Feature", "geometry": {"type": "Point", "coordinates": [2.259374, 48.765678]}, "properties": {"etat de la localisation": "Deviation programmee", "numparc": 5835, "duree": "", "horodatage": "2022-10-12 17:44:55", "marker-color": "#56FF93"}}, {"type": "Feature", "geometry": {"type": "Point", "coordinates": [2.259408, 48.765686]}, "properties": {"etat de la localisation": "Deviation programmee", "numparc": 5828, "duree": "", "horodatage": "2022-10-12 17:51:45", "marker-color": "#56FF93"}}, {"type": "Feature", "geometry": {"type": "Point", "coordinates": [2.301754, 48.762039]}, "properties": {"etat de la localisation": "Mission suivante non connue", "numparc": 5860, "duree": "", "horodatage": "2022-10-12 17:53:07", "marker-color": "#7156FF"}}, {"type": "Feature", "geometry": {"type": "Point", "coordinates": [2.298066, 48.721485]}, "properties": {"etat de la localisation": "Hors service", "numparc": 5825, "duree": "", "horodatage": "2022-10-12 17:59:18", "marker-color": "#707070"}}, {"type": "Feature", "geometry": {"type": "Point", "coordinates": [2.298041, 48.721592]}, "properties": {"etat de la localisation": "Hors service", "numparc": 5860, "duree": "", "horodatage": "2022-10-12 18:07:37", "marker-color": "#707070"}}, {"type": "Feature", "geometry": {"type": "Point", "coordinates": [2.294984, 48.760704]}, "properties": {"etat de la localisation": "Delocalise", "numparc": 5846, "duree": "00:01:46", "horodatage": "2022-10-12 18:10:10", "marker-color": "#FF565E"}}, {"type": "Feature", "geometry": {"type": "Point", "coordinates": [2.298633, 48.721851]}, "properties": {"etat de la localisation": "Mission inconnue", "numparc": 5822, "duree": "", "horodatage": "2022-10-12 18:11:08", "marker-color": "#FF9F56"}}, {"type": "Feature", "geometry": {"type": "Point", "coordinates": [2.298977, 48.722797]}, "properties": {"etat de la localisation": "Hors service", "numparc": 5823, "duree": "", "horodatage": "2022-10-12 18:11:50", "marker-color": "#707070"}}, {"type": "Feature", "geometry": {"type": "Point", "coordinates": [2.298478, 48.72266]}, "properties": {"etat de la localisation": "Mission inconnue", "numparc": 5860, "duree": "", "horodatage": "2022-10-12 18:15:16", "marker-color": "#FF9F56"}}, {"type": "Feature", "geometry": {"type": "Point", "coordinates": [2.298461, 48.722328]}, "properties": {"etat de la localisation": "Hors service", "numparc": 5822, "duree": "", "horodatage": "2022-10-12 18:21:52", "marker-color": "#707070"}}, {"type": "Feature", "geometry": {"type": "Point", "coordinates": [2.298258, 48.72253]}, "properties": {"etat de la localisation": "Delocalise", "numparc": 5826, "duree": "00:02:54", "horodatage": "2022-10-12 18:26:32", "marker-color": "#FF565E"}}, {"type": "Feature", "geometry": {"type": "Point", "coordinates": [2.296917, 48.721836]}, "properties": {"etat de la localisation": "Hors service", "numparc": 5826, "duree": "", "horodatage": "2022-10-12 18:29:26", "marker-color": "#707070"}}, {"type": "Feature", "geometry": {"type": "Point", "coordinates": [2.298561, 48.721886]}, "properties": {"etat de la localisation": "Mission inconnue", "numparc": 5822, "duree": "", "horodatage": "2022-10-12 18:29:59", "marker-color": "#FF9F56"}}, {"type": "Feature", "geometry": {"type": "Point", "coordinates": [2.298563, 48.721886]}, "properties": {"etat de la localisation": "Hors service", "numparc": 5822, "duree": "", "horodatage": "2022-10-12 18:31:10", "marker-color": "#707070"}}, {"type": "Feature", "geometry": {"type": "Point", "coordinates": [2.29502, 48.760696]}, "properties": {"etat de la localisation": "Delocalise", "numparc": 5860, "duree": "00:01:25", "horodatage": "2022-10-12 18:37:16", "marker-color": "#FF565E"}}, {"type": "Feature", "geometry": {"type": "Point", "coordinates": [2.296568, 48.721664]}, "properties": {"etat de la localisation": "Mission inconnue", "numparc": 5822, "duree": "", "horodatage": "2022-10-12 18:37:53", "marker-color": "#FF9F56"}}, {"type": "Feature", "geometry": {"type": "Point", "coordinates": [2.296568, 48.721664]}, "properties": {"etat de la localisation": "Hors service", "numparc": 5822, "duree": "", "horodatage": "2022-10-12 18:39:12", "marker-color": "#707070"}}, {"type": "Feature", "geometry": {"type": "Point", "coordinates": [2.295107, 48.760796]}, "properties": {"etat de la localisation": "Delocalise", "numparc": 5826, "duree": "00:01:16", "horodatage": "2022-10-12 18:48:17", "marker-color": "#FF565E"}}, {"type": "Feature", "geometry": {"type": "Point", "coordinates": [2.298378, 48.721756]}, "properties": {"etat de la localisation": "Mission inconnue", "numparc": 5825, "duree": "", "horodatage": "2022-10-12 19:20:08", "marker-color": "#FF9F56"}}, {"type": "Feature", "geometry": {"type": "Point", "coordinates": [2.29837, 48.721756]}, "properties": {"etat de la localisation": "Hors service", "numparc": 5825, "duree": "", "horodatage": "2022-10-12 19:21:31", "marker-color": "#707070"}}, {"type": "Feature", "geometry": {"type": "Point", "coordinates": [2.297669, 48.721695]}, "properties": {"etat de la localisation": "Hors service", "numparc": 5821, "duree": "", "horodatage": "2022-10-12 19:28:13", "marker-color": "#707070"}}, {"type": "Feature", "geometry": {"type": "Point", "coordinates": [2.219047, 48.785339]}, "properties": {"etat de la localisation": "Mission suivante non connue", "numparc": 5835, "duree": "", "horodatage": "2022-10-12 19:42:44", "marker-color": "#7156FF"}}, {"type": "Feature", "geometry": {"type": "Point", "coordinates": [2.219234, 48.785267]}, "properties": {"etat de la localisation": "Mission suivante non connue", "numparc": 5828, "duree": "", "horodatage": "2022-10-12 19:42:48", "marker-color": "#7156FF"}}, {"type": "Feature", "geometry": {"type": "Point", "coordinates": [2.219582, 48.785217]}, "properties": {"etat de la localisation": "Delocalise", "numparc": 5860, "duree": "00:01:44", "horodatage": "2022-10-12 19:48:10", "marker-color": "#FF565E"}}, {"type": "Feature", "geometry": {"type": "Point", "coordinates": [2.297634, 48.721523]}, "properties": {"etat de la localisation": "Hors service", "numparc": 5828, "duree": "", "horodatage": "2022-10-12 20:02:53", "marker-color": "#707070"}}, {"type": "Feature", "geometry": {"type": "Point", "coordinates": [2.297436, 48.721497]}, "properties": {"etat de la localisation": "Hors service", "numparc": 5833, "duree": "", "horodatage": "2022-10-12 20:14:12", "marker-color": "#707070"}}, {"type": "Feature", "geometry": {"type": "Point", "coordinates": [2.297228, 48.721722]}, "properties": {"etat de la localisation": "Hors service", "numparc": 5835, "duree": "", "horodatage": "2022-10-12 20:17:18", "marker-color": "#707070"}}, {"type": "Feature", "geometry": {"type": "Point", "coordinates": [2.298378, 48.722515]}, "properties": {"etat de la localisation": "Mission inconnue", "numparc": 5825, "duree": "", "horodatage": "2022-10-12 20:48:21", "marker-color": "#FF9F56"}}, {"type": "Feature", "geometry": {"type": "Point", "coordinates": [2.219144, 48.785572]}, "properties": {"etat de la localisation": "Mission suivante non connue", "numparc": 5837, "duree": "", "horodatage": "2022-10-12 20:48:31", "marker-color": "#7156FF"}}, {"type": "Feature", "geometry": {"type": "Point", "coordinates": [2.219141, 48.785572]}, "properties": {"etat de la localisation": "Mission suivante non connue", "numparc": 5837, "duree": "", "horodatage": "2022-10-12 20:48:53", "marker-color": "#7156FF"}}, {"type": "Feature", "geometry": {"type": "Point", "coordinates": [2.297593, 48.721527]}, "properties": {"etat de la localisation": "Hors service", "numparc": 5825, "duree": "", "horodatage": "2022-10-12 20:55:48", "marker-color": "#707070"}}, {"type": "Feature", "geometry": {"type": "Point", "coordinates": [2.254072, 48.766979]}, "properties": {"etat de la localisation": "Delocalise", "numparc": 5846, "duree": "00:08:36", "horodatage": "2022-10-12 21:03:08", "marker-color": "#FF565E"}}, {"type": "Feature", "geometry": {"type": "Point", "coordinates": [2.297834, 48.722412]}, "properties": {"etat de la localisation": "Hors service", "numparc": 5853, "duree": "", "horodatage": "2022-10-12 21:04:48", "marker-color": "#707070"}}, {"type": "Feature", "geometry": {"type": "Point", "coordinates": [2.301307, 48.761986]}, "properties": {"etat de la localisation": "Mission suivante non connue", "numparc": 5845, "duree": "", "horodatage": "2022-10-12 21:06:12", "marker-color": "#7156FF"}}, {"type": "Feature", "geometry": {"type": "Point", "coordinates": [2.266217, 48.764622]}, "properties": {"etat de la localisation": "Delocalise", "numparc": 5826, "duree": "00:01:03", "horodatage": "2022-10-12 21:10:14", "marker-color": "#FF565E"}}, {"type": "Feature", "geometry": {"type": "Point", "coordinates": [2.301771, 48.762089]}, "properties": {"etat de la localisation": "Mission suivante non connue", "numparc": 5846, "duree": "", "horodatage": "2022-10-12 21:11:44", "marker-color": "#7156FF"}}, {"type": "Feature", "geometry": {"type": "Point", "coordinates": [2.270866, 48.761642]}, "properties": {"etat de la localisation": "Delocalise", "numparc": 5826, "duree": "00:09:15", "horodatage": "2022-10-12 21:13:02", "marker-color": "#FF565E"}}, {"type": "Feature", "geometry": {"type": "Point", "coordinates": [2.302365, 48.762257]}, "properties": {"etat de la localisation": "Mission suivante non connue", "numparc": 5846, "duree": "", "horodatage": "2022-10-12 21:13:35", "marker-color": "#7156FF"}}, {"type": "Feature", "geometry": {"type": "Point", "coordinates": [2.238834, 48.773201]}, "properties": {"etat de la localisation": "Deviation programmee", "numparc": 5860, "duree": "", "horodatage": "2022-10-12 21:29:14", "marker-color": "#56FF93"}}, {"type": "Feature", "geometry": {"type": "Point", "coordinates": [2.298513, 48.722702]}, "properties": {"etat de la localisation": "Hors service", "numparc": 5837, "duree": "", "horodatage": "2022-10-12 21:33:49", "marker-color": "#707070"}}, {"type": "Feature", "geometry": {"type": "Point", "coordinates": [2.270879, 48.761452]}, "properties": {"etat de la localisation": "Delocalise", "numparc": 5845, "duree": "00:05:08", "horodatage": "2022-10-12 21:35:21", "marker-color": "#FF565E"}}, {"type": "Feature", "geometry": {"type": "Point", "coordinates": [2.238801, 48.773346]}, "properties": {"etat de la localisation": "Deviation programmee", "numparc": 5826, "duree": "", "horodatage": "2022-10-12 21:44:48", "marker-color": "#56FF93"}}, {"type": "Feature", "geometry": {"type": "Point", "coordinates": [2.219055, 48.785393]}, "properties": {"etat de la localisation": "Mission suivante non connue", "numparc": 5845, "duree": "", "horodatage": "2022-10-12 21:49:21", "marker-color": "#7156FF"}}, {"type": "Feature", "geometry": {"type": "Point", "coordinates": [2.270866, 48.761398]}, "properties": {"etat de la localisation": "Delocalise", "numparc": 5846, "duree": "00:03:30", "horodatage": "2022-10-12 21:52:39", "marker-color": "#FF565E"}}, {"type": "Feature", "geometry": {"type": "Point", "coordinates": [2.302383, 48.762245]}, "properties": {"etat de la localisation": "Mission suivante non connue", "numparc": 5826, "duree": "", "horodatage": "2022-10-12 21:58:22", "marker-color": "#7156FF"}}, {"type": "Feature", "geometry": {"type": "Point", "coordinates": [2.219094, 48.785553]}, "properties": {"etat de la localisation": "Mission suivante non connue", "numparc": 5846, "duree": "", "horodatage": "2022-10-12 22:05:04", "marker-color": "#7156FF"}}, {"type": "Feature", "geometry": {"type": "Point", "coordinates": [2.27091, 48.761349]}, "properties": {"etat de la localisation": "Delocalise", "numparc": 5860, "duree": "00:10:08", "horodatage": "2022-10-12 22:06:51", "marker-color": "#FF565E"}}, {"type": "Feature", "geometry": {"type": "Point", "coordinates": [2.219065, 48.785477]}, "properties": {"etat de la localisation": "Mission suivante non connue", "numparc": 5860, "duree": "", "horodatage": "2022-10-12 22:16:59", "marker-color": "#7156FF"}}, {"type": "Feature", "geometry": {"type": "Point", "coordinates": [2.270892, 48.761528]}, "properties": {"etat de la localisation": "Delocalise", "numparc": 5826, "duree": "00:04:44", "horodatage": "2022-10-12 22:24:18", "marker-color": "#FF565E"}}, {"type": "Feature", "geometry": {"type": "Point", "coordinates": [2.238845, 48.773136]}, "properties": {"etat de la localisation": "Deviation programmee", "numparc": 5846, "duree": "", "horodatage": "2022-10-12 22:33:06", "marker-color": "#56FF93"}}, {"type": "Feature", "geometry": {"type": "Point", "coordinates": [2.270895, 48.761662]}, "properties": {"etat de la localisation": "Delocalise", "numparc": 5845, "duree": "00:10:55", "horodatage": "2022-10-12 22:38:05", "marker-color": "#FF565E"}}, {"type": "Feature", "geometry": {"type": "Point", "coordinates": [2.301699, 48.762028]}, "properties": {"etat de la localisation": "Mission suivante non connue", "numparc": 5846, "duree": "", "horodatage": "2022-10-12 22:38:50", "marker-color": "#7156FF"}}, {"type": "Feature", "geometry": {"type": "Point", "coordinates": [2.242514, 48.772709]}, "properties": {"etat de la localisation": "Delocalise", "numparc": 5860, "duree": "00:04:43", "horodatage": "2022-10-12 22:42:37", "marker-color": "#FF565E"}}, {"type": "Feature", "geometry": {"type": "Point", "coordinates": [2.30301, 48.762436]}, "properties": {"etat de la localisation": "Delocalise", "numparc": 5846, "duree": "00:04:59", "horodatage": "2022-10-12 22:51:42", "marker-color": "#FF565E"}}, {"type": "Feature", "geometry": {"type": "Point", "coordinates": [2.238929, 48.773293]}, "properties": {"etat de la localisation": "Deviation programmee", "numparc": 5826, "duree": "", "horodatage": "2022-10-12 22:53:35", "marker-color": "#56FF93"}}, {"type": "Feature", "geometry": {"type": "Point", "coordinates": [2.302358, 48.762238]}, "properties": {"etat de la localisation": "Mission suivante non connue", "numparc": 5826, "duree": "", "horodatage": "2022-10-12 22:59:27", "marker-color": "#7156FF"}}, {"type": "Feature", "geometry": {"type": "Point", "coordinates": [2.270891, 48.761494]}, "properties": {"etat de la localisation": "Delocalise", "numparc": 5846, "duree": "00:08:09", "horodatage": "2022-10-12 23:00:25", "marker-color": "#FF565E"}}, {"type": "Feature", "geometry": {"type": "Point", "coordinates": [2.238846, 48.773182]}, "properties": {"etat de la localisation": "Deviation programmee", "numparc": 5845, "duree": "", "horodatage": "2022-10-12 23:07:14", "marker-color": "#56FF93"}}, {"type": "Feature", "geometry": {"type": "Point", "coordinates": [2.219034, 48.78537]}, "properties": {"etat de la localisation": "Mission suivante non connue", "numparc": 5846, "duree": "", "horodatage": "2022-10-12 23:10:43", "marker-color": "#7156FF"}}, {"type": "Feature", "geometry": {"type": "Point", "coordinates": [2.270899, 48.761421]}, "properties": {"etat de la localisation": "Delocalise", "numparc": 5860, "duree": "00:05:28", "horodatage": "2022-10-12 23:10:57", "marker-color": "#FF565E"}}, {"type": "Feature", "geometry": {"type": "Point", "coordinates": [2.21903, 48.785263]}, "properties": {"etat de la localisation": "Mission suivante non connue", "numparc": 5846, "duree": "", "horodatage": "2022-10-12 23:12:28", "marker-color": "#7156FF"}}, {"type": "Feature", "geometry": {"type": "Point", "coordinates": [2.302398, 48.76226]}, "properties": {"etat de la localisation": "Mission suivante non connue", "numparc": 5845, "duree": "", "horodatage": "2022-10-12 23:19:55", "marker-color": "#7156FF"}}, {"type": "Feature", "geometry": {"type": "Point", "coordinates": [2.223006, 48.783134]}, "properties": {"etat de la localisation": "Delocalise", "numparc": 5860, "duree": "00:03:05", "horodatage": "2022-10-12 23:25:16", "marker-color": "#FF565E"}}, {"type": "Feature", "geometry": {"type": "Point", "coordinates": [2.270821, 48.761578]}, "properties": {"etat de la localisation": "Delocalise", "numparc": 5826, "duree": "00:08:57", "horodatage": "2022-10-12 23:25:55", "marker-color": "#FF565E"}}, {"type": "Feature", "geometry": {"type": "Point", "coordinates": [2.221412, 48.785915]}, "properties": {"etat de la localisation": "Delocalise", "numparc": 5860, "duree": "00:00:00", "horodatage": "2022-10-12 23:31:25", "marker-color": "#FF565E"}}, {"type": "Feature", "geometry": {"type": "Point", "coordinates": [2.241849, 48.773064]}, "properties": {"etat de la localisation": "Delocalise", "numparc": 5846, "duree": "00:33:49", "horodatage": "2022-10-12 23:31:27", "marker-color": "#FF565E"}}, {"type": "Feature", "geometry": {"type": "Point", "coordinates": [2.270905, 48.761501]}, "properties": {"etat de la localisation": "Delocalise", "numparc": 5845, "duree": "00:09:17", "horodatage": "2022-10-12 23:34:05", "marker-color": "#FF565E"}}, {"type": "Feature", "geometry": {"type": "Point", "coordinates": [2.242375, 48.772842]}, "properties": {"etat de la localisation": "Delocalise", "numparc": 5860, "duree": "00:05:10", "horodatage": "2022-10-12 23:41:20", "marker-color": "#FF565E"}}, {"type": "Feature", "geometry": {"type": "Point", "coordinates": [2.238847, 48.773174]}, "properties": {"etat de la localisation": "Deviation programmee", "numparc": 5826, "duree": "", "horodatage": "2022-10-12 23:55:09", "marker-color": "#56FF93"}}, {"type": "Feature", "geometry": {"type": "Point", "coordinates": [2.30241, 48.762245]}, "properties": {"etat de la localisation": "Mission suivante non connue", "numparc": 5826, "duree": "", "horodatage": "2022-10-13 00:05:00", "marker-color": "#7156FF"}}, {"type": "Feature", "geometry": {"type": "Point", "coordinates": [2.242376, 48.772816]}, "properties": {"etat de la localisation": "Delocalise", "numparc": 5845, "duree": "00:09:16", "horodatage": "2022-10-13 00:06:04", "marker-color": "#FF565E"}}, {"type": "Feature", "geometry": {"type": "Point", "coordinates": [2.270894, 48.761612]}, "properties": {"etat de la localisation": "Delocalise", "numparc": 5860, "duree": "00:05:41", "horodatage": "2022-10-13 00:09:06", "marker-color": "#FF565E"}}, {"type": "Feature", "geometry": {"type": "Point", "coordinates": [2.270884, 48.761368]}, "properties": {"etat de la localisation": "Delocalise", "numparc": 5826, "duree": "00:11:09", "horodatage": "2022-10-13 00:23:02", "marker-color": "#FF565E"}}, {"type": "Feature", "geometry": {"type": "Point", "coordinates": [2.238824, 48.773197]}, "properties": {"etat de la localisation": "Deviation programmee", "numparc": 5846, "duree": "", "horodatage": "2022-10-13 00:30:07", "marker-color": "#56FF93"}}, {"type": "Feature", "geometry": {"type": "Point", "coordinates": [2.219013, 48.785271]}, "properties": {"etat de la localisation": "Mission suivante non connue", "numparc": 5826, "duree": "", "horodatage": "2022-10-13 00:35:42", "marker-color": "#7156FF"}}, {"type": "Feature", "geometry": {"type": "Point", "coordinates": [2.301536, 48.762039]}, "properties": {"etat de la localisation": "Mission suivante non connue", "numparc": 5846, "duree": "", "horodatage": "2022-10-13 00:35:43", "marker-color": "#7156FF"}}, {"type": "Feature", "geometry": {"type": "Point", "coordinates": [2.270881, 48.761578]}, "properties": {"etat de la localisation": "Delocalise", "numparc": 5845, "duree": "00:05:48", "horodatage": "2022-10-13 00:36:00", "marker-color": "#FF565E"}}, {"type": "Feature", "geometry": {"type": "Point", "coordinates": [2.298199, 48.721588]}, "properties": {"etat de la localisation": "Hors service", "numparc": 5860, "duree": "", "horodatage": "2022-10-13 00:36:31", "marker-color": "#707070"}}, {"type": "Feature", "geometry": {"type": "Point", "coordinates": [2.308016, 48.763485]}, "properties": {"etat de la localisation": "Delocalise", "numparc": 5846, "duree": "00:09:54", "horodatage": "2022-10-13 00:37:08", "marker-color": "#FF565E"}}, {"type": "Feature", "geometry": {"type": "Point", "coordinates": [2.238822, 48.773167]}, "properties": {"etat de la localisation": "Deviation programmee", "numparc": 5826, "duree": "", "horodatage": "2022-10-13 00:42:42", "marker-color": "#56FF93"}}, {"type": "Feature", "geometry": {"type": "Point", "coordinates": [2.296572, 48.721333]}, "properties": {"etat de la localisation": "Hors service", "numparc": 5846, "duree": "", "horodatage": "2022-10-13 00:47:02", "marker-color": "#707070"}}, {"type": "Feature", "geometry": {"type": "Point", "coordinates": [2.302377, 48.76228]}, "properties": {"etat de la localisation": "Mission suivante non connue", "numparc": 5826, "duree": "", "horodatage": "2022-10-13 00:53:28", "marker-color": "#7156FF"}}, {"type": "Feature", "geometry": {"type": "Point", "coordinates": [2.242541, 48.772629]}, "properties": {"etat de la localisation": "Delocalise", "numparc": 5845, "duree": "00:09:14", "horodatage": "2022-10-13 00:55:06", "marker-color": "#FF565E"}}, {"type": "Feature", "geometry": {"type": "Point", "coordinates": [2.270858, 48.761341]}, "properties": {"etat de la localisation": "Delocalise", "numparc": 5826, "duree": "00:19:57", "horodatage": "2022-10-13 01:08:31", "marker-color": "#FF565E"}}, {"type": "Feature", "geometry": {"type": "Point", "coordinates": [2.297012, 48.721706]}, "properties": {"etat de la localisation": "Hors service", "numparc": 5826, "duree": "", "horodatage": "2022-10-13 01:28:28", "marker-color": "#707070"}}, {"type": "Feature", "geometry": {"type": "Point", "coordinates": [2.270889, 48.761536]}, "properties": {"etat de la localisation": "Delocalise", "numparc": 5845, "duree": "00:00:41", "horodatage": "2022-10-13 01:29:38", "marker-color": "#FF565E"}}, {"type": "Feature", "geometry": {"type": "Point", "coordinates": [2.296581, 48.721626]}, "properties": {"etat de la localisation": "Hors service", "numparc": 5845, "duree": "", "horodatage": "2022-10-13 01:40:53", "marker-color": "#707070"}}]}