{"type": "FeatureCollection", "features": [{"type": "Feature", "geometry": {"type": "Point", "coordinates": [2.426934, 48.879238]}, "properties": {"etat de la localisation": "Delocalise", "numparc": 2002, "duree": "00:03:00", "horodatage": "2021-12-25 06:13:13", "marker-color": "#FF565E"}}, {"type": "Feature", "geometry": {"type": "Point", "coordinates": [2.42682, 48.879154]}, "properties": {"etat de la localisation": "Delocalise", "numparc": 1507, "duree": "00:04:16", "horodatage": "2021-12-25 06:40:01", "marker-color": "#FF565E"}}, {"type": "Feature", "geometry": {"type": "Point", "coordinates": [2.426747, 48.879253]}, "properties": {"etat de la localisation": "Delocalise", "numparc": 1508, "duree": "00:03:03", "horodatage": "2021-12-25 06:40:20", "marker-color": "#FF565E"}}, {"type": "Feature", "geometry": {"type": "Point", "coordinates": [2.425062, 48.876297]}, "properties": {"etat de la localisation": "Mission inconnue", "numparc": 1508, "duree": "", "horodatage": "2021-12-25 06:46:05", "marker-color": "#FF9F56"}}, {"type": "Feature", "geometry": {"type": "Point", "coordinates": [2.32095, 48.842121]}, "properties": {"etat de la localisation": "Delocalise", "numparc": 2002, "duree": "00:00:09", "horodatage": "2021-12-25 06:46:40", "marker-color": "#FF565E"}}, {"type": "Feature", "geometry": {"type": "Point", "coordinates": [2.344171, 48.853245]}, "properties": {"etat de la localisation": "Deviation programmee", "numparc": 2002, "duree": "", "horodatage": "2021-12-25 07:08:29", "marker-color": "#56FF93"}}, {"type": "Feature", "geometry": {"type": "Point", "coordinates": [2.349524, 48.857285]}, "properties": {"etat de la localisation": "Deviation programmee", "numparc": 1507, "duree": "", "horodatage": "2021-12-25 07:19:15", "marker-color": "#56FF93"}}, {"type": "Feature", "geometry": {"type": "Point", "coordinates": [2.36118, 48.855045]}, "properties": {"etat de la localisation": "Mission inconnue", "numparc": 1508, "duree": "", "horodatage": "2021-12-25 07:26:46", "marker-color": "#FF9F56"}}, {"type": "Feature", "geometry": {"type": "Point", "coordinates": [2.405587, 48.874672]}, "properties": {"etat de la localisation": "Delocalise", "numparc": 1508, "duree": "00:06:04", "horodatage": "2021-12-25 07:42:57", "marker-color": "#FF565E"}}, {"type": "Feature", "geometry": {"type": "Point", "coordinates": [2.344032, 48.853268]}, "properties": {"etat de la localisation": "Deviation programmee", "numparc": 1507, "duree": "", "horodatage": "2021-12-25 07:52:21", "marker-color": "#56FF93"}}, {"type": "Feature", "geometry": {"type": "Point", "coordinates": [2.349545, 48.857292]}, "properties": {"etat de la localisation": "Deviation programmee", "numparc": 2002, "duree": "", "horodatage": "2021-12-25 08:06:26", "marker-color": "#56FF93"}}, {"type": "Feature", "geometry": {"type": "Point", "coordinates": [2.349499, 48.857285]}, "properties": {"etat de la localisation": "Deviation programmee", "numparc": 1508, "duree": "", "horodatage": "2021-12-25 08:27:18", "marker-color": "#56FF93"}}, {"type": "Feature", "geometry": {"type": "Point", "coordinates": [2.406106, 48.875862]}, "properties": {"etat de la localisation": "Hors service", "numparc": 1507, "duree": "", "horodatage": "2021-12-25 08:31:54", "marker-color": "#707070"}}, {"type": "Feature", "geometry": {"type": "Point", "coordinates": [2.344147, 48.853188]}, "properties": {"etat de la localisation": "Deviation programmee", "numparc": 2002, "duree": "", "horodatage": "2021-12-25 08:39:44", "marker-color": "#56FF93"}}, {"type": "Feature", "geometry": {"type": "Point", "coordinates": [2.349535, 48.857281]}, "properties": {"etat de la localisation": "Deviation programmee", "numparc": 1507, "duree": "", "horodatage": "2021-12-25 08:59:32", "marker-color": "#56FF93"}}, {"type": "Feature", "geometry": {"type": "Point", "coordinates": [2.34407, 48.853203]}, "properties": {"etat de la localisation": "Deviation programmee", "numparc": 1508, "duree": "", "horodatage": "2021-12-25 09:00:04", "marker-color": "#56FF93"}}, {"type": "Feature", "geometry": {"type": "Point", "coordinates": [2.343967, 48.853199]}, "properties": {"etat de la localisation": "Deviation programmee", "numparc": 1507, "duree": "", "horodatage": "2021-12-25 09:36:05", "marker-color": "#56FF93"}}, {"type": "Feature", "geometry": {"type": "Point", "coordinates": [2.34954, 48.857399]}, "properties": {"etat de la localisation": "Deviation programmee", "numparc": 2002, "duree": "", "horodatage": "2021-12-25 09:45:00", "marker-color": "#56FF93"}}, {"type": "Feature", "geometry": {"type": "Point", "coordinates": [2.34953, 48.857334]}, "properties": {"etat de la localisation": "Deviation programmee", "numparc": 1508, "duree": "", "horodatage": "2021-12-25 10:16:41", "marker-color": "#56FF93"}}, {"type": "Feature", "geometry": {"type": "Point", "coordinates": [2.344, 48.853268]}, "properties": {"etat de la localisation": "Deviation programmee", "numparc": 2002, "duree": "", "horodatage": "2021-12-25 10:22:33", "marker-color": "#56FF93"}}, {"type": "Feature", "geometry": {"type": "Point", "coordinates": [2.428092, 48.87907]}, "properties": {"etat de la localisation": "Hors service", "numparc": 1499, "duree": "", "horodatage": "2021-12-25 10:41:07", "marker-color": "#707070"}}, {"type": "Feature", "geometry": {"type": "Point", "coordinates": [2.349524, 48.857323]}, "properties": {"etat de la localisation": "Deviation programmee", "numparc": 1507, "duree": "", "horodatage": "2021-12-25 10:42:08", "marker-color": "#56FF93"}}, {"type": "Feature", "geometry": {"type": "Point", "coordinates": [2.344098, 48.853226]}, "properties": {"etat de la localisation": "Deviation programmee", "numparc": 1508, "duree": "", "horodatage": "2021-12-25 10:50:54", "marker-color": "#56FF93"}}, {"type": "Feature", "geometry": {"type": "Point", "coordinates": [2.343956, 48.853249]}, "properties": {"etat de la localisation": "Deviation programmee", "numparc": 1507, "duree": "", "horodatage": "2021-12-25 11:22:28", "marker-color": "#56FF93"}}, {"type": "Feature", "geometry": {"type": "Point", "coordinates": [2.349516, 48.85741]}, "properties": {"etat de la localisation": "Deviation programmee", "numparc": 2002, "duree": "", "horodatage": "2021-12-25 11:39:24", "marker-color": "#56FF93"}}, {"type": "Feature", "geometry": {"type": "Point", "coordinates": [2.406165, 48.875961]}, "properties": {"etat de la localisation": "Hors service", "numparc": 1507, "duree": "", "horodatage": "2021-12-25 12:03:55", "marker-color": "#707070"}}, {"type": "Feature", "geometry": {"type": "Point", "coordinates": [2.427811, 48.879181]}, "properties": {"etat de la localisation": "Delocalise", "numparc": 1484, "duree": "00:02:11", "horodatage": "2021-12-25 12:04:00", "marker-color": "#FF565E"}}, {"type": "Feature", "geometry": {"type": "Point", "coordinates": [2.349533, 48.857296]}, "properties": {"etat de la localisation": "Deviation programmee", "numparc": 1508, "duree": "", "horodatage": "2021-12-25 12:07:26", "marker-color": "#56FF93"}}, {"type": "Feature", "geometry": {"type": "Point", "coordinates": [2.344191, 48.85321]}, "properties": {"etat de la localisation": "Deviation programmee", "numparc": 2002, "duree": "", "horodatage": "2021-12-25 12:20:39", "marker-color": "#56FF93"}}, {"type": "Feature", "geometry": {"type": "Point", "coordinates": [2.407245, 48.877396]}, "properties": {"etat de la localisation": "Hors service", "numparc": 1514, "duree": "", "horodatage": "2021-12-25 12:30:29", "marker-color": "#707070"}}, {"type": "Feature", "geometry": {"type": "Point", "coordinates": [2.349522, 48.857265]}, "properties": {"etat de la localisation": "Deviation programmee", "numparc": 1484, "duree": "", "horodatage": "2021-12-25 12:45:46", "marker-color": "#56FF93"}}, {"type": "Feature", "geometry": {"type": "Point", "coordinates": [2.344091, 48.853203]}, "properties": {"etat de la localisation": "Deviation programmee", "numparc": 1508, "duree": "", "horodatage": "2021-12-25 12:45:47", "marker-color": "#56FF93"}}, {"type": "Feature", "geometry": {"type": "Point", "coordinates": [2.406155, 48.875813]}, "properties": {"etat de la localisation": "Mission suivante non connue", "numparc": 2002, "duree": "", "horodatage": "2021-12-25 12:48:56", "marker-color": "#7156FF"}}, {"type": "Feature", "geometry": {"type": "Point", "coordinates": [2.349561, 48.857227]}, "properties": {"etat de la localisation": "Deviation programmee", "numparc": 1507, "duree": "", "horodatage": "2021-12-25 13:02:18", "marker-color": "#56FF93"}}, {"type": "Feature", "geometry": {"type": "Point", "coordinates": [2.406191, 48.875835]}, "properties": {"etat de la localisation": "Hors service", "numparc": 2002, "duree": "", "horodatage": "2021-12-25 13:10:10", "marker-color": "#707070"}}, {"type": "Feature", "geometry": {"type": "Point", "coordinates": [2.320914, 48.842106]}, "properties": {"etat de la localisation": "Hors service", "numparc": 1484, "duree": "", "horodatage": "2021-12-25 13:12:03", "marker-color": "#707070"}}, {"type": "Feature", "geometry": {"type": "Point", "coordinates": [2.406193, 48.876122]}, "properties": {"etat de la localisation": "Hors service", "numparc": 1508, "duree": "", "horodatage": "2021-12-25 13:25:05", "marker-color": "#707070"}}, {"type": "Feature", "geometry": {"type": "Point", "coordinates": [2.344044, 48.853214]}, "properties": {"etat de la localisation": "Deviation programmee", "numparc": 1484, "duree": "", "horodatage": "2021-12-25 13:27:48", "marker-color": "#56FF93"}}, {"type": "Feature", "geometry": {"type": "Point", "coordinates": [2.350724, 48.855999]}, "properties": {"etat de la localisation": "Deviation programmee", "numparc": 1484, "duree": "", "horodatage": "2021-12-25 13:31:17", "marker-color": "#56FF93"}}, {"type": "Feature", "geometry": {"type": "Point", "coordinates": [2.343908, 48.853245]}, "properties": {"etat de la localisation": "Deviation programmee", "numparc": 1507, "duree": "", "horodatage": "2021-12-25 13:41:11", "marker-color": "#56FF93"}}, {"type": "Feature", "geometry": {"type": "Point", "coordinates": [2.427358, 48.87891]}, "properties": {"etat de la localisation": "Delocalise", "numparc": 1521, "duree": "00:02:47", "horodatage": "2021-12-25 13:41:57", "marker-color": "#FF565E"}}, {"type": "Feature", "geometry": {"type": "Point", "coordinates": [2.350757, 48.856041]}, "properties": {"etat de la localisation": "Deviation programmee", "numparc": 1507, "duree": "", "horodatage": "2021-12-25 13:45:33", "marker-color": "#56FF93"}}, {"type": "Feature", "geometry": {"type": "Point", "coordinates": [2.349547, 48.857346]}, "properties": {"etat de la localisation": "Deviation programmee", "numparc": 2002, "duree": "", "horodatage": "2021-12-25 13:48:44", "marker-color": "#56FF93"}}, {"type": "Feature", "geometry": {"type": "Point", "coordinates": [2.362711, 48.854584]}, "properties": {"etat de la localisation": "Delocalise", "numparc": 1507, "duree": "00:00:43", "horodatage": "2021-12-25 13:50:37", "marker-color": "#FF565E"}}, {"type": "Feature", "geometry": {"type": "Point", "coordinates": [2.406069, 48.875927]}, "properties": {"etat de la localisation": "Hors service", "numparc": 1484, "duree": "", "horodatage": "2021-12-25 14:02:52", "marker-color": "#707070"}}, {"type": "Feature", "geometry": {"type": "Point", "coordinates": [2.34955, 48.857296]}, "properties": {"etat de la localisation": "Deviation programmee", "numparc": 1508, "duree": "", "horodatage": "2021-12-25 14:06:41", "marker-color": "#56FF93"}}, {"type": "Feature", "geometry": {"type": "Point", "coordinates": [2.32095, 48.842152]}, "properties": {"etat de la localisation": "Hors service", "numparc": 2002, "duree": "", "horodatage": "2021-12-25 14:07:15", "marker-color": "#707070"}}, {"type": "Feature", "geometry": {"type": "Point", "coordinates": [2.344199, 48.853172]}, "properties": {"etat de la localisation": "Deviation programmee", "numparc": 2002, "duree": "", "horodatage": "2021-12-25 14:26:37", "marker-color": "#56FF93"}}, {"type": "Feature", "geometry": {"type": "Point", "coordinates": [2.343927, 48.853218]}, "properties": {"etat de la localisation": "Deviation programmee", "numparc": 1521, "duree": "", "horodatage": "2021-12-25 14:35:14", "marker-color": "#56FF93"}}, {"type": "Feature", "geometry": {"type": "Point", "coordinates": [2.344076, 48.853241]}, "properties": {"etat de la localisation": "Deviation programmee", "numparc": 1508, "duree": "", "horodatage": "2021-12-25 14:46:30", "marker-color": "#56FF93"}}, {"type": "Feature", "geometry": {"type": "Point", "coordinates": [2.349507, 48.857334]}, "properties": {"etat de la localisation": "Deviation programmee", "numparc": 1484, "duree": "", "horodatage": "2021-12-25 14:49:38", "marker-color": "#56FF93"}}, {"type": "Feature", "geometry": {"type": "Point", "coordinates": [2.366905, 48.863533]}, "properties": {"etat de la localisation": "Delocalise", "numparc": 1507, "duree": "00:00:39", "horodatage": "2021-12-25 14:52:24", "marker-color": "#FF565E"}}, {"type": "Feature", "geometry": {"type": "Point", "coordinates": [2.406224, 48.876293]}, "properties": {"etat de la localisation": "Mission inconnue", "numparc": 1511, "duree": "", "horodatage": "2021-12-25 14:59:12", "marker-color": "#FF9F56"}}, {"type": "Feature", "geometry": {"type": "Point", "coordinates": [2.349552, 48.857391]}, "properties": {"etat de la localisation": "Deviation programmee", "numparc": 1507, "duree": "", "horodatage": "2021-12-25 15:02:48", "marker-color": "#56FF93"}}, {"type": "Feature", "geometry": {"type": "Point", "coordinates": [2.406224, 48.876293]}, "properties": {"etat de la localisation": "Hors service", "numparc": 1511, "duree": "", "horodatage": "2021-12-25 15:08:10", "marker-color": "#707070"}}, {"type": "Feature", "geometry": {"type": "Point", "coordinates": [2.320394, 48.841957]}, "properties": {"etat de la localisation": "Hors service", "numparc": 1484, "duree": "", "horodatage": "2021-12-25 15:10:49", "marker-color": "#707070"}}, {"type": "Feature", "geometry": {"type": "Point", "coordinates": [2.405971, 48.875557]}, "properties": {"etat de la localisation": "Hors service", "numparc": 2002, "duree": "", "horodatage": "2021-12-25 15:17:16", "marker-color": "#707070"}}, {"type": "Feature", "geometry": {"type": "Point", "coordinates": [2.406112, 48.875675]}, "properties": {"etat de la localisation": "Mission inconnue", "numparc": 2002, "duree": "", "horodatage": "2021-12-25 15:22:36", "marker-color": "#FF9F56"}}, {"type": "Feature", "geometry": {"type": "Point", "coordinates": [2.423817, 48.876305]}, "properties": {"etat de la localisation": "Mission inconnue", "numparc": 1516, "duree": "", "horodatage": "2021-12-25 15:23:22", "marker-color": "#FF9F56"}}, {"type": "Feature", "geometry": {"type": "Point", "coordinates": [2.407187, 48.875973]}, "properties": {"etat de la localisation": "Mission inconnue", "numparc": 1511, "duree": "", "horodatage": "2021-12-25 15:24:02", "marker-color": "#FF9F56"}}, {"type": "Feature", "geometry": {"type": "Point", "coordinates": [2.406294, 48.876369]}, "properties": {"etat de la localisation": "Hors service", "numparc": 1508, "duree": "", "horodatage": "2021-12-25 15:28:01", "marker-color": "#707070"}}, {"type": "Feature", "geometry": {"type": "Point", "coordinates": [2.406006, 48.876091]}, "properties": {"etat de la localisation": "Hors service", "numparc": 1521, "duree": "", "horodatage": "2021-12-25 15:29:43", "marker-color": "#707070"}}, {"type": "Feature", "geometry": {"type": "Point", "coordinates": [2.344111, 48.853203]}, "properties": {"etat de la localisation": "Deviation programmee", "numparc": 1484, "duree": "", "horodatage": "2021-12-25 15:32:00", "marker-color": "#56FF93"}}, {"type": "Feature", "geometry": {"type": "Point", "coordinates": [2.427887, 48.879063]}, "properties": {"etat de la localisation": "Hors service", "numparc": 2002, "duree": "", "horodatage": "2021-12-25 15:37:43", "marker-color": "#707070"}}, {"type": "Feature", "geometry": {"type": "Point", "coordinates": [2.427972, 48.879124]}, "properties": {"etat de la localisation": "Delocalise", "numparc": 1485, "duree": "00:04:22", "horodatage": "2021-12-25 15:39:51", "marker-color": "#FF565E"}}, {"type": "Feature", "geometry": {"type": "Point", "coordinates": [2.343719, 48.853199]}, "properties": {"etat de la localisation": "Deviation programmee", "numparc": 1507, "duree": "", "horodatage": "2021-12-25 15:44:55", "marker-color": "#56FF93"}}, {"type": "Feature", "geometry": {"type": "Point", "coordinates": [2.349523, 48.857327]}, "properties": {"etat de la localisation": "Deviation programmee", "numparc": 1511, "duree": "", "horodatage": "2021-12-25 15:58:55", "marker-color": "#56FF93"}}, {"type": "Feature", "geometry": {"type": "Point", "coordinates": [2.322682, 48.843864]}, "properties": {"etat de la localisation": "Delocalise", "numparc": 1516, "duree": "00:01:03", "horodatage": "2021-12-25 16:01:00", "marker-color": "#FF565E"}}, {"type": "Feature", "geometry": {"type": "Point", "coordinates": [2.349574, 48.857224]}, "properties": {"etat de la localisation": "Deviation programmee", "numparc": 1521, "duree": "", "horodatage": "2021-12-25 16:03:01", "marker-color": "#56FF93"}}, {"type": "Feature", "geometry": {"type": "Point", "coordinates": [2.406084, 48.875793]}, "properties": {"etat de la localisation": "Hors service", "numparc": 1484, "duree": "", "horodatage": "2021-12-25 16:06:14", "marker-color": "#707070"}}, {"type": "Feature", "geometry": {"type": "Point", "coordinates": [2.349547, 48.857353]}, "properties": {"etat de la localisation": "Deviation programmee", "numparc": 1508, "duree": "", "horodatage": "2021-12-25 16:22:41", "marker-color": "#56FF93"}}, {"type": "Feature", "geometry": {"type": "Point", "coordinates": [2.344155, 48.853203]}, "properties": {"etat de la localisation": "Deviation programmee", "numparc": 1516, "duree": "", "horodatage": "2021-12-25 16:23:12", "marker-color": "#56FF93"}}, {"type": "Feature", "geometry": {"type": "Point", "coordinates": [2.344036, 48.853203]}, "properties": {"etat de la localisation": "Deviation programmee", "numparc": 1511, "duree": "", "horodatage": "2021-12-25 16:41:46", "marker-color": "#56FF93"}}, {"type": "Feature", "geometry": {"type": "Point", "coordinates": [2.343851, 48.853218]}, "properties": {"etat de la localisation": "Deviation programmee", "numparc": 1485, "duree": "", "horodatage": "2021-12-25 16:42:34", "marker-color": "#56FF93"}}, {"type": "Feature", "geometry": {"type": "Point", "coordinates": [2.349534, 48.85733]}, "properties": {"etat de la localisation": "Deviation programmee", "numparc": 1484, "duree": "", "horodatage": "2021-12-25 16:50:41", "marker-color": "#56FF93"}}, {"type": "Feature", "geometry": {"type": "Point", "coordinates": [2.343863, 48.853226]}, "properties": {"etat de la localisation": "Deviation programmee", "numparc": 1521, "duree": "", "horodatage": "2021-12-25 16:53:06", "marker-color": "#56FF93"}}, {"type": "Feature", "geometry": {"type": "Point", "coordinates": [2.406112, 48.875889]}, "properties": {"etat de la localisation": "Hors service", "numparc": 1516, "duree": "", "horodatage": "2021-12-25 17:08:14", "marker-color": "#707070"}}, {"type": "Feature", "geometry": {"type": "Point", "coordinates": [2.344059, 48.853237]}, "properties": {"etat de la localisation": "Deviation programmee", "numparc": 1508, "duree": "", "horodatage": "2021-12-25 17:10:35", "marker-color": "#56FF93"}}, {"type": "Feature", "geometry": {"type": "Point", "coordinates": [2.349578, 48.857246]}, "properties": {"etat de la localisation": "Deviation programmee", "numparc": 1507, "duree": "", "horodatage": "2021-12-25 17:12:12", "marker-color": "#56FF93"}}, {"type": "Feature", "geometry": {"type": "Point", "coordinates": [2.405856, 48.875565]}, "properties": {"etat de la localisation": "Hors service", "numparc": 1511, "duree": "", "horodatage": "2021-12-25 17:33:32", "marker-color": "#707070"}}, {"type": "Feature", "geometry": {"type": "Point", "coordinates": [2.344078, 48.853203]}, "properties": {"etat de la localisation": "Deviation programmee", "numparc": 1484, "duree": "", "horodatage": "2021-12-25 17:49:08", "marker-color": "#56FF93"}}, {"type": "Feature", "geometry": {"type": "Point", "coordinates": [2.349528, 48.857376]}, "properties": {"etat de la localisation": "Deviation programmee", "numparc": 1516, "duree": "", "horodatage": "2021-12-25 17:51:25", "marker-color": "#56FF93"}}, {"type": "Feature", "geometry": {"type": "Point", "coordinates": [2.40623, 48.87635]}, "properties": {"etat de la localisation": "Hors service", "numparc": 1508, "duree": "", "horodatage": "2021-12-25 17:51:58", "marker-color": "#707070"}}, {"type": "Feature", "geometry": {"type": "Point", "coordinates": [2.344135, 48.853222]}, "properties": {"etat de la localisation": "Deviation programmee", "numparc": 1507, "duree": "", "horodatage": "2021-12-25 17:56:44", "marker-color": "#56FF93"}}, {"type": "Feature", "geometry": {"type": "Point", "coordinates": [2.349759, 48.857098]}, "properties": {"etat de la localisation": "Deviation programmee", "numparc": 1485, "duree": "", "horodatage": "2021-12-25 18:09:33", "marker-color": "#56FF93"}}, {"type": "Feature", "geometry": {"type": "Point", "coordinates": [2.349598, 48.857224]}, "properties": {"etat de la localisation": "Deviation programmee", "numparc": 1511, "duree": "", "horodatage": "2021-12-25 18:09:43", "marker-color": "#56FF93"}}, {"type": "Feature", "geometry": {"type": "Point", "coordinates": [2.320636, 48.842064]}, "properties": {"etat de la localisation": "Hors service", "numparc": 1516, "duree": "", "horodatage": "2021-12-25 18:19:26", "marker-color": "#707070"}}, {"type": "Feature", "geometry": {"type": "Point", "coordinates": [2.349614, 48.857201]}, "properties": {"etat de la localisation": "Deviation programmee", "numparc": 1521, "duree": "", "horodatage": "2021-12-25 18:21:55", "marker-color": "#56FF93"}}, {"type": "Feature", "geometry": {"type": "Point", "coordinates": [2.406251, 48.876198]}, "properties": {"etat de la localisation": "Hors service", "numparc": 1484, "duree": "", "horodatage": "2021-12-25 18:24:52", "marker-color": "#707070"}}, {"type": "Feature", "geometry": {"type": "Point", "coordinates": [2.321402, 48.841869]}, "properties": {"etat de la localisation": "Delocalise", "numparc": 1511, "duree": "00:43:11", "horodatage": "2021-12-25 18:26:02", "marker-color": "#FF565E"}}, {"type": "Feature", "geometry": {"type": "Point", "coordinates": [2.406219, 48.876034]}, "properties": {"etat de la localisation": "Hors service", "numparc": 1507, "duree": "", "horodatage": "2021-12-25 18:36:11", "marker-color": "#707070"}}, {"type": "Feature", "geometry": {"type": "Point", "coordinates": [2.344129, 48.853203]}, "properties": {"etat de la localisation": "Deviation programmee", "numparc": 1516, "duree": "", "horodatage": "2021-12-25 18:38:59", "marker-color": "#56FF93"}}, {"type": "Feature", "geometry": {"type": "Point", "coordinates": [2.349504, 48.857346]}, "properties": {"etat de la localisation": "Deviation programmee", "numparc": 1508, "duree": "", "horodatage": "2021-12-25 18:45:38", "marker-color": "#56FF93"}}, {"type": "Feature", "geometry": {"type": "Point", "coordinates": [2.344099, 48.853226]}, "properties": {"etat de la localisation": "Deviation programmee", "numparc": 1485, "duree": "", "horodatage": "2021-12-25 18:52:59", "marker-color": "#56FF93"}}, {"type": "Feature", "geometry": {"type": "Point", "coordinates": [2.406216, 48.876034]}, "properties": {"etat de la localisation": "Mission inconnue", "numparc": 1507, "duree": "", "horodatage": "2021-12-25 18:54:18", "marker-color": "#FF9F56"}}, {"type": "Feature", "geometry": {"type": "Point", "coordinates": [2.343973, 48.853233]}, "properties": {"etat de la localisation": "Deviation programmee", "numparc": 1521, "duree": "", "horodatage": "2021-12-25 19:01:45", "marker-color": "#56FF93"}}, {"type": "Feature", "geometry": {"type": "Point", "coordinates": [2.427789, 48.878933]}, "properties": {"etat de la localisation": "Hors service", "numparc": 1511, "duree": "", "horodatage": "2021-12-25 19:09:13", "marker-color": "#707070"}}, {"type": "Feature", "geometry": {"type": "Point", "coordinates": [2.406048, 48.876129]}, "properties": {"etat de la localisation": "Hors service", "numparc": 1516, "duree": "", "horodatage": "2021-12-25 19:25:00", "marker-color": "#707070"}}, {"type": "Feature", "geometry": {"type": "Point", "coordinates": [2.349536, 48.857307]}, "properties": {"etat de la localisation": "Deviation programmee", "numparc": 1484, "duree": "", "horodatage": "2021-12-25 19:26:19", "marker-color": "#56FF93"}}, {"type": "Feature", "geometry": {"type": "Point", "coordinates": [2.344095, 48.853199]}, "properties": {"etat de la localisation": "Deviation programmee", "numparc": 1508, "duree": "", "horodatage": "2021-12-25 19:26:29", "marker-color": "#56FF93"}}, {"type": "Feature", "geometry": {"type": "Point", "coordinates": [2.349555, 48.857304]}, "properties": {"etat de la localisation": "Deviation programmee", "numparc": 1507, "duree": "", "horodatage": "2021-12-25 19:36:34", "marker-color": "#56FF93"}}, {"type": "Feature", "geometry": {"type": "Point", "coordinates": [2.405831, 48.875587]}, "properties": {"etat de la localisation": "Hors service", "numparc": 1521, "duree": "", "horodatage": "2021-12-25 19:47:58", "marker-color": "#707070"}}, {"type": "Feature", "geometry": {"type": "Point", "coordinates": [2.344063, 48.853226]}, "properties": {"etat de la localisation": "Deviation programmee", "numparc": 1484, "duree": "", "horodatage": "2021-12-25 20:04:03", "marker-color": "#56FF93"}}, {"type": "Feature", "geometry": {"type": "Point", "coordinates": [2.427312, 48.878674]}, "properties": {"etat de la localisation": "Hors service", "numparc": 1508, "duree": "", "horodatage": "2021-12-25 20:04:36", "marker-color": "#707070"}}, {"type": "Feature", "geometry": {"type": "Point", "coordinates": [2.349544, 48.857327]}, "properties": {"etat de la localisation": "Deviation programmee", "numparc": 1516, "duree": "", "horodatage": "2021-12-25 20:14:05", "marker-color": "#56FF93"}}, {"type": "Feature", "geometry": {"type": "Point", "coordinates": [2.344044, 48.853203]}, "properties": {"etat de la localisation": "Deviation programmee", "numparc": 1507, "duree": "", "horodatage": "2021-12-25 20:15:35", "marker-color": "#56FF93"}}, {"type": "Feature", "geometry": {"type": "Point", "coordinates": [2.349566, 48.857307]}, "properties": {"etat de la localisation": "Deviation programmee", "numparc": 1485, "duree": "", "horodatage": "2021-12-25 20:30:45", "marker-color": "#56FF93"}}, {"type": "Feature", "geometry": {"type": "Point", "coordinates": [2.349587, 48.857227]}, "properties": {"etat de la localisation": "Deviation programmee", "numparc": 1521, "duree": "", "horodatage": "2021-12-25 20:35:02", "marker-color": "#56FF93"}}, {"type": "Feature", "geometry": {"type": "Point", "coordinates": [2.406159, 48.876118]}, "properties": {"etat de la localisation": "Hors service", "numparc": 1484, "duree": "", "horodatage": "2021-12-25 20:41:58", "marker-color": "#707070"}}, {"type": "Feature", "geometry": {"type": "Point", "coordinates": [2.320655, 48.842125]}, "properties": {"etat de la localisation": "Hors service", "numparc": 1516, "duree": "", "horodatage": "2021-12-25 20:42:45", "marker-color": "#707070"}}, {"type": "Feature", "geometry": {"type": "Point", "coordinates": [2.406065, 48.875942]}, "properties": {"etat de la localisation": "Hors service", "numparc": 1507, "duree": "", "horodatage": "2021-12-25 20:54:27", "marker-color": "#707070"}}, {"type": "Feature", "geometry": {"type": "Point", "coordinates": [2.344012, 48.853218]}, "properties": {"etat de la localisation": "Deviation programmee", "numparc": 1485, "duree": "", "horodatage": "2021-12-25 21:07:11", "marker-color": "#56FF93"}}, {"type": "Feature", "geometry": {"type": "Point", "coordinates": [2.344118, 48.853203]}, "properties": {"etat de la localisation": "Deviation programmee", "numparc": 1521, "duree": "", "horodatage": "2021-12-25 21:14:39", "marker-color": "#56FF93"}}, {"type": "Feature", "geometry": {"type": "Point", "coordinates": [2.349555, 48.857311]}, "properties": {"etat de la localisation": "Deviation programmee", "numparc": 1484, "duree": "", "horodatage": "2021-12-25 21:24:29", "marker-color": "#56FF93"}}, {"type": "Feature", "geometry": {"type": "Point", "coordinates": [2.349543, 48.857285]}, "properties": {"etat de la localisation": "Deviation programmee", "numparc": 1507, "duree": "", "horodatage": "2021-12-25 21:33:40", "marker-color": "#56FF93"}}, {"type": "Feature", "geometry": {"type": "Point", "coordinates": [2.427336, 48.87878]}, "properties": {"etat de la localisation": "Hors service", "numparc": 1516, "duree": "", "horodatage": "2021-12-25 21:39:10", "marker-color": "#707070"}}, {"type": "Feature", "geometry": {"type": "Point", "coordinates": [2.344131, 48.85323]}, "properties": {"etat de la localisation": "Deviation programmee", "numparc": 1484, "duree": "", "horodatage": "2021-12-25 21:59:20", "marker-color": "#56FF93"}}, {"type": "Feature", "geometry": {"type": "Point", "coordinates": [2.368192, 48.865364]}, "properties": {"etat de la localisation": "Delocalise", "numparc": 1485, "duree": "00:01:58", "horodatage": "2021-12-25 22:03:01", "marker-color": "#FF565E"}}, {"type": "Feature", "geometry": {"type": "Point", "coordinates": [2.343998, 48.853249]}, "properties": {"etat de la localisation": "Deviation programmee", "numparc": 1507, "duree": "", "horodatage": "2021-12-25 22:10:56", "marker-color": "#56FF93"}}, {"type": "Feature", "geometry": {"type": "Point", "coordinates": [2.349529, 48.857292]}, "properties": {"etat de la localisation": "Deviation programmee", "numparc": 1485, "duree": "", "horodatage": "2021-12-25 22:12:53", "marker-color": "#56FF93"}}, {"type": "Feature", "geometry": {"type": "Point", "coordinates": [2.349564, 48.857288]}, "properties": {"etat de la localisation": "Deviation programmee", "numparc": 1521, "duree": "", "horodatage": "2021-12-25 22:30:07", "marker-color": "#56FF93"}}, {"type": "Feature", "geometry": {"type": "Point", "coordinates": [2.406046, 48.876026]}, "properties": {"etat de la localisation": "Hors service", "numparc": 1507, "duree": "", "horodatage": "2021-12-25 22:47:11", "marker-color": "#707070"}}, {"type": "Feature", "geometry": {"type": "Point", "coordinates": [2.427531, 48.87849]}, "properties": {"etat de la localisation": "Hors service", "numparc": 1485, "duree": "", "horodatage": "2021-12-25 23:08:49", "marker-color": "#707070"}}, {"type": "Feature", "geometry": {"type": "Point", "coordinates": [2.427352, 48.878574]}, "properties": {"etat de la localisation": "Hors service", "numparc": 1521, "duree": "", "horodatage": "2021-12-25 23:10:46", "marker-color": "#707070"}}, {"type": "Feature", "geometry": {"type": "Point", "coordinates": [2.349569, 48.857277]}, "properties": {"etat de la localisation": "Deviation programmee", "numparc": 1484, "duree": "", "horodatage": "2021-12-25 23:13:35", "marker-color": "#56FF93"}}, {"type": "Feature", "geometry": {"type": "Point", "coordinates": [2.349541, 48.857281]}, "properties": {"etat de la localisation": "Deviation programmee", "numparc": 1507, "duree": "", "horodatage": "2021-12-25 23:23:46", "marker-color": "#56FF93"}}, {"type": "Feature", "geometry": {"type": "Point", "coordinates": [2.344068, 48.853199]}, "properties": {"etat de la localisation": "Deviation programmee", "numparc": 1484, "duree": "", "horodatage": "2021-12-25 23:43:42", "marker-color": "#56FF93"}}, {"type": "Feature", "geometry": {"type": "Point", "coordinates": [2.343953, 48.853237]}, "properties": {"etat de la localisation": "Deviation programmee", "numparc": 1507, "duree": "", "horodatage": "2021-12-25 23:55:52", "marker-color": "#56FF93"}}, {"type": "Feature", "geometry": {"type": "Point", "coordinates": [2.427318, 48.87867]}, "properties": {"etat de la localisation": "Hors service", "numparc": 1507, "duree": "", "horodatage": "2021-12-26 00:29:23", "marker-color": "#707070"}}, {"type": "Feature", "geometry": {"type": "Point", "coordinates": [2.349516, 48.8573]}, "properties": {"etat de la localisation": "Deviation programmee", "numparc": 1484, "duree": "", "horodatage": "2021-12-26 00:47:42", "marker-color": "#56FF93"}}, {"type": "Feature", "geometry": {"type": "Point", "coordinates": [2.42727, 48.878765]}, "properties": {"etat de la localisation": "Hors service", "numparc": 1484, "duree": "", "horodatage": "2021-12-26 01:25:29", "marker-color": "#707070"}}]}