{"type": "FeatureCollection", "features": [{"type": "Feature", "geometry": {"type": "Point", "coordinates": [2.621936, 48.839878]}, "properties": {"etat de la localisation": "Mission inconnue", "numparc": 5890, "duree": "", "horodatage": "2021-07-06 15:01:59", "marker-color": "#FF9F56"}}, {"type": "Feature", "geometry": {"type": "Point", "coordinates": [2.6227, 48.839661]}, "properties": {"etat de la localisation": "Mission inconnue", "numparc": 5890, "duree": "", "horodatage": "2021-07-06 15:02:05", "marker-color": "#FF9F56"}}, {"type": "Feature", "geometry": {"type": "Point", "coordinates": [2.623994, 48.839378]}, "properties": {"etat de la localisation": "Mission inconnue", "numparc": 5890, "duree": "", "horodatage": "2021-07-06 15:02:36", "marker-color": "#FF9F56"}}, {"type": "Feature", "geometry": {"type": "Point", "coordinates": [2.594389, 48.840939]}, "properties": {"etat de la localisation": "Mission inconnue", "numparc": 5890, "duree": "", "horodatage": "2021-07-06 15:09:48", "marker-color": "#FF9F56"}}]}