{"type": "FeatureCollection", "features": [{"type": "Feature", "geometry": {"type": "Point", "coordinates": [2.296616, 48.721668]}, "properties": {"numparc": 4866, "etat de la localisation": "autre", "ID BDGEO": "905", "horodatage": "2022-07-28 04:21:19", "distance (en metres)": 57.0, "station": "CENTRE BUS DE MASSY-SORTIE", "marker-color": "#818181"}}, {"type": "Feature", "geometry": {"type": "Point", "coordinates": [2.29732, 48.72121]}, "properties": {"numparc": 4866, "etat de la localisation": "autre", "ID BDGEO": "905", "horodatage": "2022-07-28 04:26:03", "distance (en metres)": 42.2, "station": "CENTRE BUS DE MASSY-SORTIE", "marker-color": "#818181"}}, {"type": "Feature", "geometry": {"type": "Point", "coordinates": [2.325506, 48.822369]}, "properties": {"numparc": 4864, "etat de la localisation": "autre", "ID BDGEO": "923", "horodatage": "2022-07-28 13:46:10", "distance (en metres)": 10310.44, "station": "AVENUE SAINT MARC#", "marker-color": "#818181"}}, {"type": "Feature", "geometry": {"type": "Point", "coordinates": [2.325304, 48.818512]}, "properties": {"numparc": 4864, "etat de la localisation": "autre", "ID BDGEO": "923", "horodatage": "2022-07-28 13:59:49", "distance (en metres)": 9895.15, "station": "AVENUE SAINT MARC#", "marker-color": "#818181"}}, {"type": "Feature", "geometry": {"type": "Point", "coordinates": [2.325781, 48.81353]}, "properties": {"numparc": 4864, "etat de la localisation": "autre", "ID BDGEO": "923", "horodatage": "2022-07-28 14:02:02", "distance (en metres)": 9377.12, "station": "AVENUE SAINT MARC#", "marker-color": "#818181"}}, {"type": "Feature", "geometry": {"type": "Point", "coordinates": [2.326367, 48.808823]}, "properties": {"numparc": 4864, "etat de la localisation": "autre", "ID BDGEO": "923", "horodatage": "2022-07-28 14:04:13", "distance (en metres)": 8895.04, "station": "AVENUE SAINT MARC#", "marker-color": "#818181"}}, {"type": "Feature", "geometry": {"type": "Point", "coordinates": [2.323068, 48.805195]}, "properties": {"numparc": 4864, "etat de la localisation": "autre", "ID BDGEO": "923", "horodatage": "2022-07-28 14:06:19", "distance (en metres)": 8434.91, "station": "AVENUE SAINT MARC#", "marker-color": "#818181"}}, {"type": "Feature", "geometry": {"type": "Point", "coordinates": [2.320765, 48.804081]}, "properties": {"numparc": 4864, "etat de la localisation": "autre", "ID BDGEO": "923", "horodatage": "2022-07-28 14:07:52", "distance (en metres)": 8264.37, "station": "AVENUE SAINT MARC#", "marker-color": "#818181"}}, {"type": "Feature", "geometry": {"type": "Point", "coordinates": [2.323756, 48.801434]}, "properties": {"numparc": 4864, "etat de la localisation": "autre", "ID BDGEO": "923", "horodatage": "2022-07-28 14:11:37", "distance (en metres)": 8056.98, "station": "AVENUE SAINT MARC#", "marker-color": "#818181"}}, {"type": "Feature", "geometry": {"type": "Point", "coordinates": [2.322461, 48.798096]}, "properties": {"numparc": 4864, "etat de la localisation": "autre", "ID BDGEO": "923", "horodatage": "2022-07-28 14:13:21", "distance (en metres)": 7675.87, "station": "AVENUE SAINT MARC#", "marker-color": "#818181"}}, {"type": "Feature", "geometry": {"type": "Point", "coordinates": [2.321489, 48.795612]}, "properties": {"numparc": 4864, "etat de la localisation": "autre", "ID BDGEO": "923", "horodatage": "2022-07-28 14:15:13", "distance (en metres)": 7392.24, "station": "AVENUE SAINT MARC#", "marker-color": "#818181"}}, {"type": "Feature", "geometry": {"type": "Point", "coordinates": [2.320736, 48.79364]}, "properties": {"numparc": 4864, "etat de la localisation": "autre", "ID BDGEO": "923", "horodatage": "2022-07-28 14:18:20", "distance (en metres)": 7167.55, "station": "AVENUE SAINT MARC#", "marker-color": "#818181"}}, {"type": "Feature", "geometry": {"type": "Point", "coordinates": [2.320736, 48.79364]}, "properties": {"numparc": 4864, "etat de la localisation": "autre", "ID BDGEO": "923", "horodatage": "2022-07-28 14:18:48", "distance (en metres)": 7167.55, "station": "AVENUE SAINT MARC#", "marker-color": "#818181"}}, {"type": "Feature", "geometry": {"type": "Point", "coordinates": [2.31922, 48.789745]}, "properties": {"numparc": 4864, "etat de la localisation": "autre", "ID BDGEO": "923", "horodatage": "2022-07-28 14:20:12", "distance (en metres)": 6723.36, "station": "AVENUE SAINT MARC#", "marker-color": "#818181"}}, {"type": "Feature", "geometry": {"type": "Point", "coordinates": [2.314966, 48.782734]}, "properties": {"numparc": 4864, "etat de la localisation": "autre", "ID BDGEO": "923", "horodatage": "2022-07-28 14:24:11", "distance (en metres)": 5883.8, "station": "AVENUE SAINT MARC#", "marker-color": "#818181"}}, {"type": "Feature", "geometry": {"type": "Point", "coordinates": [2.313509, 48.779095]}, "properties": {"numparc": 4864, "etat de la localisation": "autre", "ID BDGEO": "923", "horodatage": "2022-07-28 14:26:38", "distance (en metres)": 5467.97, "station": "AVENUE SAINT MARC#", "marker-color": "#818181"}}, {"type": "Feature", "geometry": {"type": "Point", "coordinates": [2.313509, 48.779095]}, "properties": {"numparc": 4864, "etat de la localisation": "autre", "ID BDGEO": "923", "horodatage": "2022-07-28 14:26:50", "distance (en metres)": 5467.97, "station": "AVENUE SAINT MARC#", "marker-color": "#818181"}}, {"type": "Feature", "geometry": {"type": "Point", "coordinates": [2.313566, 48.777218]}, "properties": {"numparc": 4864, "etat de la localisation": "autre", "ID BDGEO": "923", "horodatage": "2022-07-28 14:28:32", "distance (en metres)": 5275.95, "station": "AVENUE SAINT MARC#", "marker-color": "#818181"}}, {"type": "Feature", "geometry": {"type": "Point", "coordinates": [2.313585, 48.77721]}, "properties": {"numparc": 4864, "etat de la localisation": "autre", "ID BDGEO": "923", "horodatage": "2022-07-28 14:28:41", "distance (en metres)": 5275.7, "station": "AVENUE SAINT MARC#", "marker-color": "#818181"}}, {"type": "Feature", "geometry": {"type": "Point", "coordinates": [2.313585, 48.77721]}, "properties": {"numparc": 4864, "etat de la localisation": "autre", "ID BDGEO": "923", "horodatage": "2022-07-28 14:28:47", "distance (en metres)": 5275.7, "station": "AVENUE SAINT MARC#", "marker-color": "#818181"}}, {"type": "Feature", "geometry": {"type": "Point", "coordinates": [2.313235, 48.774334]}, "properties": {"numparc": 4864, "etat de la localisation": "autre", "ID BDGEO": "923", "horodatage": "2022-07-28 14:29:50", "distance (en metres)": 4971.19, "station": "AVENUE SAINT MARC#", "marker-color": "#818181"}}, {"type": "Feature", "geometry": {"type": "Point", "coordinates": [2.313235, 48.774334]}, "properties": {"numparc": 4864, "etat de la localisation": "autre", "ID BDGEO": "923", "horodatage": "2022-07-28 14:29:52", "distance (en metres)": 4971.19, "station": "AVENUE SAINT MARC#", "marker-color": "#818181"}}, {"type": "Feature", "geometry": {"type": "Point", "coordinates": [2.311545, 48.770214]}, "properties": {"numparc": 4864, "etat de la localisation": "autre", "ID BDGEO": "923", "horodatage": "2022-07-28 14:31:29", "distance (en metres)": 4502.25, "station": "AVENUE SAINT MARC#", "marker-color": "#818181"}}, {"type": "Feature", "geometry": {"type": "Point", "coordinates": [2.309872, 48.765976]}, "properties": {"numparc": 4864, "etat de la localisation": "autre", "ID BDGEO": "923", "horodatage": "2022-07-28 14:32:35", "distance (en metres)": 4023.29, "station": "AVENUE SAINT MARC#", "marker-color": "#818181"}}, {"type": "Feature", "geometry": {"type": "Point", "coordinates": [2.308409, 48.762241]}, "properties": {"numparc": 4864, "etat de la localisation": "autre", "ID BDGEO": "923", "horodatage": "2022-07-28 14:34:34", "distance (en metres)": 3603.39, "station": "AVENUE SAINT MARC#", "marker-color": "#818181"}}, {"type": "Feature", "geometry": {"type": "Point", "coordinates": [2.307697, 48.760372]}, "properties": {"numparc": 4864, "etat de la localisation": "autre", "ID BDGEO": "923", "horodatage": "2022-07-28 14:36:12", "distance (en metres)": 3394.76, "station": "AVENUE SAINT MARC#", "marker-color": "#818181"}}, {"type": "Feature", "geometry": {"type": "Point", "coordinates": [2.306582, 48.757595]}, "properties": {"numparc": 4864, "etat de la localisation": "autre", "ID BDGEO": "923", "horodatage": "2022-07-28 14:37:46", "distance (en metres)": 3084.18, "station": "AVENUE SAINT MARC#", "marker-color": "#818181"}}, {"type": "Feature", "geometry": {"type": "Point", "coordinates": [2.306582, 48.757595]}, "properties": {"numparc": 4864, "etat de la localisation": "autre", "ID BDGEO": "923", "horodatage": "2022-07-28 14:37:49", "distance (en metres)": 3084.18, "station": "AVENUE SAINT MARC#", "marker-color": "#818181"}}, {"type": "Feature", "geometry": {"type": "Point", "coordinates": [2.304789, 48.752861]}, "properties": {"numparc": 4864, "etat de la localisation": "autre", "ID BDGEO": "923", "horodatage": "2022-07-28 14:41:14", "distance (en metres)": 2563.97, "station": "AVENUE SAINT MARC#", "marker-color": "#818181"}}, {"type": "Feature", "geometry": {"type": "Point", "coordinates": [2.304386, 48.750473]}, "properties": {"numparc": 4864, "etat de la localisation": "autre", "ID BDGEO": "923", "horodatage": "2022-07-28 14:42:47", "distance (en metres)": 2326.36, "station": "AVENUE SAINT MARC#", "marker-color": "#818181"}}, {"type": "Feature", "geometry": {"type": "Point", "coordinates": [2.303244, 48.744686]}, "properties": {"numparc": 4864, "etat de la localisation": "autre", "ID BDGEO": "923", "horodatage": "2022-07-28 14:44:43", "distance (en metres)": 1777.05, "station": "AVENUE SAINT MARC#", "marker-color": "#818181"}}, {"type": "Feature", "geometry": {"type": "Point", "coordinates": [2.30249, 48.74123]}, "properties": {"numparc": 4864, "etat de la localisation": "autre", "ID BDGEO": "923", "horodatage": "2022-07-28 14:46:27", "distance (en metres)": 1483.45, "station": "AVENUE SAINT MARC#", "marker-color": "#818181"}}, {"type": "Feature", "geometry": {"type": "Point", "coordinates": [2.298026, 48.738499]}, "properties": {"numparc": 4864, "etat de la localisation": "autre", "ID BDGEO": "923", "horodatage": "2022-07-28 14:48:15", "distance (en metres)": 1041.15, "station": "AVENUE SAINT MARC#", "marker-color": "#818181"}}, {"type": "Feature", "geometry": {"type": "Point", "coordinates": [2.298106, 48.736298]}, "properties": {"numparc": 4864, "etat de la localisation": "autre", "ID BDGEO": "923", "horodatage": "2022-07-28 14:49:20", "distance (en metres)": 934.54, "station": "AVENUE SAINT MARC#", "marker-color": "#818181"}}, {"type": "Feature", "geometry": {"type": "Point", "coordinates": [2.294104, 48.734875]}, "properties": {"numparc": 4864, "etat de la localisation": "autre", "ID BDGEO": "923", "horodatage": "2022-07-28 14:50:38", "distance (en metres)": 605.82, "station": "AVENUE SAINT MARC#", "marker-color": "#818181"}}, {"type": "Feature", "geometry": {"type": "Point", "coordinates": [2.29374, 48.734768]}, "properties": {"numparc": 4864, "etat de la localisation": "autre", "ID BDGEO": "923", "horodatage": "2022-07-28 14:50:59", "distance (en metres)": 576.86, "station": "AVENUE SAINT MARC#", "marker-color": "#818181"}}, {"type": "Feature", "geometry": {"type": "Point", "coordinates": [2.292339, 48.734406]}, "properties": {"numparc": 4864, "etat de la localisation": "autre", "ID BDGEO": "923", "horodatage": "2022-07-28 14:51:38", "distance (en metres)": 467.12, "station": "AVENUE SAINT MARC#", "marker-color": "#818181"}}, {"type": "Feature", "geometry": {"type": "Point", "coordinates": [2.286794, 48.734982]}, "properties": {"numparc": 4864, "etat de la localisation": "autre", "ID BDGEO": "923", "horodatage": "2022-07-28 14:53:27", "distance (en metres)": 188.02, "station": "AVENUE SAINT MARC#", "marker-color": "#818181"}}, {"type": "Feature", "geometry": {"type": "Point", "coordinates": [2.290879, 48.734024]}, "properties": {"numparc": 4864, "etat de la localisation": "autre", "ID BDGEO": "923", "horodatage": "2022-07-28 15:02:22", "distance (en metres)": 353.05, "station": "AVENUE SAINT MARC#", "marker-color": "#818181"}}, {"type": "Feature", "geometry": {"type": "Point", "coordinates": [2.294763, 48.735001]}, "properties": {"numparc": 4864, "etat de la localisation": "autre", "ID BDGEO": "923", "horodatage": "2022-07-28 15:03:26", "distance (en metres)": 656.13, "station": "AVENUE SAINT MARC#", "marker-color": "#818181"}}, {"type": "Feature", "geometry": {"type": "Point", "coordinates": [2.297939, 48.735806]}, "properties": {"numparc": 4864, "etat de la localisation": "autre", "ID BDGEO": "923", "horodatage": "2022-07-28 15:04:15", "distance (en metres)": 905.05, "station": "AVENUE SAINT MARC#", "marker-color": "#818181"}}, {"type": "Feature", "geometry": {"type": "Point", "coordinates": [2.298074, 48.738503]}, "properties": {"numparc": 4864, "etat de la localisation": "autre", "ID BDGEO": "923", "horodatage": "2022-07-28 15:05:23", "distance (en metres)": 1044.32, "station": "AVENUE SAINT MARC#", "marker-color": "#818181"}}, {"type": "Feature", "geometry": {"type": "Point", "coordinates": [2.302707, 48.741566]}, "properties": {"numparc": 4864, "etat de la localisation": "autre", "ID BDGEO": "923", "horodatage": "2022-07-28 15:07:40", "distance (en metres)": 1518.5, "station": "AVENUE SAINT MARC#", "marker-color": "#818181"}}, {"type": "Feature", "geometry": {"type": "Point", "coordinates": [2.303282, 48.744415]}, "properties": {"numparc": 4864, "etat de la localisation": "autre", "ID BDGEO": "923", "horodatage": "2022-07-28 15:09:11", "distance (en metres)": 1757.78, "station": "AVENUE SAINT MARC#", "marker-color": "#818181"}}, {"type": "Feature", "geometry": {"type": "Point", "coordinates": [2.304569, 48.751015]}, "properties": {"numparc": 4864, "etat de la localisation": "autre", "ID BDGEO": "923", "horodatage": "2022-07-28 15:12:08", "distance (en metres)": 2383.51, "station": "AVENUE SAINT MARC#", "marker-color": "#818181"}}, {"type": "Feature", "geometry": {"type": "Point", "coordinates": [2.305377, 48.754223]}, "properties": {"numparc": 4864, "etat de la localisation": "autre", "ID BDGEO": "923", "horodatage": "2022-07-28 15:14:21", "distance (en metres)": 2715.46, "station": "AVENUE SAINT MARC#", "marker-color": "#818181"}}, {"type": "Feature", "geometry": {"type": "Point", "coordinates": [2.30696, 48.758236]}, "properties": {"numparc": 4864, "etat de la localisation": "autre", "ID BDGEO": "923", "horodatage": "2022-07-28 15:15:41", "distance (en metres)": 3159.96, "station": "AVENUE SAINT MARC#", "marker-color": "#818181"}}, {"type": "Feature", "geometry": {"type": "Point", "coordinates": [2.307776, 48.760277]}, "properties": {"numparc": 4864, "etat de la localisation": "autre", "ID BDGEO": "923", "horodatage": "2022-07-28 15:16:57", "distance (en metres)": 3388.07, "station": "AVENUE SAINT MARC#", "marker-color": "#818181"}}, {"type": "Feature", "geometry": {"type": "Point", "coordinates": [2.30867, 48.762573]}, "properties": {"numparc": 4864, "etat de la localisation": "autre", "ID BDGEO": "923", "horodatage": "2022-07-28 15:18:44", "distance (en metres)": 3644.96, "station": "AVENUE SAINT MARC#", "marker-color": "#818181"}}, {"type": "Feature", "geometry": {"type": "Point", "coordinates": [2.310212, 48.766468]}, "properties": {"numparc": 4864, "etat de la localisation": "autre", "ID BDGEO": "923", "horodatage": "2022-07-28 15:21:19", "distance (en metres)": 4083.41, "station": "AVENUE SAINT MARC#", "marker-color": "#818181"}}, {"type": "Feature", "geometry": {"type": "Point", "coordinates": [2.312283, 48.770805]}, "properties": {"numparc": 4864, "etat de la localisation": "autre", "ID BDGEO": "923", "horodatage": "2022-07-28 15:22:56", "distance (en metres)": 4584.52, "station": "AVENUE SAINT MARC#", "marker-color": "#818181"}}, {"type": "Feature", "geometry": {"type": "Point", "coordinates": [2.312881, 48.773201]}, "properties": {"numparc": 4864, "etat de la localisation": "autre", "ID BDGEO": "923", "horodatage": "2022-07-28 15:24:39", "distance (en metres)": 4845.39, "station": "AVENUE SAINT MARC#", "marker-color": "#818181"}}, {"type": "Feature", "geometry": {"type": "Point", "coordinates": [2.314441, 48.77734]}, "properties": {"numparc": 4864, "etat de la localisation": "autre", "ID BDGEO": "923", "horodatage": "2022-07-28 15:26:27", "distance (en metres)": 5313.18, "station": "AVENUE SAINT MARC#", "marker-color": "#818181"}}, {"type": "Feature", "geometry": {"type": "Point", "coordinates": [2.315454, 48.779636]}, "properties": {"numparc": 4864, "etat de la localisation": "autre", "ID BDGEO": "923", "horodatage": "2022-07-28 15:27:39", "distance (en metres)": 5577.35, "station": "AVENUE SAINT MARC#", "marker-color": "#818181"}}, {"type": "Feature", "geometry": {"type": "Point", "coordinates": [2.316791, 48.782917]}, "properties": {"numparc": 4864, "etat de la localisation": "autre", "ID BDGEO": "923", "horodatage": "2022-07-28 15:29:48", "distance (en metres)": 5951.95, "station": "AVENUE SAINT MARC#", "marker-color": "#818181"}}, {"type": "Feature", "geometry": {"type": "Point", "coordinates": [2.318371, 48.786957]}, "properties": {"numparc": 4864, "etat de la localisation": "autre", "ID BDGEO": "923", "horodatage": "2022-07-28 15:31:47", "distance (en metres)": 6411.94, "station": "AVENUE SAINT MARC#", "marker-color": "#818181"}}, {"type": "Feature", "geometry": {"type": "Point", "coordinates": [2.319561, 48.78994]}, "properties": {"numparc": 4864, "etat de la localisation": "autre", "ID BDGEO": "923", "horodatage": "2022-07-28 15:34:09", "distance (en metres)": 6752.56, "station": "AVENUE SAINT MARC#", "marker-color": "#818181"}}, {"type": "Feature", "geometry": {"type": "Point", "coordinates": [2.321019, 48.793678]}, "properties": {"numparc": 4864, "etat de la localisation": "autre", "ID BDGEO": "923", "horodatage": "2022-07-28 15:35:50", "distance (en metres)": 7178.87, "station": "AVENUE SAINT MARC#", "marker-color": "#818181"}}, {"type": "Feature", "geometry": {"type": "Point", "coordinates": [2.322309, 48.797066]}, "properties": {"numparc": 4864, "etat de la localisation": "autre", "ID BDGEO": "923", "horodatage": "2022-07-28 15:37:59", "distance (en metres)": 7564.64, "station": "AVENUE SAINT MARC#", "marker-color": "#818181"}}, {"type": "Feature", "geometry": {"type": "Point", "coordinates": [2.323103, 48.799171]}, "properties": {"numparc": 4864, "etat de la localisation": "autre", "ID BDGEO": "923", "horodatage": "2022-07-28 15:39:07", "distance (en metres)": 7804.37, "station": "AVENUE SAINT MARC#", "marker-color": "#818181"}}, {"type": "Feature", "geometry": {"type": "Point", "coordinates": [2.323452, 48.801903]}, "properties": {"numparc": 4864, "etat de la localisation": "autre", "ID BDGEO": "923", "horodatage": "2022-07-28 15:41:32", "distance (en metres)": 8098.49, "station": "AVENUE SAINT MARC#", "marker-color": "#818181"}}, {"type": "Feature", "geometry": {"type": "Point", "coordinates": [2.320859, 48.804005]}, "properties": {"numparc": 4864, "etat de la localisation": "autre", "ID BDGEO": "923", "horodatage": "2022-07-28 15:44:15", "distance (en metres)": 8258.41, "station": "AVENUE SAINT MARC#", "marker-color": "#818181"}}, {"type": "Feature", "geometry": {"type": "Point", "coordinates": [2.323291, 48.805176]}, "properties": {"numparc": 4864, "etat de la localisation": "autre", "ID BDGEO": "923", "horodatage": "2022-07-28 15:45:32", "distance (en metres)": 8438.16, "station": "AVENUE SAINT MARC#", "marker-color": "#818181"}}, {"type": "Feature", "geometry": {"type": "Point", "coordinates": [2.326692, 48.811008]}, "properties": {"numparc": 4864, "etat de la localisation": "autre", "ID BDGEO": "923", "horodatage": "2022-07-28 15:48:53", "distance (en metres)": 9132.43, "station": "AVENUE SAINT MARC#", "marker-color": "#818181"}}, {"type": "Feature", "geometry": {"type": "Point", "coordinates": [2.325942, 48.813652]}, "properties": {"numparc": 4864, "etat de la localisation": "autre", "ID BDGEO": "923", "horodatage": "2022-07-28 15:50:06", "distance (en metres)": 9393.68, "station": "AVENUE SAINT MARC#", "marker-color": "#818181"}}, {"type": "Feature", "geometry": {"type": "Point", "coordinates": [2.325745, 48.818165]}, "properties": {"numparc": 4864, "etat de la localisation": "autre", "ID BDGEO": "923", "horodatage": "2022-07-28 15:51:18", "distance (en metres)": 9867.67, "station": "AVENUE SAINT MARC#", "marker-color": "#818181"}}, {"type": "Feature", "geometry": {"type": "Point", "coordinates": [2.325495, 48.822384]}, "properties": {"numparc": 4864, "etat de la localisation": "autre", "ID BDGEO": "923", "horodatage": "2022-07-28 15:53:19", "distance (en metres)": 10311.84, "station": "AVENUE SAINT MARC#", "marker-color": "#818181"}}, {"type": "Feature", "geometry": {"type": "Point", "coordinates": [2.325495, 48.822384]}, "properties": {"numparc": 4864, "etat de la localisation": "autre", "ID BDGEO": "923", "horodatage": "2022-07-28 15:56:07", "distance (en metres)": 10311.84, "station": "AVENUE SAINT MARC#", "marker-color": "#818181"}}, {"type": "Feature", "geometry": {"type": "Point", "coordinates": [2.325495, 48.822384]}, "properties": {"numparc": 4864, "etat de la localisation": "autre", "ID BDGEO": "923", "horodatage": "2022-07-28 15:56:22", "distance (en metres)": 10311.84, "station": "AVENUE SAINT MARC#", "marker-color": "#818181"}}, {"type": "Feature", "geometry": {"type": "Point", "coordinates": [2.325495, 48.822384]}, "properties": {"numparc": 4864, "etat de la localisation": "autre", "ID BDGEO": "923", "horodatage": "2022-07-28 15:59:19", "distance (en metres)": 10311.84, "station": "AVENUE SAINT MARC#", "marker-color": "#818181"}}, {"type": "Feature", "geometry": {"type": "Point", "coordinates": [2.325495, 48.822384]}, "properties": {"numparc": 4864, "etat de la localisation": "autre", "ID BDGEO": "923", "horodatage": "2022-07-28 15:59:34", "distance (en metres)": 10311.84, "station": "AVENUE SAINT MARC#", "marker-color": "#818181"}}, {"type": "Feature", "geometry": {"type": "Point", "coordinates": [2.325347, 48.818459]}, "properties": {"numparc": 4864, "etat de la localisation": "autre", "ID BDGEO": "923", "horodatage": "2022-07-28 16:03:42", "distance (en metres)": 9890.38, "station": "AVENUE SAINT MARC#", "marker-color": "#818181"}}, {"type": "Feature", "geometry": {"type": "Point", "coordinates": [2.325347, 48.818459]}, "properties": {"numparc": 4864, "etat de la localisation": "autre", "ID BDGEO": "923", "horodatage": "2022-07-28 16:03:50", "distance (en metres)": 9890.38, "station": "AVENUE SAINT MARC#", "marker-color": "#818181"}}, {"type": "Feature", "geometry": {"type": "Point", "coordinates": [2.325358, 48.818462]}, "properties": {"numparc": 4864, "etat de la localisation": "autre", "ID BDGEO": "923", "horodatage": "2022-07-28 16:04:03", "distance (en metres)": 9891.02, "station": "AVENUE SAINT MARC#", "marker-color": "#818181"}}, {"type": "Feature", "geometry": {"type": "Point", "coordinates": [2.325704, 48.813595]}, "properties": {"numparc": 4864, "etat de la localisation": "autre", "ID BDGEO": "923", "horodatage": "2022-07-28 16:05:18", "distance (en metres)": 9382.23, "station": "AVENUE SAINT MARC#", "marker-color": "#818181"}}, {"type": "Feature", "geometry": {"type": "Point", "coordinates": [2.325773, 48.813507]}, "properties": {"numparc": 4864, "etat de la localisation": "autre", "ID BDGEO": "923", "horodatage": "2022-07-28 16:05:48", "distance (en metres)": 9374.52, "station": "AVENUE SAINT MARC#", "marker-color": "#818181"}}, {"type": "Feature", "geometry": {"type": "Point", "coordinates": [2.326443, 48.808834]}, "properties": {"numparc": 4864, "etat de la localisation": "autre", "ID BDGEO": "923", "horodatage": "2022-07-28 16:08:15", "distance (en metres)": 8898.08, "station": "AVENUE SAINT MARC#", "marker-color": "#818181"}}, {"type": "Feature", "geometry": {"type": "Point", "coordinates": [2.326443, 48.808834]}, "properties": {"numparc": 4864, "etat de la localisation": "autre", "ID BDGEO": "923", "horodatage": "2022-07-28 16:08:47", "distance (en metres)": 8898.08, "station": "AVENUE SAINT MARC#", "marker-color": "#818181"}}, {"type": "Feature", "geometry": {"type": "Point", "coordinates": [2.323237, 48.805244]}, "properties": {"numparc": 4864, "etat de la localisation": "autre", "ID BDGEO": "923", "horodatage": "2022-07-28 16:10:55", "distance (en metres)": 8444.11, "station": "AVENUE SAINT MARC#", "marker-color": "#818181"}}, {"type": "Feature", "geometry": {"type": "Point", "coordinates": [2.320799, 48.804058]}, "properties": {"numparc": 4864, "etat de la localisation": "autre", "ID BDGEO": "923", "horodatage": "2022-07-28 16:12:38", "distance (en metres)": 8262.72, "station": "AVENUE SAINT MARC#", "marker-color": "#818181"}}, {"type": "Feature", "geometry": {"type": "Point", "coordinates": [2.323754, 48.801418]}, "properties": {"numparc": 4864, "etat de la localisation": "autre", "ID BDGEO": "923", "horodatage": "2022-07-28 16:16:51", "distance (en metres)": 8055.34, "station": "AVENUE SAINT MARC#", "marker-color": "#818181"}}, {"type": "Feature", "geometry": {"type": "Point", "coordinates": [2.323752, 48.801414]}, "properties": {"numparc": 4864, "etat de la localisation": "autre", "ID BDGEO": "923", "horodatage": "2022-07-28 16:17:25", "distance (en metres)": 8054.89, "station": "AVENUE SAINT MARC#", "marker-color": "#818181"}}, {"type": "Feature", "geometry": {"type": "Point", "coordinates": [2.322432, 48.798103]}, "properties": {"numparc": 4864, "etat de la localisation": "autre", "ID BDGEO": "923", "horodatage": "2022-07-28 16:19:44", "distance (en metres)": 7675.93, "station": "AVENUE SAINT MARC#", "marker-color": "#818181"}}, {"type": "Feature", "geometry": {"type": "Point", "coordinates": [2.321509, 48.795567]}, "properties": {"numparc": 4864, "etat de la localisation": "autre", "ID BDGEO": "923", "horodatage": "2022-07-28 16:21:25", "distance (en metres)": 7387.98, "station": "AVENUE SAINT MARC#", "marker-color": "#818181"}}, {"type": "Feature", "geometry": {"type": "Point", "coordinates": [2.321509, 48.795567]}, "properties": {"numparc": 4864, "etat de la localisation": "autre", "ID BDGEO": "923", "horodatage": "2022-07-28 16:21:31", "distance (en metres)": 7387.98, "station": "AVENUE SAINT MARC#", "marker-color": "#818181"}}, {"type": "Feature", "geometry": {"type": "Point", "coordinates": [2.320747, 48.793621]}, "properties": {"numparc": 4864, "etat de la localisation": "autre", "ID BDGEO": "923", "horodatage": "2022-07-28 16:22:36", "distance (en metres)": 7165.85, "station": "AVENUE SAINT MARC#", "marker-color": "#818181"}}, {"type": "Feature", "geometry": {"type": "Point", "coordinates": [2.319234, 48.789722]}, "properties": {"numparc": 4864, "etat de la localisation": "autre", "ID BDGEO": "923", "horodatage": "2022-07-28 16:24:37", "distance (en metres)": 6721.35, "station": "AVENUE SAINT MARC#", "marker-color": "#818181"}}, {"type": "Feature", "geometry": {"type": "Point", "coordinates": [2.317225, 48.786011]}, "properties": {"numparc": 4864, "etat de la localisation": "autre", "ID BDGEO": "923", "horodatage": "2022-07-28 16:27:15", "distance (en metres)": 6283.33, "station": "AVENUE SAINT MARC#", "marker-color": "#818181"}}, {"type": "Feature", "geometry": {"type": "Point", "coordinates": [2.317225, 48.786011]}, "properties": {"numparc": 4864, "etat de la localisation": "autre", "ID BDGEO": "923", "horodatage": "2022-07-28 16:27:19", "distance (en metres)": 6283.33, "station": "AVENUE SAINT MARC#", "marker-color": "#818181"}}, {"type": "Feature", "geometry": {"type": "Point", "coordinates": [2.314975, 48.782719]}, "properties": {"numparc": 4864, "etat de la localisation": "autre", "ID BDGEO": "923", "horodatage": "2022-07-28 16:28:41", "distance (en metres)": 5882.46, "station": "AVENUE SAINT MARC#", "marker-color": "#818181"}}, {"type": "Feature", "geometry": {"type": "Point", "coordinates": [2.313505, 48.77906]}, "properties": {"numparc": 4864, "etat de la localisation": "autre", "ID BDGEO": "923", "horodatage": "2022-07-28 16:31:17", "distance (en metres)": 5464.31, "station": "AVENUE SAINT MARC#", "marker-color": "#818181"}}, {"type": "Feature", "geometry": {"type": "Point", "coordinates": [2.313561, 48.777229]}, "properties": {"numparc": 4864, "etat de la localisation": "autre", "ID BDGEO": "923", "horodatage": "2022-07-28 16:32:30", "distance (en metres)": 5276.98, "station": "AVENUE SAINT MARC#", "marker-color": "#818181"}}, {"type": "Feature", "geometry": {"type": "Point", "coordinates": [2.313246, 48.774364]}, "properties": {"numparc": 4864, "etat de la localisation": "autre", "ID BDGEO": "923", "horodatage": "2022-07-28 16:34:18", "distance (en metres)": 4974.62, "station": "AVENUE SAINT MARC#", "marker-color": "#818181"}}, {"type": "Feature", "geometry": {"type": "Point", "coordinates": [2.311548, 48.770203]}, "properties": {"numparc": 4864, "etat de la localisation": "autre", "ID BDGEO": "923", "horodatage": "2022-07-28 16:36:25", "distance (en metres)": 4501.18, "station": "AVENUE SAINT MARC#", "marker-color": "#818181"}}, {"type": "Feature", "geometry": {"type": "Point", "coordinates": [2.309867, 48.765991]}, "properties": {"numparc": 4864, "etat de la localisation": "autre", "ID BDGEO": "923", "horodatage": "2022-07-28 16:37:38", "distance (en metres)": 4024.67, "station": "AVENUE SAINT MARC#", "marker-color": "#818181"}}, {"type": "Feature", "geometry": {"type": "Point", "coordinates": [2.308375, 48.76226]}, "properties": {"numparc": 4864, "etat de la localisation": "autre", "ID BDGEO": "923", "horodatage": "2022-07-28 16:39:29", "distance (en metres)": 3604.15, "station": "AVENUE SAINT MARC#", "marker-color": "#818181"}}, {"type": "Feature", "geometry": {"type": "Point", "coordinates": [2.307718, 48.760387]}, "properties": {"numparc": 4864, "etat de la localisation": "autre", "ID BDGEO": "923", "horodatage": "2022-07-28 16:40:40", "distance (en metres)": 3396.98, "station": "AVENUE SAINT MARC#", "marker-color": "#818181"}}, {"type": "Feature", "geometry": {"type": "Point", "coordinates": [2.306592, 48.757629]}, "properties": {"numparc": 4864, "etat de la localisation": "autre", "ID BDGEO": "923", "horodatage": "2022-07-28 16:41:40", "distance (en metres)": 3087.87, "station": "AVENUE SAINT MARC#", "marker-color": "#818181"}}, {"type": "Feature", "geometry": {"type": "Point", "coordinates": [2.304788, 48.752876]}, "properties": {"numparc": 4864, "etat de la localisation": "autre", "ID BDGEO": "923", "horodatage": "2022-07-28 16:44:42", "distance (en metres)": 2565.37, "station": "AVENUE SAINT MARC#", "marker-color": "#818181"}}, {"type": "Feature", "geometry": {"type": "Point", "coordinates": [2.304376, 48.750458]}, "properties": {"numparc": 4864, "etat de la localisation": "autre", "ID BDGEO": "923", "horodatage": "2022-07-28 16:46:28", "distance (en metres)": 2324.55, "station": "AVENUE SAINT MARC#", "marker-color": "#818181"}}, {"type": "Feature", "geometry": {"type": "Point", "coordinates": [2.303212, 48.744701]}, "properties": {"numparc": 4864, "etat de la localisation": "autre", "ID BDGEO": "923", "horodatage": "2022-07-28 16:48:37", "distance (en metres)": 1776.59, "station": "AVENUE SAINT MARC#", "marker-color": "#818181"}}, {"type": "Feature", "geometry": {"type": "Point", "coordinates": [2.302505, 48.741222]}, "properties": {"numparc": 4864, "etat de la localisation": "autre", "ID BDGEO": "923", "horodatage": "2022-07-28 16:50:08", "distance (en metres)": 1483.84, "station": "AVENUE SAINT MARC#", "marker-color": "#818181"}}, {"type": "Feature", "geometry": {"type": "Point", "coordinates": [2.298093, 48.738525]}, "properties": {"numparc": 4864, "etat de la localisation": "autre", "ID BDGEO": "923", "horodatage": "2022-07-28 16:51:27", "distance (en metres)": 1046.89, "station": "AVENUE SAINT MARC#", "marker-color": "#818181"}}, {"type": "Feature", "geometry": {"type": "Point", "coordinates": [2.298192, 48.736275]}, "properties": {"numparc": 4864, "etat de la localisation": "autre", "ID BDGEO": "923", "horodatage": "2022-07-28 16:52:46", "distance (en metres)": 939.56, "station": "AVENUE SAINT MARC#", "marker-color": "#818181"}}, {"type": "Feature", "geometry": {"type": "Point", "coordinates": [2.294043, 48.734852]}, "properties": {"numparc": 4864, "etat de la localisation": "autre", "ID BDGEO": "923", "horodatage": "2022-07-28 16:54:04", "distance (en metres)": 600.81, "station": "AVENUE SAINT MARC#", "marker-color": "#818181"}}, {"type": "Feature", "geometry": {"type": "Point", "coordinates": [2.292351, 48.734417]}, "properties": {"numparc": 4864, "etat de la localisation": "autre", "ID BDGEO": "923", "horodatage": "2022-07-28 16:55:15", "distance (en metres)": 468.29, "station": "AVENUE SAINT MARC#", "marker-color": "#818181"}}, {"type": "Feature", "geometry": {"type": "Point", "coordinates": [2.286757, 48.734951]}, "properties": {"numparc": 4864, "etat de la localisation": "autre", "ID BDGEO": "923", "horodatage": "2022-07-28 16:57:43", "distance (en metres)": 184.08, "station": "AVENUE SAINT MARC#", "marker-color": "#818181"}}, {"type": "Feature", "geometry": {"type": "Point", "coordinates": [2.2909, 48.734051]}, "properties": {"numparc": 4864, "etat de la localisation": "autre", "ID BDGEO": "923", "horodatage": "2022-07-28 17:48:12", "distance (en metres)": 355.2, "station": "AVENUE SAINT MARC#", "marker-color": "#818181"}}, {"type": "Feature", "geometry": {"type": "Point", "coordinates": [2.294766, 48.735039]}, "properties": {"numparc": 4864, "etat de la localisation": "autre", "ID BDGEO": "923", "horodatage": "2022-07-28 17:49:36", "distance (en metres)": 657.54, "station": "AVENUE SAINT MARC#", "marker-color": "#818181"}}, {"type": "Feature", "geometry": {"type": "Point", "coordinates": [2.29795, 48.735821]}, "properties": {"numparc": 4864, "etat de la localisation": "autre", "ID BDGEO": "923", "horodatage": "2022-07-28 17:50:55", "distance (en metres)": 906.33, "station": "AVENUE SAINT MARC#", "marker-color": "#818181"}}, {"type": "Feature", "geometry": {"type": "Point", "coordinates": [2.298113, 48.738506]}, "properties": {"numparc": 4864, "etat de la localisation": "autre", "ID BDGEO": "923", "horodatage": "2022-07-28 17:52:21", "distance (en metres)": 1046.95, "station": "AVENUE SAINT MARC#", "marker-color": "#818181"}}, {"type": "Feature", "geometry": {"type": "Point", "coordinates": [2.303308, 48.7444]}, "properties": {"numparc": 4864, "etat de la localisation": "autre", "ID BDGEO": "923", "horodatage": "2022-07-28 17:55:22", "distance (en metres)": 1757.95, "station": "AVENUE SAINT MARC#", "marker-color": "#818181"}}, {"type": "Feature", "geometry": {"type": "Point", "coordinates": [2.304577, 48.750988]}, "properties": {"numparc": 4864, "etat de la localisation": "autre", "ID BDGEO": "923", "horodatage": "2022-07-28 17:58:12", "distance (en metres)": 2381.4, "station": "AVENUE SAINT MARC#", "marker-color": "#818181"}}, {"type": "Feature", "geometry": {"type": "Point", "coordinates": [2.305398, 48.754204]}, "properties": {"numparc": 4864, "etat de la localisation": "autre", "ID BDGEO": "923", "horodatage": "2022-07-28 18:00:49", "distance (en metres)": 2714.44, "station": "AVENUE SAINT MARC#", "marker-color": "#818181"}}, {"type": "Feature", "geometry": {"type": "Point", "coordinates": [2.306942, 48.758244]}, "properties": {"numparc": 4864, "etat de la localisation": "autre", "ID BDGEO": "923", "horodatage": "2022-07-28 18:03:16", "distance (en metres)": 3160.06, "station": "AVENUE SAINT MARC#", "marker-color": "#818181"}}, {"type": "Feature", "geometry": {"type": "Point", "coordinates": [2.307783, 48.760277]}, "properties": {"numparc": 4864, "etat de la localisation": "autre", "ID BDGEO": "923", "horodatage": "2022-07-28 18:04:25", "distance (en metres)": 3388.31, "station": "AVENUE SAINT MARC#", "marker-color": "#818181"}}, {"type": "Feature", "geometry": {"type": "Point", "coordinates": [2.30868, 48.762573]}, "properties": {"numparc": 4864, "etat de la localisation": "autre", "ID BDGEO": "923", "horodatage": "2022-07-28 18:05:47", "distance (en metres)": 3645.29, "station": "AVENUE SAINT MARC#", "marker-color": "#818181"}}, {"type": "Feature", "geometry": {"type": "Point", "coordinates": [2.312296, 48.770767]}, "properties": {"numparc": 4864, "etat de la localisation": "autre", "ID BDGEO": "923", "horodatage": "2022-07-28 18:09:34", "distance (en metres)": 4581.07, "station": "AVENUE SAINT MARC#", "marker-color": "#818181"}}, {"type": "Feature", "geometry": {"type": "Point", "coordinates": [2.314409, 48.77734]}, "properties": {"numparc": 4864, "etat de la localisation": "autre", "ID BDGEO": "923", "horodatage": "2022-07-28 18:12:56", "distance (en metres)": 5312.27, "station": "AVENUE SAINT MARC#", "marker-color": "#818181"}}, {"type": "Feature", "geometry": {"type": "Point", "coordinates": [2.315463, 48.779682]}, "properties": {"numparc": 4864, "etat de la localisation": "autre", "ID BDGEO": "923", "horodatage": "2022-07-28 18:14:12", "distance (en metres)": 5582.3, "station": "AVENUE SAINT MARC#", "marker-color": "#818181"}}, {"type": "Feature", "geometry": {"type": "Point", "coordinates": [2.316806, 48.782894]}, "properties": {"numparc": 4864, "etat de la localisation": "autre", "ID BDGEO": "923", "horodatage": "2022-07-28 18:17:54", "distance (en metres)": 5950.01, "station": "AVENUE SAINT MARC#", "marker-color": "#818181"}}, {"type": "Feature", "geometry": {"type": "Point", "coordinates": [2.318399, 48.786926]}, "properties": {"numparc": 4864, "etat de la localisation": "autre", "ID BDGEO": "923", "horodatage": "2022-07-28 18:20:07", "distance (en metres)": 6409.53, "station": "AVENUE SAINT MARC#", "marker-color": "#818181"}}, {"type": "Feature", "geometry": {"type": "Point", "coordinates": [2.319539, 48.789921]}, "properties": {"numparc": 4864, "etat de la localisation": "autre", "ID BDGEO": "923", "horodatage": "2022-07-28 18:22:07", "distance (en metres)": 6750.0, "station": "AVENUE SAINT MARC#", "marker-color": "#818181"}}, {"type": "Feature", "geometry": {"type": "Point", "coordinates": [2.320994, 48.793655]}, "properties": {"numparc": 4864, "etat de la localisation": "autre", "ID BDGEO": "923", "horodatage": "2022-07-28 18:24:16", "distance (en metres)": 7175.84, "station": "AVENUE SAINT MARC#", "marker-color": "#818181"}}, {"type": "Feature", "geometry": {"type": "Point", "coordinates": [2.322484, 48.797024]}, "properties": {"numparc": 4864, "etat de la localisation": "autre", "ID BDGEO": "923", "horodatage": "2022-07-28 18:26:06", "distance (en metres)": 7564.78, "station": "AVENUE SAINT MARC#", "marker-color": "#818181"}}, {"type": "Feature", "geometry": {"type": "Point", "coordinates": [2.323111, 48.799133]}, "properties": {"numparc": 4864, "etat de la localisation": "autre", "ID BDGEO": "923", "horodatage": "2022-07-28 18:27:11", "distance (en metres)": 7800.6, "station": "AVENUE SAINT MARC#", "marker-color": "#818181"}}, {"type": "Feature", "geometry": {"type": "Point", "coordinates": [2.32345, 48.801895]}, "properties": {"numparc": 4864, "etat de la localisation": "autre", "ID BDGEO": "923", "horodatage": "2022-07-28 18:29:55", "distance (en metres)": 8097.64, "station": "AVENUE SAINT MARC#", "marker-color": "#818181"}}, {"type": "Feature", "geometry": {"type": "Point", "coordinates": [2.320897, 48.80394]}, "properties": {"numparc": 4864, "etat de la localisation": "autre", "ID BDGEO": "923", "horodatage": "2022-07-28 18:33:00", "distance (en metres)": 8252.42, "station": "AVENUE SAINT MARC#", "marker-color": "#818181"}}, {"type": "Feature", "geometry": {"type": "Point", "coordinates": [2.323255, 48.805149]}, "properties": {"numparc": 4864, "etat de la localisation": "autre", "ID BDGEO": "923", "horodatage": "2022-07-28 18:33:53", "distance (en metres)": 8434.49, "station": "AVENUE SAINT MARC#", "marker-color": "#818181"}}, {"type": "Feature", "geometry": {"type": "Point", "coordinates": [2.323255, 48.805149]}, "properties": {"numparc": 4864, "etat de la localisation": "autre", "ID BDGEO": "923", "horodatage": "2022-07-28 18:34:02", "distance (en metres)": 8434.49, "station": "AVENUE SAINT MARC#", "marker-color": "#818181"}}, {"type": "Feature", "geometry": {"type": "Point", "coordinates": [2.326802, 48.811001]}, "properties": {"numparc": 4864, "etat de la localisation": "autre", "ID BDGEO": "923", "horodatage": "2022-07-28 18:37:18", "distance (en metres)": 9134.25, "station": "AVENUE SAINT MARC#", "marker-color": "#818181"}}, {"type": "Feature", "geometry": {"type": "Point", "coordinates": [2.326077, 48.813637]}, "properties": {"numparc": 4864, "etat de la localisation": "autre", "ID BDGEO": "923", "horodatage": "2022-07-28 18:39:27", "distance (en metres)": 9395.14, "station": "AVENUE SAINT MARC#", "marker-color": "#818181"}}, {"type": "Feature", "geometry": {"type": "Point", "coordinates": [2.325797, 48.818127]}, "properties": {"numparc": 4864, "etat de la localisation": "autre", "ID BDGEO": "923", "horodatage": "2022-07-28 18:41:55", "distance (en metres)": 9864.73, "station": "AVENUE SAINT MARC#", "marker-color": "#818181"}}, {"type": "Feature", "geometry": {"type": "Point", "coordinates": [2.325579, 48.822361]}, "properties": {"numparc": 4864, "etat de la localisation": "autre", "ID BDGEO": "923", "horodatage": "2022-07-28 18:43:23", "distance (en metres)": 10311.12, "station": "AVENUE SAINT MARC#", "marker-color": "#818181"}}, {"type": "Feature", "geometry": {"type": "Point", "coordinates": [2.326325, 48.808846]}, "properties": {"numparc": 4864, "etat de la localisation": "autre", "ID BDGEO": "923", "horodatage": "2022-07-28 19:00:05", "distance (en metres)": 8896.42, "station": "AVENUE SAINT MARC#", "marker-color": "#818181"}}, {"type": "Feature", "geometry": {"type": "Point", "coordinates": [2.323096, 48.805206]}, "properties": {"numparc": 4864, "etat de la localisation": "autre", "ID BDGEO": "923", "horodatage": "2022-07-28 19:01:37", "distance (en metres)": 8436.77, "station": "AVENUE SAINT MARC#", "marker-color": "#818181"}}, {"type": "Feature", "geometry": {"type": "Point", "coordinates": [2.320794, 48.804073]}, "properties": {"numparc": 4864, "etat de la localisation": "autre", "ID BDGEO": "923", "horodatage": "2022-07-28 19:02:59", "distance (en metres)": 8264.22, "station": "AVENUE SAINT MARC#", "marker-color": "#818181"}}, {"type": "Feature", "geometry": {"type": "Point", "coordinates": [2.323682, 48.801456]}, "properties": {"numparc": 4864, "etat de la localisation": "autre", "ID BDGEO": "923", "horodatage": "2022-07-28 19:06:08", "distance (en metres)": 8057.53, "station": "AVENUE SAINT MARC#", "marker-color": "#818181"}}, {"type": "Feature", "geometry": {"type": "Point", "coordinates": [2.322489, 48.798077]}, "properties": {"numparc": 4864, "etat de la localisation": "autre", "ID BDGEO": "923", "horodatage": "2022-07-28 19:08:46", "distance (en metres)": 7674.59, "station": "AVENUE SAINT MARC#", "marker-color": "#818181"}}, {"type": "Feature", "geometry": {"type": "Point", "coordinates": [2.321539, 48.795555]}, "properties": {"numparc": 4864, "etat de la localisation": "autre", "ID BDGEO": "923", "horodatage": "2022-07-28 19:09:38", "distance (en metres)": 7387.56, "station": "AVENUE SAINT MARC#", "marker-color": "#818181"}}, {"type": "Feature", "geometry": {"type": "Point", "coordinates": [2.320778, 48.793613]}, "properties": {"numparc": 4864, "etat de la localisation": "autre", "ID BDGEO": "923", "horodatage": "2022-07-28 19:10:49", "distance (en metres)": 7165.86, "station": "AVENUE SAINT MARC#", "marker-color": "#818181"}}, {"type": "Feature", "geometry": {"type": "Point", "coordinates": [2.319258, 48.789738]}, "properties": {"numparc": 4864, "etat de la localisation": "autre", "ID BDGEO": "923", "horodatage": "2022-07-28 19:12:44", "distance (en metres)": 6723.57, "station": "AVENUE SAINT MARC#", "marker-color": "#818181"}}, {"type": "Feature", "geometry": {"type": "Point", "coordinates": [2.319258, 48.789738]}, "properties": {"numparc": 4864, "etat de la localisation": "autre", "ID BDGEO": "923", "horodatage": "2022-07-28 19:12:57", "distance (en metres)": 6723.57, "station": "AVENUE SAINT MARC#", "marker-color": "#818181"}}, {"type": "Feature", "geometry": {"type": "Point", "coordinates": [2.317216, 48.786011]}, "properties": {"numparc": 4864, "etat de la localisation": "autre", "ID BDGEO": "923", "horodatage": "2022-07-28 19:15:05", "distance (en metres)": 6283.09, "station": "AVENUE SAINT MARC#", "marker-color": "#818181"}}, {"type": "Feature", "geometry": {"type": "Point", "coordinates": [2.314996, 48.782734]}, "properties": {"numparc": 4864, "etat de la localisation": "autre", "ID BDGEO": "923", "horodatage": "2022-07-28 19:16:43", "distance (en metres)": 5884.59, "station": "AVENUE SAINT MARC#", "marker-color": "#818181"}}, {"type": "Feature", "geometry": {"type": "Point", "coordinates": [2.313522, 48.779068]}, "properties": {"numparc": 4864, "etat de la localisation": "autre", "ID BDGEO": "923", "horodatage": "2022-07-28 19:19:07", "distance (en metres)": 5465.56, "station": "AVENUE SAINT MARC#", "marker-color": "#818181"}}, {"type": "Feature", "geometry": {"type": "Point", "coordinates": [2.313242, 48.774342]}, "properties": {"numparc": 4864, "etat de la localisation": "autre", "ID BDGEO": "923", "horodatage": "2022-07-28 19:21:02", "distance (en metres)": 4972.17, "station": "AVENUE SAINT MARC#", "marker-color": "#818181"}}, {"type": "Feature", "geometry": {"type": "Point", "coordinates": [2.311568, 48.770206]}, "properties": {"numparc": 4864, "etat de la localisation": "autre", "ID BDGEO": "923", "horodatage": "2022-07-28 19:22:24", "distance (en metres)": 4502.17, "station": "AVENUE SAINT MARC#", "marker-color": "#818181"}}, {"type": "Feature", "geometry": {"type": "Point", "coordinates": [2.308437, 48.76223]}, "properties": {"numparc": 4864, "etat de la localisation": "autre", "ID BDGEO": "923", "horodatage": "2022-07-28 19:25:05", "distance (en metres)": 3603.19, "station": "AVENUE SAINT MARC#", "marker-color": "#818181"}}, {"type": "Feature", "geometry": {"type": "Point", "coordinates": [2.307725, 48.760387]}, "properties": {"numparc": 4864, "etat de la localisation": "autre", "ID BDGEO": "923", "horodatage": "2022-07-28 19:26:27", "distance (en metres)": 3397.21, "station": "AVENUE SAINT MARC#", "marker-color": "#818181"}}, {"type": "Feature", "geometry": {"type": "Point", "coordinates": [2.306588, 48.757599]}, "properties": {"numparc": 4864, "etat de la localisation": "autre", "ID BDGEO": "923", "horodatage": "2022-07-28 19:27:40", "distance (en metres)": 3084.76, "station": "AVENUE SAINT MARC#", "marker-color": "#818181"}}, {"type": "Feature", "geometry": {"type": "Point", "coordinates": [2.304797, 48.752853]}, "properties": {"numparc": 4864, "etat de la localisation": "autre", "ID BDGEO": "923", "horodatage": "2022-07-28 19:30:17", "distance (en metres)": 2563.56, "station": "AVENUE SAINT MARC#", "marker-color": "#818181"}}, {"type": "Feature", "geometry": {"type": "Point", "coordinates": [2.304371, 48.750484]}, "properties": {"numparc": 4864, "etat de la localisation": "autre", "ID BDGEO": "923", "horodatage": "2022-07-28 19:31:59", "distance (en metres)": 2326.78, "station": "AVENUE SAINT MARC#", "marker-color": "#818181"}}, {"type": "Feature", "geometry": {"type": "Point", "coordinates": [2.303223, 48.744705]}, "properties": {"numparc": 4864, "etat de la localisation": "autre", "ID BDGEO": "923", "horodatage": "2022-07-28 19:34:05", "distance (en metres)": 1777.46, "station": "AVENUE SAINT MARC#", "marker-color": "#818181"}}, {"type": "Feature", "geometry": {"type": "Point", "coordinates": [2.302504, 48.741249]}, "properties": {"numparc": 4864, "etat de la localisation": "autre", "ID BDGEO": "923", "horodatage": "2022-07-28 19:35:24", "distance (en metres)": 1485.54, "station": "AVENUE SAINT MARC#", "marker-color": "#818181"}}, {"type": "Feature", "geometry": {"type": "Point", "coordinates": [2.298111, 48.738522]}, "properties": {"numparc": 4864, "etat de la localisation": "autre", "ID BDGEO": "923", "horodatage": "2022-07-28 19:37:11", "distance (en metres)": 1047.75, "station": "AVENUE SAINT MARC#", "marker-color": "#818181"}}, {"type": "Feature", "geometry": {"type": "Point", "coordinates": [2.29807, 48.736263]}, "properties": {"numparc": 4864, "etat de la localisation": "autre", "ID BDGEO": "923", "horodatage": "2022-07-28 19:38:13", "distance (en metres)": 930.73, "station": "AVENUE SAINT MARC#", "marker-color": "#818181"}}, {"type": "Feature", "geometry": {"type": "Point", "coordinates": [2.294032, 48.734894]}, "properties": {"numparc": 4864, "etat de la localisation": "autre", "ID BDGEO": "923", "horodatage": "2022-07-28 19:40:11", "distance (en metres)": 601.35, "station": "AVENUE SAINT MARC#", "marker-color": "#818181"}}, {"type": "Feature", "geometry": {"type": "Point", "coordinates": [2.292327, 48.734402]}, "properties": {"numparc": 4864, "etat de la localisation": "autre", "ID BDGEO": "923", "horodatage": "2022-07-28 19:41:15", "distance (en metres)": 466.14, "station": "AVENUE SAINT MARC#", "marker-color": "#818181"}}, {"type": "Feature", "geometry": {"type": "Point", "coordinates": [2.286827, 48.734978]}, "properties": {"numparc": 4864, "etat de la localisation": "autre", "ID BDGEO": "923", "horodatage": "2022-07-28 19:43:30", "distance (en metres)": 188.21, "station": "AVENUE SAINT MARC#", "marker-color": "#818181"}}, {"type": "Feature", "geometry": {"type": "Point", "coordinates": [2.297383, 48.721588]}, "properties": {"station": "CENTRE BUS DE MASSY-SORTIE", "ID BDGEO": "905", "marker-color": "#56B3FF"}}, {"type": "Feature", "geometry": {"type": "Point", "coordinates": [2.286178, 48.73334]}, "properties": {"station": "AVENUE SAINT MARC#", "ID BDGEO": "923", "marker-color": "#56B3FF"}}]}