{"type": "FeatureCollection", "features": [{"type": "Feature", "geometry": {"type": "Point", "coordinates": [2.324167, 48.915535]}, "properties": {"numparc": 1626, "etat de la localisation": "autre", "ID BDGEO": "79", "horodatage": "2023-05-20 22:34:45", "distance (en metres)": 1076.93, "station": "SAINT-OUEN RER", "marker-color": "#818181"}}, {"type": "Feature", "geometry": {"type": "Point", "coordinates": [2.327507, 48.912415]}, "properties": {"numparc": 1626, "etat de la localisation": "autre", "ID BDGEO": "79", "horodatage": "2023-05-20 22:36:36", "distance (en metres)": 775.42, "station": "SAINT-OUEN RER", "marker-color": "#818181"}}, {"type": "Feature", "geometry": {"type": "Point", "coordinates": [2.329696, 48.90942]}, "properties": {"numparc": 1626, "etat de la localisation": "autre", "ID BDGEO": "79", "horodatage": "2023-05-20 22:39:19", "distance (en metres)": 579.29, "station": "SAINT-OUEN RER", "marker-color": "#818181"}}, {"type": "Feature", "geometry": {"type": "Point", "coordinates": [2.32147, 48.904381]}, "properties": {"numparc": 1626, "etat de la localisation": "autre", "ID BDGEO": "80", "horodatage": "2023-05-20 22:41:13", "distance (en metres)": 218.42, "station": "VICTOR HUGO-SANZILLON", "marker-color": "#818181"}}, {"type": "Feature", "geometry": {"type": "Point", "coordinates": [2.323747, 48.915878]}, "properties": {"numparc": 1626, "etat de la localisation": "autre", "ID BDGEO": "79", "horodatage": "2023-05-20 23:46:13", "distance (en metres)": 1115.03, "station": "SAINT-OUEN RER", "marker-color": "#818181"}}, {"type": "Feature", "geometry": {"type": "Point", "coordinates": [2.329698, 48.909443]}, "properties": {"numparc": 1626, "etat de la localisation": "autre", "ID BDGEO": "79", "horodatage": "2023-05-20 23:53:33", "distance (en metres)": 581.15, "station": "SAINT-OUEN RER", "marker-color": "#818181"}}, {"type": "Feature", "geometry": {"type": "Point", "coordinates": [2.341372, 48.916611]}, "properties": {"numparc": 1626, "etat de la localisation": "autre", "ID BDGEO": "79", "horodatage": "2023-05-21 00:59:47", "distance (en metres)": 1748.64, "station": "SAINT-OUEN RER", "marker-color": "#818181"}}, {"type": "Feature", "geometry": {"type": "Point", "coordinates": [2.341832, 48.915653]}, "properties": {"numparc": 1626, "etat de la localisation": "autre", "ID BDGEO": "79", "horodatage": "2023-05-21 01:04:45", "distance (en metres)": 1703.29, "station": "SAINT-OUEN RER", "marker-color": "#818181"}}, {"type": "Feature", "geometry": {"type": "Point", "coordinates": [2.341916, 48.915699]}, "properties": {"numparc": 1626, "etat de la localisation": "autre", "ID BDGEO": "79", "horodatage": "2023-05-21 01:06:56", "distance (en metres)": 1711.27, "station": "SAINT-OUEN RER", "marker-color": "#818181"}}, {"type": "Feature", "geometry": {"type": "Point", "coordinates": [2.341922, 48.915699]}, "properties": {"numparc": 1626, "etat de la localisation": "autre", "ID BDGEO": "79", "horodatage": "2023-05-21 01:07:47", "distance (en metres)": 1711.61, "station": "SAINT-OUEN RER", "marker-color": "#818181"}}, {"type": "Feature", "geometry": {"type": "Point", "coordinates": [2.341923, 48.915699]}, "properties": {"numparc": 1626, "etat de la localisation": "autre", "ID BDGEO": "79", "horodatage": "2023-05-21 01:08:21", "distance (en metres)": 1711.66, "station": "SAINT-OUEN RER", "marker-color": "#818181"}}, {"type": "Feature", "geometry": {"type": "Point", "coordinates": [2.34192, 48.915699]}, "properties": {"numparc": 1626, "etat de la localisation": "autre", "ID BDGEO": "79", "horodatage": "2023-05-21 01:09:16", "distance (en metres)": 1711.49, "station": "SAINT-OUEN RER", "marker-color": "#818181"}}, {"type": "Feature", "geometry": {"type": "Point", "coordinates": [2.341973, 48.915691]}, "properties": {"numparc": 1626, "etat de la localisation": "autre", "ID BDGEO": "79", "horodatage": "2023-05-21 01:11:45", "distance (en metres)": 1713.93, "station": "SAINT-OUEN RER", "marker-color": "#818181"}}, {"type": "Feature", "geometry": {"type": "Point", "coordinates": [2.323922, 48.905851]}, "properties": {"station": "SAINT-OUEN RER", "ID BDGEO": "79", "marker-color": "#56B3FF"}}, {"type": "Feature", "geometry": {"type": "Point", "coordinates": [2.319355, 48.902993]}, "properties": {"station": "VICTOR HUGO-SANZILLON", "ID BDGEO": "80", "marker-color": "#56B3FF"}}]}