{"type": "FeatureCollection", "features": [{"type": "Feature", "geometry": {"type": "Point", "coordinates": [2.172191, 48.888161]}, "properties": {"etat de la localisation": "Delocalise", "numparc": 5765, "duree": "00:20:00", "horodatage": "2022-07-11 05:33:39", "marker-color": "#FF565E"}}, {"type": "Feature", "geometry": {"type": "Point", "coordinates": [2.17208, 48.888115]}, "properties": {"etat de la localisation": "Delocalise", "numparc": 5765, "duree": "00:05:54", "horodatage": "2022-07-11 06:14:04", "marker-color": "#FF565E"}}, {"type": "Feature", "geometry": {"type": "Point", "coordinates": [2.188655, 48.902985]}, "properties": {"etat de la localisation": "Delocalise", "numparc": 5781, "duree": "00:14:43", "horodatage": "2022-07-11 06:29:57", "marker-color": "#FF565E"}}, {"type": "Feature", "geometry": {"type": "Point", "coordinates": [2.190847, 48.902798]}, "properties": {"etat de la localisation": "Mission inconnue", "numparc": 5771, "duree": "", "horodatage": "2022-07-11 06:43:59", "marker-color": "#FF9F56"}}, {"type": "Feature", "geometry": {"type": "Point", "coordinates": [2.188638, 48.903008]}, "properties": {"etat de la localisation": "Mission inconnue", "numparc": 5791, "duree": "", "horodatage": "2022-07-11 07:01:46", "marker-color": "#FF9F56"}}, {"type": "Feature", "geometry": {"type": "Point", "coordinates": [2.189374, 48.903149]}, "properties": {"etat de la localisation": "Mission inconnue", "numparc": 5769, "duree": "", "horodatage": "2022-07-11 07:08:21", "marker-color": "#FF9F56"}}, {"type": "Feature", "geometry": {"type": "Point", "coordinates": [2.172238, 48.888206]}, "properties": {"etat de la localisation": "Delocalise", "numparc": 5771, "duree": "00:00:34", "horodatage": "2022-07-11 07:17:57", "marker-color": "#FF565E"}}, {"type": "Feature", "geometry": {"type": "Point", "coordinates": [2.172298, 48.888088]}, "properties": {"etat de la localisation": "Delocalise", "numparc": 5781, "duree": "00:00:27", "horodatage": "2022-07-11 07:23:00", "marker-color": "#FF565E"}}, {"type": "Feature", "geometry": {"type": "Point", "coordinates": [2.171714, 48.887852]}, "properties": {"etat de la localisation": "Delocalise", "numparc": 5791, "duree": "00:01:03", "horodatage": "2022-07-11 07:35:29", "marker-color": "#FF565E"}}, {"type": "Feature", "geometry": {"type": "Point", "coordinates": [2.172297, 48.888126]}, "properties": {"etat de la localisation": "Delocalise", "numparc": 5765, "duree": "00:10:16", "horodatage": "2022-07-11 07:49:54", "marker-color": "#FF565E"}}, {"type": "Feature", "geometry": {"type": "Point", "coordinates": [2.172292, 48.88813]}, "properties": {"etat de la localisation": "Delocalise", "numparc": 5763, "duree": "00:19:23", "horodatage": "2022-07-11 08:04:53", "marker-color": "#FF565E"}}, {"type": "Feature", "geometry": {"type": "Point", "coordinates": [2.220112, 48.91785]}, "properties": {"etat de la localisation": "Delocalise", "numparc": 5771, "duree": "00:00:00", "horodatage": "2022-07-11 08:26:24", "marker-color": "#FF565E"}}, {"type": "Feature", "geometry": {"type": "Point", "coordinates": [2.220093, 48.917843]}, "properties": {"etat de la localisation": "Delocalise", "numparc": 5769, "duree": "00:00:00", "horodatage": "2022-07-11 08:35:04", "marker-color": "#FF565E"}}, {"type": "Feature", "geometry": {"type": "Point", "coordinates": [2.220084, 48.917858]}, "properties": {"etat de la localisation": "Delocalise", "numparc": 5781, "duree": "00:00:00", "horodatage": "2022-07-11 08:48:43", "marker-color": "#FF565E"}}, {"type": "Feature", "geometry": {"type": "Point", "coordinates": [2.220176, 48.917831]}, "properties": {"etat de la localisation": "Delocalise", "numparc": 5791, "duree": "00:00:00", "horodatage": "2022-07-11 09:04:04", "marker-color": "#FF565E"}}, {"type": "Feature", "geometry": {"type": "Point", "coordinates": [2.17221, 48.888077]}, "properties": {"etat de la localisation": "Delocalise", "numparc": 5771, "duree": "00:00:28", "horodatage": "2022-07-11 09:06:28", "marker-color": "#FF565E"}}, {"type": "Feature", "geometry": {"type": "Point", "coordinates": [2.172262, 48.888134]}, "properties": {"etat de la localisation": "Delocalise", "numparc": 5769, "duree": "00:00:24", "horodatage": "2022-07-11 09:10:16", "marker-color": "#FF565E"}}, {"type": "Feature", "geometry": {"type": "Point", "coordinates": [2.220139, 48.91785]}, "properties": {"etat de la localisation": "Delocalise", "numparc": 5765, "duree": "00:00:00", "horodatage": "2022-07-11 09:14:40", "marker-color": "#FF565E"}}, {"type": "Feature", "geometry": {"type": "Point", "coordinates": [2.17234, 48.888119]}, "properties": {"etat de la localisation": "Delocalise", "numparc": 5781, "duree": "00:07:37", "horodatage": "2022-07-11 09:25:46", "marker-color": "#FF565E"}}, {"type": "Feature", "geometry": {"type": "Point", "coordinates": [2.220139, 48.917828]}, "properties": {"etat de la localisation": "Delocalise", "numparc": 5763, "duree": "00:00:00", "horodatage": "2022-07-11 09:27:00", "marker-color": "#FF565E"}}, {"type": "Feature", "geometry": {"type": "Point", "coordinates": [2.172134, 48.888046]}, "properties": {"etat de la localisation": "Delocalise", "numparc": 5791, "duree": "00:01:59", "horodatage": "2022-07-11 09:40:24", "marker-color": "#FF565E"}}, {"type": "Feature", "geometry": {"type": "Point", "coordinates": [2.172081, 48.888042]}, "properties": {"etat de la localisation": "Delocalise", "numparc": 5765, "duree": "00:04:21", "horodatage": "2022-07-11 09:50:27", "marker-color": "#FF565E"}}, {"type": "Feature", "geometry": {"type": "Point", "coordinates": [2.172154, 48.888027]}, "properties": {"etat de la localisation": "Delocalise", "numparc": 5763, "duree": "00:05:31", "horodatage": "2022-07-11 10:05:20", "marker-color": "#FF565E"}}, {"type": "Feature", "geometry": {"type": "Point", "coordinates": [2.18992, 48.903252]}, "properties": {"etat de la localisation": "Hors service", "numparc": 5769, "duree": "", "horodatage": "2022-07-11 10:16:27", "marker-color": "#707070"}}, {"type": "Feature", "geometry": {"type": "Point", "coordinates": [2.188844, 48.903019]}, "properties": {"etat de la localisation": "Hors service", "numparc": 5791, "duree": "", "horodatage": "2022-07-11 10:40:21", "marker-color": "#707070"}}, {"type": "Feature", "geometry": {"type": "Point", "coordinates": [2.17223, 48.888138]}, "properties": {"etat de la localisation": "Delocalise", "numparc": 5771, "duree": "00:00:30", "horodatage": "2022-07-11 10:49:54", "marker-color": "#FF565E"}}, {"type": "Feature", "geometry": {"type": "Point", "coordinates": [2.188747, 48.903046]}, "properties": {"etat de la localisation": "Hors service", "numparc": 5781, "duree": "", "horodatage": "2022-07-11 11:12:59", "marker-color": "#707070"}}, {"type": "Feature", "geometry": {"type": "Point", "coordinates": [2.172148, 48.888115]}, "properties": {"etat de la localisation": "Delocalise", "numparc": 5765, "duree": "00:11:10", "horodatage": "2022-07-11 11:25:52", "marker-color": "#FF565E"}}, {"type": "Feature", "geometry": {"type": "Point", "coordinates": [2.172418, 48.888306]}, "properties": {"etat de la localisation": "Delocalise", "numparc": 5763, "duree": "00:29:27", "horodatage": "2022-07-11 11:40:18", "marker-color": "#FF565E"}}, {"type": "Feature", "geometry": {"type": "Point", "coordinates": [2.190183, 48.903343]}, "properties": {"etat de la localisation": "Mission inconnue", "numparc": 5779, "duree": "", "horodatage": "2022-07-11 11:54:54", "marker-color": "#FF9F56"}}, {"type": "Feature", "geometry": {"type": "Point", "coordinates": [2.172397, 48.888401]}, "properties": {"etat de la localisation": "Delocalise", "numparc": 5779, "duree": "00:15:24", "horodatage": "2022-07-11 12:36:30", "marker-color": "#FF565E"}}, {"type": "Feature", "geometry": {"type": "Point", "coordinates": [2.170539, 48.887524]}, "properties": {"etat de la localisation": "Mission suivante non connue", "numparc": 5771, "duree": "", "horodatage": "2022-07-11 12:46:01", "marker-color": "#7156FF"}}, {"type": "Feature", "geometry": {"type": "Point", "coordinates": [2.170539, 48.887524]}, "properties": {"etat de la localisation": "Mission inconnue", "numparc": 5771, "duree": "", "horodatage": "2022-07-11 12:46:18", "marker-color": "#FF9F56"}}, {"type": "Feature", "geometry": {"type": "Point", "coordinates": [2.170773, 48.887619]}, "properties": {"etat de la localisation": "Mission suivante non connue", "numparc": 5771, "duree": "", "horodatage": "2022-07-11 12:57:53", "marker-color": "#7156FF"}}, {"type": "Feature", "geometry": {"type": "Point", "coordinates": [2.194971, 48.894844]}, "properties": {"etat de la localisation": "Hors service", "numparc": 5779, "duree": "", "horodatage": "2022-07-11 13:05:49", "marker-color": "#707070"}}, {"type": "Feature", "geometry": {"type": "Point", "coordinates": [2.172155, 48.892879]}, "properties": {"etat de la localisation": "Mission inconnue", "numparc": 5771, "duree": "", "horodatage": "2022-07-11 13:10:55", "marker-color": "#FF9F56"}}, {"type": "Feature", "geometry": {"type": "Point", "coordinates": [2.170669, 48.887512]}, "properties": {"etat de la localisation": "Mission suivante non connue", "numparc": 5765, "duree": "", "horodatage": "2022-07-11 13:15:22", "marker-color": "#7156FF"}}, {"type": "Feature", "geometry": {"type": "Point", "coordinates": [2.170676, 48.887512]}, "properties": {"etat de la localisation": "Mission inconnue", "numparc": 5765, "duree": "", "horodatage": "2022-07-11 13:15:37", "marker-color": "#FF9F56"}}, {"type": "Feature", "geometry": {"type": "Point", "coordinates": [2.172292, 48.888359]}, "properties": {"etat de la localisation": "Mission inconnue", "numparc": 5765, "duree": "", "horodatage": "2022-07-11 13:16:37", "marker-color": "#FF9F56"}}, {"type": "Feature", "geometry": {"type": "Point", "coordinates": [2.172222, 48.888142]}, "properties": {"etat de la localisation": "Delocalise", "numparc": 5779, "duree": "00:21:18", "horodatage": "2022-07-11 13:22:27", "marker-color": "#FF565E"}}, {"type": "Feature", "geometry": {"type": "Point", "coordinates": [2.189783, 48.903267]}, "properties": {"etat de la localisation": "Hors service", "numparc": 5771, "duree": "", "horodatage": "2022-07-11 13:26:13", "marker-color": "#707070"}}, {"type": "Feature", "geometry": {"type": "Point", "coordinates": [2.196589, 48.895317]}, "properties": {"etat de la localisation": "Mission suivante non connue", "numparc": 5765, "duree": "", "horodatage": "2022-07-11 13:33:44", "marker-color": "#7156FF"}}, {"type": "Feature", "geometry": {"type": "Point", "coordinates": [2.189652, 48.903198]}, "properties": {"etat de la localisation": "Hors service", "numparc": 5765, "duree": "", "horodatage": "2022-07-11 13:42:11", "marker-color": "#707070"}}, {"type": "Feature", "geometry": {"type": "Point", "coordinates": [2.171628, 48.88789]}, "properties": {"etat de la localisation": "Hors service", "numparc": 5779, "duree": "", "horodatage": "2022-07-11 13:43:45", "marker-color": "#707070"}}, {"type": "Feature", "geometry": {"type": "Point", "coordinates": [2.17235, 48.888157]}, "properties": {"etat de la localisation": "Delocalise", "numparc": 5763, "duree": "00:09:34", "horodatage": "2022-07-11 13:51:29", "marker-color": "#FF565E"}}, {"type": "Feature", "geometry": {"type": "Point", "coordinates": [2.196554, 48.896671]}, "properties": {"etat de la localisation": "Delocalise", "numparc": 5779, "duree": "00:01:07", "horodatage": "2022-07-11 14:09:40", "marker-color": "#FF565E"}}, {"type": "Feature", "geometry": {"type": "Point", "coordinates": [2.190264, 48.903183]}, "properties": {"etat de la localisation": "Mission inconnue", "numparc": 5779, "duree": "", "horodatage": "2022-07-11 14:29:56", "marker-color": "#FF9F56"}}, {"type": "Feature", "geometry": {"type": "Point", "coordinates": [2.190264, 48.903183]}, "properties": {"etat de la localisation": "Hors service", "numparc": 5779, "duree": "", "horodatage": "2022-07-11 14:33:47", "marker-color": "#707070"}}, {"type": "Feature", "geometry": {"type": "Point", "coordinates": [2.190264, 48.903183]}, "properties": {"etat de la localisation": "Mission inconnue", "numparc": 5779, "duree": "", "horodatage": "2022-07-11 14:52:57", "marker-color": "#FF9F56"}}, {"type": "Feature", "geometry": {"type": "Point", "coordinates": [2.18894, 48.903053]}, "properties": {"etat de la localisation": "Delocalise", "numparc": 5793, "duree": "00:07:40", "horodatage": "2022-07-11 14:55:47", "marker-color": "#FF565E"}}, {"type": "Feature", "geometry": {"type": "Point", "coordinates": [2.188308, 48.90266]}, "properties": {"etat de la localisation": "Hors service", "numparc": 5793, "duree": "", "horodatage": "2022-07-11 15:03:27", "marker-color": "#707070"}}, {"type": "Feature", "geometry": {"type": "Point", "coordinates": [2.190446, 48.903316]}, "properties": {"etat de la localisation": "Delocalise", "numparc": 5781, "duree": "00:08:31", "horodatage": "2022-07-11 15:06:24", "marker-color": "#FF565E"}}, {"type": "Feature", "geometry": {"type": "Point", "coordinates": [2.188321, 48.902576]}, "properties": {"etat de la localisation": "Delocalise", "numparc": 5764, "duree": "00:08:30", "horodatage": "2022-07-11 15:11:09", "marker-color": "#FF565E"}}, {"type": "Feature", "geometry": {"type": "Point", "coordinates": [2.169912, 48.892624]}, "properties": {"etat de la localisation": "Delocalise", "numparc": 5779, "duree": "00:00:58", "horodatage": "2022-07-11 15:16:50", "marker-color": "#FF565E"}}, {"type": "Feature", "geometry": {"type": "Point", "coordinates": [2.167967, 48.88868]}, "properties": {"etat de la localisation": "Delocalise", "numparc": 5779, "duree": "00:01:05", "horodatage": "2022-07-11 15:18:47", "marker-color": "#FF565E"}}, {"type": "Feature", "geometry": {"type": "Point", "coordinates": [2.172616, 48.888577]}, "properties": {"etat de la localisation": "Delocalise", "numparc": 5779, "duree": "00:16:10", "horodatage": "2022-07-11 15:21:49", "marker-color": "#FF565E"}}, {"type": "Feature", "geometry": {"type": "Point", "coordinates": [2.172292, 48.8881]}, "properties": {"etat de la localisation": "Delocalise", "numparc": 5781, "duree": "00:17:31", "horodatage": "2022-07-11 15:29:36", "marker-color": "#FF565E"}}, {"type": "Feature", "geometry": {"type": "Point", "coordinates": [2.17226, 48.888157]}, "properties": {"etat de la localisation": "Delocalise", "numparc": 5763, "duree": "00:02:00", "horodatage": "2022-07-11 15:46:38", "marker-color": "#FF565E"}}, {"type": "Feature", "geometry": {"type": "Point", "coordinates": [2.188834, 48.903019]}, "properties": {"etat de la localisation": "Delocalise", "numparc": 5791, "duree": "00:12:11", "horodatage": "2022-07-11 15:49:52", "marker-color": "#FF565E"}}, {"type": "Feature", "geometry": {"type": "Point", "coordinates": [2.189972, 48.90329]}, "properties": {"etat de la localisation": "Delocalise", "numparc": 5769, "duree": "00:07:49", "horodatage": "2022-07-11 15:52:29", "marker-color": "#FF565E"}}, {"type": "Feature", "geometry": {"type": "Point", "coordinates": [2.190869, 48.903412]}, "properties": {"etat de la localisation": "Delocalise", "numparc": 5771, "duree": "00:06:48", "horodatage": "2022-07-11 16:13:08", "marker-color": "#FF565E"}}, {"type": "Feature", "geometry": {"type": "Point", "coordinates": [2.172284, 48.888161]}, "properties": {"etat de la localisation": "Delocalise", "numparc": 5769, "duree": "00:00:30", "horodatage": "2022-07-11 16:15:57", "marker-color": "#FF565E"}}, {"type": "Feature", "geometry": {"type": "Point", "coordinates": [2.196123, 48.894897]}, "properties": {"etat de la localisation": "Hors service", "numparc": 5771, "duree": "", "horodatage": "2022-07-11 16:26:46", "marker-color": "#707070"}}, {"type": "Feature", "geometry": {"type": "Point", "coordinates": [2.172345, 48.888138]}, "properties": {"etat de la localisation": "Delocalise", "numparc": 5764, "duree": "00:04:05", "horodatage": "2022-07-11 16:48:33", "marker-color": "#FF565E"}}, {"type": "Feature", "geometry": {"type": "Point", "coordinates": [2.172264, 48.888145]}, "properties": {"etat de la localisation": "Delocalise", "numparc": 5771, "duree": "00:05:12", "horodatage": "2022-07-11 16:48:46", "marker-color": "#FF565E"}}, {"type": "Feature", "geometry": {"type": "Point", "coordinates": [2.172234, 48.888035]}, "properties": {"etat de la localisation": "Delocalise", "numparc": 5791, "duree": "00:00:22", "horodatage": "2022-07-11 16:57:46", "marker-color": "#FF565E"}}, {"type": "Feature", "geometry": {"type": "Point", "coordinates": [2.17277, 48.888329]}, "properties": {"etat de la localisation": "Delocalise", "numparc": 5779, "duree": "00:21:19", "horodatage": "2022-07-11 17:18:28", "marker-color": "#FF565E"}}, {"type": "Feature", "geometry": {"type": "Point", "coordinates": [2.170898, 48.887661]}, "properties": {"etat de la localisation": "Hors service", "numparc": 5791, "duree": "", "horodatage": "2022-07-11 17:19:07", "marker-color": "#707070"}}, {"type": "Feature", "geometry": {"type": "Point", "coordinates": [2.172269, 48.888088]}, "properties": {"etat de la localisation": "Delocalise", "numparc": 5781, "duree": "00:08:24", "horodatage": "2022-07-11 17:32:31", "marker-color": "#FF565E"}}, {"type": "Feature", "geometry": {"type": "Point", "coordinates": [2.188551, 48.902931]}, "properties": {"etat de la localisation": "Mission inconnue", "numparc": 5792, "duree": "", "horodatage": "2022-07-11 17:40:07", "marker-color": "#FF9F56"}}, {"type": "Feature", "geometry": {"type": "Point", "coordinates": [2.172346, 48.888161]}, "properties": {"etat de la localisation": "Delocalise", "numparc": 5763, "duree": "00:00:35", "horodatage": "2022-07-11 17:50:07", "marker-color": "#FF565E"}}, {"type": "Feature", "geometry": {"type": "Point", "coordinates": [2.172217, 48.888084]}, "properties": {"etat de la localisation": "Delocalise", "numparc": 5769, "duree": "00:00:47", "horodatage": "2022-07-11 18:05:17", "marker-color": "#FF565E"}}, {"type": "Feature", "geometry": {"type": "Point", "coordinates": [2.172178, 48.888062]}, "properties": {"etat de la localisation": "Delocalise", "numparc": 5792, "duree": "00:04:31", "horodatage": "2022-07-11 18:22:53", "marker-color": "#FF565E"}}, {"type": "Feature", "geometry": {"type": "Point", "coordinates": [2.172256, 48.88802]}, "properties": {"etat de la localisation": "Delocalise", "numparc": 5764, "duree": "00:22:22", "horodatage": "2022-07-11 18:27:39", "marker-color": "#FF565E"}}, {"type": "Feature", "geometry": {"type": "Point", "coordinates": [2.172188, 48.888088]}, "properties": {"etat de la localisation": "Delocalise", "numparc": 5771, "duree": "00:22:52", "horodatage": "2022-07-11 18:45:09", "marker-color": "#FF565E"}}, {"type": "Feature", "geometry": {"type": "Point", "coordinates": [2.172215, 48.888088]}, "properties": {"etat de la localisation": "Delocalise", "numparc": 5791, "duree": "00:00:30", "horodatage": "2022-07-11 19:11:42", "marker-color": "#FF565E"}}, {"type": "Feature", "geometry": {"type": "Point", "coordinates": [2.190133, 48.90337]}, "properties": {"etat de la localisation": "Hors service", "numparc": 5769, "duree": "", "horodatage": "2022-07-11 19:24:45", "marker-color": "#707070"}}, {"type": "Feature", "geometry": {"type": "Point", "coordinates": [2.170708, 48.887531]}, "properties": {"etat de la localisation": "Hors service", "numparc": 5771, "duree": "", "horodatage": "2022-07-11 19:31:48", "marker-color": "#707070"}}, {"type": "Feature", "geometry": {"type": "Point", "coordinates": [2.189886, 48.90329]}, "properties": {"etat de la localisation": "Hors service", "numparc": 5779, "duree": "", "horodatage": "2022-07-11 19:39:23", "marker-color": "#707070"}}, {"type": "Feature", "geometry": {"type": "Point", "coordinates": [2.170753, 48.887543]}, "properties": {"etat de la localisation": "Hors service", "numparc": 5791, "duree": "", "horodatage": "2022-07-11 19:39:51", "marker-color": "#707070"}}, {"type": "Feature", "geometry": {"type": "Point", "coordinates": [2.172196, 48.888081]}, "properties": {"etat de la localisation": "Delocalise", "numparc": 5781, "duree": "00:41:11", "horodatage": "2022-07-11 19:46:11", "marker-color": "#FF565E"}}, {"type": "Feature", "geometry": {"type": "Point", "coordinates": [2.220725, 48.916256]}, "properties": {"etat de la localisation": "Delocalise", "numparc": 5792, "duree": "00:06:35", "horodatage": "2022-07-11 19:55:05", "marker-color": "#FF565E"}}, {"type": "Feature", "geometry": {"type": "Point", "coordinates": [2.218516, 48.922935]}, "properties": {"etat de la localisation": "Hors service", "numparc": 5764, "duree": "", "horodatage": "2022-07-11 20:10:49", "marker-color": "#707070"}}, {"type": "Feature", "geometry": {"type": "Point", "coordinates": [2.189178, 48.903053]}, "properties": {"etat de la localisation": "Hors service", "numparc": 5763, "duree": "", "horodatage": "2022-07-11 20:19:28", "marker-color": "#707070"}}, {"type": "Feature", "geometry": {"type": "Point", "coordinates": [2.218531, 48.922962]}, "properties": {"etat de la localisation": "Mission suivante non connue", "numparc": 5791, "duree": "", "horodatage": "2022-07-11 20:32:53", "marker-color": "#7156FF"}}, {"type": "Feature", "geometry": {"type": "Point", "coordinates": [2.218523, 48.922958]}, "properties": {"etat de la localisation": "Mission inconnue", "numparc": 5791, "duree": "", "horodatage": "2022-07-11 20:33:02", "marker-color": "#FF9F56"}}, {"type": "Feature", "geometry": {"type": "Point", "coordinates": [2.188871, 48.903019]}, "properties": {"etat de la localisation": "Hors service", "numparc": 5792, "duree": "", "horodatage": "2022-07-11 20:34:13", "marker-color": "#707070"}}, {"type": "Feature", "geometry": {"type": "Point", "coordinates": [2.188675, 48.903019]}, "properties": {"etat de la localisation": "Hors service", "numparc": 5764, "duree": "", "horodatage": "2022-07-11 21:00:57", "marker-color": "#707070"}}, {"type": "Feature", "geometry": {"type": "Point", "coordinates": [2.171453, 48.887779]}, "properties": {"etat de la localisation": "Delocalise", "numparc": 5771, "duree": "00:00:00", "horodatage": "2022-07-11 21:02:04", "marker-color": "#FF565E"}}, {"type": "Feature", "geometry": {"type": "Point", "coordinates": [2.195227, 48.894901]}, "properties": {"etat de la localisation": "Hors service", "numparc": 5791, "duree": "", "horodatage": "2022-07-11 21:08:34", "marker-color": "#707070"}}, {"type": "Feature", "geometry": {"type": "Point", "coordinates": [2.188427, 48.902935]}, "properties": {"etat de la localisation": "Hors service", "numparc": 5781, "duree": "", "horodatage": "2022-07-11 21:13:22", "marker-color": "#707070"}}, {"type": "Feature", "geometry": {"type": "Point", "coordinates": [2.170786, 48.88755]}, "properties": {"etat de la localisation": "Hors service", "numparc": 5771, "duree": "", "horodatage": "2022-07-11 21:24:02", "marker-color": "#707070"}}, {"type": "Feature", "geometry": {"type": "Point", "coordinates": [2.188324, 48.902889]}, "properties": {"etat de la localisation": "Hors service", "numparc": 5791, "duree": "", "horodatage": "2022-07-11 21:37:39", "marker-color": "#707070"}}, {"type": "Feature", "geometry": {"type": "Point", "coordinates": [2.172209, 48.888153]}, "properties": {"etat de la localisation": "Delocalise", "numparc": 5771, "duree": "00:00:35", "horodatage": "2022-07-11 22:00:15", "marker-color": "#FF565E"}}, {"type": "Feature", "geometry": {"type": "Point", "coordinates": [2.188395, 48.902515]}, "properties": {"etat de la localisation": "Hors service", "numparc": 5771, "duree": "", "horodatage": "2022-07-11 22:56:35", "marker-color": "#707070"}}]}