{"type": "FeatureCollection", "features": [{"type": "Feature", "geometry": {"type": "Point", "coordinates": [2.407118, 48.85017]}, "properties": {"alarme": "DEFAUT LIAISON DATA SAEIV / AIGLE", "numparc": 7405, "type": "TECHNIQUE", "duree": "00:00:38", "horodatage": "2022-09-06 10:13:32", "statut": "start", "marker-color": "#ff0000"}}, {"type": "Feature", "geometry": {"type": "Point", "coordinates": [2.407118, 48.85017]}, "properties": {"alarme": "DEFAUT LIAISON DATA SAEIV / AIGLE", "numparc": 7405, "type": "TECHNIQUE", "duree": "00:04:37", "horodatage": "2022-09-06 10:15:15", "statut": "start", "marker-color": "#ff0000"}}, {"type": "Feature", "geometry": {"type": "Point", "coordinates": [2.407118, 48.85017]}, "properties": {"alarme": "DEFAUT LIAISON DATA SAEIV / AIGLE", "numparc": 7405, "type": "TECHNIQUE", "duree": "00:11:34", "horodatage": "2022-09-06 10:20:55", "statut": "start", "marker-color": "#ff0000"}}, {"type": "Feature", "geometry": {"type": "Point", "coordinates": [2.407118, 48.85017]}, "properties": {"alarme": "DEFAUT LIAISON DATA SAEIV / AIGLE", "numparc": 7405, "type": "TECHNIQUE", "duree": "01:42:42", "horodatage": "2022-09-06 10:33:56", "statut": "start", "marker-color": "#ff0000"}}, {"type": "Feature", "geometry": {"type": "Point", "coordinates": [2.407118, 48.85017]}, "properties": {"alarme": "DEFAUT LIAISON DATA SAEIV / AIGLE", "numparc": 7405, "type": "TECHNIQUE", "duree": "00:00:38", "horodatage": "2022-09-06 10:14:10", "statut": "end", "marker-color": "#2fe184"}}, {"type": "Feature", "geometry": {"type": "Point", "coordinates": [2.407118, 48.85017]}, "properties": {"alarme": "DEFAUT LIAISON DATA SAEIV / AIGLE", "numparc": 7405, "type": "TECHNIQUE", "duree": "00:04:37", "horodatage": "2022-09-06 10:19:52", "statut": "end", "marker-color": "#2fe184"}}, {"type": "Feature", "geometry": {"type": "Point", "coordinates": [2.407118, 48.85017]}, "properties": {"alarme": "DEFAUT LIAISON DATA SAEIV / AIGLE", "numparc": 7405, "type": "TECHNIQUE", "duree": "00:11:34", "horodatage": "2022-09-06 10:32:29", "statut": "end", "marker-color": "#2fe184"}}, {"type": "Feature", "geometry": {"type": "Point", "coordinates": [2.407118, 48.85017]}, "properties": {"alarme": "DEFAUT LIAISON DATA SAEIV / AIGLE", "numparc": 7405, "type": "TECHNIQUE", "duree": "01:42:42", "horodatage": "2022-09-06 12:16:38", "statut": "end", "marker-color": "#2fe184"}}, {"type": "Feature", "geometry": {"type": "Point", "coordinates": [2.407118, 48.85017]}, "properties": {"alarme": "DEFAUT LIAISON DATA SAEIV / AIGLE", "numparc": 7405, "type": "TECHNIQUE", "duree": "24:00:00", "horodatage": "2022-09-06 12:17:49", "statut": "start", "marker-color": "#000000"}}]}