{"type": "FeatureCollection", "features": [{"type": "Feature", "geometry": {"type": "Point", "coordinates": [2.329777, 48.822876]}, "properties": {"numparc": 1424, "etat de la localisation": "autre", "ID BDGEO": "817", "horodatage": "2023-06-17 05:22:26", "distance (en metres)": 1043.64, "station": "AMIRAL MOUCHEZ", "marker-color": "#818181"}}, {"type": "Feature", "geometry": {"type": "Point", "coordinates": [2.328748, 48.822781]}, "properties": {"numparc": 1372, "etat de la localisation": "autre", "ID BDGEO": "5", "horodatage": "2023-06-17 06:08:26", "distance (en metres)": 50.0, "station": "MONTROUGE SORTIE", "marker-color": "#818181"}}, {"type": "Feature", "geometry": {"type": "Point", "coordinates": [2.328748, 48.822781]}, "properties": {"numparc": 1372, "etat de la localisation": "autre", "ID BDGEO": "5", "horodatage": "2023-06-17 06:08:47", "distance (en metres)": 50.0, "station": "MONTROUGE SORTIE", "marker-color": "#818181"}}, {"type": "Feature", "geometry": {"type": "Point", "coordinates": [2.329954, 48.823078]}, "properties": {"numparc": 1371, "etat de la localisation": "autre", "ID BDGEO": "45", "horodatage": "2023-06-17 06:42:24", "distance (en metres)": 1021.62, "station": "AMIRAL MOUCHEZ", "marker-color": "#818181"}}, {"type": "Feature", "geometry": {"type": "Point", "coordinates": [2.336978, 48.86282]}, "properties": {"numparc": 1372, "etat de la localisation": "autre", "ID BDGEO": "5", "horodatage": "2023-06-17 06:57:08", "distance (en metres)": 4443.81, "station": "MONTROUGE SORTIE", "marker-color": "#818181"}}, {"type": "Feature", "geometry": {"type": "Point", "coordinates": [2.35403, 48.830029]}, "properties": {"numparc": 1368, "etat de la localisation": "autre", "ID BDGEO": "526", "horodatage": "2023-06-17 07:43:24", "distance (en metres)": 1317.33, "station": "STADE CHARLETY-PTE DE GENTILLY#", "marker-color": "#818181"}}, {"type": "Feature", "geometry": {"type": "Point", "coordinates": [2.34324, 48.821606]}, "properties": {"numparc": 1372, "etat de la localisation": "autre", "ID BDGEO": "5", "horodatage": "2023-06-17 12:07:01", "distance (en metres)": 1059.07, "station": "MONTROUGE SORTIE", "marker-color": "#818181"}}, {"type": "Feature", "geometry": {"type": "Point", "coordinates": [2.344231, 48.820065]}, "properties": {"numparc": 1372, "etat de la localisation": "autre", "ID BDGEO": "5", "horodatage": "2023-06-17 12:09:30", "distance (en metres)": 1169.91, "station": "MONTROUGE SORTIE", "marker-color": "#818181"}}, {"type": "Feature", "geometry": {"type": "Point", "coordinates": [2.344388, 48.820145]}, "properties": {"numparc": 1367, "etat de la localisation": "autre", "ID BDGEO": "5", "horodatage": "2023-06-17 20:10:07", "distance (en metres)": 1178.29, "station": "MONTROUGE SORTIE", "marker-color": "#818181"}}, {"type": "Feature", "geometry": {"type": "Point", "coordinates": [2.327929, 48.823589]}, "properties": {"numparc": 1367, "etat de la localisation": "autre", "ID BDGEO": "888", "horodatage": "2023-06-17 20:21:23", "distance (en metres)": 2085.34, "station": "PLACE D'ITALIE - BLANQUI", "marker-color": "#818181"}}, {"type": "Feature", "geometry": {"type": "Point", "coordinates": [2.344345, 48.819904]}, "properties": {"numparc": 1374, "etat de la localisation": "autre", "ID BDGEO": "5", "horodatage": "2023-06-17 20:27:38", "distance (en metres)": 1183.3, "station": "MONTROUGE SORTIE", "marker-color": "#818181"}}, {"type": "Feature", "geometry": {"type": "Point", "coordinates": [2.327868, 48.8237]}, "properties": {"numparc": 1374, "etat de la localisation": "autre", "ID BDGEO": "45", "horodatage": "2023-06-17 20:34:28", "distance (en metres)": 1183.9, "station": "AMIRAL MOUCHEZ", "marker-color": "#818181"}}, {"type": "Feature", "geometry": {"type": "Point", "coordinates": [2.329386, 48.822777]}, "properties": {"numparc": 1374, "etat de la localisation": "autre", "ID BDGEO": "45", "horodatage": "2023-06-17 20:38:16", "distance (en metres)": 1058.37, "station": "AMIRAL MOUCHEZ", "marker-color": "#818181"}}, {"type": "Feature", "geometry": {"type": "Point", "coordinates": [2.343924, 48.821721]}, "properties": {"station": "AMIRAL MOUCHEZ", "ID BDGEO": "817", "marker-color": "#56B3FF"}}, {"type": "Feature", "geometry": {"type": "Point", "coordinates": [2.328979, 48.823204]}, "properties": {"station": "MONTROUGE SORTIE", "ID BDGEO": "5", "marker-color": "#56B3FF"}}, {"type": "Feature", "geometry": {"type": "Point", "coordinates": [2.343747, 48.821685]}, "properties": {"station": "AMIRAL MOUCHEZ", "ID BDGEO": "45", "marker-color": "#56B3FF"}}, {"type": "Feature", "geometry": {"type": "Point", "coordinates": [2.344019, 48.820184]}, "properties": {"station": "STADE CHARLETY-PTE DE GENTILLY#", "ID BDGEO": "526", "marker-color": "#56B3FF"}}, {"type": "Feature", "geometry": {"type": "Point", "coordinates": [2.354054, 48.831067]}, "properties": {"station": "PLACE D'ITALIE - BLANQUI", "ID BDGEO": "888", "marker-color": "#56B3FF"}}]}