{"type": "FeatureCollection", "features": [{"type": "Feature", "geometry": {"type": "Point", "coordinates": [2.327703, 48.913464]}, "properties": {"numparc": 1625, "etat de la localisation": "autre", "ID BDGEO": "79", "horodatage": "2023-06-20 09:01:16", "distance (en metres)": 890.42, "station": "SAINT-OUEN RER", "marker-color": "#818181"}}, {"type": "Feature", "geometry": {"type": "Point", "coordinates": [2.329683, 48.909397]}, "properties": {"numparc": 1625, "etat de la localisation": "autre", "ID BDGEO": "79", "horodatage": "2023-06-20 09:04:30", "distance (en metres)": 576.86, "station": "SAINT-OUEN RER", "marker-color": "#818181"}}, {"type": "Feature", "geometry": {"type": "Point", "coordinates": [2.326669, 48.9076]}, "properties": {"numparc": 1625, "etat de la localisation": "autre", "ID BDGEO": "79", "horodatage": "2023-06-20 09:05:37", "distance (en metres)": 279.55, "station": "SAINT-OUEN RER", "marker-color": "#818181"}}, {"type": "Feature", "geometry": {"type": "Point", "coordinates": [2.321553, 48.9044]}, "properties": {"numparc": 1625, "etat de la localisation": "autre", "ID BDGEO": "80", "horodatage": "2023-06-20 09:07:03", "distance (en metres)": 224.22, "station": "VICTOR HUGO-SANZILLON", "marker-color": "#818181"}}, {"type": "Feature", "geometry": {"type": "Point", "coordinates": [2.324353, 48.915379]}, "properties": {"numparc": 1625, "etat de la localisation": "autre", "ID BDGEO": "79", "horodatage": "2023-06-20 10:54:00", "distance (en metres)": 1059.86, "station": "SAINT-OUEN RER", "marker-color": "#818181"}}, {"type": "Feature", "geometry": {"type": "Point", "coordinates": [2.323337, 48.915546]}, "properties": {"numparc": 1625, "etat de la localisation": "autre", "ID BDGEO": "79", "horodatage": "2023-06-20 10:54:52", "distance (en metres)": 1078.9, "station": "SAINT-OUEN RER", "marker-color": "#818181"}}, {"type": "Feature", "geometry": {"type": "Point", "coordinates": [2.323337, 48.915546]}, "properties": {"numparc": 1625, "etat de la localisation": "autre", "ID BDGEO": "79", "horodatage": "2023-06-20 11:00:41", "distance (en metres)": 1078.9, "station": "SAINT-OUEN RER", "marker-color": "#818181"}}, {"type": "Feature", "geometry": {"type": "Point", "coordinates": [2.324123, 48.915474]}, "properties": {"numparc": 1625, "etat de la localisation": "autre", "ID BDGEO": "79", "horodatage": "2023-06-20 11:04:27", "distance (en metres)": 1070.09, "station": "SAINT-OUEN RER", "marker-color": "#818181"}}, {"type": "Feature", "geometry": {"type": "Point", "coordinates": [2.329311, 48.910717]}, "properties": {"numparc": 1625, "etat de la localisation": "autre", "ID BDGEO": "79", "horodatage": "2023-06-20 11:06:37", "distance (en metres)": 669.23, "station": "SAINT-OUEN RER", "marker-color": "#818181"}}, {"type": "Feature", "geometry": {"type": "Point", "coordinates": [2.326715, 48.907623]}, "properties": {"numparc": 1625, "etat de la localisation": "autre", "ID BDGEO": "79", "horodatage": "2023-06-20 11:10:51", "distance (en metres)": 283.74, "station": "SAINT-OUEN RER", "marker-color": "#818181"}}, {"type": "Feature", "geometry": {"type": "Point", "coordinates": [2.32171, 48.904495]}, "properties": {"numparc": 1625, "etat de la localisation": "autre", "ID BDGEO": "79", "horodatage": "2023-06-20 11:12:26", "distance (en metres)": 221.04, "station": "SAINT-OUEN RER", "marker-color": "#818181"}}, {"type": "Feature", "geometry": {"type": "Point", "coordinates": [2.324411, 48.915352]}, "properties": {"numparc": 1625, "etat de la localisation": "autre", "ID BDGEO": "79", "horodatage": "2023-06-20 12:56:07", "distance (en metres)": 1057.03, "station": "SAINT-OUEN RER", "marker-color": "#818181"}}, {"type": "Feature", "geometry": {"type": "Point", "coordinates": [2.32385, 48.915668]}, "properties": {"numparc": 1625, "etat de la localisation": "autre", "ID BDGEO": "79", "horodatage": "2023-06-20 12:56:55", "distance (en metres)": 1091.64, "station": "SAINT-OUEN RER", "marker-color": "#818181"}}, {"type": "Feature", "geometry": {"type": "Point", "coordinates": [2.32385, 48.915668]}, "properties": {"numparc": 1625, "etat de la localisation": "autre", "ID BDGEO": "79", "horodatage": "2023-06-20 13:04:56", "distance (en metres)": 1091.64, "station": "SAINT-OUEN RER", "marker-color": "#818181"}}, {"type": "Feature", "geometry": {"type": "Point", "coordinates": [2.323482, 48.915554]}, "properties": {"numparc": 1625, "etat de la localisation": "autre", "ID BDGEO": "79", "horodatage": "2023-06-20 13:08:20", "distance (en metres)": 1079.38, "station": "SAINT-OUEN RER", "marker-color": "#818181"}}, {"type": "Feature", "geometry": {"type": "Point", "coordinates": [2.323482, 48.915554]}, "properties": {"numparc": 1625, "etat de la localisation": "autre", "ID BDGEO": "79", "horodatage": "2023-06-20 13:11:46", "distance (en metres)": 1079.38, "station": "SAINT-OUEN RER", "marker-color": "#818181"}}, {"type": "Feature", "geometry": {"type": "Point", "coordinates": [2.323295, 48.915512]}, "properties": {"numparc": 1625, "etat de la localisation": "autre", "ID BDGEO": "79", "horodatage": "2023-06-20 13:13:47", "distance (en metres)": 1075.21, "station": "SAINT-OUEN RER", "marker-color": "#818181"}}, {"type": "Feature", "geometry": {"type": "Point", "coordinates": [2.324168, 48.915459]}, "properties": {"numparc": 1625, "etat de la localisation": "autre", "ID BDGEO": "79", "horodatage": "2023-06-20 13:25:13", "distance (en metres)": 1068.45, "station": "SAINT-OUEN RER", "marker-color": "#818181"}}, {"type": "Feature", "geometry": {"type": "Point", "coordinates": [2.327472, 48.912403]}, "properties": {"numparc": 1625, "etat de la localisation": "autre", "ID BDGEO": "79", "horodatage": "2023-06-20 13:26:32", "distance (en metres)": 773.36, "station": "SAINT-OUEN RER", "marker-color": "#818181"}}, {"type": "Feature", "geometry": {"type": "Point", "coordinates": [2.327472, 48.912403]}, "properties": {"numparc": 1625, "etat de la localisation": "autre", "ID BDGEO": "79", "horodatage": "2023-06-20 13:26:39", "distance (en metres)": 773.36, "station": "SAINT-OUEN RER", "marker-color": "#818181"}}, {"type": "Feature", "geometry": {"type": "Point", "coordinates": [2.3297, 48.909435]}, "properties": {"numparc": 1625, "etat de la localisation": "autre", "ID BDGEO": "79", "horodatage": "2023-06-20 13:29:03", "distance (en metres)": 580.67, "station": "SAINT-OUEN RER", "marker-color": "#818181"}}, {"type": "Feature", "geometry": {"type": "Point", "coordinates": [2.32673, 48.907635]}, "properties": {"numparc": 1625, "etat de la localisation": "autre", "ID BDGEO": "79", "horodatage": "2023-06-20 13:30:23", "distance (en metres)": 285.41, "station": "SAINT-OUEN RER", "marker-color": "#818181"}}, {"type": "Feature", "geometry": {"type": "Point", "coordinates": [2.321748, 48.904499]}, "properties": {"numparc": 1625, "etat de la localisation": "autre", "ID BDGEO": "79", "horodatage": "2023-06-20 13:31:58", "distance (en metres)": 218.74, "station": "SAINT-OUEN RER", "marker-color": "#818181"}}, {"type": "Feature", "geometry": {"type": "Point", "coordinates": [2.324387, 48.915314]}, "properties": {"numparc": 1625, "etat de la localisation": "autre", "ID BDGEO": "79", "horodatage": "2023-06-20 15:23:41", "distance (en metres)": 1052.73, "station": "SAINT-OUEN RER", "marker-color": "#818181"}}, {"type": "Feature", "geometry": {"type": "Point", "coordinates": [2.324255, 48.915432]}, "properties": {"numparc": 1625, "etat de la localisation": "autre", "ID BDGEO": "79", "horodatage": "2023-06-20 15:24:35", "distance (en metres)": 1065.61, "station": "SAINT-OUEN RER", "marker-color": "#818181"}}, {"type": "Feature", "geometry": {"type": "Point", "coordinates": [2.324255, 48.915432]}, "properties": {"numparc": 1625, "etat de la localisation": "autre", "ID BDGEO": "79", "horodatage": "2023-06-20 15:25:13", "distance (en metres)": 1065.61, "station": "SAINT-OUEN RER", "marker-color": "#818181"}}, {"type": "Feature", "geometry": {"type": "Point", "coordinates": [2.324102, 48.915592]}, "properties": {"numparc": 1625, "etat de la localisation": "autre", "ID BDGEO": "79", "horodatage": "2023-06-20 15:28:26", "distance (en metres)": 1083.22, "station": "SAINT-OUEN RER", "marker-color": "#818181"}}, {"type": "Feature", "geometry": {"type": "Point", "coordinates": [2.324102, 48.915592]}, "properties": {"numparc": 1625, "etat de la localisation": "autre", "ID BDGEO": "79", "horodatage": "2023-06-20 15:32:45", "distance (en metres)": 1083.22, "station": "SAINT-OUEN RER", "marker-color": "#818181"}}, {"type": "Feature", "geometry": {"type": "Point", "coordinates": [2.324143, 48.915462]}, "properties": {"numparc": 1625, "etat de la localisation": "autre", "ID BDGEO": "79", "horodatage": "2023-06-20 15:44:48", "distance (en metres)": 1068.85, "station": "SAINT-OUEN RER", "marker-color": "#818181"}}, {"type": "Feature", "geometry": {"type": "Point", "coordinates": [2.327534, 48.912415]}, "properties": {"numparc": 1625, "etat de la localisation": "autre", "ID BDGEO": "79", "horodatage": "2023-06-20 15:46:22", "distance (en metres)": 776.09, "station": "SAINT-OUEN RER", "marker-color": "#818181"}}, {"type": "Feature", "geometry": {"type": "Point", "coordinates": [2.329689, 48.90942]}, "properties": {"numparc": 1625, "etat de la localisation": "autre", "ID BDGEO": "79", "horodatage": "2023-06-20 15:48:05", "distance (en metres)": 578.92, "station": "SAINT-OUEN RER", "marker-color": "#818181"}}, {"type": "Feature", "geometry": {"type": "Point", "coordinates": [2.326735, 48.907635]}, "properties": {"numparc": 1625, "etat de la localisation": "autre", "ID BDGEO": "79", "horodatage": "2023-06-20 15:49:56", "distance (en metres)": 285.67, "station": "SAINT-OUEN RER", "marker-color": "#818181"}}, {"type": "Feature", "geometry": {"type": "Point", "coordinates": [2.321568, 48.904385]}, "properties": {"numparc": 1625, "etat de la localisation": "autre", "ID BDGEO": "80", "horodatage": "2023-06-20 15:51:25", "distance (en metres)": 223.84, "station": "VICTOR HUGO-SANZILLON", "marker-color": "#818181"}}, {"type": "Feature", "geometry": {"type": "Point", "coordinates": [2.323864, 48.915771]}, "properties": {"numparc": 1619, "etat de la localisation": "autre", "ID BDGEO": "79", "horodatage": "2023-06-20 16:31:16", "distance (en metres)": 1103.09, "station": "SAINT-OUEN RER", "marker-color": "#818181"}}, {"type": "Feature", "geometry": {"type": "Point", "coordinates": [2.324128, 48.91544]}, "properties": {"numparc": 1619, "etat de la localisation": "autre", "ID BDGEO": "79", "horodatage": "2023-06-20 16:31:47", "distance (en metres)": 1066.28, "station": "SAINT-OUEN RER", "marker-color": "#818181"}}, {"type": "Feature", "geometry": {"type": "Point", "coordinates": [2.327477, 48.912376]}, "properties": {"numparc": 1619, "etat de la localisation": "autre", "ID BDGEO": "79", "horodatage": "2023-06-20 16:33:33", "distance (en metres)": 770.69, "station": "SAINT-OUEN RER", "marker-color": "#818181"}}, {"type": "Feature", "geometry": {"type": "Point", "coordinates": [2.3297, 48.909431]}, "properties": {"numparc": 1619, "etat de la localisation": "autre", "ID BDGEO": "79", "horodatage": "2023-06-20 16:36:36", "distance (en metres)": 580.38, "station": "SAINT-OUEN RER", "marker-color": "#818181"}}, {"type": "Feature", "geometry": {"type": "Point", "coordinates": [2.326696, 48.9076]}, "properties": {"numparc": 1619, "etat de la localisation": "autre", "ID BDGEO": "79", "horodatage": "2023-06-20 16:37:39", "distance (en metres)": 280.97, "station": "SAINT-OUEN RER", "marker-color": "#818181"}}, {"type": "Feature", "geometry": {"type": "Point", "coordinates": [2.321518, 48.904324]}, "properties": {"numparc": 1619, "etat de la localisation": "autre", "ID BDGEO": "80", "horodatage": "2023-06-20 16:39:22", "distance (en metres)": 216.52, "station": "VICTOR HUGO-SANZILLON", "marker-color": "#818181"}}, {"type": "Feature", "geometry": {"type": "Point", "coordinates": [2.324702, 48.915047]}, "properties": {"numparc": 1625, "etat de la localisation": "autre", "ID BDGEO": "79", "horodatage": "2023-06-20 17:51:38", "distance (en metres)": 1024.08, "station": "SAINT-OUEN RER", "marker-color": "#818181"}}, {"type": "Feature", "geometry": {"type": "Point", "coordinates": [2.323515, 48.915539]}, "properties": {"numparc": 1625, "etat de la localisation": "autre", "ID BDGEO": "79", "horodatage": "2023-06-20 17:53:11", "distance (en metres)": 1077.61, "station": "SAINT-OUEN RER", "marker-color": "#818181"}}, {"type": "Feature", "geometry": {"type": "Point", "coordinates": [2.324157, 48.91544]}, "properties": {"numparc": 1625, "etat de la localisation": "autre", "ID BDGEO": "79", "horodatage": "2023-06-20 17:58:06", "distance (en metres)": 1066.31, "station": "SAINT-OUEN RER", "marker-color": "#818181"}}, {"type": "Feature", "geometry": {"type": "Point", "coordinates": [2.327523, 48.912407]}, "properties": {"numparc": 1625, "etat de la localisation": "Delocalise", "ID BDGEO": "79", "horodatage": "2023-06-20 17:59:41", "distance (en metres)": 775.02, "station": "SAINT-OUEN RER", "marker-color": "#FF565E"}}, {"type": "Feature", "geometry": {"type": "Point", "coordinates": [2.329682, 48.909439]}, "properties": {"numparc": 1625, "etat de la localisation": "autre", "ID BDGEO": "79", "horodatage": "2023-06-20 18:01:49", "distance (en metres)": 580.01, "station": "SAINT-OUEN RER", "marker-color": "#818181"}}, {"type": "Feature", "geometry": {"type": "Point", "coordinates": [2.326678, 48.907597]}, "properties": {"numparc": 1625, "etat de la localisation": "autre", "ID BDGEO": "79", "horodatage": "2023-06-20 18:02:49", "distance (en metres)": 279.73, "station": "SAINT-OUEN RER", "marker-color": "#818181"}}, {"type": "Feature", "geometry": {"type": "Point", "coordinates": [2.321562, 48.904373]}, "properties": {"numparc": 1625, "etat de la localisation": "autre", "ID BDGEO": "80", "horodatage": "2023-06-20 18:04:32", "distance (en metres)": 222.65, "station": "VICTOR HUGO-SANZILLON", "marker-color": "#818181"}}, {"type": "Feature", "geometry": {"type": "Point", "coordinates": [2.324342, 48.915375]}, "properties": {"numparc": 1619, "etat de la localisation": "autre", "ID BDGEO": "79", "horodatage": "2023-06-20 18:32:02", "distance (en metres)": 1059.41, "station": "SAINT-OUEN RER", "marker-color": "#818181"}}, {"type": "Feature", "geometry": {"type": "Point", "coordinates": [2.324114, 48.915504]}, "properties": {"numparc": 1619, "etat de la localisation": "autre", "ID BDGEO": "79", "horodatage": "2023-06-20 18:58:02", "distance (en metres)": 1073.48, "station": "SAINT-OUEN RER", "marker-color": "#818181"}}, {"type": "Feature", "geometry": {"type": "Point", "coordinates": [2.327494, 48.912415]}, "properties": {"numparc": 1619, "etat de la localisation": "autre", "ID BDGEO": "79", "horodatage": "2023-06-20 18:59:44", "distance (en metres)": 775.1, "station": "SAINT-OUEN RER", "marker-color": "#818181"}}, {"type": "Feature", "geometry": {"type": "Point", "coordinates": [2.329669, 48.909454]}, "properties": {"numparc": 1619, "etat de la localisation": "autre", "ID BDGEO": "79", "horodatage": "2023-06-20 19:02:33", "distance (en metres)": 580.49, "station": "SAINT-OUEN RER", "marker-color": "#818181"}}, {"type": "Feature", "geometry": {"type": "Point", "coordinates": [2.321559, 48.904411]}, "properties": {"numparc": 1619, "etat de la localisation": "autre", "ID BDGEO": "80", "horodatage": "2023-06-20 19:06:19", "distance (en metres)": 225.43, "station": "VICTOR HUGO-SANZILLON", "marker-color": "#818181"}}, {"type": "Feature", "geometry": {"type": "Point", "coordinates": [2.321367, 48.904289]}, "properties": {"numparc": 1619, "etat de la localisation": "autre", "ID BDGEO": "80", "horodatage": "2023-06-20 19:06:53", "distance (en metres)": 205.91, "station": "VICTOR HUGO-SANZILLON", "marker-color": "#818181"}}, {"type": "Feature", "geometry": {"type": "Point", "coordinates": [2.324431, 48.880249]}, "properties": {"numparc": 1625, "etat de la localisation": "autre", "ID BDGEO": "628", "horodatage": "2023-06-20 19:23:11", "distance (en metres)": 77.25, "station": "BUCAREST", "marker-color": "#818181"}}, {"type": "Feature", "geometry": {"type": "Point", "coordinates": [2.321692, 48.882473]}, "properties": {"numparc": 1625, "etat de la localisation": "autre", "ID BDGEO": "627", "horodatage": "2023-06-20 19:28:19", "distance (en metres)": 136.73, "station": "BOULEVARD DES BATIGNOLLES", "marker-color": "#818181"}}, {"type": "Feature", "geometry": {"type": "Point", "coordinates": [2.328645, 48.872829]}, "properties": {"numparc": 1619, "etat de la localisation": "autre", "ID BDGEO": "632", "horodatage": "2023-06-20 19:48:31", "distance (en metres)": 68.23, "station": "AUBER", "marker-color": "#818181"}}, {"type": "Feature", "geometry": {"type": "Point", "coordinates": [2.328785, 48.872765]}, "properties": {"numparc": 1619, "etat de la localisation": "autre", "ID BDGEO": "632", "horodatage": "2023-06-20 19:49:23", "distance (en metres)": 55.82, "station": "AUBER", "marker-color": "#818181"}}, {"type": "Feature", "geometry": {"type": "Point", "coordinates": [2.323251, 48.915554]}, "properties": {"numparc": 1470, "etat de la localisation": "autre", "ID BDGEO": "622", "horodatage": "2023-06-20 20:27:10", "distance (en metres)": 2732.62, "station": "BROCHANT-CARDINET", "marker-color": "#818181"}}, {"type": "Feature", "geometry": {"type": "Point", "coordinates": [2.324123, 48.915497]}, "properties": {"numparc": 1470, "etat de la localisation": "autre", "ID BDGEO": "622", "horodatage": "2023-06-20 20:30:51", "distance (en metres)": 2735.78, "station": "BROCHANT-CARDINET", "marker-color": "#818181"}}, {"type": "Feature", "geometry": {"type": "Point", "coordinates": [2.327444, 48.912407]}, "properties": {"numparc": 1470, "etat de la localisation": "autre", "ID BDGEO": "622", "horodatage": "2023-06-20 20:33:16", "distance (en metres)": 2453.24, "station": "BROCHANT-CARDINET", "marker-color": "#818181"}}, {"type": "Feature", "geometry": {"type": "Point", "coordinates": [2.329607, 48.909451]}, "properties": {"numparc": 1470, "etat de la localisation": "autre", "ID BDGEO": "622", "horodatage": "2023-06-20 20:35:42", "distance (en metres)": 2194.78, "station": "BROCHANT-CARDINET", "marker-color": "#818181"}}, {"type": "Feature", "geometry": {"type": "Point", "coordinates": [2.32665, 48.907619]}, "properties": {"numparc": 1470, "etat de la localisation": "autre", "ID BDGEO": "622", "horodatage": "2023-06-20 20:36:45", "distance (en metres)": 1927.89, "station": "BROCHANT-CARDINET", "marker-color": "#818181"}}, {"type": "Feature", "geometry": {"type": "Point", "coordinates": [2.321563, 48.904419]}, "properties": {"numparc": 1470, "etat de la localisation": "autre", "ID BDGEO": "622", "horodatage": "2023-06-20 20:39:24", "distance (en metres)": 1489.96, "station": "BROCHANT-CARDINET", "marker-color": "#818181"}}, {"type": "Feature", "geometry": {"type": "Point", "coordinates": [2.319296, 48.903004]}, "properties": {"numparc": 1470, "etat de la localisation": "autre", "ID BDGEO": "622", "horodatage": "2023-06-20 20:41:09", "distance (en metres)": 1314.1, "station": "BROCHANT-CARDINET", "marker-color": "#818181"}}, {"type": "Feature", "geometry": {"type": "Point", "coordinates": [2.319147, 48.902916]}, "properties": {"numparc": 1470, "etat de la localisation": "autre", "ID BDGEO": "622", "horodatage": "2023-06-20 20:41:34", "distance (en metres)": 1303.7, "station": "BROCHANT-CARDINET", "marker-color": "#818181"}}, {"type": "Feature", "geometry": {"type": "Point", "coordinates": [2.316511, 48.900551]}, "properties": {"numparc": 1470, "etat de la localisation": "autre", "ID BDGEO": "622", "horodatage": "2023-06-20 20:44:21", "distance (en metres)": 1045.35, "station": "BROCHANT-CARDINET", "marker-color": "#818181"}}, {"type": "Feature", "geometry": {"type": "Point", "coordinates": [2.320581, 48.899292]}, "properties": {"numparc": 1470, "etat de la localisation": "autre", "ID BDGEO": "622", "horodatage": "2023-06-20 20:45:44", "distance (en metres)": 916.27, "station": "BROCHANT-CARDINET", "marker-color": "#818181"}}, {"type": "Feature", "geometry": {"type": "Point", "coordinates": [2.323093, 48.897961]}, "properties": {"numparc": 1470, "etat de la localisation": "autre", "ID BDGEO": "622", "horodatage": "2023-06-20 20:47:05", "distance (en metres)": 833.58, "station": "BROCHANT-CARDINET", "marker-color": "#818181"}}, {"type": "Feature", "geometry": {"type": "Point", "coordinates": [2.320474, 48.894161]}, "properties": {"numparc": 1470, "etat de la localisation": "autre", "ID BDGEO": "622", "horodatage": "2023-06-20 20:50:06", "distance (en metres)": 370.06, "station": "BROCHANT-CARDINET", "marker-color": "#818181"}}, {"type": "Feature", "geometry": {"type": "Point", "coordinates": [2.319439, 48.902889]}, "properties": {"numparc": 1470, "etat de la localisation": "autre", "ID BDGEO": "650", "horodatage": "2023-06-20 21:22:15", "distance (en metres)": 270.15, "station": "GENERAL LECLERC-VICTOR HUGO", "marker-color": "#818181"}}, {"type": "Feature", "geometry": {"type": "Point", "coordinates": [2.329893, 48.909523]}, "properties": {"numparc": 1470, "etat de la localisation": "autre", "ID BDGEO": "648", "horodatage": "2023-06-20 21:25:40", "distance (en metres)": 1327.31, "station": "BOIS LE PRETRE", "marker-color": "#818181"}}, {"type": "Feature", "geometry": {"type": "Point", "coordinates": [2.327611, 48.912296]}, "properties": {"numparc": 1470, "etat de la localisation": "autre", "ID BDGEO": "650", "horodatage": "2023-06-20 21:26:56", "distance (en metres)": 1464.4, "station": "GENERAL LECLERC-VICTOR HUGO", "marker-color": "#818181"}}, {"type": "Feature", "geometry": {"type": "Point", "coordinates": [2.323245, 48.91552]}, "properties": {"numparc": 1470, "etat de la localisation": "autre", "ID BDGEO": "79", "horodatage": "2023-06-20 21:29:01", "distance (en metres)": 1076.22, "station": "SAINT-OUEN RER", "marker-color": "#818181"}}, {"type": "Feature", "geometry": {"type": "Point", "coordinates": [2.324118, 48.915493]}, "properties": {"numparc": 1470, "etat de la localisation": "autre", "ID BDGEO": "79", "horodatage": "2023-06-20 21:55:15", "distance (en metres)": 1072.21, "station": "SAINT-OUEN RER", "marker-color": "#818181"}}, {"type": "Feature", "geometry": {"type": "Point", "coordinates": [2.327465, 48.912415]}, "properties": {"numparc": 1470, "etat de la localisation": "autre", "ID BDGEO": "79", "horodatage": "2023-06-20 21:57:12", "distance (en metres)": 774.39, "station": "SAINT-OUEN RER", "marker-color": "#818181"}}, {"type": "Feature", "geometry": {"type": "Point", "coordinates": [2.329653, 48.909439]}, "properties": {"numparc": 1470, "etat de la localisation": "autre", "ID BDGEO": "79", "horodatage": "2023-06-20 21:59:23", "distance (en metres)": 578.47, "station": "SAINT-OUEN RER", "marker-color": "#818181"}}, {"type": "Feature", "geometry": {"type": "Point", "coordinates": [2.326684, 48.907631]}, "properties": {"numparc": 1470, "etat de la localisation": "autre", "ID BDGEO": "79", "horodatage": "2023-06-20 22:01:04", "distance (en metres)": 282.7, "station": "SAINT-OUEN RER", "marker-color": "#818181"}}, {"type": "Feature", "geometry": {"type": "Point", "coordinates": [2.321516, 48.904388]}, "properties": {"numparc": 1470, "etat de la localisation": "autre", "ID BDGEO": "80", "horodatage": "2023-06-20 22:02:24", "distance (en metres)": 221.41, "station": "VICTOR HUGO-SANZILLON", "marker-color": "#818181"}}, {"type": "Feature", "geometry": {"type": "Point", "coordinates": [2.324399, 48.915325]}, "properties": {"numparc": 1470, "etat de la localisation": "autre", "ID BDGEO": "79", "horodatage": "2023-06-20 23:08:56", "distance (en metres)": 1054.03, "station": "SAINT-OUEN RER", "marker-color": "#818181"}}, {"type": "Feature", "geometry": {"type": "Point", "coordinates": [2.323418, 48.915558]}, "properties": {"numparc": 1470, "etat de la localisation": "autre", "ID BDGEO": "79", "horodatage": "2023-06-20 23:09:55", "distance (en metres)": 1079.95, "station": "SAINT-OUEN RER", "marker-color": "#818181"}}, {"type": "Feature", "geometry": {"type": "Point", "coordinates": [2.327506, 48.912407]}, "properties": {"numparc": 1470, "etat de la localisation": "autre", "ID BDGEO": "79", "horodatage": "2023-06-20 23:11:38", "distance (en metres)": 774.6, "station": "SAINT-OUEN RER", "marker-color": "#818181"}}, {"type": "Feature", "geometry": {"type": "Point", "coordinates": [2.321578, 48.904408]}, "properties": {"numparc": 1470, "etat de la localisation": "autre", "ID BDGEO": "80", "horodatage": "2023-06-20 23:15:14", "distance (en metres)": 226.13, "station": "VICTOR HUGO-SANZILLON", "marker-color": "#818181"}}, {"type": "Feature", "geometry": {"type": "Point", "coordinates": [2.323922, 48.905851]}, "properties": {"station": "SAINT-OUEN RER", "ID BDGEO": "79", "marker-color": "#56B3FF"}}, {"type": "Feature", "geometry": {"type": "Point", "coordinates": [2.319355, 48.902993]}, "properties": {"station": "VICTOR HUGO-SANZILLON", "ID BDGEO": "80", "marker-color": "#56B3FF"}}, {"type": "Feature", "geometry": {"type": "Point", "coordinates": [2.324555, 48.880939]}, "properties": {"station": "BUCAREST", "ID BDGEO": "628", "marker-color": "#56B3FF"}}, {"type": "Feature", "geometry": {"type": "Point", "coordinates": [2.323546, 48.882314]}, "properties": {"station": "BOULEVARD DES BATIGNOLLES", "ID BDGEO": "627", "marker-color": "#56B3FF"}}, {"type": "Feature", "geometry": {"type": "Point", "coordinates": [2.329339, 48.872419]}, "properties": {"station": "AUBER", "ID BDGEO": "632", "marker-color": "#56B3FF"}}, {"type": "Feature", "geometry": {"type": "Point", "coordinates": [2.318133, 48.89121]}, "properties": {"station": "BROCHANT-CARDINET", "ID BDGEO": "622", "marker-color": "#56B3FF"}}, {"type": "Feature", "geometry": {"type": "Point", "coordinates": [2.316725, 48.90124]}, "properties": {"station": "GENERAL LECLERC-VICTOR HUGO", "ID BDGEO": "650", "marker-color": "#56B3FF"}}, {"type": "Feature", "geometry": {"type": "Point", "coordinates": [2.320475, 48.899317]}, "properties": {"station": "BOIS LE PRETRE", "ID BDGEO": "648", "marker-color": "#56B3FF"}}]}