{"type": "FeatureCollection", "features": [{"type": "Feature", "geometry": {"type": "Point", "coordinates": [2.219041, 48.785294]}, "properties": {"alarme": "DEFAUT LIAISON DATA SAEIV / AIGLE", "numparc": 5825, "type": "TECHNIQUE", "duree": "00:00:09", "horodatage": "2022-10-18 08:53:53", "statut": "start", "marker-color": "#ff0000"}}, {"type": "Feature", "geometry": {"type": "Point", "coordinates": [2.282305, 48.763279]}, "properties": {"alarme": "VEHICULE DELOCALISE", "numparc": 5824, "type": "EXPLOITATION", "duree": "00:04:48", "horodatage": "2022-10-18 14:14:05", "statut": "start", "marker-color": "#ff0000"}}, {"type": "Feature", "geometry": {"type": "Point", "coordinates": [2.295119, 48.760704]}, "properties": {"alarme": "VEHICULE DELOCALISE", "numparc": 5831, "type": "EXPLOITATION", "duree": "00:01:03", "horodatage": "2022-10-18 18:08:17", "statut": "start", "marker-color": "#ff0000"}}, {"type": "Feature", "geometry": {"type": "Point", "coordinates": [2.247872, 48.770657]}, "properties": {"alarme": "VEHICULE DELOCALISE", "numparc": 5838, "type": "EXPLOITATION", "duree": "00:01:59", "horodatage": "2022-10-18 22:31:00", "statut": "start", "marker-color": "#ff0000"}}, {"type": "Feature", "geometry": {"type": "Point", "coordinates": [2.219041, 48.785294]}, "properties": {"alarme": "DEFAUT LIAISON DATA SAEIV / AIGLE", "numparc": 5825, "type": "TECHNIQUE", "duree": "00:00:09", "horodatage": "2022-10-18 08:54:02", "statut": "end", "marker-color": "#2fe184"}}, {"type": "Feature", "geometry": {"type": "Point", "coordinates": [2.299868, 48.761646]}, "properties": {"alarme": "VEHICULE DELOCALISE", "numparc": 5824, "type": "EXPLOITATION", "duree": "00:04:48", "horodatage": "2022-10-18 14:18:53", "statut": "end", "marker-color": "#2fe184"}}, {"type": "Feature", "geometry": {"type": "Point", "coordinates": [2.30261, 48.762344]}, "properties": {"alarme": "VEHICULE DELOCALISE", "numparc": 5831, "type": "EXPLOITATION", "duree": "00:01:03", "horodatage": "2022-10-18 18:09:20", "statut": "end", "marker-color": "#2fe184"}}, {"type": "Feature", "geometry": {"type": "Point", "coordinates": [2.244225, 48.772572]}, "properties": {"alarme": "VEHICULE DELOCALISE", "numparc": 5838, "type": "EXPLOITATION", "duree": "00:01:59", "horodatage": "2022-10-18 22:32:59", "statut": "end", "marker-color": "#2fe184"}}]}