{"type": "FeatureCollection", "features": [{"type": "Feature", "geometry": {"type": "Point", "coordinates": [2.354268, 48.746025]}, "properties": {"etat de la localisation": "Delocalise", "numparc": 7073, "duree": "00:00:09", "horodatage": "2021-08-06 08:29:31", "marker-color": "#FF565E"}}, {"type": "Feature", "geometry": {"type": "Point", "coordinates": [2.35535, 48.7533]}, "properties": {"etat de la localisation": "Delocalise", "numparc": 7073, "duree": "00:08:03", "horodatage": "2021-08-06 08:35:13", "marker-color": "#FF565E"}}, {"type": "Feature", "geometry": {"type": "Point", "coordinates": [2.297035, 48.721508]}, "properties": {"etat de la localisation": "Hors service", "numparc": 7073, "duree": "", "horodatage": "2021-08-06 09:23:25", "marker-color": "#707070"}}, {"type": "Feature", "geometry": {"type": "Point", "coordinates": [2.353672, 48.745735]}, "properties": {"etat de la localisation": "Delocalise", "numparc": 7062, "duree": "00:00:43", "horodatage": "2021-08-06 12:52:52", "marker-color": "#FF565E"}}, {"type": "Feature", "geometry": {"type": "Point", "coordinates": [2.355526, 48.753231]}, "properties": {"etat de la localisation": "Delocalise", "numparc": 7062, "duree": "00:06:09", "horodatage": "2021-08-06 12:59:37", "marker-color": "#FF565E"}}, {"type": "Feature", "geometry": {"type": "Point", "coordinates": [2.353711, 48.745716]}, "properties": {"etat de la localisation": "Delocalise", "numparc": 7062, "duree": "00:00:20", "horodatage": "2021-08-06 13:57:08", "marker-color": "#FF565E"}}, {"type": "Feature", "geometry": {"type": "Point", "coordinates": [2.355778, 48.753132]}, "properties": {"etat de la localisation": "Delocalise", "numparc": 7062, "duree": "00:06:54", "horodatage": "2021-08-06 14:01:56", "marker-color": "#FF565E"}}, {"type": "Feature", "geometry": {"type": "Point", "coordinates": [2.354095, 48.746101]}, "properties": {"etat de la localisation": "Delocalise", "numparc": 7085, "duree": "00:00:11", "horodatage": "2021-08-06 14:08:24", "marker-color": "#FF565E"}}, {"type": "Feature", "geometry": {"type": "Point", "coordinates": [2.355596, 48.753185]}, "properties": {"etat de la localisation": "Delocalise", "numparc": 7085, "duree": "00:06:22", "horodatage": "2021-08-06 14:12:59", "marker-color": "#FF565E"}}, {"type": "Feature", "geometry": {"type": "Point", "coordinates": [2.353736, 48.745735]}, "properties": {"etat de la localisation": "Delocalise", "numparc": 7062, "duree": "00:00:18", "horodatage": "2021-08-06 15:08:42", "marker-color": "#FF565E"}}, {"type": "Feature", "geometry": {"type": "Point", "coordinates": [2.355585, 48.753174]}, "properties": {"etat de la localisation": "Delocalise", "numparc": 7062, "duree": "00:03:46", "horodatage": "2021-08-06 15:15:22", "marker-color": "#FF565E"}}, {"type": "Feature", "geometry": {"type": "Point", "coordinates": [2.35407, 48.746143]}, "properties": {"etat de la localisation": "Delocalise", "numparc": 7085, "duree": "00:00:13", "horodatage": "2021-08-06 15:22:06", "marker-color": "#FF565E"}}, {"type": "Feature", "geometry": {"type": "Point", "coordinates": [2.355505, 48.753239]}, "properties": {"etat de la localisation": "Delocalise", "numparc": 7085, "duree": "00:04:58", "horodatage": "2021-08-06 15:27:12", "marker-color": "#FF565E"}}, {"type": "Feature", "geometry": {"type": "Point", "coordinates": [2.355626, 48.753189]}, "properties": {"etat de la localisation": "Delocalise", "numparc": 7073, "duree": "00:07:14", "horodatage": "2021-08-06 16:11:56", "marker-color": "#FF565E"}}, {"type": "Feature", "geometry": {"type": "Point", "coordinates": [2.35415, 48.746002]}, "properties": {"etat de la localisation": "Delocalise", "numparc": 7085, "duree": "00:00:12", "horodatage": "2021-08-06 16:38:34", "marker-color": "#FF565E"}}, {"type": "Feature", "geometry": {"type": "Point", "coordinates": [2.355078, 48.753345]}, "properties": {"etat de la localisation": "Delocalise", "numparc": 7085, "duree": "00:07:16", "horodatage": "2021-08-06 16:43:42", "marker-color": "#FF565E"}}, {"type": "Feature", "geometry": {"type": "Point", "coordinates": [2.355538, 48.753239]}, "properties": {"etat de la localisation": "Delocalise", "numparc": 7073, "duree": "00:08:00", "horodatage": "2021-08-06 17:21:14", "marker-color": "#FF565E"}}, {"type": "Feature", "geometry": {"type": "Point", "coordinates": [2.354097, 48.746082]}, "properties": {"etat de la localisation": "Delocalise", "numparc": 7085, "duree": "00:00:11", "horodatage": "2021-08-06 17:59:05", "marker-color": "#FF565E"}}, {"type": "Feature", "geometry": {"type": "Point", "coordinates": [2.355561, 48.753212]}, "properties": {"etat de la localisation": "Delocalise", "numparc": 7085, "duree": "00:06:48", "horodatage": "2021-08-06 18:03:15", "marker-color": "#FF565E"}}, {"type": "Feature", "geometry": {"type": "Point", "coordinates": [2.354254, 48.74601]}, "properties": {"etat de la localisation": "Delocalise", "numparc": 7073, "duree": "00:00:08", "horodatage": "2021-08-06 18:38:11", "marker-color": "#FF565E"}}, {"type": "Feature", "geometry": {"type": "Point", "coordinates": [2.355834, 48.753136]}, "properties": {"etat de la localisation": "Delocalise", "numparc": 7073, "duree": "00:04:59", "horodatage": "2021-08-06 18:41:45", "marker-color": "#FF565E"}}, {"type": "Feature", "geometry": {"type": "Point", "coordinates": [2.299028, 48.721638]}, "properties": {"etat de la localisation": "Hors service", "numparc": 7085, "duree": "", "horodatage": "2021-08-06 18:47:51", "marker-color": "#707070"}}, {"type": "Feature", "geometry": {"type": "Point", "coordinates": [2.354053, 48.746193]}, "properties": {"etat de la localisation": "Delocalise", "numparc": 7073, "duree": "00:00:11", "horodatage": "2021-08-06 19:50:49", "marker-color": "#FF565E"}}, {"type": "Feature", "geometry": {"type": "Point", "coordinates": [2.355543, 48.753193]}, "properties": {"etat de la localisation": "Delocalise", "numparc": 7073, "duree": "00:05:37", "horodatage": "2021-08-06 19:54:09", "marker-color": "#FF565E"}}, {"type": "Feature", "geometry": {"type": "Point", "coordinates": [2.299013, 48.721558]}, "properties": {"etat de la localisation": "Hors service", "numparc": 7073, "duree": "", "horodatage": "2021-08-06 20:35:06", "marker-color": "#707070"}}, {"type": "Feature", "geometry": {"type": "Point", "coordinates": [2.297897, 48.721191]}, "properties": {"etat de la localisation": "Delocalise", "numparc": 7073, "duree": "00:04:55", "horodatage": "2021-08-06 20:36:03", "marker-color": "#FF565E"}}, {"type": "Feature", "geometry": {"type": "Point", "coordinates": [2.29696, 48.721832]}, "properties": {"etat de la localisation": "Hors service", "numparc": 7073, "duree": "", "horodatage": "2021-08-06 20:41:10", "marker-color": "#707070"}}]}