{"type": "FeatureCollection", "features": [{"type": "Feature", "geometry": {"type": "Point", "coordinates": [2.427806, 48.879189]}, "properties": {"etat de la localisation": "Mission inconnue", "numparc": 4946, "duree": "", "horodatage": "2023-01-28 04:44:10", "marker-color": "#FF9F56"}}, {"type": "Feature", "geometry": {"type": "Point", "coordinates": [2.488442, 48.853886]}, "properties": {"etat de la localisation": "Mission suivante non connue", "numparc": 4946, "duree": "", "horodatage": "2023-01-28 05:20:01", "marker-color": "#7156FF"}}, {"type": "Feature", "geometry": {"type": "Point", "coordinates": [2.488458, 48.853783]}, "properties": {"etat de la localisation": "Mission suivante non connue", "numparc": 1518, "duree": "", "horodatage": "2023-01-28 06:41:30", "marker-color": "#7156FF"}}, {"type": "Feature", "geometry": {"type": "Point", "coordinates": [2.463513, 48.863255]}, "properties": {"etat de la localisation": "Deviation programmee", "numparc": 4946, "duree": "", "horodatage": "2023-01-28 06:46:34", "marker-color": "#56FF93"}}, {"type": "Feature", "geometry": {"type": "Point", "coordinates": [2.488483, 48.85379]}, "properties": {"etat de la localisation": "Mission suivante non connue", "numparc": 4946, "duree": "", "horodatage": "2023-01-28 06:56:59", "marker-color": "#7156FF"}}, {"type": "Feature", "geometry": {"type": "Point", "coordinates": [2.417015, 48.865211]}, "properties": {"etat de la localisation": "Mission suivante non connue", "numparc": 1518, "duree": "", "horodatage": "2023-01-28 07:29:14", "marker-color": "#7156FF"}}, {"type": "Feature", "geometry": {"type": "Point", "coordinates": [2.428005, 48.879055]}, "properties": {"etat de la localisation": "Mission inconnue", "numparc": 4933, "duree": "", "horodatage": "2023-01-28 08:04:32", "marker-color": "#FF9F56"}}, {"type": "Feature", "geometry": {"type": "Point", "coordinates": [2.48844, 48.853779]}, "properties": {"etat de la localisation": "Mission suivante non connue", "numparc": 1518, "duree": "", "horodatage": "2023-01-28 08:23:47", "marker-color": "#7156FF"}}, {"type": "Feature", "geometry": {"type": "Point", "coordinates": [2.48846, 48.853855]}, "properties": {"etat de la localisation": "Mission suivante non connue", "numparc": 4946, "duree": "", "horodatage": "2023-01-28 08:39:21", "marker-color": "#7156FF"}}, {"type": "Feature", "geometry": {"type": "Point", "coordinates": [2.488471, 48.853874]}, "properties": {"etat de la localisation": "Mission suivante non connue", "numparc": 4933, "duree": "", "horodatage": "2023-01-28 09:00:46", "marker-color": "#7156FF"}}, {"type": "Feature", "geometry": {"type": "Point", "coordinates": [2.463484, 48.863239]}, "properties": {"etat de la localisation": "Deviation programmee", "numparc": 1491, "duree": "", "horodatage": "2023-01-28 09:05:51", "marker-color": "#56FF93"}}, {"type": "Feature", "geometry": {"type": "Point", "coordinates": [2.416944, 48.865181]}, "properties": {"etat de la localisation": "Mission suivante non connue", "numparc": 1518, "duree": "", "horodatage": "2023-01-28 09:10:50", "marker-color": "#7156FF"}}, {"type": "Feature", "geometry": {"type": "Point", "coordinates": [2.48842, 48.85392]}, "properties": {"etat de la localisation": "Mission suivante non connue", "numparc": 1518, "duree": "", "horodatage": "2023-01-28 10:03:32", "marker-color": "#7156FF"}}, {"type": "Feature", "geometry": {"type": "Point", "coordinates": [2.488441, 48.853889]}, "properties": {"etat de la localisation": "Mission suivante non connue", "numparc": 4946, "duree": "", "horodatage": "2023-01-28 10:21:28", "marker-color": "#7156FF"}}, {"type": "Feature", "geometry": {"type": "Point", "coordinates": [2.488451, 48.853901]}, "properties": {"etat de la localisation": "Mission suivante non connue", "numparc": 4933, "duree": "", "horodatage": "2023-01-28 10:47:17", "marker-color": "#7156FF"}}, {"type": "Feature", "geometry": {"type": "Point", "coordinates": [2.417116, 48.865219]}, "properties": {"etat de la localisation": "Mission suivante non connue", "numparc": 1518, "duree": "", "horodatage": "2023-01-28 11:11:04", "marker-color": "#7156FF"}}, {"type": "Feature", "geometry": {"type": "Point", "coordinates": [2.436136, 48.857773]}, "properties": {"etat de la localisation": "Hors service", "numparc": 4946, "duree": "", "horodatage": "2023-01-28 12:01:32", "marker-color": "#707070"}}, {"type": "Feature", "geometry": {"type": "Point", "coordinates": [2.428296, 48.879086]}, "properties": {"etat de la localisation": "Hors service", "numparc": 1518, "duree": "", "horodatage": "2023-01-28 12:41:36", "marker-color": "#707070"}}, {"type": "Feature", "geometry": {"type": "Point", "coordinates": [2.488443, 48.853912]}, "properties": {"etat de la localisation": "Mission suivante non connue", "numparc": 4933, "duree": "", "horodatage": "2023-01-28 12:45:45", "marker-color": "#7156FF"}}, {"type": "Feature", "geometry": {"type": "Point", "coordinates": [2.463566, 48.863171]}, "properties": {"etat de la localisation": "Deviation programmee", "numparc": 1491, "duree": "", "horodatage": "2023-01-28 13:07:12", "marker-color": "#56FF93"}}, {"type": "Feature", "geometry": {"type": "Point", "coordinates": [2.488441, 48.853821]}, "properties": {"etat de la localisation": "Mission suivante non connue", "numparc": 1491, "duree": "", "horodatage": "2023-01-28 13:20:46", "marker-color": "#7156FF"}}, {"type": "Feature", "geometry": {"type": "Point", "coordinates": [2.48843, 48.854225]}, "properties": {"etat de la localisation": "Mission suivante non connue", "numparc": 1505, "duree": "", "horodatage": "2023-01-28 13:36:08", "marker-color": "#7156FF"}}, {"type": "Feature", "geometry": {"type": "Point", "coordinates": [2.482084, 48.862526]}, "properties": {"etat de la localisation": "Deviation programmee", "numparc": 1505, "duree": "", "horodatage": "2023-01-28 14:01:21", "marker-color": "#56FF93"}}, {"type": "Feature", "geometry": {"type": "Point", "coordinates": [2.488458, 48.853809]}, "properties": {"etat de la localisation": "Mission suivante non connue", "numparc": 4946, "duree": "", "horodatage": "2023-01-28 14:37:52", "marker-color": "#7156FF"}}, {"type": "Feature", "geometry": {"type": "Point", "coordinates": [2.488445, 48.853893]}, "properties": {"etat de la localisation": "Mission suivante non connue", "numparc": 4933, "duree": "", "horodatage": "2023-01-28 14:47:43", "marker-color": "#7156FF"}}, {"type": "Feature", "geometry": {"type": "Point", "coordinates": [2.482108, 48.862518]}, "properties": {"etat de la localisation": "Deviation programmee", "numparc": 4946, "duree": "", "horodatage": "2023-01-28 14:50:14", "marker-color": "#56FF93"}}, {"type": "Feature", "geometry": {"type": "Point", "coordinates": [2.46727, 48.863049]}, "properties": {"etat de la localisation": "Delocalise", "numparc": 1549, "duree": "00:01:18", "horodatage": "2023-01-28 15:21:44", "marker-color": "#FF565E"}}, {"type": "Feature", "geometry": {"type": "Point", "coordinates": [2.488479, 48.853806]}, "properties": {"etat de la localisation": "Mission suivante non connue", "numparc": 1549, "duree": "", "horodatage": "2023-01-28 15:33:56", "marker-color": "#7156FF"}}, {"type": "Feature", "geometry": {"type": "Point", "coordinates": [2.427694, 48.879219]}, "properties": {"etat de la localisation": "Hors service", "numparc": 1491, "duree": "", "horodatage": "2023-01-28 15:41:58", "marker-color": "#707070"}}, {"type": "Feature", "geometry": {"type": "Point", "coordinates": [2.488466, 48.85379]}, "properties": {"etat de la localisation": "Mission suivante non connue", "numparc": 1505, "duree": "", "horodatage": "2023-01-28 15:42:06", "marker-color": "#7156FF"}}, {"type": "Feature", "geometry": {"type": "Point", "coordinates": [2.482034, 48.862518]}, "properties": {"etat de la localisation": "Deviation programmee", "numparc": 1505, "duree": "", "horodatage": "2023-01-28 16:09:29", "marker-color": "#56FF93"}}, {"type": "Feature", "geometry": {"type": "Point", "coordinates": [2.428187, 48.879292]}, "properties": {"etat de la localisation": "Mission inconnue", "numparc": 1528, "duree": "", "horodatage": "2023-01-28 16:22:36", "marker-color": "#FF9F56"}}, {"type": "Feature", "geometry": {"type": "Point", "coordinates": [2.428187, 48.879292]}, "properties": {"etat de la localisation": "Hors service", "numparc": 1528, "duree": "", "horodatage": "2023-01-28 16:37:39", "marker-color": "#707070"}}, {"type": "Feature", "geometry": {"type": "Point", "coordinates": [2.428187, 48.879292]}, "properties": {"etat de la localisation": "Delocalise", "numparc": 1528, "duree": "00:08:36", "horodatage": "2023-01-28 16:38:49", "marker-color": "#FF565E"}}, {"type": "Feature", "geometry": {"type": "Point", "coordinates": [2.488428, 48.853886]}, "properties": {"etat de la localisation": "Mission suivante non connue", "numparc": 4933, "duree": "", "horodatage": "2023-01-28 16:45:05", "marker-color": "#7156FF"}}, {"type": "Feature", "geometry": {"type": "Point", "coordinates": [2.488459, 48.853725]}, "properties": {"etat de la localisation": "Hors service", "numparc": 1528, "duree": "", "horodatage": "2023-01-28 16:53:48", "marker-color": "#707070"}}, {"type": "Feature", "geometry": {"type": "Point", "coordinates": [2.48846, 48.853725]}, "properties": {"etat de la localisation": "Delocalise", "numparc": 1528, "duree": "00:00:07", "horodatage": "2023-01-28 16:58:58", "marker-color": "#FF565E"}}, {"type": "Feature", "geometry": {"type": "Point", "coordinates": [2.440685, 48.861462]}, "properties": {"etat de la localisation": "Mission suivante non connue", "numparc": 1549, "duree": "", "horodatage": "2023-01-28 17:08:09", "marker-color": "#7156FF"}}, {"type": "Feature", "geometry": {"type": "Point", "coordinates": [2.428291, 48.879341]}, "properties": {"etat de la localisation": "Hors service", "numparc": 1549, "duree": "", "horodatage": "2023-01-28 17:22:46", "marker-color": "#707070"}}, {"type": "Feature", "geometry": {"type": "Point", "coordinates": [2.440895, 48.861698]}, "properties": {"etat de la localisation": "Delocalise", "numparc": 1528, "duree": "00:00:32", "horodatage": "2023-01-28 17:24:48", "marker-color": "#FF565E"}}, {"type": "Feature", "geometry": {"type": "Point", "coordinates": [2.437035, 48.859501]}, "properties": {"etat de la localisation": "Delocalise", "numparc": 1528, "duree": "00:00:10", "horodatage": "2023-01-28 17:29:44", "marker-color": "#FF565E"}}, {"type": "Feature", "geometry": {"type": "Point", "coordinates": [2.488416, 48.854214]}, "properties": {"etat de la localisation": "Mission suivante non connue", "numparc": 1505, "duree": "", "horodatage": "2023-01-28 17:59:58", "marker-color": "#7156FF"}}, {"type": "Feature", "geometry": {"type": "Point", "coordinates": [2.488473, 48.85379]}, "properties": {"etat de la localisation": "Mission suivante non connue", "numparc": 1505, "duree": "", "horodatage": "2023-01-28 18:00:47", "marker-color": "#7156FF"}}, {"type": "Feature", "geometry": {"type": "Point", "coordinates": [2.463598, 48.863178]}, "properties": {"etat de la localisation": "Deviation programmee", "numparc": 4946, "duree": "", "horodatage": "2023-01-28 18:28:53", "marker-color": "#56FF93"}}, {"type": "Feature", "geometry": {"type": "Point", "coordinates": [2.48844, 48.853874]}, "properties": {"etat de la localisation": "Mission suivante non connue", "numparc": 4946, "duree": "", "horodatage": "2023-01-28 18:39:40", "marker-color": "#7156FF"}}, {"type": "Feature", "geometry": {"type": "Point", "coordinates": [2.488465, 48.853817]}, "properties": {"etat de la localisation": "Delocalise", "numparc": 1528, "duree": "00:01:25", "horodatage": "2023-01-28 18:59:00", "marker-color": "#FF565E"}}, {"type": "Feature", "geometry": {"type": "Point", "coordinates": [2.488486, 48.85376]}, "properties": {"etat de la localisation": "Mission suivante non connue", "numparc": 4933, "duree": "", "horodatage": "2023-01-28 19:02:15", "marker-color": "#7156FF"}}, {"type": "Feature", "geometry": {"type": "Point", "coordinates": [2.416878, 48.86475]}, "properties": {"etat de la localisation": "Delocalise", "numparc": 1528, "duree": "00:00:56", "horodatage": "2023-01-28 19:49:40", "marker-color": "#FF565E"}}, {"type": "Feature", "geometry": {"type": "Point", "coordinates": [2.463558, 48.863197]}, "properties": {"etat de la localisation": "Deviation programmee", "numparc": 4946, "duree": "", "horodatage": "2023-01-28 20:24:42", "marker-color": "#56FF93"}}, {"type": "Feature", "geometry": {"type": "Point", "coordinates": [2.488433, 48.853882]}, "properties": {"etat de la localisation": "Mission suivante non connue", "numparc": 4946, "duree": "", "horodatage": "2023-01-28 20:37:03", "marker-color": "#7156FF"}}, {"type": "Feature", "geometry": {"type": "Point", "coordinates": [2.48203, 48.862514]}, "properties": {"etat de la localisation": "Deviation programmee", "numparc": 1505, "duree": "", "horodatage": "2023-01-28 20:44:19", "marker-color": "#56FF93"}}, {"type": "Feature", "geometry": {"type": "Point", "coordinates": [2.488438, 48.853886]}, "properties": {"etat de la localisation": "Mission suivante non connue", "numparc": 4933, "duree": "", "horodatage": "2023-01-28 20:59:43", "marker-color": "#7156FF"}}, {"type": "Feature", "geometry": {"type": "Point", "coordinates": [2.427974, 48.879276]}, "properties": {"etat de la localisation": "Hors service", "numparc": 1505, "duree": "", "horodatage": "2023-01-28 21:44:47", "marker-color": "#707070"}}, {"type": "Feature", "geometry": {"type": "Point", "coordinates": [2.463596, 48.863178]}, "properties": {"etat de la localisation": "Deviation programmee", "numparc": 4946, "duree": "", "horodatage": "2023-01-28 22:08:27", "marker-color": "#56FF93"}}, {"type": "Feature", "geometry": {"type": "Point", "coordinates": [2.488431, 48.853912]}, "properties": {"etat de la localisation": "Mission suivante non connue", "numparc": 4946, "duree": "", "horodatage": "2023-01-28 22:17:16", "marker-color": "#7156FF"}}, {"type": "Feature", "geometry": {"type": "Point", "coordinates": [2.488453, 48.853893]}, "properties": {"etat de la localisation": "Mission suivante non connue", "numparc": 4933, "duree": "", "horodatage": "2023-01-28 22:49:09", "marker-color": "#7156FF"}}, {"type": "Feature", "geometry": {"type": "Point", "coordinates": [2.427647, 48.87899]}, "properties": {"etat de la localisation": "Hors service", "numparc": 1528, "duree": "", "horodatage": "2023-01-28 23:00:14", "marker-color": "#707070"}}, {"type": "Feature", "geometry": {"type": "Point", "coordinates": [2.427302, 48.878796]}, "properties": {"etat de la localisation": "Hors service", "numparc": 4946, "duree": "", "horodatage": "2023-01-28 23:17:53", "marker-color": "#707070"}}, {"type": "Feature", "geometry": {"type": "Point", "coordinates": [2.488466, 48.853764]}, "properties": {"etat de la localisation": "Mission suivante non connue", "numparc": 4933, "duree": "", "horodatage": "2023-01-29 00:34:45", "marker-color": "#7156FF"}}, {"type": "Feature", "geometry": {"type": "Point", "coordinates": [2.488479, 48.853775]}, "properties": {"etat de la localisation": "Mission suivante non connue", "numparc": 4933, "duree": "", "horodatage": "2023-01-29 02:12:29", "marker-color": "#7156FF"}}]}