{"type": "FeatureCollection", "features": [{"type": "Feature", "geometry": {"type": "Point", "coordinates": [2.344224, 48.81831]}, "properties": {"alarme": "DEFAUT LIAISON DATA SAEIV / AIGLE", "numparc": 9539, "type": "TECHNIQUE", "duree": "00:00:55", "horodatage": "2021-10-28 08:04:54", "statut": "start", "marker-color": "#ff0000"}}, {"type": "Feature", "geometry": {"type": "Point", "coordinates": [2.344358, 48.81876]}, "properties": {"alarme": "DEFAUT LIAISON DATA SAEIV / AIGLE", "numparc": 9539, "type": "TECHNIQUE", "duree": "00:00:55", "horodatage": "2021-10-28 08:05:49", "statut": "end", "marker-color": "#2fe184"}}]}