{"type": "FeatureCollection", "features": [{"type": "Feature", "geometry": {"type": "Point", "coordinates": [2.328136, 48.823307]}, "properties": {"etat de la localisation": "Delocalise", "numparc": 1430, "duree": "00:29:54", "horodatage": "2021-10-25 05:26:24", "marker-color": "#FF565E"}}, {"type": "Feature", "geometry": {"type": "Point", "coordinates": [2.329272, 48.822773]}, "properties": {"etat de la localisation": "Delocalise", "numparc": 1435, "duree": "00:00:03", "horodatage": "2021-10-25 05:29:24", "marker-color": "#FF565E"}}, {"type": "Feature", "geometry": {"type": "Point", "coordinates": [2.328341, 48.823467]}, "properties": {"etat de la localisation": "Delocalise", "numparc": 1449, "duree": "00:04:28", "horodatage": "2021-10-25 05:37:20", "marker-color": "#FF565E"}}, {"type": "Feature", "geometry": {"type": "Point", "coordinates": [2.327342, 48.823826]}, "properties": {"etat de la localisation": "Mission inconnue", "numparc": 1448, "duree": "", "horodatage": "2021-10-25 05:38:56", "marker-color": "#FF9F56"}}, {"type": "Feature", "geometry": {"type": "Point", "coordinates": [2.324224, 48.834229]}, "properties": {"etat de la localisation": "Delocalise", "numparc": 1449, "duree": "00:32:14", "horodatage": "2021-10-25 05:42:39", "marker-color": "#FF565E"}}, {"type": "Feature", "geometry": {"type": "Point", "coordinates": [2.294837, 48.886105]}, "properties": {"etat de la localisation": "Delocalise", "numparc": 1448, "duree": "00:00:38", "horodatage": "2021-10-25 06:21:00", "marker-color": "#FF565E"}}, {"type": "Feature", "geometry": {"type": "Point", "coordinates": [2.292426, 48.885895]}, "properties": {"etat de la localisation": "Mission suivante non connue", "numparc": 1449, "duree": "", "horodatage": "2021-10-25 06:30:08", "marker-color": "#7156FF"}}, {"type": "Feature", "geometry": {"type": "Point", "coordinates": [2.329989, 48.822891]}, "properties": {"etat de la localisation": "Delocalise", "numparc": 1433, "duree": "00:06:06", "horodatage": "2021-10-25 06:34:04", "marker-color": "#FF565E"}}, {"type": "Feature", "geometry": {"type": "Point", "coordinates": [2.328638, 48.822845]}, "properties": {"etat de la localisation": "Hors service", "numparc": 1433, "duree": "", "horodatage": "2021-10-25 06:40:10", "marker-color": "#707070"}}, {"type": "Feature", "geometry": {"type": "Point", "coordinates": [2.332329, 48.824093]}, "properties": {"etat de la localisation": "Delocalise", "numparc": 1450, "duree": "00:15:02", "horodatage": "2021-10-25 06:42:17", "marker-color": "#FF565E"}}, {"type": "Feature", "geometry": {"type": "Point", "coordinates": [2.327457, 48.823864]}, "properties": {"etat de la localisation": "Mission inconnue", "numparc": 1451, "duree": "", "horodatage": "2021-10-25 06:53:53", "marker-color": "#FF9F56"}}, {"type": "Feature", "geometry": {"type": "Point", "coordinates": [2.326925, 48.827614]}, "properties": {"etat de la localisation": "Delocalise", "numparc": 1437, "duree": "00:00:30", "horodatage": "2021-10-25 06:54:15", "marker-color": "#FF565E"}}, {"type": "Feature", "geometry": {"type": "Point", "coordinates": [2.329436, 48.824875]}, "properties": {"etat de la localisation": "Hors service", "numparc": 1450, "duree": "", "horodatage": "2021-10-25 06:57:19", "marker-color": "#707070"}}, {"type": "Feature", "geometry": {"type": "Point", "coordinates": [2.327515, 48.824703]}, "properties": {"etat de la localisation": "Delocalise", "numparc": 1450, "duree": "00:00:58", "horodatage": "2021-10-25 06:58:45", "marker-color": "#FF565E"}}, {"type": "Feature", "geometry": {"type": "Point", "coordinates": [2.32873, 48.823395]}, "properties": {"etat de la localisation": "Delocalise", "numparc": 1363, "duree": "00:00:26", "horodatage": "2021-10-25 07:02:15", "marker-color": "#FF565E"}}, {"type": "Feature", "geometry": {"type": "Point", "coordinates": [2.292695, 48.885902]}, "properties": {"etat de la localisation": "Delocalise", "numparc": 1427, "duree": "00:00:40", "horodatage": "2021-10-25 07:04:33", "marker-color": "#FF565E"}}, {"type": "Feature", "geometry": {"type": "Point", "coordinates": [2.316504, 48.847218]}, "properties": {"etat de la localisation": "Hors service", "numparc": 1450, "duree": "", "horodatage": "2021-10-25 07:13:47", "marker-color": "#707070"}}, {"type": "Feature", "geometry": {"type": "Point", "coordinates": [2.326506, 48.823799]}, "properties": {"etat de la localisation": "Mission suivante non connue", "numparc": 1449, "duree": "", "horodatage": "2021-10-25 07:18:58", "marker-color": "#7156FF"}}, {"type": "Feature", "geometry": {"type": "Point", "coordinates": [2.29487, 48.874981]}, "properties": {"etat de la localisation": "Hors service", "numparc": 1450, "duree": "", "horodatage": "2021-10-25 07:30:28", "marker-color": "#707070"}}, {"type": "Feature", "geometry": {"type": "Point", "coordinates": [2.329706, 48.824306]}, "properties": {"etat de la localisation": "Delocalise", "numparc": 1365, "duree": "09:00:07", "horodatage": "2021-10-25 07:34:02", "marker-color": "#FF565E"}}, {"type": "Feature", "geometry": {"type": "Point", "coordinates": [2.328475, 48.823673]}, "properties": {"etat de la localisation": "Delocalise", "numparc": 1429, "duree": "00:12:32", "horodatage": "2021-10-25 07:36:21", "marker-color": "#FF565E"}}, {"type": "Feature", "geometry": {"type": "Point", "coordinates": [2.327737, 48.824108]}, "properties": {"etat de la localisation": "Mission inconnue", "numparc": 1460, "duree": "", "horodatage": "2021-10-25 07:41:18", "marker-color": "#FF9F56"}}, {"type": "Feature", "geometry": {"type": "Point", "coordinates": [2.327737, 48.824108]}, "properties": {"etat de la localisation": "Mission inconnue", "numparc": 1460, "duree": "", "horodatage": "2021-10-25 07:43:25", "marker-color": "#FF9F56"}}, {"type": "Feature", "geometry": {"type": "Point", "coordinates": [2.329319, 48.822525]}, "properties": {"etat de la localisation": "Delocalise", "numparc": 1447, "duree": "00:03:08", "horodatage": "2021-10-25 07:44:03", "marker-color": "#FF565E"}}, {"type": "Feature", "geometry": {"type": "Point", "coordinates": [2.329073, 48.822823]}, "properties": {"etat de la localisation": "Hors service", "numparc": 1439, "duree": "", "horodatage": "2021-10-25 07:46:12", "marker-color": "#707070"}}, {"type": "Feature", "geometry": {"type": "Point", "coordinates": [2.292946, 48.885662]}, "properties": {"etat de la localisation": "Hors service", "numparc": 1450, "duree": "", "horodatage": "2021-10-25 07:46:20", "marker-color": "#707070"}}, {"type": "Feature", "geometry": {"type": "Point", "coordinates": [2.294784, 48.875092]}, "properties": {"etat de la localisation": "Mission inconnue", "numparc": 1450, "duree": "", "horodatage": "2021-10-25 07:56:27", "marker-color": "#FF9F56"}}, {"type": "Feature", "geometry": {"type": "Point", "coordinates": [2.3219, 48.840229]}, "properties": {"etat de la localisation": "Delocalise", "numparc": 1433, "duree": "00:03:52", "horodatage": "2021-10-25 08:00:16", "marker-color": "#FF565E"}}, {"type": "Feature", "geometry": {"type": "Point", "coordinates": [2.328812, 48.82365]}, "properties": {"etat de la localisation": "Mission inconnue", "numparc": 1434, "duree": "", "horodatage": "2021-10-25 08:01:17", "marker-color": "#FF9F56"}}, {"type": "Feature", "geometry": {"type": "Point", "coordinates": [2.299308, 48.8671]}, "properties": {"etat de la localisation": "Hors service", "numparc": 1450, "duree": "", "horodatage": "2021-10-25 08:01:47", "marker-color": "#707070"}}, {"type": "Feature", "geometry": {"type": "Point", "coordinates": [2.329073, 48.822823]}, "properties": {"etat de la localisation": "Hors service", "numparc": 1439, "duree": "", "horodatage": "2021-10-25 08:01:53", "marker-color": "#707070"}}, {"type": "Feature", "geometry": {"type": "Point", "coordinates": [2.299309, 48.867092]}, "properties": {"etat de la localisation": "Delocalise", "numparc": 1450, "duree": "00:00:28", "horodatage": "2021-10-25 08:02:40", "marker-color": "#FF565E"}}, {"type": "Feature", "geometry": {"type": "Point", "coordinates": [2.32198, 48.840176]}, "properties": {"etat de la localisation": "Delocalise", "numparc": 1427, "duree": "00:14:20", "horodatage": "2021-10-25 08:06:15", "marker-color": "#FF565E"}}, {"type": "Feature", "geometry": {"type": "Point", "coordinates": [2.315976, 48.847759]}, "properties": {"etat de la localisation": "Hors service", "numparc": 1450, "duree": "", "horodatage": "2021-10-25 08:17:42", "marker-color": "#707070"}}, {"type": "Feature", "geometry": {"type": "Point", "coordinates": [2.329073, 48.822823]}, "properties": {"etat de la localisation": "Hors service", "numparc": 1439, "duree": "", "horodatage": "2021-10-25 08:18:49", "marker-color": "#707070"}}, {"type": "Feature", "geometry": {"type": "Point", "coordinates": [2.321578, 48.841339]}, "properties": {"etat de la localisation": "Mission inconnue", "numparc": 1450, "duree": "", "horodatage": "2021-10-25 08:21:57", "marker-color": "#FF9F56"}}, {"type": "Feature", "geometry": {"type": "Point", "coordinates": [2.292752, 48.885773]}, "properties": {"etat de la localisation": "Mission suivante non connue", "numparc": 1432, "duree": "", "horodatage": "2021-10-25 08:23:15", "marker-color": "#7156FF"}}, {"type": "Feature", "geometry": {"type": "Point", "coordinates": [2.321938, 48.840179]}, "properties": {"etat de la localisation": "Delocalise", "numparc": 1435, "duree": "00:00:21", "horodatage": "2021-10-25 08:30:21", "marker-color": "#FF565E"}}, {"type": "Feature", "geometry": {"type": "Point", "coordinates": [2.292765, 48.885803]}, "properties": {"etat de la localisation": "Delocalise", "numparc": 1439, "duree": "00:00:11", "horodatage": "2021-10-25 08:33:42", "marker-color": "#FF565E"}}, {"type": "Feature", "geometry": {"type": "Point", "coordinates": [2.292484, 48.885883]}, "properties": {"etat de la localisation": "Mission suivante non connue", "numparc": 1429, "duree": "", "horodatage": "2021-10-25 08:34:16", "marker-color": "#7156FF"}}, {"type": "Feature", "geometry": {"type": "Point", "coordinates": [2.326542, 48.823853]}, "properties": {"etat de la localisation": "Hors service", "numparc": 1450, "duree": "", "horodatage": "2021-10-25 08:37:02", "marker-color": "#707070"}}, {"type": "Feature", "geometry": {"type": "Point", "coordinates": [2.292678, 48.885857]}, "properties": {"etat de la localisation": "Mission suivante non connue", "numparc": 1429, "duree": "", "horodatage": "2021-10-25 08:37:42", "marker-color": "#7156FF"}}, {"type": "Feature", "geometry": {"type": "Point", "coordinates": [2.321908, 48.840324]}, "properties": {"etat de la localisation": "Delocalise", "numparc": 1451, "duree": "00:01:52", "horodatage": "2021-10-25 08:38:09", "marker-color": "#FF565E"}}, {"type": "Feature", "geometry": {"type": "Point", "coordinates": [2.29274, 48.885757]}, "properties": {"etat de la localisation": "Mission inconnue", "numparc": 1429, "duree": "", "horodatage": "2021-10-25 08:45:15", "marker-color": "#FF9F56"}}, {"type": "Feature", "geometry": {"type": "Point", "coordinates": [2.321826, 48.84026]}, "properties": {"etat de la localisation": "Delocalise", "numparc": 1430, "duree": "00:00:27", "horodatage": "2021-10-25 08:51:10", "marker-color": "#FF565E"}}, {"type": "Feature", "geometry": {"type": "Point", "coordinates": [2.326517, 48.823784]}, "properties": {"etat de la localisation": "Hors service", "numparc": 1448, "duree": "", "horodatage": "2021-10-25 08:51:32", "marker-color": "#707070"}}, {"type": "Feature", "geometry": {"type": "Point", "coordinates": [2.323967, 48.842804]}, "properties": {"etat de la localisation": "Hors service", "numparc": 1450, "duree": "", "horodatage": "2021-10-25 08:55:03", "marker-color": "#707070"}}, {"type": "Feature", "geometry": {"type": "Point", "coordinates": [2.292704, 48.885902]}, "properties": {"etat de la localisation": "Mission suivante non connue", "numparc": 1434, "duree": "", "horodatage": "2021-10-25 09:01:18", "marker-color": "#7156FF"}}, {"type": "Feature", "geometry": {"type": "Point", "coordinates": [2.321824, 48.840195]}, "properties": {"etat de la localisation": "Delocalise", "numparc": 1428, "duree": "00:00:23", "horodatage": "2021-10-25 09:09:51", "marker-color": "#FF565E"}}, {"type": "Feature", "geometry": {"type": "Point", "coordinates": [2.327121, 48.823853]}, "properties": {"etat de la localisation": "Mission suivante non connue", "numparc": 1432, "duree": "", "horodatage": "2021-10-25 09:21:48", "marker-color": "#7156FF"}}, {"type": "Feature", "geometry": {"type": "Point", "coordinates": [2.321762, 48.84034]}, "properties": {"etat de la localisation": "Delocalise", "numparc": 1423, "duree": "00:00:18", "horodatage": "2021-10-25 09:24:47", "marker-color": "#FF565E"}}, {"type": "Feature", "geometry": {"type": "Point", "coordinates": [2.32188, 48.840214]}, "properties": {"etat de la localisation": "Delocalise", "numparc": 1436, "duree": "00:00:42", "horodatage": "2021-10-25 09:35:59", "marker-color": "#FF565E"}}, {"type": "Feature", "geometry": {"type": "Point", "coordinates": [2.326666, 48.823742]}, "properties": {"etat de la localisation": "Mission suivante non connue", "numparc": 1429, "duree": "", "horodatage": "2021-10-25 09:41:58", "marker-color": "#7156FF"}}, {"type": "Feature", "geometry": {"type": "Point", "coordinates": [2.326484, 48.823814]}, "properties": {"etat de la localisation": "Mission suivante non connue", "numparc": 1429, "duree": "", "horodatage": "2021-10-25 09:45:34", "marker-color": "#7156FF"}}, {"type": "Feature", "geometry": {"type": "Point", "coordinates": [2.296449, 48.885643]}, "properties": {"etat de la localisation": "Hors service", "numparc": 1450, "duree": "", "horodatage": "2021-10-25 09:52:18", "marker-color": "#707070"}}, {"type": "Feature", "geometry": {"type": "Point", "coordinates": [2.328461, 48.823498]}, "properties": {"etat de la localisation": "Hors service", "numparc": 1427, "duree": "", "horodatage": "2021-10-25 09:54:31", "marker-color": "#707070"}}, {"type": "Feature", "geometry": {"type": "Point", "coordinates": [2.329821, 48.82346]}, "properties": {"etat de la localisation": "Mission inconnue", "numparc": 1442, "duree": "", "horodatage": "2021-10-25 09:59:17", "marker-color": "#FF9F56"}}, {"type": "Feature", "geometry": {"type": "Point", "coordinates": [2.329821, 48.82346]}, "properties": {"etat de la localisation": "Mission inconnue", "numparc": 1442, "duree": "", "horodatage": "2021-10-25 10:01:40", "marker-color": "#FF9F56"}}, {"type": "Feature", "geometry": {"type": "Point", "coordinates": [2.260983, 48.858562]}, "properties": {"etat de la localisation": "Delocalise", "numparc": 1448, "duree": "00:18:18", "horodatage": "2021-10-25 10:04:10", "marker-color": "#FF565E"}}, {"type": "Feature", "geometry": {"type": "Point", "coordinates": [2.32982, 48.82346]}, "properties": {"etat de la localisation": "Hors service", "numparc": 1442, "duree": "", "horodatage": "2021-10-25 10:04:38", "marker-color": "#707070"}}, {"type": "Feature", "geometry": {"type": "Point", "coordinates": [2.327415, 48.823772]}, "properties": {"etat de la localisation": "Mission suivante non connue", "numparc": 1434, "duree": "", "horodatage": "2021-10-25 10:05:57", "marker-color": "#7156FF"}}, {"type": "Feature", "geometry": {"type": "Point", "coordinates": [2.292698, 48.885963]}, "properties": {"etat de la localisation": "Mission suivante non connue", "numparc": 1432, "duree": "", "horodatage": "2021-10-25 10:12:18", "marker-color": "#7156FF"}}, {"type": "Feature", "geometry": {"type": "Point", "coordinates": [2.327455, 48.82386]}, "properties": {"etat de la localisation": "Delocalise", "numparc": 1451, "duree": "00:04:33", "horodatage": "2021-10-25 10:15:37", "marker-color": "#FF565E"}}, {"type": "Feature", "geometry": {"type": "Point", "coordinates": [2.327455, 48.82386]}, "properties": {"etat de la localisation": "Hors service", "numparc": 1451, "duree": "", "horodatage": "2021-10-25 10:20:10", "marker-color": "#707070"}}, {"type": "Feature", "geometry": {"type": "Point", "coordinates": [2.327499, 48.82386]}, "properties": {"etat de la localisation": "Hors service", "numparc": 1448, "duree": "", "horodatage": "2021-10-25 10:22:28", "marker-color": "#707070"}}, {"type": "Feature", "geometry": {"type": "Point", "coordinates": [2.321727, 48.839893]}, "properties": {"etat de la localisation": "Delocalise", "numparc": 1430, "duree": "00:01:18", "horodatage": "2021-10-25 10:30:07", "marker-color": "#FF565E"}}, {"type": "Feature", "geometry": {"type": "Point", "coordinates": [2.29233, 48.885834]}, "properties": {"etat de la localisation": "Mission suivante non connue", "numparc": 1429, "duree": "", "horodatage": "2021-10-25 10:40:53", "marker-color": "#7156FF"}}, {"type": "Feature", "geometry": {"type": "Point", "coordinates": [2.326558, 48.82375]}, "properties": {"etat de la localisation": "Mission inconnue", "numparc": 1430, "duree": "", "horodatage": "2021-10-25 10:50:13", "marker-color": "#FF9F56"}}, {"type": "Feature", "geometry": {"type": "Point", "coordinates": [2.29285, 48.885872]}, "properties": {"etat de la localisation": "Mission suivante non connue", "numparc": 1434, "duree": "", "horodatage": "2021-10-25 11:03:43", "marker-color": "#7156FF"}}, {"type": "Feature", "geometry": {"type": "Point", "coordinates": [2.32903, 48.822811]}, "properties": {"etat de la localisation": "Hors service", "numparc": 1436, "duree": "", "horodatage": "2021-10-25 11:06:44", "marker-color": "#707070"}}, {"type": "Feature", "geometry": {"type": "Point", "coordinates": [2.3266, 48.823799]}, "properties": {"etat de la localisation": "Mission suivante non connue", "numparc": 1432, "duree": "", "horodatage": "2021-10-25 11:19:40", "marker-color": "#7156FF"}}, {"type": "Feature", "geometry": {"type": "Point", "coordinates": [2.326685, 48.823711]}, "properties": {"etat de la localisation": "Mission suivante non connue", "numparc": 1429, "duree": "", "horodatage": "2021-10-25 11:47:33", "marker-color": "#7156FF"}}, {"type": "Feature", "geometry": {"type": "Point", "coordinates": [2.327279, 48.823673]}, "properties": {"etat de la localisation": "Mission suivante non connue", "numparc": 1434, "duree": "", "horodatage": "2021-10-25 12:02:33", "marker-color": "#7156FF"}}, {"type": "Feature", "geometry": {"type": "Point", "coordinates": [2.32884, 48.823265]}, "properties": {"etat de la localisation": "Hors service", "numparc": 1431, "duree": "", "horodatage": "2021-10-25 12:07:01", "marker-color": "#707070"}}, {"type": "Feature", "geometry": {"type": "Point", "coordinates": [2.292448, 48.885937]}, "properties": {"etat de la localisation": "Mission suivante non connue", "numparc": 1432, "duree": "", "horodatage": "2021-10-25 12:17:02", "marker-color": "#7156FF"}}, {"type": "Feature", "geometry": {"type": "Point", "coordinates": [2.292711, 48.885757]}, "properties": {"etat de la localisation": "Mission suivante non connue", "numparc": 1429, "duree": "", "horodatage": "2021-10-25 12:50:33", "marker-color": "#7156FF"}}, {"type": "Feature", "geometry": {"type": "Point", "coordinates": [2.327295, 48.823601]}, "properties": {"etat de la localisation": "Mission suivante non connue", "numparc": 1432, "duree": "", "horodatage": "2021-10-25 13:17:38", "marker-color": "#7156FF"}}, {"type": "Feature", "geometry": {"type": "Point", "coordinates": [2.327328, 48.82383]}, "properties": {"etat de la localisation": "Mission suivante non connue", "numparc": 1429, "duree": "", "horodatage": "2021-10-25 13:41:35", "marker-color": "#7156FF"}}, {"type": "Feature", "geometry": {"type": "Point", "coordinates": [2.296927, 48.88459]}, "properties": {"etat de la localisation": "Delocalise", "numparc": 1449, "duree": "00:00:24", "horodatage": "2021-10-25 14:28:54", "marker-color": "#FF565E"}}, {"type": "Feature", "geometry": {"type": "Point", "coordinates": [2.292701, 48.885872]}, "properties": {"etat de la localisation": "Mission suivante non connue", "numparc": 1429, "duree": "", "horodatage": "2021-10-25 14:41:19", "marker-color": "#7156FF"}}, {"type": "Feature", "geometry": {"type": "Point", "coordinates": [2.329955, 48.82299]}, "properties": {"etat de la localisation": "Mission inconnue", "numparc": 1440, "duree": "", "horodatage": "2021-10-25 14:42:38", "marker-color": "#FF9F56"}}, {"type": "Feature", "geometry": {"type": "Point", "coordinates": [2.329911, 48.823208]}, "properties": {"etat de la localisation": "Mission inconnue", "numparc": 1424, "duree": "", "horodatage": "2021-10-25 15:40:24", "marker-color": "#FF9F56"}}, {"type": "Feature", "geometry": {"type": "Point", "coordinates": [2.327332, 48.823719]}, "properties": {"etat de la localisation": "Mission suivante non connue", "numparc": 1429, "duree": "", "horodatage": "2021-10-25 15:46:40", "marker-color": "#7156FF"}}, {"type": "Feature", "geometry": {"type": "Point", "coordinates": [2.328732, 48.823483]}, "properties": {"etat de la localisation": "Hors service", "numparc": 1434, "duree": "", "horodatage": "2021-10-25 16:11:51", "marker-color": "#707070"}}, {"type": "Feature", "geometry": {"type": "Point", "coordinates": [2.296868, 48.884663]}, "properties": {"etat de la localisation": "Delocalise", "numparc": 1449, "duree": "00:00:43", "horodatage": "2021-10-25 16:31:44", "marker-color": "#FF565E"}}, {"type": "Feature", "geometry": {"type": "Point", "coordinates": [2.292323, 48.885815]}, "properties": {"etat de la localisation": "Mission suivante non connue", "numparc": 1429, "duree": "", "horodatage": "2021-10-25 16:55:31", "marker-color": "#7156FF"}}, {"type": "Feature", "geometry": {"type": "Point", "coordinates": [2.321847, 48.840424]}, "properties": {"etat de la localisation": "Delocalise", "numparc": 1431, "duree": "00:00:16", "horodatage": "2021-10-25 17:42:07", "marker-color": "#FF565E"}}, {"type": "Feature", "geometry": {"type": "Point", "coordinates": [2.327413, 48.823811]}, "properties": {"etat de la localisation": "Delocalise", "numparc": 1451, "duree": "00:05:36", "horodatage": "2021-10-25 18:01:27", "marker-color": "#FF565E"}}, {"type": "Feature", "geometry": {"type": "Point", "coordinates": [2.327252, 48.823597]}, "properties": {"etat de la localisation": "Mission suivante non connue", "numparc": 1429, "duree": "", "horodatage": "2021-10-25 18:05:45", "marker-color": "#7156FF"}}, {"type": "Feature", "geometry": {"type": "Point", "coordinates": [2.327413, 48.823811]}, "properties": {"etat de la localisation": "Hors service", "numparc": 1451, "duree": "", "horodatage": "2021-10-25 18:07:03", "marker-color": "#707070"}}, {"type": "Feature", "geometry": {"type": "Point", "coordinates": [2.322973, 48.842175]}, "properties": {"etat de la localisation": "Delocalise", "numparc": 1431, "duree": "00:00:34", "horodatage": "2021-10-25 18:12:11", "marker-color": "#FF565E"}}, {"type": "Feature", "geometry": {"type": "Point", "coordinates": [2.323956, 48.843952]}, "properties": {"etat de la localisation": "Delocalise", "numparc": 1431, "duree": "00:02:13", "horodatage": "2021-10-25 18:13:56", "marker-color": "#FF565E"}}, {"type": "Feature", "geometry": {"type": "Point", "coordinates": [2.329817, 48.82346]}, "properties": {"etat de la localisation": "Delocalise", "numparc": 1442, "duree": "00:08:47", "horodatage": "2021-10-25 18:15:51", "marker-color": "#FF565E"}}, {"type": "Feature", "geometry": {"type": "Point", "coordinates": [2.316102, 48.847858]}, "properties": {"etat de la localisation": "Delocalise", "numparc": 1431, "duree": "00:03:01", "horodatage": "2021-10-25 18:17:15", "marker-color": "#FF565E"}}, {"type": "Feature", "geometry": {"type": "Point", "coordinates": [2.329368, 48.822998]}, "properties": {"etat de la localisation": "Hors service", "numparc": 1435, "duree": "", "horodatage": "2021-10-25 18:24:54", "marker-color": "#707070"}}, {"type": "Feature", "geometry": {"type": "Point", "coordinates": [2.32694, 48.82333]}, "properties": {"etat de la localisation": "Delocalise", "numparc": 1417, "duree": "00:10:03", "horodatage": "2021-10-25 18:26:47", "marker-color": "#FF565E"}}, {"type": "Feature", "geometry": {"type": "Point", "coordinates": [2.300836, 48.864876]}, "properties": {"etat de la localisation": "Mission suivante non connue", "numparc": 1431, "duree": "", "horodatage": "2021-10-25 18:33:20", "marker-color": "#7156FF"}}, {"type": "Feature", "geometry": {"type": "Point", "coordinates": [2.329153, 48.822296]}, "properties": {"etat de la localisation": "Mission inconnue", "numparc": 1452, "duree": "", "horodatage": "2021-10-25 18:35:40", "marker-color": "#FF9F56"}}, {"type": "Feature", "geometry": {"type": "Point", "coordinates": [2.296798, 48.884682]}, "properties": {"etat de la localisation": "Delocalise", "numparc": 1449, "duree": "00:00:53", "horodatage": "2021-10-25 18:42:13", "marker-color": "#FF565E"}}, {"type": "Feature", "geometry": {"type": "Point", "coordinates": [2.329139, 48.8223]}, "properties": {"etat de la localisation": "Hors service", "numparc": 1452, "duree": "", "horodatage": "2021-10-25 18:43:04", "marker-color": "#707070"}}, {"type": "Feature", "geometry": {"type": "Point", "coordinates": [2.326901, 48.823914]}, "properties": {"etat de la localisation": "Mission inconnue", "numparc": 1452, "duree": "", "horodatage": "2021-10-25 18:47:53", "marker-color": "#FF9F56"}}, {"type": "Feature", "geometry": {"type": "Point", "coordinates": [2.322699, 48.837822]}, "properties": {"etat de la localisation": "Hors service", "numparc": 1452, "duree": "", "horodatage": "2021-10-25 19:02:59", "marker-color": "#707070"}}, {"type": "Feature", "geometry": {"type": "Point", "coordinates": [2.292716, 48.885845]}, "properties": {"etat de la localisation": "Mission suivante non connue", "numparc": 1429, "duree": "", "horodatage": "2021-10-25 19:06:57", "marker-color": "#7156FF"}}, {"type": "Feature", "geometry": {"type": "Point", "coordinates": [2.321907, 48.840248]}, "properties": {"etat de la localisation": "Delocalise", "numparc": 1425, "duree": "00:00:34", "horodatage": "2021-10-25 19:09:52", "marker-color": "#FF565E"}}, {"type": "Feature", "geometry": {"type": "Point", "coordinates": [2.328832, 48.823486]}, "properties": {"etat de la localisation": "Hors service", "numparc": 1444, "duree": "", "horodatage": "2021-10-25 19:14:33", "marker-color": "#707070"}}, {"type": "Feature", "geometry": {"type": "Point", "coordinates": [2.294373, 48.885883]}, "properties": {"etat de la localisation": "Delocalise", "numparc": 1429, "duree": "00:00:15", "horodatage": "2021-10-25 19:17:17", "marker-color": "#FF565E"}}, {"type": "Feature", "geometry": {"type": "Point", "coordinates": [2.302009, 48.861855]}, "properties": {"etat de la localisation": "Hors service", "numparc": 1452, "duree": "", "horodatage": "2021-10-25 19:21:57", "marker-color": "#707070"}}, {"type": "Feature", "geometry": {"type": "Point", "coordinates": [2.292551, 48.88586]}, "properties": {"etat de la localisation": "Mission suivante non connue", "numparc": 1417, "duree": "", "horodatage": "2021-10-25 19:23:51", "marker-color": "#7156FF"}}, {"type": "Feature", "geometry": {"type": "Point", "coordinates": [2.327257, 48.823692]}, "properties": {"etat de la localisation": "Mission suivante non connue", "numparc": 1431, "duree": "", "horodatage": "2021-10-25 19:28:50", "marker-color": "#7156FF"}}, {"type": "Feature", "geometry": {"type": "Point", "coordinates": [2.329206, 48.823238]}, "properties": {"etat de la localisation": "Hors service", "numparc": 1449, "duree": "", "horodatage": "2021-10-25 19:35:07", "marker-color": "#707070"}}, {"type": "Feature", "geometry": {"type": "Point", "coordinates": [2.300603, 48.864758]}, "properties": {"etat de la localisation": "Hors service", "numparc": 1452, "duree": "", "horodatage": "2021-10-25 19:37:57", "marker-color": "#707070"}}, {"type": "Feature", "geometry": {"type": "Point", "coordinates": [2.295997, 48.886219]}, "properties": {"etat de la localisation": "Delocalise", "numparc": 1417, "duree": "00:00:19", "horodatage": "2021-10-25 19:39:08", "marker-color": "#FF565E"}}, {"type": "Feature", "geometry": {"type": "Point", "coordinates": [2.328697, 48.823086]}, "properties": {"etat de la localisation": "Delocalise", "numparc": 1436, "duree": "00:02:48", "horodatage": "2021-10-25 19:40:00", "marker-color": "#FF565E"}}, {"type": "Feature", "geometry": {"type": "Point", "coordinates": [2.327454, 48.823853]}, "properties": {"etat de la localisation": "Delocalise", "numparc": 1460, "duree": "00:07:14", "horodatage": "2021-10-25 19:40:45", "marker-color": "#FF565E"}}, {"type": "Feature", "geometry": {"type": "Point", "coordinates": [2.328697, 48.823086]}, "properties": {"etat de la localisation": "Delocalise", "numparc": 1436, "duree": "00:17:43", "horodatage": "2021-10-25 19:42:51", "marker-color": "#FF565E"}}, {"type": "Feature", "geometry": {"type": "Point", "coordinates": [2.321802, 48.839954]}, "properties": {"etat de la localisation": "Delocalise", "numparc": 1433, "duree": "00:00:26", "horodatage": "2021-10-25 19:44:15", "marker-color": "#FF565E"}}, {"type": "Feature", "geometry": {"type": "Point", "coordinates": [2.296067, 48.886024]}, "properties": {"etat de la localisation": "Delocalise", "numparc": 1425, "duree": "00:00:49", "horodatage": "2021-10-25 19:45:56", "marker-color": "#FF565E"}}, {"type": "Feature", "geometry": {"type": "Point", "coordinates": [2.327454, 48.823853]}, "properties": {"etat de la localisation": "Hors service", "numparc": 1460, "duree": "", "horodatage": "2021-10-25 19:47:59", "marker-color": "#707070"}}, {"type": "Feature", "geometry": {"type": "Point", "coordinates": [2.321679, 48.84137]}, "properties": {"etat de la localisation": "Hors service", "numparc": 1452, "duree": "", "horodatage": "2021-10-25 19:53:40", "marker-color": "#707070"}}, {"type": "Feature", "geometry": {"type": "Point", "coordinates": [2.329415, 48.82309]}, "properties": {"etat de la localisation": "Mission inconnue", "numparc": 1435, "duree": "", "horodatage": "2021-10-25 19:57:13", "marker-color": "#FF9F56"}}, {"type": "Feature", "geometry": {"type": "Point", "coordinates": [2.326353, 48.827164]}, "properties": {"etat de la localisation": "Mission inconnue", "numparc": 1452, "duree": "", "horodatage": "2021-10-25 20:00:19", "marker-color": "#FF9F56"}}, {"type": "Feature", "geometry": {"type": "Point", "coordinates": [2.327521, 48.823631]}, "properties": {"etat de la localisation": "Mission suivante non connue", "numparc": 1429, "duree": "", "horodatage": "2021-10-25 20:05:16", "marker-color": "#7156FF"}}, {"type": "Feature", "geometry": {"type": "Point", "coordinates": [2.329415, 48.82309]}, "properties": {"etat de la localisation": "Hors service", "numparc": 1435, "duree": "", "horodatage": "2021-10-25 20:06:01", "marker-color": "#707070"}}, {"type": "Feature", "geometry": {"type": "Point", "coordinates": [2.328688, 48.822598]}, "properties": {"etat de la localisation": "Hors service", "numparc": 1429, "duree": "", "horodatage": "2021-10-25 20:11:55", "marker-color": "#707070"}}, {"type": "Feature", "geometry": {"type": "Point", "coordinates": [2.326567, 48.823887]}, "properties": {"etat de la localisation": "Hors service", "numparc": 1452, "duree": "", "horodatage": "2021-10-25 20:15:24", "marker-color": "#707070"}}, {"type": "Feature", "geometry": {"type": "Point", "coordinates": [2.322096, 48.841713]}, "properties": {"etat de la localisation": "Mission suivante non connue", "numparc": 1443, "duree": "", "horodatage": "2021-10-25 20:21:25", "marker-color": "#7156FF"}}, {"type": "Feature", "geometry": {"type": "Point", "coordinates": [2.321548, 48.841156]}, "properties": {"etat de la localisation": "Mission suivante non connue", "numparc": 1443, "duree": "", "horodatage": "2021-10-25 20:22:37", "marker-color": "#7156FF"}}, {"type": "Feature", "geometry": {"type": "Point", "coordinates": [2.327698, 48.823872]}, "properties": {"etat de la localisation": "Hors service", "numparc": 1425, "duree": "", "horodatage": "2021-10-25 20:22:55", "marker-color": "#707070"}}, {"type": "Feature", "geometry": {"type": "Point", "coordinates": [2.321495, 48.840565]}, "properties": {"etat de la localisation": "Mission inconnue", "numparc": 1443, "duree": "", "horodatage": "2021-10-25 20:23:06", "marker-color": "#FF9F56"}}, {"type": "Feature", "geometry": {"type": "Point", "coordinates": [2.326288, 48.826588]}, "properties": {"etat de la localisation": "Delocalise", "numparc": 1443, "duree": "00:02:30", "horodatage": "2021-10-25 20:29:28", "marker-color": "#FF565E"}}, {"type": "Feature", "geometry": {"type": "Point", "coordinates": [2.330177, 48.823437]}, "properties": {"etat de la localisation": "Hors service", "numparc": 1425, "duree": "", "horodatage": "2021-10-25 20:29:41", "marker-color": "#707070"}}, {"type": "Feature", "geometry": {"type": "Point", "coordinates": [2.316537, 48.847294]}, "properties": {"etat de la localisation": "Hors service", "numparc": 1452, "duree": "", "horodatage": "2021-10-25 20:33:53", "marker-color": "#707070"}}, {"type": "Feature", "geometry": {"type": "Point", "coordinates": [2.327488, 48.823677]}, "properties": {"etat de la localisation": "Mission suivante non connue", "numparc": 1417, "duree": "", "horodatage": "2021-10-25 20:34:27", "marker-color": "#7156FF"}}, {"type": "Feature", "geometry": {"type": "Point", "coordinates": [2.329418, 48.823357]}, "properties": {"etat de la localisation": "Hors service", "numparc": 1447, "duree": "", "horodatage": "2021-10-25 20:38:47", "marker-color": "#707070"}}, {"type": "Feature", "geometry": {"type": "Point", "coordinates": [2.292513, 48.885899]}, "properties": {"etat de la localisation": "Mission suivante non connue", "numparc": 1432, "duree": "", "horodatage": "2021-10-25 20:39:30", "marker-color": "#7156FF"}}, {"type": "Feature", "geometry": {"type": "Point", "coordinates": [2.292972, 48.885693]}, "properties": {"etat de la localisation": "Mission suivante non connue", "numparc": 1432, "duree": "", "horodatage": "2021-10-25 20:40:17", "marker-color": "#7156FF"}}, {"type": "Feature", "geometry": {"type": "Point", "coordinates": [2.329456, 48.823307]}, "properties": {"etat de la localisation": "Hors service", "numparc": 1417, "duree": "", "horodatage": "2021-10-25 20:41:07", "marker-color": "#707070"}}, {"type": "Feature", "geometry": {"type": "Point", "coordinates": [2.295586, 48.886345]}, "properties": {"etat de la localisation": "Delocalise", "numparc": 1423, "duree": "00:00:37", "horodatage": "2021-10-25 20:47:52", "marker-color": "#FF565E"}}, {"type": "Feature", "geometry": {"type": "Point", "coordinates": [2.29249, 48.885921]}, "properties": {"etat de la localisation": "Hors service", "numparc": 1452, "duree": "", "horodatage": "2021-10-25 20:52:32", "marker-color": "#707070"}}, {"type": "Feature", "geometry": {"type": "Point", "coordinates": [2.329504, 48.822941]}, "properties": {"etat de la localisation": "Hors service", "numparc": 1430, "duree": "", "horodatage": "2021-10-25 21:00:34", "marker-color": "#707070"}}, {"type": "Feature", "geometry": {"type": "Point", "coordinates": [2.294933, 48.875069]}, "properties": {"etat de la localisation": "Hors service", "numparc": 1452, "duree": "", "horodatage": "2021-10-25 21:19:48", "marker-color": "#707070"}}, {"type": "Feature", "geometry": {"type": "Point", "coordinates": [2.329114, 48.82262]}, "properties": {"etat de la localisation": "Hors service", "numparc": 1432, "duree": "", "horodatage": "2021-10-25 21:20:28", "marker-color": "#707070"}}, {"type": "Feature", "geometry": {"type": "Point", "coordinates": [2.327496, 48.823677]}, "properties": {"etat de la localisation": "Mission suivante non connue", "numparc": 1424, "duree": "", "horodatage": "2021-10-25 21:20:41", "marker-color": "#7156FF"}}, {"type": "Feature", "geometry": {"type": "Point", "coordinates": [2.329761, 48.823025]}, "properties": {"etat de la localisation": "Hors service", "numparc": 1363, "duree": "", "horodatage": "2021-10-25 21:21:35", "marker-color": "#707070"}}, {"type": "Feature", "geometry": {"type": "Point", "coordinates": [2.329571, 48.822815]}, "properties": {"etat de la localisation": "Hors service", "numparc": 1424, "duree": "", "horodatage": "2021-10-25 21:29:37", "marker-color": "#707070"}}, {"type": "Feature", "geometry": {"type": "Point", "coordinates": [2.330198, 48.822884]}, "properties": {"etat de la localisation": "Hors service", "numparc": 1423, "duree": "", "horodatage": "2021-10-25 21:32:12", "marker-color": "#707070"}}, {"type": "Feature", "geometry": {"type": "Point", "coordinates": [2.326513, 48.828468]}, "properties": {"etat de la localisation": "Hors service", "numparc": 1452, "duree": "", "horodatage": "2021-10-25 21:37:23", "marker-color": "#707070"}}, {"type": "Feature", "geometry": {"type": "Point", "coordinates": [2.329472, 48.822968]}, "properties": {"etat de la localisation": "Hors service", "numparc": 1452, "duree": "", "horodatage": "2021-10-25 21:53:45", "marker-color": "#707070"}}, {"type": "Feature", "geometry": {"type": "Point", "coordinates": [2.292367, 48.885914]}, "properties": {"etat de la localisation": "Mission suivante non connue", "numparc": 1431, "duree": "", "horodatage": "2021-10-25 22:16:50", "marker-color": "#7156FF"}}, {"type": "Feature", "geometry": {"type": "Point", "coordinates": [2.296051, 48.886696]}, "properties": {"etat de la localisation": "Delocalise", "numparc": 1433, "duree": "00:00:30", "horodatage": "2021-10-25 22:17:03", "marker-color": "#FF565E"}}, {"type": "Feature", "geometry": {"type": "Point", "coordinates": [2.330075, 48.823067]}, "properties": {"etat de la localisation": "Hors service", "numparc": 1428, "duree": "", "horodatage": "2021-10-25 22:25:35", "marker-color": "#707070"}}, {"type": "Feature", "geometry": {"type": "Point", "coordinates": [2.327222, 48.823715]}, "properties": {"etat de la localisation": "Mission suivante non connue", "numparc": 1431, "duree": "", "horodatage": "2021-10-25 23:00:17", "marker-color": "#7156FF"}}, {"type": "Feature", "geometry": {"type": "Point", "coordinates": [2.29242, 48.885887]}, "properties": {"etat de la localisation": "Mission suivante non connue", "numparc": 1431, "duree": "", "horodatage": "2021-10-25 23:42:45", "marker-color": "#7156FF"}}, {"type": "Feature", "geometry": {"type": "Point", "coordinates": [2.29605, 48.886528]}, "properties": {"etat de la localisation": "Delocalise", "numparc": 1439, "duree": "00:27:06", "horodatage": "2021-10-25 23:55:49", "marker-color": "#FF565E"}}, {"type": "Feature", "geometry": {"type": "Point", "coordinates": [2.328524, 48.82375]}, "properties": {"etat de la localisation": "Hors service", "numparc": 1437, "duree": "", "horodatage": "2021-10-25 23:59:05", "marker-color": "#707070"}}, {"type": "Feature", "geometry": {"type": "Point", "coordinates": [2.328687, 48.823792]}, "properties": {"etat de la localisation": "Hors service", "numparc": 1439, "duree": "", "horodatage": "2021-10-26 00:22:55", "marker-color": "#707070"}}, {"type": "Feature", "geometry": {"type": "Point", "coordinates": [2.298473, 48.887348]}, "properties": {"etat de la localisation": "Delocalise", "numparc": 1443, "duree": "00:00:43", "horodatage": "2021-10-26 00:34:15", "marker-color": "#FF565E"}}, {"type": "Feature", "geometry": {"type": "Point", "coordinates": [2.328669, 48.824074]}, "properties": {"etat de la localisation": "Hors service", "numparc": 1433, "duree": "", "horodatage": "2021-10-26 00:34:26", "marker-color": "#707070"}}, {"type": "Feature", "geometry": {"type": "Point", "coordinates": [2.327522, 48.823994]}, "properties": {"etat de la localisation": "Mission suivante non connue", "numparc": 1431, "duree": "", "horodatage": "2021-10-26 00:35:13", "marker-color": "#7156FF"}}, {"type": "Feature", "geometry": {"type": "Point", "coordinates": [2.329043, 48.822926]}, "properties": {"etat de la localisation": "Hors service", "numparc": 1431, "duree": "", "horodatage": "2021-10-26 00:45:56", "marker-color": "#707070"}}, {"type": "Feature", "geometry": {"type": "Point", "coordinates": [2.329944, 48.822884]}, "properties": {"etat de la localisation": "Hors service", "numparc": 1442, "duree": "", "horodatage": "2021-10-26 00:49:46", "marker-color": "#707070"}}, {"type": "Feature", "geometry": {"type": "Point", "coordinates": [2.329832, 48.822884]}, "properties": {"etat de la localisation": "Hors service", "numparc": 1436, "duree": "", "horodatage": "2021-10-26 00:59:57", "marker-color": "#707070"}}, {"type": "Feature", "geometry": {"type": "Point", "coordinates": [2.328489, 48.823544]}, "properties": {"etat de la localisation": "Hors service", "numparc": 1434, "duree": "", "horodatage": "2021-10-26 01:05:04", "marker-color": "#707070"}}, {"type": "Feature", "geometry": {"type": "Point", "coordinates": [2.29689, 48.873188]}, "properties": {"etat de la localisation": "Delocalise", "numparc": 1440, "duree": "00:40:39", "horodatage": "2021-10-26 01:07:14", "marker-color": "#FF565E"}}, {"type": "Feature", "geometry": {"type": "Point", "coordinates": [2.329239, 48.823044]}, "properties": {"etat de la localisation": "Hors service", "numparc": 1443, "duree": "", "horodatage": "2021-10-26 01:07:34", "marker-color": "#707070"}}, {"type": "Feature", "geometry": {"type": "Point", "coordinates": [2.32891, 48.823601]}, "properties": {"etat de la localisation": "Hors service", "numparc": 1426, "duree": "", "horodatage": "2021-10-26 01:18:39", "marker-color": "#707070"}}, {"type": "Feature", "geometry": {"type": "Point", "coordinates": [2.328774, 48.823376]}, "properties": {"etat de la localisation": "Hors service", "numparc": 1440, "duree": "", "horodatage": "2021-10-26 01:47:53", "marker-color": "#707070"}}]}