{"type": "FeatureCollection", "features": [{"type": "Feature", "geometry": {"type": "Point", "coordinates": [2.410155, 48.764572]}, "properties": {"etat de la localisation": "Mission suivante non connue", "numparc": 1107, "duree": "", "horodatage": "2023-03-07 16:18:56", "marker-color": "#7156FF"}}, {"type": "Feature", "geometry": {"type": "Point", "coordinates": [2.410143, 48.764076]}, "properties": {"etat de la localisation": "Mission suivante non connue", "numparc": 1107, "duree": "", "horodatage": "2023-03-07 16:19:22", "marker-color": "#7156FF"}}, {"type": "Feature", "geometry": {"type": "Point", "coordinates": [2.410125, 48.764103]}, "properties": {"etat de la localisation": "Mission suivante non connue", "numparc": 1107, "duree": "", "horodatage": "2023-03-07 16:19:49", "marker-color": "#7156FF"}}, {"type": "Feature", "geometry": {"type": "Point", "coordinates": [2.408857, 48.770176]}, "properties": {"etat de la localisation": "Delocalise", "numparc": 1107, "duree": "00:03:29", "horodatage": "2023-03-07 16:51:07", "marker-color": "#FF565E"}}, {"type": "Feature", "geometry": {"type": "Point", "coordinates": [2.410138, 48.764114]}, "properties": {"etat de la localisation": "Mission suivante non connue", "numparc": 1107, "duree": "", "horodatage": "2023-03-07 17:09:43", "marker-color": "#7156FF"}}, {"type": "Feature", "geometry": {"type": "Point", "coordinates": [2.410548, 48.764717]}, "properties": {"etat de la localisation": "Mission suivante non connue", "numparc": 1107, "duree": "", "horodatage": "2023-03-07 18:10:07", "marker-color": "#7156FF"}}, {"type": "Feature", "geometry": {"type": "Point", "coordinates": [2.410209, 48.764008]}, "properties": {"etat de la localisation": "Mission suivante non connue", "numparc": 1107, "duree": "", "horodatage": "2023-03-07 18:11:16", "marker-color": "#7156FF"}}, {"type": "Feature", "geometry": {"type": "Point", "coordinates": [2.442569, 48.771572]}, "properties": {"etat de la localisation": "Hors service", "numparc": 1107, "duree": "", "horodatage": "2023-03-07 19:14:55", "marker-color": "#707070"}}]}