{"type": "FeatureCollection", "features": [{"type": "Feature", "geometry": {"type": "Point", "coordinates": [2.383319, 48.760174]}, "properties": {"etat de la localisation": "Mission inconnue", "numparc": 5907, "duree": "", "horodatage": "2022-02-23 23:08:36", "marker-color": "#FF9F56"}}, {"type": "Feature", "geometry": {"type": "Point", "coordinates": [2.36848, 48.841011]}, "properties": {"etat de la localisation": "Hors service", "numparc": 5907, "duree": "", "horodatage": "2022-02-24 00:22:08", "marker-color": "#707070"}}]}