{"type": "FeatureCollection", "features": [{"type": "Feature", "geometry": {"type": "Point", "coordinates": [2.188715, 48.902428]}, "properties": {"etat de la localisation": "Delocalise", "numparc": 5772, "duree": "00:07:06", "horodatage": "2023-01-31 05:19:28", "marker-color": "#FF565E"}}, {"type": "Feature", "geometry": {"type": "Point", "coordinates": [2.188677, 48.902431]}, "properties": {"etat de la localisation": "Delocalise", "numparc": 5788, "duree": "00:07:23", "horodatage": "2023-01-31 05:30:17", "marker-color": "#FF565E"}}, {"type": "Feature", "geometry": {"type": "Point", "coordinates": [2.189745, 48.902462]}, "properties": {"etat de la localisation": "Delocalise", "numparc": 5784, "duree": "00:08:47", "horodatage": "2023-01-31 05:48:17", "marker-color": "#FF565E"}}, {"type": "Feature", "geometry": {"type": "Point", "coordinates": [2.189718, 48.90329]}, "properties": {"etat de la localisation": "Delocalise", "numparc": 5782, "duree": "00:28:12", "horodatage": "2023-01-31 05:52:22", "marker-color": "#FF565E"}}, {"type": "Feature", "geometry": {"type": "Point", "coordinates": [2.189718, 48.90329]}, "properties": {"etat de la localisation": "Delocalise", "numparc": 5782, "duree": "00:00:00", "horodatage": "2023-01-31 05:52:22", "marker-color": "#FF565E"}}, {"type": "Feature", "geometry": {"type": "Point", "coordinates": [2.188651, 48.902454]}, "properties": {"etat de la localisation": "Delocalise", "numparc": 5906, "duree": "00:07:09", "horodatage": "2023-01-31 06:04:06", "marker-color": "#FF565E"}}, {"type": "Feature", "geometry": {"type": "Point", "coordinates": [2.208432, 48.879387]}, "properties": {"etat de la localisation": "Delocalise", "numparc": 5784, "duree": "00:00:00", "horodatage": "2023-01-31 06:10:04", "marker-color": "#FF565E"}}, {"type": "Feature", "geometry": {"type": "Point", "coordinates": [2.216218, 48.895729]}, "properties": {"etat de la localisation": "Mission inconnue", "numparc": 5782, "duree": "", "horodatage": "2023-01-31 06:20:34", "marker-color": "#FF9F56"}}, {"type": "Feature", "geometry": {"type": "Point", "coordinates": [2.216218, 48.895729]}, "properties": {"etat de la localisation": "Mission inconnue", "numparc": 5782, "duree": "", "horodatage": "2023-01-31 06:20:34", "marker-color": "#FF9F56"}}, {"type": "Feature", "geometry": {"type": "Point", "coordinates": [2.188596, 48.902462]}, "properties": {"etat de la localisation": "Mission inconnue", "numparc": 5796, "duree": "", "horodatage": "2023-01-31 06:52:24", "marker-color": "#FF9F56"}}, {"type": "Feature", "geometry": {"type": "Point", "coordinates": [2.18864, 48.902992]}, "properties": {"etat de la localisation": "Delocalise", "numparc": 5776, "duree": "00:14:38", "horodatage": "2023-01-31 06:58:09", "marker-color": "#FF565E"}}, {"type": "Feature", "geometry": {"type": "Point", "coordinates": [2.22727, 48.840824]}, "properties": {"etat de la localisation": "Mission suivante non connue", "numparc": 5782, "duree": "", "horodatage": "2023-01-31 07:00:07", "marker-color": "#7156FF"}}, {"type": "Feature", "geometry": {"type": "Point", "coordinates": [2.22727, 48.840824]}, "properties": {"etat de la localisation": "Mission suivante non connue", "numparc": 5782, "duree": "", "horodatage": "2023-01-31 07:00:07", "marker-color": "#7156FF"}}, {"type": "Feature", "geometry": {"type": "Point", "coordinates": [2.188361, 48.902672]}, "properties": {"etat de la localisation": "Hors service", "numparc": 5784, "duree": "", "horodatage": "2023-01-31 10:15:13", "marker-color": "#707070"}}, {"type": "Feature", "geometry": {"type": "Point", "coordinates": [2.189176, 48.903156]}, "properties": {"etat de la localisation": "Hors service", "numparc": 5782, "duree": "", "horodatage": "2023-01-31 10:47:44", "marker-color": "#707070"}}, {"type": "Feature", "geometry": {"type": "Point", "coordinates": [2.189176, 48.903156]}, "properties": {"etat de la localisation": "Hors service", "numparc": 5782, "duree": "", "horodatage": "2023-01-31 10:47:44", "marker-color": "#707070"}}, {"type": "Feature", "geometry": {"type": "Point", "coordinates": [2.189184, 48.903141]}, "properties": {"etat de la localisation": "Hors service", "numparc": 5906, "duree": "", "horodatage": "2023-01-31 10:52:31", "marker-color": "#707070"}}, {"type": "Feature", "geometry": {"type": "Point", "coordinates": [2.190695, 48.90276]}, "properties": {"etat de la localisation": "Delocalise", "numparc": 5787, "duree": "00:14:57", "horodatage": "2023-01-31 11:13:15", "marker-color": "#FF565E"}}, {"type": "Feature", "geometry": {"type": "Point", "coordinates": [2.188437, 48.902611]}, "properties": {"etat de la localisation": "Hors service", "numparc": 5772, "duree": "", "horodatage": "2023-01-31 13:16:30", "marker-color": "#707070"}}, {"type": "Feature", "geometry": {"type": "Point", "coordinates": [2.18845, 48.902622]}, "properties": {"etat de la localisation": "Hors service", "numparc": 5787, "duree": "", "horodatage": "2023-01-31 13:23:09", "marker-color": "#707070"}}, {"type": "Feature", "geometry": {"type": "Point", "coordinates": [2.189183, 48.903141]}, "properties": {"etat de la localisation": "Delocalise", "numparc": 5906, "duree": "00:11:33", "horodatage": "2023-01-31 14:43:04", "marker-color": "#FF565E"}}, {"type": "Feature", "geometry": {"type": "Point", "coordinates": [2.188437, 48.902611]}, "properties": {"etat de la localisation": "Delocalise", "numparc": 5772, "duree": "00:05:57", "horodatage": "2023-01-31 15:36:59", "marker-color": "#FF565E"}}, {"type": "Feature", "geometry": {"type": "Point", "coordinates": [2.221893, 48.896423]}, "properties": {"etat de la localisation": "Hors service", "numparc": 5786, "duree": "", "horodatage": "2023-01-31 16:47:58", "marker-color": "#707070"}}, {"type": "Feature", "geometry": {"type": "Point", "coordinates": [2.22812, 48.840981]}, "properties": {"etat de la localisation": "Mission inconnue", "numparc": 5786, "duree": "", "horodatage": "2023-01-31 17:54:10", "marker-color": "#FF9F56"}}, {"type": "Feature", "geometry": {"type": "Point", "coordinates": [2.195949, 48.895203]}, "properties": {"etat de la localisation": "Mission inconnue", "numparc": 5786, "duree": "", "horodatage": "2023-01-31 19:03:56", "marker-color": "#FF9F56"}}, {"type": "Feature", "geometry": {"type": "Point", "coordinates": [2.18973, 48.903267]}, "properties": {"etat de la localisation": "Hors service", "numparc": 5906, "duree": "", "horodatage": "2023-01-31 19:29:40", "marker-color": "#707070"}}, {"type": "Feature", "geometry": {"type": "Point", "coordinates": [2.227167, 48.840858]}, "properties": {"etat de la localisation": "Mission suivante non connue", "numparc": 5786, "duree": "", "horodatage": "2023-01-31 19:45:35", "marker-color": "#7156FF"}}, {"type": "Feature", "geometry": {"type": "Point", "coordinates": [2.190105, 48.903214]}, "properties": {"etat de la localisation": "Hors service", "numparc": 5788, "duree": "", "horodatage": "2023-01-31 19:50:40", "marker-color": "#707070"}}, {"type": "Feature", "geometry": {"type": "Point", "coordinates": [2.22828, 48.841026]}, "properties": {"etat de la localisation": "Hors service", "numparc": 5786, "duree": "", "horodatage": "2023-01-31 20:10:06", "marker-color": "#707070"}}, {"type": "Feature", "geometry": {"type": "Point", "coordinates": [2.188833, 48.903069]}, "properties": {"etat de la localisation": "Hors service", "numparc": 5786, "duree": "", "horodatage": "2023-01-31 21:19:56", "marker-color": "#707070"}}, {"type": "Feature", "geometry": {"type": "Point", "coordinates": [2.195781, 48.895115]}, "properties": {"etat de la localisation": "Mission suivante non connue", "numparc": 5772, "duree": "", "horodatage": "2023-01-31 22:12:16", "marker-color": "#7156FF"}}, {"type": "Feature", "geometry": {"type": "Point", "coordinates": [2.189701, 48.902515]}, "properties": {"etat de la localisation": "Hors service", "numparc": 5773, "duree": "", "horodatage": "2023-01-31 22:12:38", "marker-color": "#707070"}}, {"type": "Feature", "geometry": {"type": "Point", "coordinates": [2.189441, 48.902016]}, "properties": {"etat de la localisation": "Mission suivante non connue", "numparc": 5772, "duree": "", "horodatage": "2023-01-31 22:27:16", "marker-color": "#7156FF"}}, {"type": "Feature", "geometry": {"type": "Point", "coordinates": [2.189441, 48.902016]}, "properties": {"etat de la localisation": "Delocalise", "numparc": 5772, "duree": "00:00:57", "horodatage": "2023-01-31 22:27:19", "marker-color": "#FF565E"}}, {"type": "Feature", "geometry": {"type": "Point", "coordinates": [2.189441, 48.902016]}, "properties": {"etat de la localisation": "Hors service", "numparc": 5772, "duree": "", "horodatage": "2023-01-31 22:28:16", "marker-color": "#707070"}}, {"type": "Feature", "geometry": {"type": "Point", "coordinates": [2.189699, 48.902515]}, "properties": {"etat de la localisation": "Mission inconnue", "numparc": 5773, "duree": "", "horodatage": "2023-01-31 22:31:36", "marker-color": "#FF9F56"}}, {"type": "Feature", "geometry": {"type": "Point", "coordinates": [2.228147, 48.840954]}, "properties": {"etat de la localisation": "Mission inconnue", "numparc": 5773, "duree": "", "horodatage": "2023-01-31 23:15:30", "marker-color": "#FF9F56"}}, {"type": "Feature", "geometry": {"type": "Point", "coordinates": [2.228147, 48.840954]}, "properties": {"etat de la localisation": "Mission inconnue", "numparc": 5773, "duree": "", "horodatage": "2023-01-31 23:15:51", "marker-color": "#FF9F56"}}, {"type": "Feature", "geometry": {"type": "Point", "coordinates": [2.228147, 48.840954]}, "properties": {"etat de la localisation": "Delocalise", "numparc": 5773, "duree": "00:03:12", "horodatage": "2023-01-31 23:26:57", "marker-color": "#FF565E"}}, {"type": "Feature", "geometry": {"type": "Point", "coordinates": [2.188632, 48.902489]}, "properties": {"etat de la localisation": "Hors service", "numparc": 5776, "duree": "", "horodatage": "2023-02-01 00:43:01", "marker-color": "#707070"}}, {"type": "Feature", "geometry": {"type": "Point", "coordinates": [2.188629, 48.902439]}, "properties": {"etat de la localisation": "Hors service", "numparc": 5788, "duree": "", "horodatage": "2023-02-01 01:38:48", "marker-color": "#707070"}}, {"type": "Feature", "geometry": {"type": "Point", "coordinates": [2.188663, 48.90239]}, "properties": {"etat de la localisation": "Hors service", "numparc": 5796, "duree": "", "horodatage": "2023-02-01 01:41:16", "marker-color": "#707070"}}, {"type": "Feature", "geometry": {"type": "Point", "coordinates": [2.188712, 48.902393]}, "properties": {"etat de la localisation": "Hors service", "numparc": 5773, "duree": "", "horodatage": "2023-02-01 02:04:40", "marker-color": "#707070"}}, {"type": "Feature", "geometry": {"type": "Point", "coordinates": [2.189776, 48.901997]}, "properties": {"etat de la localisation": "Mission inconnue", "numparc": 5773, "duree": "", "horodatage": "2023-02-01 02:22:11", "marker-color": "#FF9F56"}}]}