{"type": "FeatureCollection", "features": [{"type": "Feature", "geometry": {"type": "Point", "coordinates": [2.494023, 48.837761]}, "properties": {"alarme": "VEHICULE DELOCALISE", "numparc": 2821, "type": "EXPLOITATION", "duree": "00:03:52", "horodatage": "2021-12-23 06:01:38", "statut": "start", "marker-color": "#ff0000"}}, {"type": "Feature", "geometry": {"type": "Point", "coordinates": [2.494734, 48.83823]}, "properties": {"alarme": "VEHICULE DELOCALISE", "numparc": 2822, "type": "EXPLOITATION", "duree": "00:00:22", "horodatage": "2021-12-23 06:03:06", "statut": "start", "marker-color": "#ff0000"}}, {"type": "Feature", "geometry": {"type": "Point", "coordinates": [2.443032, 48.772736]}, "properties": {"alarme": "DEFAUT LIAISON DATA SAEIV / AIGLE", "numparc": 2830, "type": "TECHNIQUE", "duree": "00:02:31", "horodatage": "2021-12-23 06:13:04", "statut": "start", "marker-color": "#ff0000"}}, {"type": "Feature", "geometry": {"type": "Point", "coordinates": [2.455175, 48.778858]}, "properties": {"alarme": "VEHICULE DELOCALISE", "numparc": 2821, "type": "EXPLOITATION", "duree": "00:00:24", "horodatage": "2021-12-23 06:42:21", "statut": "start", "marker-color": "#ff0000"}}, {"type": "Feature", "geometry": {"type": "Point", "coordinates": [2.494061, 48.837368]}, "properties": {"alarme": "VEHICULE DELOCALISE", "numparc": 2830, "type": "EXPLOITATION", "duree": "00:01:47", "horodatage": "2021-12-23 06:45:27", "statut": "start", "marker-color": "#ff0000"}}, {"type": "Feature", "geometry": {"type": "Point", "coordinates": [2.455191, 48.778851]}, "properties": {"alarme": "VEHICULE DELOCALISE", "numparc": 2822, "type": "EXPLOITATION", "duree": "00:02:12", "horodatage": "2021-12-23 06:56:52", "statut": "start", "marker-color": "#ff0000"}}, {"type": "Feature", "geometry": {"type": "Point", "coordinates": [2.454762, 48.778793]}, "properties": {"alarme": "VEHICULE DELOCALISE", "numparc": 2823, "type": "EXPLOITATION", "duree": "00:00:24", "horodatage": "2021-12-23 07:11:04", "statut": "start", "marker-color": "#ff0000"}}, {"type": "Feature", "geometry": {"type": "Point", "coordinates": [2.454768, 48.778851]}, "properties": {"alarme": "VEHICULE DELOCALISE", "numparc": 2832, "type": "EXPLOITATION", "duree": "00:01:47", "horodatage": "2021-12-23 07:24:29", "statut": "start", "marker-color": "#ff0000"}}, {"type": "Feature", "geometry": {"type": "Point", "coordinates": [2.475256, 48.81189]}, "properties": {"alarme": "VEHICULE DELOCALISE", "numparc": 2823, "type": "EXPLOITATION", "duree": "00:03:11", "horodatage": "2021-12-23 08:13:39", "statut": "start", "marker-color": "#ff0000"}}, {"type": "Feature", "geometry": {"type": "Point", "coordinates": [2.475323, 48.811878]}, "properties": {"alarme": "VEHICULE DELOCALISE", "numparc": 2832, "type": "EXPLOITATION", "duree": "00:02:12", "horodatage": "2021-12-23 08:29:11", "statut": "start", "marker-color": "#ff0000"}}, {"type": "Feature", "geometry": {"type": "Point", "coordinates": [2.455207, 48.778839]}, "properties": {"alarme": "VEHICULE DELOCALISE", "numparc": 2788, "type": "EXPLOITATION", "duree": "00:00:41", "horodatage": "2021-12-23 12:01:42", "statut": "start", "marker-color": "#ff0000"}}, {"type": "Feature", "geometry": {"type": "Point", "coordinates": [2.455078, 48.778854]}, "properties": {"alarme": "VEHICULE DELOCALISE", "numparc": 2825, "type": "EXPLOITATION", "duree": "00:00:35", "horodatage": "2021-12-23 13:31:43", "statut": "start", "marker-color": "#ff0000"}}, {"type": "Feature", "geometry": {"type": "Point", "coordinates": [2.454867, 48.778824]}, "properties": {"alarme": "VEHICULE DELOCALISE", "numparc": 2788, "type": "EXPLOITATION", "duree": "00:00:24", "horodatage": "2021-12-23 13:51:06", "statut": "start", "marker-color": "#ff0000"}}, {"type": "Feature", "geometry": {"type": "Point", "coordinates": [2.494131, 48.836346]}, "properties": {"alarme": "VEHICULE DELOCALISE", "numparc": 2821, "type": "EXPLOITATION", "duree": "00:02:08", "horodatage": "2021-12-23 14:23:10", "statut": "start", "marker-color": "#ff0000"}}, {"type": "Feature", "geometry": {"type": "Point", "coordinates": [2.454369, 48.78035]}, "properties": {"alarme": "VEHICULE DELOCALISE", "numparc": 2825, "type": "EXPLOITATION", "duree": "00:02:06", "horodatage": "2021-12-23 15:34:52", "statut": "start", "marker-color": "#ff0000"}}, {"type": "Feature", "geometry": {"type": "Point", "coordinates": [2.454954, 48.778866]}, "properties": {"alarme": "VEHICULE DELOCALISE", "numparc": 2823, "type": "EXPLOITATION", "duree": "00:00:25", "horodatage": "2021-12-23 18:17:20", "statut": "start", "marker-color": "#ff0000"}}, {"type": "Feature", "geometry": {"type": "Point", "coordinates": [2.455076, 48.778824]}, "properties": {"alarme": "VEHICULE DELOCALISE", "numparc": 2822, "type": "EXPLOITATION", "duree": "00:00:35", "horodatage": "2021-12-23 18:52:16", "statut": "start", "marker-color": "#ff0000"}}, {"type": "Feature", "geometry": {"type": "Point", "coordinates": [2.454888, 48.778824]}, "properties": {"alarme": "VEHICULE DELOCALISE", "numparc": 2823, "type": "EXPLOITATION", "duree": "00:00:26", "horodatage": "2021-12-23 20:12:08", "statut": "start", "marker-color": "#ff0000"}}, {"type": "Feature", "geometry": {"type": "Point", "coordinates": [2.455102, 48.778904]}, "properties": {"alarme": "VEHICULE DELOCALISE", "numparc": 2822, "type": "EXPLOITATION", "duree": "00:00:24", "horodatage": "2021-12-23 20:35:20", "statut": "start", "marker-color": "#ff0000"}}, {"type": "Feature", "geometry": {"type": "Point", "coordinates": [2.455003, 48.778816]}, "properties": {"alarme": "VEHICULE DELOCALISE", "numparc": 2821, "type": "EXPLOITATION", "duree": "00:00:25", "horodatage": "2021-12-23 21:30:10", "statut": "start", "marker-color": "#ff0000"}}, {"type": "Feature", "geometry": {"type": "Point", "coordinates": [2.455192, 48.778824]}, "properties": {"alarme": "VEHICULE DELOCALISE", "numparc": 2830, "type": "EXPLOITATION", "duree": "00:00:22", "horodatage": "2021-12-23 22:26:12", "statut": "start", "marker-color": "#ff0000"}}, {"type": "Feature", "geometry": {"type": "Point", "coordinates": [2.495508, 48.823406]}, "properties": {"alarme": "VEHICULE DELOCALISE", "numparc": 2821, "type": "EXPLOITATION", "duree": "00:03:52", "horodatage": "2021-12-23 06:05:30", "statut": "end", "marker-color": "#2fe184"}}, {"type": "Feature", "geometry": {"type": "Point", "coordinates": [2.494157, 48.838306]}, "properties": {"alarme": "VEHICULE DELOCALISE", "numparc": 2822, "type": "EXPLOITATION", "duree": "00:00:22", "horodatage": "2021-12-23 06:03:28", "statut": "end", "marker-color": "#2fe184"}}, {"type": "Feature", "geometry": {"type": "Point", "coordinates": [2.442592, 48.773331]}, "properties": {"alarme": "DEFAUT LIAISON DATA SAEIV / AIGLE", "numparc": 2830, "type": "TECHNIQUE", "duree": "00:02:31", "horodatage": "2021-12-23 06:15:35", "statut": "end", "marker-color": "#2fe184"}}, {"type": "Feature", "geometry": {"type": "Point", "coordinates": [2.455183, 48.779316]}, "properties": {"alarme": "VEHICULE DELOCALISE", "numparc": 2821, "type": "EXPLOITATION", "duree": "00:00:24", "horodatage": "2021-12-23 06:42:45", "statut": "end", "marker-color": "#2fe184"}}, {"type": "Feature", "geometry": {"type": "Point", "coordinates": [2.493702, 48.828232]}, "properties": {"alarme": "VEHICULE DELOCALISE", "numparc": 2830, "type": "EXPLOITATION", "duree": "00:01:47", "horodatage": "2021-12-23 06:47:14", "statut": "end", "marker-color": "#2fe184"}}, {"type": "Feature", "geometry": {"type": "Point", "coordinates": [2.454234, 48.784164]}, "properties": {"alarme": "VEHICULE DELOCALISE", "numparc": 2822, "type": "EXPLOITATION", "duree": "00:02:12", "horodatage": "2021-12-23 06:59:04", "statut": "end", "marker-color": "#2fe184"}}, {"type": "Feature", "geometry": {"type": "Point", "coordinates": [2.454623, 48.779774]}, "properties": {"alarme": "VEHICULE DELOCALISE", "numparc": 2823, "type": "EXPLOITATION", "duree": "00:00:24", "horodatage": "2021-12-23 07:11:28", "statut": "end", "marker-color": "#2fe184"}}, {"type": "Feature", "geometry": {"type": "Point", "coordinates": [2.453314, 48.785141]}, "properties": {"alarme": "VEHICULE DELOCALISE", "numparc": 2832, "type": "EXPLOITATION", "duree": "00:01:47", "horodatage": "2021-12-23 07:26:16", "statut": "end", "marker-color": "#2fe184"}}, {"type": "Feature", "geometry": {"type": "Point", "coordinates": [2.474766, 48.807278]}, "properties": {"alarme": "VEHICULE DELOCALISE", "numparc": 2823, "type": "EXPLOITATION", "duree": "00:03:11", "horodatage": "2021-12-23 08:16:50", "statut": "end", "marker-color": "#2fe184"}}, {"type": "Feature", "geometry": {"type": "Point", "coordinates": [2.474755, 48.807289]}, "properties": {"alarme": "VEHICULE DELOCALISE", "numparc": 2832, "type": "EXPLOITATION", "duree": "00:02:12", "horodatage": "2021-12-23 08:31:23", "statut": "end", "marker-color": "#2fe184"}}, {"type": "Feature", "geometry": {"type": "Point", "coordinates": [2.455142, 48.779659]}, "properties": {"alarme": "VEHICULE DELOCALISE", "numparc": 2788, "type": "EXPLOITATION", "duree": "00:00:41", "horodatage": "2021-12-23 12:02:23", "statut": "end", "marker-color": "#2fe184"}}, {"type": "Feature", "geometry": {"type": "Point", "coordinates": [2.455041, 48.779755]}, "properties": {"alarme": "VEHICULE DELOCALISE", "numparc": 2825, "type": "EXPLOITATION", "duree": "00:00:35", "horodatage": "2021-12-23 13:32:18", "statut": "end", "marker-color": "#2fe184"}}, {"type": "Feature", "geometry": {"type": "Point", "coordinates": [2.454738, 48.779778]}, "properties": {"alarme": "VEHICULE DELOCALISE", "numparc": 2788, "type": "EXPLOITATION", "duree": "00:00:24", "horodatage": "2021-12-23 13:51:30", "statut": "end", "marker-color": "#2fe184"}}, {"type": "Feature", "geometry": {"type": "Point", "coordinates": [2.493582, 48.835251]}, "properties": {"alarme": "VEHICULE DELOCALISE", "numparc": 2821, "type": "EXPLOITATION", "duree": "00:02:08", "horodatage": "2021-12-23 14:25:18", "statut": "end", "marker-color": "#2fe184"}}, {"type": "Feature", "geometry": {"type": "Point", "coordinates": [2.454078, 48.781532]}, "properties": {"alarme": "VEHICULE DELOCALISE", "numparc": 2825, "type": "EXPLOITATION", "duree": "00:02:06", "horodatage": "2021-12-23 15:36:58", "statut": "end", "marker-color": "#2fe184"}}, {"type": "Feature", "geometry": {"type": "Point", "coordinates": [2.454874, 48.779804]}, "properties": {"alarme": "VEHICULE DELOCALISE", "numparc": 2823, "type": "EXPLOITATION", "duree": "00:00:25", "horodatage": "2021-12-23 18:17:45", "statut": "end", "marker-color": "#2fe184"}}, {"type": "Feature", "geometry": {"type": "Point", "coordinates": [2.455003, 48.77972]}, "properties": {"alarme": "VEHICULE DELOCALISE", "numparc": 2822, "type": "EXPLOITATION", "duree": "00:00:35", "horodatage": "2021-12-23 18:52:51", "statut": "end", "marker-color": "#2fe184"}}, {"type": "Feature", "geometry": {"type": "Point", "coordinates": [2.454855, 48.779804]}, "properties": {"alarme": "VEHICULE DELOCALISE", "numparc": 2823, "type": "EXPLOITATION", "duree": "00:00:26", "horodatage": "2021-12-23 20:12:34", "statut": "end", "marker-color": "#2fe184"}}, {"type": "Feature", "geometry": {"type": "Point", "coordinates": [2.455052, 48.779812]}, "properties": {"alarme": "VEHICULE DELOCALISE", "numparc": 2822, "type": "EXPLOITATION", "duree": "00:00:24", "horodatage": "2021-12-23 20:35:44", "statut": "end", "marker-color": "#2fe184"}}, {"type": "Feature", "geometry": {"type": "Point", "coordinates": [2.454974, 48.77985]}, "properties": {"alarme": "VEHICULE DELOCALISE", "numparc": 2821, "type": "EXPLOITATION", "duree": "00:00:25", "horodatage": "2021-12-23 21:30:35", "statut": "end", "marker-color": "#2fe184"}}, {"type": "Feature", "geometry": {"type": "Point", "coordinates": [2.455158, 48.779732]}, "properties": {"alarme": "VEHICULE DELOCALISE", "numparc": 2830, "type": "EXPLOITATION", "duree": "00:00:22", "horodatage": "2021-12-23 22:26:34", "statut": "end", "marker-color": "#2fe184"}}, {"type": "Feature", "geometry": {"type": "Point", "coordinates": [2.443278, 48.772537]}, "properties": {"alarme": "DEFAUT LIAISON DATA SAEIV / AIGLE", "numparc": 2788, "type": "TECHNIQUE", "duree": "24:00:00", "horodatage": "2021-12-23 21:55:28", "statut": "start", "marker-color": "#000000"}}]}