{"type": "FeatureCollection", "features": [{"type": "Feature", "geometry": {"type": "Point", "coordinates": [2.361196, 48.884567]}, "properties": {"numparc": 1491, "etat de la localisation": "autre", "ID BDGEO": "45", "horodatage": "2022-09-05 07:31:11", "distance (en metres)": 65.68, "station": "PLACE DE LA CHAPELLE", "marker-color": "#818181"}}, {"type": "Feature", "geometry": {"type": "Point", "coordinates": [2.358009, 48.881077]}, "properties": {"numparc": 1491, "etat de la localisation": "autre", "ID BDGEO": "224", "horodatage": "2022-09-05 07:34:01", "distance (en metres)": 3790.56, "station": "PORTE DES LILAS#", "marker-color": "#818181"}}, {"type": "Feature", "geometry": {"type": "Point", "coordinates": [2.357443, 48.880981]}, "properties": {"numparc": 1491, "etat de la localisation": "autre", "ID BDGEO": "224", "horodatage": "2022-09-05 07:36:00", "distance (en metres)": 3830.45, "station": "PORTE DES LILAS#", "marker-color": "#818181"}}, {"type": "Feature", "geometry": {"type": "Point", "coordinates": [2.427957, 48.878513]}, "properties": {"numparc": 1493, "etat de la localisation": "autre", "ID BDGEO": "221", "horodatage": "2022-09-05 10:49:53", "distance (en metres)": 3540.76, "station": "LAGNY SORTIE", "marker-color": "#818181"}}, {"type": "Feature", "geometry": {"type": "Point", "coordinates": [2.426649, 48.878815]}, "properties": {"numparc": 1498, "etat de la localisation": "autre", "ID BDGEO": "58", "horodatage": "2022-09-05 12:24:26", "distance (en metres)": 1263.68, "station": "PORTE DES LILAS", "marker-color": "#818181"}}, {"type": "Feature", "geometry": {"type": "Point", "coordinates": [2.426649, 48.878815]}, "properties": {"numparc": 1498, "etat de la localisation": "autre", "ID BDGEO": "58", "horodatage": "2022-09-05 12:26:18", "distance (en metres)": 1263.68, "station": "PORTE DES LILAS", "marker-color": "#818181"}}, {"type": "Feature", "geometry": {"type": "Point", "coordinates": [2.426649, 48.878815]}, "properties": {"numparc": 1498, "etat de la localisation": "autre", "ID BDGEO": "58", "horodatage": "2022-09-05 12:26:42", "distance (en metres)": 1263.68, "station": "PORTE DES LILAS", "marker-color": "#818181"}}, {"type": "Feature", "geometry": {"type": "Point", "coordinates": [2.426649, 48.878815]}, "properties": {"numparc": 1498, "etat de la localisation": "autre", "ID BDGEO": "58", "horodatage": "2022-09-05 12:27:33", "distance (en metres)": 1263.68, "station": "PORTE DES LILAS", "marker-color": "#818181"}}, {"type": "Feature", "geometry": {"type": "Point", "coordinates": [2.361299, 48.884552]}, "properties": {"numparc": 1559, "etat de la localisation": "autre", "ID BDGEO": "45", "horodatage": "2022-09-05 17:43:26", "distance (en metres)": 73.16, "station": "PLACE DE LA CHAPELLE", "marker-color": "#818181"}}, {"type": "Feature", "geometry": {"type": "Point", "coordinates": [2.358021, 48.88105]}, "properties": {"numparc": 1559, "etat de la localisation": "autre", "ID BDGEO": "224", "horodatage": "2022-09-05 17:46:35", "distance (en metres)": 3789.35, "station": "PORTE DES LILAS#", "marker-color": "#818181"}}, {"type": "Feature", "geometry": {"type": "Point", "coordinates": [2.35787, 48.880836]}, "properties": {"numparc": 1559, "etat de la localisation": "autre", "ID BDGEO": "224", "horodatage": "2022-09-05 17:50:28", "distance (en metres)": 3797.62, "station": "PORTE DES LILAS#", "marker-color": "#818181"}}, {"type": "Feature", "geometry": {"type": "Point", "coordinates": [2.358385, 48.88184]}, "properties": {"numparc": 1559, "etat de la localisation": "autre", "ID BDGEO": "224", "horodatage": "2022-09-05 17:51:44", "distance (en metres)": 3774.24, "station": "PORTE DES LILAS#", "marker-color": "#818181"}}, {"type": "Feature", "geometry": {"type": "Point", "coordinates": [2.359273, 48.883793]}, "properties": {"numparc": 1559, "etat de la localisation": "autre", "ID BDGEO": "224", "horodatage": "2022-09-05 17:52:56", "distance (en metres)": 3747.16, "station": "PORTE DES LILAS#", "marker-color": "#818181"}}, {"type": "Feature", "geometry": {"type": "Point", "coordinates": [2.361704, 48.884277]}, "properties": {"numparc": 1559, "etat de la localisation": "autre", "ID BDGEO": "224", "horodatage": "2022-09-05 17:55:07", "distance (en metres)": 3584.8, "station": "PORTE DES LILAS#", "marker-color": "#818181"}}, {"type": "Feature", "geometry": {"type": "Point", "coordinates": [2.365054, 48.88419]}, "properties": {"numparc": 1559, "etat de la localisation": "autre", "ID BDGEO": "224", "horodatage": "2022-09-05 17:56:32", "distance (en metres)": 3344.19, "station": "PORTE DES LILAS#", "marker-color": "#818181"}}, {"type": "Feature", "geometry": {"type": "Point", "coordinates": [2.36879, 48.883438]}, "properties": {"numparc": 1559, "etat de la localisation": "autre", "ID BDGEO": "224", "horodatage": "2022-09-05 17:58:08", "distance (en metres)": 3059.03, "station": "PORTE DES LILAS#", "marker-color": "#818181"}}, {"type": "Feature", "geometry": {"type": "Point", "coordinates": [2.370663, 48.882839]}, "properties": {"numparc": 1559, "etat de la localisation": "autre", "ID BDGEO": "224", "horodatage": "2022-09-05 17:59:53", "distance (en metres)": 2910.56, "station": "PORTE DES LILAS#", "marker-color": "#818181"}}, {"type": "Feature", "geometry": {"type": "Point", "coordinates": [2.374905, 48.882763]}, "properties": {"numparc": 1559, "etat de la localisation": "autre", "ID BDGEO": "224", "horodatage": "2022-09-05 18:01:35", "distance (en metres)": 2606.82, "station": "PORTE DES LILAS#", "marker-color": "#818181"}}, {"type": "Feature", "geometry": {"type": "Point", "coordinates": [2.382608, 48.882442]}, "properties": {"numparc": 1559, "etat de la localisation": "autre", "ID BDGEO": "224", "horodatage": "2022-09-05 18:04:58", "distance (en metres)": 2054.35, "station": "PORTE DES LILAS#", "marker-color": "#818181"}}, {"type": "Feature", "geometry": {"type": "Point", "coordinates": [2.386117, 48.882545]}, "properties": {"numparc": 1559, "etat de la localisation": "autre", "ID BDGEO": "224", "horodatage": "2022-09-05 18:07:33", "distance (en metres)": 1814.22, "station": "PORTE DES LILAS#", "marker-color": "#818181"}}, {"type": "Feature", "geometry": {"type": "Point", "coordinates": [2.426656, 48.89539]}, "properties": {"numparc": 1491, "etat de la localisation": "autre", "ID BDGEO": "224", "horodatage": "2022-09-05 18:09:19", "distance (en metres)": 2393.68, "station": "PORTE DES LILAS#", "marker-color": "#818181"}}, {"type": "Feature", "geometry": {"type": "Point", "coordinates": [2.3898, 48.879303]}, "properties": {"numparc": 1559, "etat de la localisation": "autre", "ID BDGEO": "224", "horodatage": "2022-09-05 18:09:57", "distance (en metres)": 1460.82, "station": "PORTE DES LILAS#", "marker-color": "#818181"}}, {"type": "Feature", "geometry": {"type": "Point", "coordinates": [2.392561, 48.876915]}, "properties": {"numparc": 1559, "etat de la localisation": "autre", "ID BDGEO": "224", "horodatage": "2022-09-05 18:11:25", "distance (en metres)": 1237.65, "station": "PORTE DES LILAS#", "marker-color": "#818181"}}, {"type": "Feature", "geometry": {"type": "Point", "coordinates": [2.396168, 48.877979]}, "properties": {"numparc": 1559, "etat de la localisation": "autre", "ID BDGEO": "224", "horodatage": "2022-09-05 18:13:55", "distance (en metres)": 979.08, "station": "PORTE DES LILAS#", "marker-color": "#818181"}}, {"type": "Feature", "geometry": {"type": "Point", "coordinates": [2.398152, 48.878357]}, "properties": {"numparc": 1547, "etat de la localisation": "autre", "ID BDGEO": "35", "horodatage": "2022-09-05 18:13:55", "distance (en metres)": 93.57, "station": "RUE DES BOIS", "marker-color": "#818181"}}, {"type": "Feature", "geometry": {"type": "Point", "coordinates": [2.398464, 48.879124]}, "properties": {"numparc": 1559, "etat de la localisation": "autre", "ID BDGEO": "224", "horodatage": "2022-09-05 18:15:29", "distance (en metres)": 837.81, "station": "PORTE DES LILAS#", "marker-color": "#818181"}}, {"type": "Feature", "geometry": {"type": "Point", "coordinates": [2.399085, 48.879887]}, "properties": {"numparc": 1559, "etat de la localisation": "autre", "ID BDGEO": "224", "horodatage": "2022-09-05 18:17:27", "distance (en metres)": 822.72, "station": "PORTE DES LILAS#", "marker-color": "#818181"}}, {"type": "Feature", "geometry": {"type": "Point", "coordinates": [2.436647, 48.893467]}, "properties": {"numparc": 1491, "etat de la localisation": "autre", "ID BDGEO": "224", "horodatage": "2022-09-05 18:18:32", "distance (en metres)": 2696.72, "station": "PORTE DES LILAS#", "marker-color": "#818181"}}, {"type": "Feature", "geometry": {"type": "Point", "coordinates": [2.401101, 48.879284]}, "properties": {"numparc": 1559, "etat de la localisation": "autre", "ID BDGEO": "224", "horodatage": "2022-09-05 18:19:32", "distance (en metres)": 660.9, "station": "PORTE DES LILAS#", "marker-color": "#818181"}}, {"type": "Feature", "geometry": {"type": "Point", "coordinates": [2.437354, 48.891495]}, "properties": {"numparc": 1491, "etat de la localisation": "autre", "ID BDGEO": "224", "horodatage": "2022-09-05 18:20:08", "distance (en metres)": 2593.95, "station": "PORTE DES LILAS#", "marker-color": "#818181"}}, {"type": "Feature", "geometry": {"type": "Point", "coordinates": [2.432972, 48.89106]}, "properties": {"numparc": 1491, "etat de la localisation": "autre", "ID BDGEO": "224", "horodatage": "2022-09-05 18:21:42", "distance (en metres)": 2317.84, "station": "PORTE DES LILAS#", "marker-color": "#818181"}}, {"type": "Feature", "geometry": {"type": "Point", "coordinates": [2.426481, 48.890892]}, "properties": {"numparc": 1491, "etat de la localisation": "autre", "ID BDGEO": "224", "horodatage": "2022-09-05 18:23:40", "distance (en metres)": 1977.27, "station": "PORTE DES LILAS#", "marker-color": "#818181"}}, {"type": "Feature", "geometry": {"type": "Point", "coordinates": [2.407738, 48.880226]}, "properties": {"numparc": 1559, "etat de la localisation": "autre", "ID BDGEO": "224", "horodatage": "2022-09-05 18:24:09", "distance (en metres)": 374.26, "station": "PORTE DES LILAS#", "marker-color": "#818181"}}, {"type": "Feature", "geometry": {"type": "Point", "coordinates": [2.428526, 48.885872]}, "properties": {"numparc": 1491, "etat de la localisation": "autre", "ID BDGEO": "224", "horodatage": "2022-09-05 18:25:49", "distance (en metres)": 1702.52, "station": "PORTE DES LILAS#", "marker-color": "#818181"}}, {"type": "Feature", "geometry": {"type": "Point", "coordinates": [2.40904, 48.878563]}, "properties": {"numparc": 1559, "etat de la localisation": "autre", "ID BDGEO": "224", "horodatage": "2022-09-05 18:26:57", "distance (en metres)": 170.0, "station": "PORTE DES LILAS#", "marker-color": "#818181"}}, {"type": "Feature", "geometry": {"type": "Point", "coordinates": [2.432352, 48.884857]}, "properties": {"numparc": 1491, "etat de la localisation": "autre", "ID BDGEO": "224", "horodatage": "2022-09-05 18:27:28", "distance (en metres)": 1883.55, "station": "PORTE DES LILAS#", "marker-color": "#818181"}}, {"type": "Feature", "geometry": {"type": "Point", "coordinates": [2.434989, 48.88512]}, "properties": {"numparc": 1491, "etat de la localisation": "autre", "ID BDGEO": "224", "horodatage": "2022-09-05 18:28:31", "distance (en metres)": 2069.16, "station": "PORTE DES LILAS#", "marker-color": "#818181"}}, {"type": "Feature", "geometry": {"type": "Point", "coordinates": [2.408765, 48.877426]}, "properties": {"numparc": 1559, "etat de la localisation": "autre", "ID BDGEO": "58", "horodatage": "2022-09-05 18:29:30", "distance (en metres)": 68.42, "station": "PORTE DES LILAS", "marker-color": "#818181"}}, {"type": "Feature", "geometry": {"type": "Point", "coordinates": [2.408986, 48.877285]}, "properties": {"numparc": 1559, "etat de la localisation": "autre", "ID BDGEO": "58", "horodatage": "2022-09-05 18:31:30", "distance (en metres)": 46.74, "station": "PORTE DES LILAS", "marker-color": "#818181"}}, {"type": "Feature", "geometry": {"type": "Point", "coordinates": [2.440922, 48.882286]}, "properties": {"numparc": 1491, "etat de la localisation": "autre", "ID BDGEO": "224", "horodatage": "2022-09-05 18:37:14", "distance (en metres)": 2371.25, "station": "PORTE DES LILAS#", "marker-color": "#818181"}}, {"type": "Feature", "geometry": {"type": "Point", "coordinates": [2.43639, 48.88039]}, "properties": {"numparc": 1491, "etat de la localisation": "autre", "ID BDGEO": "224", "horodatage": "2022-09-05 18:39:03", "distance (en metres)": 2002.12, "station": "PORTE DES LILAS#", "marker-color": "#818181"}}, {"type": "Feature", "geometry": {"type": "Point", "coordinates": [2.432191, 48.87886]}, "properties": {"numparc": 1491, "etat de la localisation": "autre", "ID BDGEO": "224", "horodatage": "2022-09-05 18:40:49", "distance (en metres)": 1672.58, "station": "PORTE DES LILAS#", "marker-color": "#818181"}}, {"type": "Feature", "geometry": {"type": "Point", "coordinates": [2.426927, 48.878063]}, "properties": {"numparc": 1491, "etat de la localisation": "autre", "ID BDGEO": "224", "horodatage": "2022-09-05 18:42:12", "distance (en metres)": 1280.5, "station": "PORTE DES LILAS#", "marker-color": "#818181"}}, {"type": "Feature", "geometry": {"type": "Point", "coordinates": [2.426927, 48.878063]}, "properties": {"numparc": 1491, "etat de la localisation": "autre", "ID BDGEO": "224", "horodatage": "2022-09-05 18:42:14", "distance (en metres)": 1280.5, "station": "PORTE DES LILAS#", "marker-color": "#818181"}}, {"type": "Feature", "geometry": {"type": "Point", "coordinates": [2.357912, 48.880825]}, "properties": {"numparc": 1547, "etat de la localisation": "autre", "ID BDGEO": "224", "horodatage": "2022-09-05 18:46:11", "distance (en metres)": 3794.43, "station": "PORTE DES LILAS#", "marker-color": "#818181"}}, {"type": "Feature", "geometry": {"type": "Point", "coordinates": [2.357912, 48.880825]}, "properties": {"numparc": 1547, "etat de la localisation": "autre", "ID BDGEO": "224", "horodatage": "2022-09-05 18:46:32", "distance (en metres)": 3794.43, "station": "PORTE DES LILAS#", "marker-color": "#818181"}}, {"type": "Feature", "geometry": {"type": "Point", "coordinates": [2.425377, 48.87635]}, "properties": {"numparc": 1491, "etat de la localisation": "autre", "ID BDGEO": "224", "horodatage": "2022-09-05 18:46:51", "distance (en metres)": 1165.0, "station": "PORTE DES LILAS#", "marker-color": "#818181"}}, {"type": "Feature", "geometry": {"type": "Point", "coordinates": [2.358334, 48.881836]}, "properties": {"numparc": 1547, "etat de la localisation": "autre", "ID BDGEO": "224", "horodatage": "2022-09-05 18:47:42", "distance (en metres)": 3777.87, "station": "PORTE DES LILAS#", "marker-color": "#818181"}}, {"type": "Feature", "geometry": {"type": "Point", "coordinates": [2.359244, 48.883751]}, "properties": {"numparc": 1547, "etat de la localisation": "autre", "ID BDGEO": "224", "horodatage": "2022-09-05 18:48:50", "distance (en metres)": 3748.3, "station": "PORTE DES LILAS#", "marker-color": "#818181"}}, {"type": "Feature", "geometry": {"type": "Point", "coordinates": [2.359244, 48.883751]}, "properties": {"numparc": 1547, "etat de la localisation": "autre", "ID BDGEO": "224", "horodatage": "2022-09-05 18:48:58", "distance (en metres)": 3748.3, "station": "PORTE DES LILAS#", "marker-color": "#818181"}}, {"type": "Feature", "geometry": {"type": "Point", "coordinates": [2.359302, 48.884003]}, "properties": {"numparc": 1547, "etat de la localisation": "autre", "ID BDGEO": "224", "horodatage": "2022-09-05 18:49:36", "distance (en metres)": 3749.8, "station": "PORTE DES LILAS#", "marker-color": "#818181"}}, {"type": "Feature", "geometry": {"type": "Point", "coordinates": [2.361777, 48.884304]}, "properties": {"numparc": 1547, "etat de la localisation": "autre", "ID BDGEO": "224", "horodatage": "2022-09-05 18:51:32", "distance (en metres)": 3580.26, "station": "PORTE DES LILAS#", "marker-color": "#818181"}}, {"type": "Feature", "geometry": {"type": "Point", "coordinates": [2.361779, 48.884304]}, "properties": {"numparc": 1547, "etat de la localisation": "autre", "ID BDGEO": "224", "horodatage": "2022-09-05 18:51:57", "distance (en metres)": 3580.13, "station": "PORTE DES LILAS#", "marker-color": "#818181"}}, {"type": "Feature", "geometry": {"type": "Point", "coordinates": [2.365174, 48.884232]}, "properties": {"numparc": 1547, "etat de la localisation": "autre", "ID BDGEO": "224", "horodatage": "2022-09-05 18:53:00", "distance (en metres)": 3336.76, "station": "PORTE DES LILAS#", "marker-color": "#818181"}}, {"type": "Feature", "geometry": {"type": "Point", "coordinates": [2.368855, 48.883438]}, "properties": {"numparc": 1547, "etat de la localisation": "autre", "ID BDGEO": "224", "horodatage": "2022-09-05 18:54:21", "distance (en metres)": 3054.4, "station": "PORTE DES LILAS#", "marker-color": "#818181"}}, {"type": "Feature", "geometry": {"type": "Point", "coordinates": [2.370787, 48.882843]}, "properties": {"numparc": 1547, "etat de la localisation": "autre", "ID BDGEO": "224", "horodatage": "2022-09-05 18:55:58", "distance (en metres)": 2901.82, "station": "PORTE DES LILAS#", "marker-color": "#818181"}}, {"type": "Feature", "geometry": {"type": "Point", "coordinates": [2.370807, 48.882851]}, "properties": {"numparc": 1547, "etat de la localisation": "autre", "ID BDGEO": "224", "horodatage": "2022-09-05 18:56:43", "distance (en metres)": 2900.58, "station": "PORTE DES LILAS#", "marker-color": "#818181"}}, {"type": "Feature", "geometry": {"type": "Point", "coordinates": [2.375043, 48.882748]}, "properties": {"numparc": 1547, "etat de la localisation": "autre", "ID BDGEO": "224", "horodatage": "2022-09-05 18:58:01", "distance (en metres)": 2596.64, "station": "PORTE DES LILAS#", "marker-color": "#818181"}}, {"type": "Feature", "geometry": {"type": "Point", "coordinates": [2.382612, 48.88242]}, "properties": {"numparc": 1547, "etat de la localisation": "autre", "ID BDGEO": "224", "horodatage": "2022-09-05 19:01:05", "distance (en metres)": 2053.33, "station": "PORTE DES LILAS#", "marker-color": "#818181"}}, {"type": "Feature", "geometry": {"type": "Point", "coordinates": [2.386123, 48.882511]}, "properties": {"numparc": 1547, "etat de la localisation": "autre", "ID BDGEO": "224", "horodatage": "2022-09-05 19:03:26", "distance (en metres)": 1812.54, "station": "PORTE DES LILAS#", "marker-color": "#818181"}}, {"type": "Feature", "geometry": {"type": "Point", "coordinates": [2.389805, 48.879295]}, "properties": {"numparc": 1547, "etat de la localisation": "autre", "ID BDGEO": "224", "horodatage": "2022-09-05 19:05:04", "distance (en metres)": 1460.32, "station": "PORTE DES LILAS#", "marker-color": "#818181"}}, {"type": "Feature", "geometry": {"type": "Point", "coordinates": [2.392581, 48.87693]}, "properties": {"numparc": 1547, "etat de la localisation": "autre", "ID BDGEO": "224", "horodatage": "2022-09-05 19:06:23", "distance (en metres)": 1236.17, "station": "PORTE DES LILAS#", "marker-color": "#818181"}}, {"type": "Feature", "geometry": {"type": "Point", "coordinates": [2.396216, 48.877991]}, "properties": {"numparc": 1547, "etat de la localisation": "autre", "ID BDGEO": "224", "horodatage": "2022-09-05 19:08:44", "distance (en metres)": 975.72, "station": "PORTE DES LILAS#", "marker-color": "#818181"}}, {"type": "Feature", "geometry": {"type": "Point", "coordinates": [2.398535, 48.879185]}, "properties": {"numparc": 1547, "etat de la localisation": "autre", "ID BDGEO": "224", "horodatage": "2022-09-05 19:09:35", "distance (en metres)": 834.7, "station": "PORTE DES LILAS#", "marker-color": "#818181"}}, {"type": "Feature", "geometry": {"type": "Point", "coordinates": [2.39905, 48.879936]}, "properties": {"numparc": 1547, "etat de la localisation": "autre", "ID BDGEO": "224", "horodatage": "2022-09-05 19:10:42", "distance (en metres)": 827.2, "station": "PORTE DES LILAS#", "marker-color": "#818181"}}, {"type": "Feature", "geometry": {"type": "Point", "coordinates": [2.39905, 48.879936]}, "properties": {"numparc": 1547, "etat de la localisation": "autre", "ID BDGEO": "224", "horodatage": "2022-09-05 19:10:47", "distance (en metres)": 827.2, "station": "PORTE DES LILAS#", "marker-color": "#818181"}}, {"type": "Feature", "geometry": {"type": "Point", "coordinates": [2.401033, 48.879337]}, "properties": {"numparc": 1547, "etat de la localisation": "autre", "ID BDGEO": "224", "horodatage": "2022-09-05 19:14:13", "distance (en metres)": 667.75, "station": "PORTE DES LILAS#", "marker-color": "#818181"}}, {"type": "Feature", "geometry": {"type": "Point", "coordinates": [2.401049, 48.879318]}, "properties": {"numparc": 1547, "etat de la localisation": "autre", "ID BDGEO": "224", "horodatage": "2022-09-05 19:14:31", "distance (en metres)": 665.87, "station": "PORTE DES LILAS#", "marker-color": "#818181"}}, {"type": "Feature", "geometry": {"type": "Point", "coordinates": [2.403053, 48.881626]}, "properties": {"numparc": 1547, "etat de la localisation": "autre", "ID BDGEO": "224", "horodatage": "2022-09-05 19:18:11", "distance (en metres)": 691.86, "station": "PORTE DES LILAS#", "marker-color": "#818181"}}, {"type": "Feature", "geometry": {"type": "Point", "coordinates": [2.407727, 48.88023]}, "properties": {"numparc": 1547, "etat de la localisation": "autre", "ID BDGEO": "224", "horodatage": "2022-09-05 19:19:12", "distance (en metres)": 374.93, "station": "PORTE DES LILAS#", "marker-color": "#818181"}}, {"type": "Feature", "geometry": {"type": "Point", "coordinates": [2.361202, 48.884491]}, "properties": {"numparc": 1559, "etat de la localisation": "autre", "ID BDGEO": "45", "horodatage": "2022-09-05 19:19:24", "distance (en metres)": 66.29, "station": "PLACE DE LA CHAPELLE", "marker-color": "#818181"}}, {"type": "Feature", "geometry": {"type": "Point", "coordinates": [2.407877, 48.880238]}, "properties": {"numparc": 1547, "etat de la localisation": "autre", "ID BDGEO": "224", "horodatage": "2022-09-05 19:19:45", "distance (en metres)": 372.12, "station": "PORTE DES LILAS#", "marker-color": "#818181"}}, {"type": "Feature", "geometry": {"type": "Point", "coordinates": [2.409014, 48.878567]}, "properties": {"numparc": 1547, "etat de la localisation": "autre", "ID BDGEO": "224", "horodatage": "2022-09-05 19:21:41", "distance (en metres)": 170.79, "station": "PORTE DES LILAS#", "marker-color": "#818181"}}, {"type": "Feature", "geometry": {"type": "Point", "coordinates": [2.361113, 48.884521]}, "properties": {"numparc": 1498, "etat de la localisation": "autre", "ID BDGEO": "45", "horodatage": "2022-09-05 19:22:36", "distance (en metres)": 59.59, "station": "PLACE DE LA CHAPELLE", "marker-color": "#818181"}}, {"type": "Feature", "geometry": {"type": "Point", "coordinates": [2.35791, 48.881134]}, "properties": {"numparc": 1559, "etat de la localisation": "autre", "ID BDGEO": "224", "horodatage": "2022-09-05 19:23:27", "distance (en metres)": 3798.51, "station": "PORTE DES LILAS#", "marker-color": "#818181"}}, {"type": "Feature", "geometry": {"type": "Point", "coordinates": [2.408834, 48.877422]}, "properties": {"numparc": 1547, "etat de la localisation": "autre", "ID BDGEO": "58", "horodatage": "2022-09-05 19:24:20", "distance (en metres)": 63.94, "station": "PORTE DES LILAS", "marker-color": "#818181"}}, {"type": "Feature", "geometry": {"type": "Point", "coordinates": [2.357867, 48.881042]}, "properties": {"numparc": 1498, "etat de la localisation": "autre", "ID BDGEO": "224", "horodatage": "2022-09-05 19:25:42", "distance (en metres)": 3800.44, "station": "PORTE DES LILAS#", "marker-color": "#818181"}}, {"type": "Feature", "geometry": {"type": "Point", "coordinates": [2.357889, 48.880898]}, "properties": {"numparc": 1559, "etat de la localisation": "autre", "ID BDGEO": "224", "horodatage": "2022-09-05 19:28:01", "distance (en metres)": 3797.01, "station": "PORTE DES LILAS#", "marker-color": "#818181"}}, {"type": "Feature", "geometry": {"type": "Point", "coordinates": [2.358391, 48.881859]}, "properties": {"numparc": 1559, "etat de la localisation": "autre", "ID BDGEO": "224", "horodatage": "2022-09-05 19:29:36", "distance (en metres)": 3774.1, "station": "PORTE DES LILAS#", "marker-color": "#818181"}}, {"type": "Feature", "geometry": {"type": "Point", "coordinates": [2.359289, 48.883816]}, "properties": {"numparc": 1559, "etat de la localisation": "autre", "ID BDGEO": "224", "horodatage": "2022-09-05 19:30:53", "distance (en metres)": 3746.53, "station": "PORTE DES LILAS#", "marker-color": "#818181"}}, {"type": "Feature", "geometry": {"type": "Point", "coordinates": [2.359339, 48.884079]}, "properties": {"numparc": 1559, "etat de la localisation": "autre", "ID BDGEO": "224", "horodatage": "2022-09-05 19:31:23", "distance (en metres)": 3748.91, "station": "PORTE DES LILAS#", "marker-color": "#818181"}}, {"type": "Feature", "geometry": {"type": "Point", "coordinates": [2.357444, 48.880817]}, "properties": {"numparc": 1498, "etat de la localisation": "autre", "ID BDGEO": "224", "horodatage": "2022-09-05 19:32:21", "distance (en metres)": 3828.35, "station": "PORTE DES LILAS#", "marker-color": "#818181"}}, {"type": "Feature", "geometry": {"type": "Point", "coordinates": [2.361647, 48.884304]}, "properties": {"numparc": 1559, "etat de la localisation": "autre", "ID BDGEO": "224", "horodatage": "2022-09-05 19:33:12", "distance (en metres)": 3589.54, "station": "PORTE DES LILAS#", "marker-color": "#818181"}}, {"type": "Feature", "geometry": {"type": "Point", "coordinates": [2.365058, 48.884197]}, "properties": {"numparc": 1559, "etat de la localisation": "autre", "ID BDGEO": "224", "horodatage": "2022-09-05 19:34:16", "distance (en metres)": 3344.1, "station": "PORTE DES LILAS#", "marker-color": "#818181"}}, {"type": "Feature", "geometry": {"type": "Point", "coordinates": [2.368782, 48.883492]}, "properties": {"numparc": 1559, "etat de la localisation": "autre", "ID BDGEO": "224", "horodatage": "2022-09-05 19:35:38", "distance (en metres)": 3060.97, "station": "PORTE DES LILAS#", "marker-color": "#818181"}}, {"type": "Feature", "geometry": {"type": "Point", "coordinates": [2.357857, 48.880802]}, "properties": {"numparc": 1498, "etat de la localisation": "autre", "ID BDGEO": "224", "horodatage": "2022-09-05 19:36:11", "distance (en metres)": 3798.15, "station": "PORTE DES LILAS#", "marker-color": "#818181"}}, {"type": "Feature", "geometry": {"type": "Point", "coordinates": [2.370667, 48.882877]}, "properties": {"numparc": 1559, "etat de la localisation": "autre", "ID BDGEO": "224", "horodatage": "2022-09-05 19:37:21", "distance (en metres)": 2911.22, "station": "PORTE DES LILAS#", "marker-color": "#818181"}}, {"type": "Feature", "geometry": {"type": "Point", "coordinates": [2.359305, 48.883785]}, "properties": {"numparc": 1498, "etat de la localisation": "autre", "ID BDGEO": "224", "horodatage": "2022-09-05 19:38:50", "distance (en metres)": 3744.7, "station": "PORTE DES LILAS#", "marker-color": "#818181"}}, {"type": "Feature", "geometry": {"type": "Point", "coordinates": [2.374849, 48.882793]}, "properties": {"numparc": 1559, "etat de la localisation": "autre", "ID BDGEO": "224", "horodatage": "2022-09-05 19:39:06", "distance (en metres)": 2611.62, "station": "PORTE DES LILAS#", "marker-color": "#818181"}}, {"type": "Feature", "geometry": {"type": "Point", "coordinates": [2.361796, 48.884216]}, "properties": {"numparc": 1498, "etat de la localisation": "autre", "ID BDGEO": "224", "horodatage": "2022-09-05 19:40:35", "distance (en metres)": 3576.74, "station": "PORTE DES LILAS#", "marker-color": "#818181"}}, {"type": "Feature", "geometry": {"type": "Point", "coordinates": [2.382533, 48.882381]}, "properties": {"numparc": 1559, "etat de la localisation": "autre", "ID BDGEO": "224", "horodatage": "2022-09-05 19:41:54", "distance (en metres)": 2057.62, "station": "PORTE DES LILAS#", "marker-color": "#818181"}}, {"type": "Feature", "geometry": {"type": "Point", "coordinates": [2.365194, 48.884247]}, "properties": {"numparc": 1498, "etat de la localisation": "autre", "ID BDGEO": "224", "horodatage": "2022-09-05 19:42:51", "distance (en metres)": 3335.74, "station": "PORTE DES LILAS#", "marker-color": "#818181"}}, {"type": "Feature", "geometry": {"type": "Point", "coordinates": [2.3689, 48.883488]}, "properties": {"numparc": 1498, "etat de la localisation": "autre", "ID BDGEO": "224", "horodatage": "2022-09-05 19:44:36", "distance (en metres)": 3052.48, "station": "PORTE DES LILAS#", "marker-color": "#818181"}}, {"type": "Feature", "geometry": {"type": "Point", "coordinates": [2.386034, 48.882481]}, "properties": {"numparc": 1559, "etat de la localisation": "autre", "ID BDGEO": "224", "horodatage": "2022-09-05 19:44:40", "distance (en metres)": 1817.54, "station": "PORTE DES LILAS#", "marker-color": "#818181"}}, {"type": "Feature", "geometry": {"type": "Point", "coordinates": [2.370795, 48.88282]}, "properties": {"numparc": 1498, "etat de la localisation": "autre", "ID BDGEO": "224", "horodatage": "2022-09-05 19:46:34", "distance (en metres)": 2900.68, "station": "PORTE DES LILAS#", "marker-color": "#818181"}}, {"type": "Feature", "geometry": {"type": "Point", "coordinates": [2.389637, 48.879326]}, "properties": {"numparc": 1559, "etat de la localisation": "autre", "ID BDGEO": "224", "horodatage": "2022-09-05 19:46:46", "distance (en metres)": 1473.01, "station": "PORTE DES LILAS#", "marker-color": "#818181"}}, {"type": "Feature", "geometry": {"type": "Point", "coordinates": [2.375075, 48.882786]}, "properties": {"numparc": 1498, "etat de la localisation": "autre", "ID BDGEO": "224", "horodatage": "2022-09-05 19:48:12", "distance (en metres)": 2595.39, "station": "PORTE DES LILAS#", "marker-color": "#818181"}}, {"type": "Feature", "geometry": {"type": "Point", "coordinates": [2.392527, 48.876999]}, "properties": {"numparc": 1559, "etat de la localisation": "autre", "ID BDGEO": "224", "horodatage": "2022-09-05 19:48:26", "distance (en metres)": 1240.04, "station": "PORTE DES LILAS#", "marker-color": "#818181"}}, {"type": "Feature", "geometry": {"type": "Point", "coordinates": [2.396183, 48.877995]}, "properties": {"numparc": 1559, "etat de la localisation": "autre", "ID BDGEO": "224", "horodatage": "2022-09-05 19:50:50", "distance (en metres)": 978.16, "station": "PORTE DES LILAS#", "marker-color": "#818181"}}, {"type": "Feature", "geometry": {"type": "Point", "coordinates": [2.382628, 48.882381]}, "properties": {"numparc": 1498, "etat de la localisation": "autre", "ID BDGEO": "224", "horodatage": "2022-09-05 19:51:08", "distance (en metres)": 2050.98, "station": "PORTE DES LILAS#", "marker-color": "#818181"}}, {"type": "Feature", "geometry": {"type": "Point", "coordinates": [2.398492, 48.87915]}, "properties": {"numparc": 1559, "etat de la localisation": "autre", "ID BDGEO": "224", "horodatage": "2022-09-05 19:52:35", "distance (en metres)": 836.65, "station": "PORTE DES LILAS#", "marker-color": "#818181"}}, {"type": "Feature", "geometry": {"type": "Point", "coordinates": [2.386084, 48.882511]}, "properties": {"numparc": 1498, "etat de la localisation": "autre", "ID BDGEO": "224", "horodatage": "2022-09-05 19:52:50", "distance (en metres)": 1815.22, "station": "PORTE DES LILAS#", "marker-color": "#818181"}}, {"type": "Feature", "geometry": {"type": "Point", "coordinates": [2.386084, 48.882511]}, "properties": {"numparc": 1498, "etat de la localisation": "autre", "ID BDGEO": "224", "horodatage": "2022-09-05 19:52:55", "distance (en metres)": 1815.22, "station": "PORTE DES LILAS#", "marker-color": "#818181"}}, {"type": "Feature", "geometry": {"type": "Point", "coordinates": [2.399036, 48.879936]}, "properties": {"numparc": 1559, "etat de la localisation": "autre", "ID BDGEO": "224", "horodatage": "2022-09-05 19:53:38", "distance (en metres)": 828.15, "station": "PORTE DES LILAS#", "marker-color": "#818181"}}, {"type": "Feature", "geometry": {"type": "Point", "coordinates": [2.389847, 48.879276]}, "properties": {"numparc": 1498, "etat de la localisation": "autre", "ID BDGEO": "224", "horodatage": "2022-09-05 19:54:51", "distance (en metres)": 1456.94, "station": "PORTE DES LILAS#", "marker-color": "#818181"}}, {"type": "Feature", "geometry": {"type": "Point", "coordinates": [2.389847, 48.879276]}, "properties": {"numparc": 1498, "etat de la localisation": "autre", "ID BDGEO": "224", "horodatage": "2022-09-05 19:55:01", "distance (en metres)": 1456.94, "station": "PORTE DES LILAS#", "marker-color": "#818181"}}, {"type": "Feature", "geometry": {"type": "Point", "coordinates": [2.401022, 48.879337]}, "properties": {"numparc": 1559, "etat de la localisation": "autre", "ID BDGEO": "224", "horodatage": "2022-09-05 19:55:38", "distance (en metres)": 668.49, "station": "PORTE DES LILAS#", "marker-color": "#818181"}}, {"type": "Feature", "geometry": {"type": "Point", "coordinates": [2.39268, 48.876934]}, "properties": {"numparc": 1498, "etat de la localisation": "autre", "ID BDGEO": "224", "horodatage": "2022-09-05 19:56:12", "distance (en metres)": 1228.93, "station": "PORTE DES LILAS#", "marker-color": "#818181"}}, {"type": "Feature", "geometry": {"type": "Point", "coordinates": [2.39619, 48.877979]}, "properties": {"numparc": 1498, "etat de la localisation": "autre", "ID BDGEO": "224", "horodatage": "2022-09-05 19:57:44", "distance (en metres)": 977.48, "station": "PORTE DES LILAS#", "marker-color": "#818181"}}, {"type": "Feature", "geometry": {"type": "Point", "coordinates": [2.403048, 48.881691]}, "properties": {"numparc": 1559, "etat de la localisation": "autre", "ID BDGEO": "224", "horodatage": "2022-09-05 19:58:18", "distance (en metres)": 697.41, "station": "PORTE DES LILAS#", "marker-color": "#818181"}}, {"type": "Feature", "geometry": {"type": "Point", "coordinates": [2.398512, 48.879124]}, "properties": {"numparc": 1498, "etat de la localisation": "autre", "ID BDGEO": "224", "horodatage": "2022-09-05 19:58:28", "distance (en metres)": 834.44, "station": "PORTE DES LILAS#", "marker-color": "#818181"}}, {"type": "Feature", "geometry": {"type": "Point", "coordinates": [2.407718, 48.880295]}, "properties": {"numparc": 1559, "etat de la localisation": "autre", "ID BDGEO": "224", "horodatage": "2022-09-05 19:59:33", "distance (en metres)": 381.94, "station": "PORTE DES LILAS#", "marker-color": "#818181"}}, {"type": "Feature", "geometry": {"type": "Point", "coordinates": [2.399053, 48.879955]}, "properties": {"numparc": 1498, "etat de la localisation": "autre", "ID BDGEO": "224", "horodatage": "2022-09-05 19:59:59", "distance (en metres)": 827.82, "station": "PORTE DES LILAS#", "marker-color": "#818181"}}, {"type": "Feature", "geometry": {"type": "Point", "coordinates": [2.408977, 48.878632]}, "properties": {"numparc": 1559, "etat de la localisation": "autre", "ID BDGEO": "224", "horodatage": "2022-09-05 20:01:56", "distance (en metres)": 178.4, "station": "PORTE DES LILAS#", "marker-color": "#818181"}}, {"type": "Feature", "geometry": {"type": "Point", "coordinates": [2.401685, 48.879513]}, "properties": {"numparc": 1498, "etat de la localisation": "autre", "ID BDGEO": "224", "horodatage": "2022-09-05 20:02:39", "distance (en metres)": 632.04, "station": "PORTE DES LILAS#", "marker-color": "#818181"}}, {"type": "Feature", "geometry": {"type": "Point", "coordinates": [2.408682, 48.87746]}, "properties": {"numparc": 1559, "etat de la localisation": "autre", "ID BDGEO": "58", "horodatage": "2022-09-05 20:04:11", "distance (en metres)": 75.59, "station": "PORTE DES LILAS", "marker-color": "#818181"}}, {"type": "Feature", "geometry": {"type": "Point", "coordinates": [2.409093, 48.878529]}, "properties": {"numparc": 1498, "etat de la localisation": "autre", "ID BDGEO": "224", "horodatage": "2022-09-05 20:05:54", "distance (en metres)": 165.55, "station": "PORTE DES LILAS#", "marker-color": "#818181"}}, {"type": "Feature", "geometry": {"type": "Point", "coordinates": [2.357908, 48.880989]}, "properties": {"numparc": 1547, "etat de la localisation": "autre", "ID BDGEO": "224", "horodatage": "2022-09-05 20:06:43", "distance (en metres)": 3796.77, "station": "PORTE DES LILAS#", "marker-color": "#818181"}}, {"type": "Feature", "geometry": {"type": "Point", "coordinates": [2.357347, 48.880901]}, "properties": {"numparc": 1547, "etat de la localisation": "autre", "ID BDGEO": "224", "horodatage": "2022-09-05 20:08:57", "distance (en metres)": 3836.43, "station": "PORTE DES LILAS#", "marker-color": "#818181"}}, {"type": "Feature", "geometry": {"type": "Point", "coordinates": [2.357347, 48.880901]}, "properties": {"numparc": 1547, "etat de la localisation": "autre", "ID BDGEO": "224", "horodatage": "2022-09-05 20:12:31", "distance (en metres)": 3836.43, "station": "PORTE DES LILAS#", "marker-color": "#818181"}}, {"type": "Feature", "geometry": {"type": "Point", "coordinates": [2.427261, 48.87883]}, "properties": {"numparc": 1498, "etat de la localisation": "autre", "ID BDGEO": "221", "horodatage": "2022-09-05 20:14:25", "distance (en metres)": 3550.72, "station": "LAGNY SORTIE", "marker-color": "#818181"}}, {"type": "Feature", "geometry": {"type": "Point", "coordinates": [2.357873, 48.880871]}, "properties": {"numparc": 1547, "etat de la localisation": "autre", "ID BDGEO": "224", "horodatage": "2022-09-05 20:15:58", "distance (en metres)": 3797.83, "station": "PORTE DES LILAS#", "marker-color": "#818181"}}, {"type": "Feature", "geometry": {"type": "Point", "coordinates": [2.358299, 48.881828]}, "properties": {"numparc": 1547, "etat de la localisation": "autre", "ID BDGEO": "224", "horodatage": "2022-09-05 20:17:23", "distance (en metres)": 3780.29, "station": "PORTE DES LILAS#", "marker-color": "#818181"}}, {"type": "Feature", "geometry": {"type": "Point", "coordinates": [2.359186, 48.883839]}, "properties": {"numparc": 1547, "etat de la localisation": "autre", "ID BDGEO": "224", "horodatage": "2022-09-05 20:18:38", "distance (en metres)": 3754.42, "station": "PORTE DES LILAS#", "marker-color": "#818181"}}, {"type": "Feature", "geometry": {"type": "Point", "coordinates": [2.3617, 48.884266]}, "properties": {"numparc": 1547, "etat de la localisation": "autre", "ID BDGEO": "224", "horodatage": "2022-09-05 20:19:52", "distance (en metres)": 3584.8, "station": "PORTE DES LILAS#", "marker-color": "#818181"}}, {"type": "Feature", "geometry": {"type": "Point", "coordinates": [2.365107, 48.884171]}, "properties": {"numparc": 1547, "etat de la localisation": "autre", "ID BDGEO": "224", "horodatage": "2022-09-05 20:20:56", "distance (en metres)": 3339.91, "station": "PORTE DES LILAS#", "marker-color": "#818181"}}, {"type": "Feature", "geometry": {"type": "Point", "coordinates": [2.368827, 48.883434]}, "properties": {"numparc": 1547, "etat de la localisation": "autre", "ID BDGEO": "224", "horodatage": "2022-09-05 20:22:17", "distance (en metres)": 3056.29, "station": "PORTE DES LILAS#", "marker-color": "#818181"}}, {"type": "Feature", "geometry": {"type": "Point", "coordinates": [2.3708, 48.882847]}, "properties": {"numparc": 1547, "etat de la localisation": "autre", "ID BDGEO": "224", "horodatage": "2022-09-05 20:24:20", "distance (en metres)": 2900.98, "station": "PORTE DES LILAS#", "marker-color": "#818181"}}, {"type": "Feature", "geometry": {"type": "Point", "coordinates": [2.374991, 48.882706]}, "properties": {"numparc": 1547, "etat de la localisation": "autre", "ID BDGEO": "224", "horodatage": "2022-09-05 20:25:54", "distance (en metres)": 2599.19, "station": "PORTE DES LILAS#", "marker-color": "#818181"}}, {"type": "Feature", "geometry": {"type": "Point", "coordinates": [2.382575, 48.882366]}, "properties": {"numparc": 1547, "etat de la localisation": "autre", "ID BDGEO": "224", "horodatage": "2022-09-05 20:29:42", "distance (en metres)": 2054.2, "station": "PORTE DES LILAS#", "marker-color": "#818181"}}, {"type": "Feature", "geometry": {"type": "Point", "coordinates": [2.386087, 48.882496]}, "properties": {"numparc": 1547, "etat de la localisation": "autre", "ID BDGEO": "224", "horodatage": "2022-09-05 20:31:25", "distance (en metres)": 1814.45, "station": "PORTE DES LILAS#", "marker-color": "#818181"}}, {"type": "Feature", "geometry": {"type": "Point", "coordinates": [2.389826, 48.879257]}, "properties": {"numparc": 1547, "etat de la localisation": "autre", "ID BDGEO": "224", "horodatage": "2022-09-05 20:33:40", "distance (en metres)": 1458.09, "station": "PORTE DES LILAS#", "marker-color": "#818181"}}, {"type": "Feature", "geometry": {"type": "Point", "coordinates": [2.392578, 48.876888]}, "properties": {"numparc": 1547, "etat de la localisation": "autre", "ID BDGEO": "224", "horodatage": "2022-09-05 20:34:59", "distance (en metres)": 1236.46, "station": "PORTE DES LILAS#", "marker-color": "#818181"}}, {"type": "Feature", "geometry": {"type": "Point", "coordinates": [2.396203, 48.877956]}, "properties": {"numparc": 1547, "etat de la localisation": "autre", "ID BDGEO": "224", "horodatage": "2022-09-05 20:37:29", "distance (en metres)": 976.26, "station": "PORTE DES LILAS#", "marker-color": "#818181"}}, {"type": "Feature", "geometry": {"type": "Point", "coordinates": [2.401017, 48.879333]}, "properties": {"numparc": 1547, "etat de la localisation": "autre", "ID BDGEO": "224", "horodatage": "2022-09-05 20:40:52", "distance (en metres)": 668.67, "station": "PORTE DES LILAS#", "marker-color": "#818181"}}, {"type": "Feature", "geometry": {"type": "Point", "coordinates": [2.40305, 48.881664]}, "properties": {"numparc": 1547, "etat de la localisation": "autre", "ID BDGEO": "224", "horodatage": "2022-09-05 20:43:37", "distance (en metres)": 695.12, "station": "PORTE DES LILAS#", "marker-color": "#818181"}}, {"type": "Feature", "geometry": {"type": "Point", "coordinates": [2.407718, 48.880264]}, "properties": {"numparc": 1547, "etat de la localisation": "autre", "ID BDGEO": "224", "horodatage": "2022-09-05 20:44:51", "distance (en metres)": 378.74, "station": "PORTE DES LILAS#", "marker-color": "#818181"}}, {"type": "Feature", "geometry": {"type": "Point", "coordinates": [2.361149, 48.884628]}, "properties": {"numparc": 1559, "etat de la localisation": "autre", "ID BDGEO": "45", "horodatage": "2022-09-05 20:47:01", "distance (en metres)": 62.93, "station": "PLACE DE LA CHAPELLE", "marker-color": "#818181"}}, {"type": "Feature", "geometry": {"type": "Point", "coordinates": [2.409035, 48.878567]}, "properties": {"numparc": 1547, "etat de la localisation": "autre", "ID BDGEO": "224", "horodatage": "2022-09-05 20:47:07", "distance (en metres)": 170.49, "station": "PORTE DES LILAS#", "marker-color": "#818181"}}, {"type": "Feature", "geometry": {"type": "Point", "coordinates": [2.357925, 48.8811]}, "properties": {"numparc": 1559, "etat de la localisation": "autre", "ID BDGEO": "224", "horodatage": "2022-09-05 20:49:53", "distance (en metres)": 3796.97, "station": "PORTE DES LILAS#", "marker-color": "#818181"}}, {"type": "Feature", "geometry": {"type": "Point", "coordinates": [2.408951, 48.877312]}, "properties": {"numparc": 1547, "etat de la localisation": "autre", "ID BDGEO": "58", "horodatage": "2022-09-05 20:50:12", "distance (en metres)": 50.35, "station": "PORTE DES LILAS", "marker-color": "#818181"}}, {"type": "Feature", "geometry": {"type": "Point", "coordinates": [2.357344, 48.880981]}, "properties": {"numparc": 1559, "etat de la localisation": "autre", "ID BDGEO": "224", "horodatage": "2022-09-05 21:04:57", "distance (en metres)": 3837.66, "station": "PORTE DES LILAS#", "marker-color": "#818181"}}, {"type": "Feature", "geometry": {"type": "Point", "coordinates": [2.357344, 48.880981]}, "properties": {"numparc": 1559, "etat de la localisation": "autre", "ID BDGEO": "224", "horodatage": "2022-09-05 21:05:24", "distance (en metres)": 3837.66, "station": "PORTE DES LILAS#", "marker-color": "#818181"}}, {"type": "Feature", "geometry": {"type": "Point", "coordinates": [2.357905, 48.880848]}, "properties": {"numparc": 1559, "etat de la localisation": "autre", "ID BDGEO": "224", "horodatage": "2022-09-05 21:10:59", "distance (en metres)": 3795.23, "station": "PORTE DES LILAS#", "marker-color": "#818181"}}, {"type": "Feature", "geometry": {"type": "Point", "coordinates": [2.358325, 48.88187]}, "properties": {"numparc": 1559, "etat de la localisation": "autre", "ID BDGEO": "224", "horodatage": "2022-09-05 21:12:12", "distance (en metres)": 3779.06, "station": "PORTE DES LILAS#", "marker-color": "#818181"}}, {"type": "Feature", "geometry": {"type": "Point", "coordinates": [2.359245, 48.883793]}, "properties": {"numparc": 1559, "etat de la localisation": "autre", "ID BDGEO": "224", "horodatage": "2022-09-05 21:13:40", "distance (en metres)": 3749.16, "station": "PORTE DES LILAS#", "marker-color": "#818181"}}, {"type": "Feature", "geometry": {"type": "Point", "coordinates": [2.36164, 48.884281]}, "properties": {"numparc": 1559, "etat de la localisation": "autre", "ID BDGEO": "224", "horodatage": "2022-09-05 21:16:09", "distance (en metres)": 3589.46, "station": "PORTE DES LILAS#", "marker-color": "#818181"}}, {"type": "Feature", "geometry": {"type": "Point", "coordinates": [2.364987, 48.88414]}, "properties": {"numparc": 1559, "etat de la localisation": "autre", "ID BDGEO": "224", "horodatage": "2022-09-05 21:17:29", "distance (en metres)": 3347.64, "station": "PORTE DES LILAS#", "marker-color": "#818181"}}, {"type": "Feature", "geometry": {"type": "Point", "coordinates": [2.368742, 48.883381]}, "properties": {"numparc": 1559, "etat de la localisation": "autre", "ID BDGEO": "224", "horodatage": "2022-09-05 21:19:10", "distance (en metres)": 3060.98, "station": "PORTE DES LILAS#", "marker-color": "#818181"}}, {"type": "Feature", "geometry": {"type": "Point", "coordinates": [2.370678, 48.882782]}, "properties": {"numparc": 1559, "etat de la localisation": "autre", "ID BDGEO": "224", "horodatage": "2022-09-05 21:21:06", "distance (en metres)": 2908.1, "station": "PORTE DES LILAS#", "marker-color": "#818181"}}, {"type": "Feature", "geometry": {"type": "Point", "coordinates": [2.374824, 48.882572]}, "properties": {"numparc": 1559, "etat de la localisation": "autre", "ID BDGEO": "224", "horodatage": "2022-09-05 21:22:44", "distance (en metres)": 2607.51, "station": "PORTE DES LILAS#", "marker-color": "#818181"}}, {"type": "Feature", "geometry": {"type": "Point", "coordinates": [2.382387, 48.882217]}, "properties": {"numparc": 1559, "etat de la localisation": "autre", "ID BDGEO": "224", "horodatage": "2022-09-05 21:26:22", "distance (en metres)": 2062.72, "station": "PORTE DES LILAS#", "marker-color": "#818181"}}, {"type": "Feature", "geometry": {"type": "Point", "coordinates": [2.386085, 48.882442]}, "properties": {"numparc": 1559, "etat de la localisation": "autre", "ID BDGEO": "224", "horodatage": "2022-09-05 21:27:46", "distance (en metres)": 1812.62, "station": "PORTE DES LILAS#", "marker-color": "#818181"}}, {"type": "Feature", "geometry": {"type": "Point", "coordinates": [2.389792, 48.879295]}, "properties": {"numparc": 1559, "etat de la localisation": "autre", "ID BDGEO": "224", "horodatage": "2022-09-05 21:29:37", "distance (en metres)": 1461.26, "station": "PORTE DES LILAS#", "marker-color": "#818181"}}, {"type": "Feature", "geometry": {"type": "Point", "coordinates": [2.392534, 48.876942]}, "properties": {"numparc": 1559, "etat de la localisation": "autre", "ID BDGEO": "224", "horodatage": "2022-09-05 21:30:53", "distance (en metres)": 1239.59, "station": "PORTE DES LILAS#", "marker-color": "#818181"}}, {"type": "Feature", "geometry": {"type": "Point", "coordinates": [2.396131, 48.877953]}, "properties": {"numparc": 1559, "etat de la localisation": "autre", "ID BDGEO": "224", "horodatage": "2022-09-05 21:33:41", "distance (en metres)": 981.46, "station": "PORTE DES LILAS#", "marker-color": "#818181"}}, {"type": "Feature", "geometry": {"type": "Point", "coordinates": [2.399025, 48.879868]}, "properties": {"numparc": 1559, "etat de la localisation": "autre", "ID BDGEO": "224", "horodatage": "2022-09-05 21:35:48", "distance (en metres)": 825.98, "station": "PORTE DES LILAS#", "marker-color": "#818181"}}, {"type": "Feature", "geometry": {"type": "Point", "coordinates": [2.401033, 48.879253]}, "properties": {"numparc": 1559, "etat de la localisation": "autre", "ID BDGEO": "224", "horodatage": "2022-09-05 21:37:54", "distance (en metres)": 664.27, "station": "PORTE DES LILAS#", "marker-color": "#818181"}}, {"type": "Feature", "geometry": {"type": "Point", "coordinates": [2.401618, 48.879433]}, "properties": {"numparc": 1559, "etat de la localisation": "autre", "ID BDGEO": "224", "horodatage": "2022-09-05 21:39:31", "distance (en metres)": 632.71, "station": "PORTE DES LILAS#", "marker-color": "#818181"}}, {"type": "Feature", "geometry": {"type": "Point", "coordinates": [2.403054, 48.881641]}, "properties": {"numparc": 1559, "etat de la localisation": "autre", "ID BDGEO": "224", "horodatage": "2022-09-05 21:40:42", "distance (en metres)": 693.06, "station": "PORTE DES LILAS#", "marker-color": "#818181"}}, {"type": "Feature", "geometry": {"type": "Point", "coordinates": [2.35795, 48.880993]}, "properties": {"numparc": 1547, "etat de la localisation": "autre", "ID BDGEO": "224", "horodatage": "2022-09-05 21:41:15", "distance (en metres)": 3793.77, "station": "PORTE DES LILAS#", "marker-color": "#818181"}}, {"type": "Feature", "geometry": {"type": "Point", "coordinates": [2.409029, 48.878586]}, "properties": {"numparc": 1559, "etat de la localisation": "autre", "ID BDGEO": "224", "horodatage": "2022-09-05 21:44:01", "distance (en metres)": 172.65, "station": "PORTE DES LILAS#", "marker-color": "#818181"}}, {"type": "Feature", "geometry": {"type": "Point", "coordinates": [2.357371, 48.880875]}, "properties": {"numparc": 1547, "etat de la localisation": "autre", "ID BDGEO": "224", "horodatage": "2022-09-05 21:44:32", "distance (en metres)": 3834.36, "station": "PORTE DES LILAS#", "marker-color": "#818181"}}, {"type": "Feature", "geometry": {"type": "Point", "coordinates": [2.357886, 48.88084]}, "properties": {"numparc": 1547, "etat de la localisation": "autre", "ID BDGEO": "224", "horodatage": "2022-09-05 22:09:29", "distance (en metres)": 3796.51, "station": "PORTE DES LILAS#", "marker-color": "#818181"}}, {"type": "Feature", "geometry": {"type": "Point", "coordinates": [2.361706, 48.884315]}, "properties": {"numparc": 1547, "etat de la localisation": "autre", "ID BDGEO": "224", "horodatage": "2022-09-05 22:12:46", "distance (en metres)": 3585.61, "station": "PORTE DES LILAS#", "marker-color": "#818181"}}, {"type": "Feature", "geometry": {"type": "Point", "coordinates": [2.365104, 48.884197]}, "properties": {"numparc": 1547, "etat de la localisation": "autre", "ID BDGEO": "224", "horodatage": "2022-09-05 22:13:56", "distance (en metres)": 3340.83, "station": "PORTE DES LILAS#", "marker-color": "#818181"}}, {"type": "Feature", "geometry": {"type": "Point", "coordinates": [2.370807, 48.882885]}, "properties": {"numparc": 1547, "etat de la localisation": "autre", "ID BDGEO": "224", "horodatage": "2022-09-05 22:17:08", "distance (en metres)": 2901.43, "station": "PORTE DES LILAS#", "marker-color": "#818181"}}, {"type": "Feature", "geometry": {"type": "Point", "coordinates": [2.375046, 48.882801]}, "properties": {"numparc": 1547, "etat de la localisation": "autre", "ID BDGEO": "224", "horodatage": "2022-09-05 22:18:54", "distance (en metres)": 2597.87, "station": "PORTE DES LILAS#", "marker-color": "#818181"}}, {"type": "Feature", "geometry": {"type": "Point", "coordinates": [2.382562, 48.882408]}, "properties": {"numparc": 1547, "etat de la localisation": "autre", "ID BDGEO": "224", "horodatage": "2022-09-05 22:22:15", "distance (en metres)": 2056.46, "station": "PORTE DES LILAS#", "marker-color": "#818181"}}, {"type": "Feature", "geometry": {"type": "Point", "coordinates": [2.400333, 48.878605]}, "properties": {"numparc": 1559, "etat de la localisation": "autre", "ID BDGEO": "35", "horodatage": "2022-09-05 22:22:26", "distance (en metres)": 69.65, "station": "RUE DES BOIS", "marker-color": "#818181"}}, {"type": "Feature", "geometry": {"type": "Point", "coordinates": [2.386082, 48.882523]}, "properties": {"numparc": 1547, "etat de la localisation": "autre", "ID BDGEO": "224", "horodatage": "2022-09-05 22:23:54", "distance (en metres)": 1815.79, "station": "PORTE DES LILAS#", "marker-color": "#818181"}}, {"type": "Feature", "geometry": {"type": "Point", "coordinates": [2.389784, 48.879272]}, "properties": {"numparc": 1547, "etat de la localisation": "autre", "ID BDGEO": "224", "horodatage": "2022-09-05 22:25:26", "distance (en metres)": 1461.4, "station": "PORTE DES LILAS#", "marker-color": "#818181"}}, {"type": "Feature", "geometry": {"type": "Point", "coordinates": [2.398482, 48.879185]}, "properties": {"numparc": 1547, "etat de la localisation": "autre", "ID BDGEO": "224", "horodatage": "2022-09-05 22:29:16", "distance (en metres)": 838.42, "station": "PORTE DES LILAS#", "marker-color": "#818181"}}, {"type": "Feature", "geometry": {"type": "Point", "coordinates": [2.399056, 48.879936]}, "properties": {"numparc": 1547, "etat de la localisation": "autre", "ID BDGEO": "224", "horodatage": "2022-09-05 22:30:56", "distance (en metres)": 826.8, "station": "PORTE DES LILAS#", "marker-color": "#818181"}}, {"type": "Feature", "geometry": {"type": "Point", "coordinates": [2.401039, 48.879326]}, "properties": {"numparc": 1547, "etat de la localisation": "autre", "ID BDGEO": "224", "horodatage": "2022-09-05 22:32:32", "distance (en metres)": 666.87, "station": "PORTE DES LILAS#", "marker-color": "#818181"}}, {"type": "Feature", "geometry": {"type": "Point", "coordinates": [2.361229, 48.884579]}, "properties": {"numparc": 1559, "etat de la localisation": "autre", "ID BDGEO": "45", "horodatage": "2022-09-05 22:38:37", "distance (en metres)": 68.15, "station": "PLACE DE LA CHAPELLE", "marker-color": "#818181"}}, {"type": "Feature", "geometry": {"type": "Point", "coordinates": [2.409099, 48.878555]}, "properties": {"numparc": 1547, "etat de la localisation": "autre", "ID BDGEO": "224", "horodatage": "2022-09-05 22:38:41", "distance (en metres)": 168.4, "station": "PORTE DES LILAS#", "marker-color": "#818181"}}, {"type": "Feature", "geometry": {"type": "Point", "coordinates": [2.408693, 48.877499]}, "properties": {"numparc": 1547, "etat de la localisation": "autre", "ID BDGEO": "58", "horodatage": "2022-09-05 22:40:38", "distance (en metres)": 77.22, "station": "PORTE DES LILAS", "marker-color": "#818181"}}, {"type": "Feature", "geometry": {"type": "Point", "coordinates": [2.357948, 48.881107]}, "properties": {"numparc": 1559, "etat de la localisation": "autre", "ID BDGEO": "224", "horodatage": "2022-09-05 22:41:17", "distance (en metres)": 3795.4, "station": "PORTE DES LILAS#", "marker-color": "#818181"}}, {"type": "Feature", "geometry": {"type": "Point", "coordinates": [2.408893, 48.877392]}, "properties": {"numparc": 1547, "etat de la localisation": "autre", "ID BDGEO": "58", "horodatage": "2022-09-05 22:41:44", "distance (en metres)": 58.46, "station": "PORTE DES LILAS", "marker-color": "#818181"}}, {"type": "Feature", "geometry": {"type": "Point", "coordinates": [2.357386, 48.881054]}, "properties": {"numparc": 1559, "etat de la localisation": "autre", "ID BDGEO": "224", "horodatage": "2022-09-05 22:43:48", "distance (en metres)": 3835.51, "station": "PORTE DES LILAS#", "marker-color": "#818181"}}, {"type": "Feature", "geometry": {"type": "Point", "coordinates": [2.357364, 48.880932]}, "properties": {"numparc": 1559, "etat de la localisation": "autre", "ID BDGEO": "224", "horodatage": "2022-09-05 22:53:02", "distance (en metres)": 3835.58, "station": "PORTE DES LILAS#", "marker-color": "#818181"}}, {"type": "Feature", "geometry": {"type": "Point", "coordinates": [2.357364, 48.880932]}, "properties": {"numparc": 1559, "etat de la localisation": "autre", "ID BDGEO": "224", "horodatage": "2022-09-05 22:55:08", "distance (en metres)": 3835.58, "station": "PORTE DES LILAS#", "marker-color": "#818181"}}, {"type": "Feature", "geometry": {"type": "Point", "coordinates": [2.357873, 48.880833]}, "properties": {"numparc": 1559, "etat de la localisation": "Delocalise", "ID BDGEO": "224", "horodatage": "2022-09-05 23:11:00", "distance (en metres)": 3797.36, "station": "PORTE DES LILAS#", "marker-color": "#FF565E"}}, {"type": "Feature", "geometry": {"type": "Point", "coordinates": [2.370728, 48.882877]}, "properties": {"numparc": 1559, "etat de la localisation": "autre", "ID BDGEO": "224", "horodatage": "2022-09-05 23:16:02", "distance (en metres)": 2906.86, "station": "PORTE DES LILAS#", "marker-color": "#818181"}}, {"type": "Feature", "geometry": {"type": "Point", "coordinates": [2.382547, 48.882416]}, "properties": {"numparc": 1559, "etat de la localisation": "autre", "ID BDGEO": "224", "horodatage": "2022-09-05 23:20:19", "distance (en metres)": 2057.76, "station": "PORTE DES LILAS#", "marker-color": "#818181"}}, {"type": "Feature", "geometry": {"type": "Point", "coordinates": [2.386088, 48.882523]}, "properties": {"numparc": 1559, "etat de la localisation": "autre", "ID BDGEO": "224", "horodatage": "2022-09-05 23:21:39", "distance (en metres)": 1815.38, "station": "PORTE DES LILAS#", "marker-color": "#818181"}}, {"type": "Feature", "geometry": {"type": "Point", "coordinates": [2.392477, 48.876755]}, "properties": {"numparc": 1559, "etat de la localisation": "autre", "ID BDGEO": "224", "horodatage": "2022-09-05 23:23:28", "distance (en metres)": 1244.15, "station": "PORTE DES LILAS#", "marker-color": "#818181"}}, {"type": "Feature", "geometry": {"type": "Point", "coordinates": [2.396173, 48.878025]}, "properties": {"numparc": 1559, "etat de la localisation": "autre", "ID BDGEO": "224", "horodatage": "2022-09-05 23:25:34", "distance (en metres)": 979.26, "station": "PORTE DES LILAS#", "marker-color": "#818181"}}, {"type": "Feature", "geometry": {"type": "Point", "coordinates": [2.398486, 48.879169]}, "properties": {"numparc": 1559, "etat de la localisation": "autre", "ID BDGEO": "224", "horodatage": "2022-09-05 23:26:17", "distance (en metres)": 837.67, "station": "PORTE DES LILAS#", "marker-color": "#818181"}}, {"type": "Feature", "geometry": {"type": "Point", "coordinates": [2.399105, 48.879921]}, "properties": {"numparc": 1559, "etat de la localisation": "autre", "ID BDGEO": "224", "horodatage": "2022-09-05 23:27:00", "distance (en metres)": 822.83, "station": "PORTE DES LILAS#", "marker-color": "#818181"}}, {"type": "Feature", "geometry": {"type": "Point", "coordinates": [2.401081, 48.879299]}, "properties": {"numparc": 1559, "etat de la localisation": "autre", "ID BDGEO": "224", "horodatage": "2022-09-05 23:28:27", "distance (en metres)": 662.89, "station": "PORTE DES LILAS#", "marker-color": "#818181"}}, {"type": "Feature", "geometry": {"type": "Point", "coordinates": [2.401646, 48.879524]}, "properties": {"numparc": 1559, "etat de la localisation": "autre", "ID BDGEO": "224", "horodatage": "2022-09-05 23:29:54", "distance (en metres)": 635.17, "station": "PORTE DES LILAS#", "marker-color": "#818181"}}, {"type": "Feature", "geometry": {"type": "Point", "coordinates": [2.403043, 48.881699]}, "properties": {"numparc": 1559, "etat de la localisation": "autre", "ID BDGEO": "224", "horodatage": "2022-09-05 23:30:51", "distance (en metres)": 698.28, "station": "PORTE DES LILAS#", "marker-color": "#818181"}}, {"type": "Feature", "geometry": {"type": "Point", "coordinates": [2.407871, 48.880295]}, "properties": {"numparc": 1559, "etat de la localisation": "autre", "ID BDGEO": "224", "horodatage": "2022-09-05 23:31:49", "distance (en metres)": 378.3, "station": "PORTE DES LILAS#", "marker-color": "#818181"}}, {"type": "Feature", "geometry": {"type": "Point", "coordinates": [2.408828, 48.877331]}, "properties": {"numparc": 1559, "etat de la localisation": "autre", "ID BDGEO": "58", "horodatage": "2022-09-05 23:35:31", "distance (en metres)": 59.37, "station": "PORTE DES LILAS", "marker-color": "#818181"}}, {"type": "Feature", "geometry": {"type": "Point", "coordinates": [2.357934, 48.881004]}, "properties": {"numparc": 1547, "etat de la localisation": "autre", "ID BDGEO": "224", "horodatage": "2022-09-05 23:39:08", "distance (en metres)": 3795.08, "station": "PORTE DES LILAS#", "marker-color": "#818181"}}, {"type": "Feature", "geometry": {"type": "Point", "coordinates": [2.357383, 48.881069]}, "properties": {"numparc": 1547, "etat de la localisation": "autre", "ID BDGEO": "224", "horodatage": "2022-09-05 23:40:39", "distance (en metres)": 3835.94, "station": "PORTE DES LILAS#", "marker-color": "#818181"}}, {"type": "Feature", "geometry": {"type": "Point", "coordinates": [2.357898, 48.880852]}, "properties": {"numparc": 1547, "etat de la localisation": "autre", "ID BDGEO": "224", "horodatage": "2022-09-06 00:09:29", "distance (en metres)": 3795.78, "station": "PORTE DES LILAS#", "marker-color": "#818181"}}, {"type": "Feature", "geometry": {"type": "Point", "coordinates": [2.359195, 48.883736]}, "properties": {"numparc": 1547, "etat de la localisation": "autre", "ID BDGEO": "224", "horodatage": "2022-09-06 00:11:20", "distance (en metres)": 3751.49, "station": "PORTE DES LILAS#", "marker-color": "#818181"}}, {"type": "Feature", "geometry": {"type": "Point", "coordinates": [2.361727, 48.884232]}, "properties": {"numparc": 1547, "etat de la localisation": "autre", "ID BDGEO": "224", "horodatage": "2022-09-06 00:12:43", "distance (en metres)": 3582.03, "station": "PORTE DES LILAS#", "marker-color": "#818181"}}, {"type": "Feature", "geometry": {"type": "Point", "coordinates": [2.365082, 48.884109]}, "properties": {"numparc": 1547, "etat de la localisation": "autre", "ID BDGEO": "224", "horodatage": "2022-09-06 00:13:52", "distance (en metres)": 3340.09, "station": "PORTE DES LILAS#", "marker-color": "#818181"}}, {"type": "Feature", "geometry": {"type": "Point", "coordinates": [2.368801, 48.883392]}, "properties": {"numparc": 1547, "etat de la localisation": "autre", "ID BDGEO": "224", "horodatage": "2022-09-06 00:14:55", "distance (en metres)": 3057.06, "station": "PORTE DES LILAS#", "marker-color": "#818181"}}, {"type": "Feature", "geometry": {"type": "Point", "coordinates": [2.370761, 48.882801]}, "properties": {"numparc": 1547, "etat de la localisation": "autre", "ID BDGEO": "224", "horodatage": "2022-09-06 00:16:03", "distance (en metres)": 2902.64, "station": "PORTE DES LILAS#", "marker-color": "#818181"}}, {"type": "Feature", "geometry": {"type": "Point", "coordinates": [2.386085, 48.882504]}, "properties": {"numparc": 1547, "etat de la localisation": "autre", "ID BDGEO": "224", "horodatage": "2022-09-06 00:21:07", "distance (en metres)": 1814.87, "station": "PORTE DES LILAS#", "marker-color": "#818181"}}, {"type": "Feature", "geometry": {"type": "Point", "coordinates": [2.427251, 48.878757]}, "properties": {"numparc": 1547, "etat de la localisation": "autre", "ID BDGEO": "179", "horodatage": "2022-09-06 00:39:44", "distance (en metres)": 1339.0, "station": "RENE FONCK", "marker-color": "#818181"}}, {"type": "Feature", "geometry": {"type": "Point", "coordinates": [2.426688, 48.878857]}, "properties": {"numparc": 1547, "etat de la localisation": "autre", "ID BDGEO": "179", "horodatage": "2022-09-06 00:46:49", "distance (en metres)": 1297.86, "station": "RENE FONCK", "marker-color": "#818181"}}, {"type": "Feature", "geometry": {"type": "Point", "coordinates": [2.426758, 48.878838]}, "properties": {"numparc": 1547, "etat de la localisation": "autre", "ID BDGEO": "179", "horodatage": "2022-09-06 00:49:22", "distance (en metres)": 1302.97, "station": "RENE FONCK", "marker-color": "#818181"}}, {"type": "Feature", "geometry": {"type": "Point", "coordinates": [2.427438, 48.878738]}, "properties": {"numparc": 1559, "etat de la localisation": "autre", "ID BDGEO": "58", "horodatage": "2022-09-06 00:57:56", "distance (en metres)": 1319.56, "station": "PORTE DES LILAS", "marker-color": "#818181"}}, {"type": "Feature", "geometry": {"type": "Point", "coordinates": [2.360299, 48.884541]}, "properties": {"station": "PLACE DE LA CHAPELLE", "ID BDGEO": "45", "marker-color": "#56B3FF"}}, {"type": "Feature", "geometry": {"type": "Point", "coordinates": [2.409483, 48.877062]}, "properties": {"station": "PORTE DES LILAS#", "ID BDGEO": "224", "marker-color": "#56B3FF"}}, {"type": "Feature", "geometry": {"type": "Point", "coordinates": [2.406817, 48.849868]}, "properties": {"station": "LAGNY SORTIE", "ID BDGEO": "221", "marker-color": "#56B3FF"}}, {"type": "Feature", "geometry": {"type": "Point", "coordinates": [2.409565, 48.877107]}, "properties": {"station": "PORTE DES LILAS", "ID BDGEO": "58", "marker-color": "#56B3FF"}}, {"type": "Feature", "geometry": {"type": "Point", "coordinates": [2.399429, 48.878407]}, "properties": {"station": "RUE DES BOIS", "ID BDGEO": "35", "marker-color": "#56B3FF"}}, {"type": "Feature", "geometry": {"type": "Point", "coordinates": [2.408941, 48.87877]}, "properties": {"station": "RENE FONCK", "ID BDGEO": "179", "marker-color": "#56B3FF"}}]}