{"type": "FeatureCollection", "features": [{"type": "Feature", "geometry": {"type": "Point", "coordinates": [2.326941, 48.856628]}, "properties": {"alarme": "VEHICULE DELOCALISE", "numparc": 1476, "type": "EXPLOITATION", "duree": "00:08:11", "horodatage": "2022-08-01 07:09:23", "statut": "start", "marker-color": "#ff0000"}}, {"type": "Feature", "geometry": {"type": "Point", "coordinates": [2.279525, 48.895683]}, "properties": {"alarme": "VEHICULE DELOCALISE", "numparc": 1389, "type": "EXPLOITATION", "duree": "00:08:00", "horodatage": "2022-08-01 11:21:43", "statut": "start", "marker-color": "#ff0000"}}, {"type": "Feature", "geometry": {"type": "Point", "coordinates": [2.328551, 48.822666]}, "properties": {"alarme": "VEHICULE DELOCALISE", "numparc": 1478, "type": "EXPLOITATION", "duree": "00:15:04", "horodatage": "2022-08-01 11:22:11", "statut": "start", "marker-color": "#ff0000"}}, {"type": "Feature", "geometry": {"type": "Point", "coordinates": [2.323678, 48.86031]}, "properties": {"alarme": "VEHICULE DELOCALISE", "numparc": 1453, "type": "EXPLOITATION", "duree": "00:06:59", "horodatage": "2022-08-01 11:30:27", "statut": "start", "marker-color": "#ff0000"}}, {"type": "Feature", "geometry": {"type": "Point", "coordinates": [2.301564, 48.891705]}, "properties": {"alarme": "VEHICULE DELOCALISE", "numparc": 1453, "type": "EXPLOITATION", "duree": "00:01:02", "horodatage": "2022-08-01 18:49:29", "statut": "start", "marker-color": "#ff0000"}}, {"type": "Feature", "geometry": {"type": "Point", "coordinates": [2.32978, 48.82275]}, "properties": {"alarme": "DEFAUT LIAISON DATA SAEIV / AIGLE", "numparc": 1475, "type": "TECHNIQUE", "duree": "00:00:58", "horodatage": "2022-08-01 19:01:13", "statut": "start", "marker-color": "#ff0000"}}, {"type": "Feature", "geometry": {"type": "Point", "coordinates": [2.292309, 48.892979]}, "properties": {"alarme": "VEHICULE DELOCALISE", "numparc": 1476, "type": "EXPLOITATION", "duree": "00:00:11", "horodatage": "2022-08-01 19:23:41", "statut": "start", "marker-color": "#ff0000"}}, {"type": "Feature", "geometry": {"type": "Point", "coordinates": [2.326646, 48.873016]}, "properties": {"alarme": "VEHICULE DELOCALISE", "numparc": 1476, "type": "EXPLOITATION", "duree": "00:08:11", "horodatage": "2022-08-01 07:17:34", "statut": "end", "marker-color": "#2fe184"}}, {"type": "Feature", "geometry": {"type": "Point", "coordinates": [2.288499, 48.895493]}, "properties": {"alarme": "VEHICULE DELOCALISE", "numparc": 1389, "type": "EXPLOITATION", "duree": "00:08:00", "horodatage": "2022-08-01 11:29:43", "statut": "end", "marker-color": "#2fe184"}}, {"type": "Feature", "geometry": {"type": "Point", "coordinates": [2.32018, 48.841782]}, "properties": {"alarme": "VEHICULE DELOCALISE", "numparc": 1478, "type": "EXPLOITATION", "duree": "00:15:04", "horodatage": "2022-08-01 11:37:15", "statut": "end", "marker-color": "#2fe184"}}, {"type": "Feature", "geometry": {"type": "Point", "coordinates": [2.325347, 48.870045]}, "properties": {"alarme": "VEHICULE DELOCALISE", "numparc": 1453, "type": "EXPLOITATION", "duree": "00:06:59", "horodatage": "2022-08-01 11:37:26", "statut": "end", "marker-color": "#2fe184"}}, {"type": "Feature", "geometry": {"type": "Point", "coordinates": [2.302355, 48.891106]}, "properties": {"alarme": "VEHICULE DELOCALISE", "numparc": 1453, "type": "EXPLOITATION", "duree": "00:01:02", "horodatage": "2022-08-01 18:50:31", "statut": "end", "marker-color": "#2fe184"}}, {"type": "Feature", "geometry": {"type": "Point", "coordinates": [2.328249, 48.823658]}, "properties": {"alarme": "DEFAUT LIAISON DATA SAEIV / AIGLE", "numparc": 1475, "type": "TECHNIQUE", "duree": "00:00:58", "horodatage": "2022-08-01 19:02:11", "statut": "end", "marker-color": "#2fe184"}}, {"type": "Feature", "geometry": {"type": "Point", "coordinates": [2.292334, 48.892986]}, "properties": {"alarme": "VEHICULE DELOCALISE", "numparc": 1476, "type": "EXPLOITATION", "duree": "00:00:11", "horodatage": "2022-08-01 19:23:52", "statut": "end", "marker-color": "#2fe184"}}]}