{"type": "FeatureCollection", "features": [{"type": "Feature", "geometry": {"type": "Point", "coordinates": [2.300522, 48.877464]}, "properties": {"alarme": "VEHICULE DELOCALISE", "numparc": 5681, "type": "EXPLOITATION", "duree": "00:00:46", "horodatage": "2022-07-28 07:57:32", "statut": "start", "marker-color": "#ff0000"}}, {"type": "Feature", "geometry": {"type": "Point", "coordinates": [2.300023, 48.880058]}, "properties": {"alarme": "VEHICULE DELOCALISE", "numparc": 5680, "type": "EXPLOITATION", "duree": "00:00:35", "horodatage": "2022-07-28 12:45:40", "statut": "start", "marker-color": "#ff0000"}}, {"type": "Feature", "geometry": {"type": "Point", "coordinates": [2.35782, 48.876179]}, "properties": {"alarme": "VEHICULE DELOCALISE", "numparc": 5680, "type": "EXPLOITATION", "duree": "00:00:34", "horodatage": "2022-07-28 19:43:11", "statut": "start", "marker-color": "#ff0000"}}, {"type": "Feature", "geometry": {"type": "Point", "coordinates": [2.348429, 48.892929]}, "properties": {"alarme": "VEHICULE DELOCALISE", "numparc": 5683, "type": "EXPLOITATION", "duree": "00:09:23", "horodatage": "2022-07-28 20:41:57", "statut": "start", "marker-color": "#ff0000"}}, {"type": "Feature", "geometry": {"type": "Point", "coordinates": [2.357559, 48.876278]}, "properties": {"alarme": "VEHICULE DELOCALISE", "numparc": 5680, "type": "EXPLOITATION", "duree": "00:00:24", "horodatage": "2022-07-29 00:20:47", "statut": "start", "marker-color": "#ff0000"}}, {"type": "Feature", "geometry": {"type": "Point", "coordinates": [2.301757, 48.882153]}, "properties": {"alarme": "VEHICULE DELOCALISE", "numparc": 5680, "type": "EXPLOITATION", "duree": "00:00:36", "horodatage": "2022-07-29 01:07:35", "statut": "start", "marker-color": "#ff0000"}}, {"type": "Feature", "geometry": {"type": "Point", "coordinates": [2.300896, 48.876369]}, "properties": {"alarme": "VEHICULE DELOCALISE", "numparc": 5681, "type": "EXPLOITATION", "duree": "00:00:46", "horodatage": "2022-07-28 07:58:18", "statut": "end", "marker-color": "#2fe184"}}, {"type": "Feature", "geometry": {"type": "Point", "coordinates": [2.300764, 48.881199]}, "properties": {"alarme": "VEHICULE DELOCALISE", "numparc": 5680, "type": "EXPLOITATION", "duree": "00:00:35", "horodatage": "2022-07-28 12:46:15", "statut": "end", "marker-color": "#2fe184"}}, {"type": "Feature", "geometry": {"type": "Point", "coordinates": [2.357812, 48.875801]}, "properties": {"alarme": "VEHICULE DELOCALISE", "numparc": 5680, "type": "EXPLOITATION", "duree": "00:00:34", "horodatage": "2022-07-28 19:43:45", "statut": "end", "marker-color": "#2fe184"}}, {"type": "Feature", "geometry": {"type": "Point", "coordinates": [2.34395, 48.892601]}, "properties": {"alarme": "VEHICULE DELOCALISE", "numparc": 5683, "type": "EXPLOITATION", "duree": "00:09:23", "horodatage": "2022-07-28 20:51:20", "statut": "end", "marker-color": "#2fe184"}}, {"type": "Feature", "geometry": {"type": "Point", "coordinates": [2.357878, 48.875927]}, "properties": {"alarme": "VEHICULE DELOCALISE", "numparc": 5680, "type": "EXPLOITATION", "duree": "00:00:24", "horodatage": "2022-07-29 00:21:11", "statut": "end", "marker-color": "#2fe184"}}, {"type": "Feature", "geometry": {"type": "Point", "coordinates": [2.300426, 48.881367]}, "properties": {"alarme": "VEHICULE DELOCALISE", "numparc": 5680, "type": "EXPLOITATION", "duree": "00:00:36", "horodatage": "2022-07-29 01:08:11", "statut": "end", "marker-color": "#2fe184"}}]}