{"type": "FeatureCollection", "features": [{"type": "Feature", "geometry": {"type": "Point", "coordinates": [2.427799, 48.878876]}, "properties": {"etat de la localisation": "Delocalise", "numparc": 1522, "duree": "00:15:45", "horodatage": "2022-10-09 06:56:12", "marker-color": "#FF565E"}}, {"type": "Feature", "geometry": {"type": "Point", "coordinates": [2.408518, 48.877869]}, "properties": {"etat de la localisation": "Delocalise", "numparc": 1522, "duree": "00:01:20", "horodatage": "2022-10-09 07:12:38", "marker-color": "#FF565E"}}, {"type": "Feature", "geometry": {"type": "Point", "coordinates": [2.357634, 48.880577]}, "properties": {"etat de la localisation": "Delocalise", "numparc": 1522, "duree": "00:00:52", "horodatage": "2022-10-09 07:42:27", "marker-color": "#FF565E"}}, {"type": "Feature", "geometry": {"type": "Point", "coordinates": [2.357584, 48.88052]}, "properties": {"etat de la localisation": "Delocalise", "numparc": 1522, "duree": "00:00:26", "horodatage": "2022-10-09 07:50:19", "marker-color": "#FF565E"}}, {"type": "Feature", "geometry": {"type": "Point", "coordinates": [2.357652, 48.880562]}, "properties": {"etat de la localisation": "Delocalise", "numparc": 1522, "duree": "00:00:56", "horodatage": "2022-10-09 08:40:26", "marker-color": "#FF565E"}}, {"type": "Feature", "geometry": {"type": "Point", "coordinates": [2.357345, 48.880569]}, "properties": {"etat de la localisation": "Delocalise", "numparc": 1522, "duree": "00:00:35", "horodatage": "2022-10-09 08:50:16", "marker-color": "#FF565E"}}, {"type": "Feature", "geometry": {"type": "Point", "coordinates": [2.357686, 48.880581]}, "properties": {"etat de la localisation": "Delocalise", "numparc": 1522, "duree": "00:00:59", "horodatage": "2022-10-09 09:49:43", "marker-color": "#FF565E"}}, {"type": "Feature", "geometry": {"type": "Point", "coordinates": [2.357515, 48.880558]}, "properties": {"etat de la localisation": "Delocalise", "numparc": 1522, "duree": "00:01:39", "horodatage": "2022-10-09 09:53:09", "marker-color": "#FF565E"}}, {"type": "Feature", "geometry": {"type": "Point", "coordinates": [2.361646, 48.8843]}, "properties": {"etat de la localisation": "Delocalise", "numparc": 1522, "duree": "00:00:00", "horodatage": "2022-10-09 09:55:40", "marker-color": "#FF565E"}}, {"type": "Feature", "geometry": {"type": "Point", "coordinates": [2.357637, 48.880505]}, "properties": {"etat de la localisation": "Delocalise", "numparc": 1522, "duree": "00:01:21", "horodatage": "2022-10-09 11:00:22", "marker-color": "#FF565E"}}, {"type": "Feature", "geometry": {"type": "Point", "coordinates": [2.357637, 48.880524]}, "properties": {"etat de la localisation": "Delocalise", "numparc": 1522, "duree": "00:00:06", "horodatage": "2022-10-09 11:52:56", "marker-color": "#FF565E"}}, {"type": "Feature", "geometry": {"type": "Point", "coordinates": [2.357556, 48.881176]}, "properties": {"etat de la localisation": "Hors service", "numparc": 1522, "duree": "", "horodatage": "2022-10-09 11:53:23", "marker-color": "#707070"}}, {"type": "Feature", "geometry": {"type": "Point", "coordinates": [2.408759, 48.877438]}, "properties": {"etat de la localisation": "Mission suivante non connue", "numparc": 1522, "duree": "", "horodatage": "2022-10-09 12:49:36", "marker-color": "#7156FF"}}, {"type": "Feature", "geometry": {"type": "Point", "coordinates": [2.357657, 48.880623]}, "properties": {"etat de la localisation": "Delocalise", "numparc": 1522, "duree": "00:00:47", "horodatage": "2022-10-09 13:25:04", "marker-color": "#FF565E"}}, {"type": "Feature", "geometry": {"type": "Point", "coordinates": [2.35758, 48.880493]}, "properties": {"etat de la localisation": "Delocalise", "numparc": 1522, "duree": "00:00:21", "horodatage": "2022-10-09 13:34:10", "marker-color": "#FF565E"}}, {"type": "Feature", "geometry": {"type": "Point", "coordinates": [2.357674, 48.880558]}, "properties": {"etat de la localisation": "Delocalise", "numparc": 1522, "duree": "00:01:22", "horodatage": "2022-10-09 14:56:01", "marker-color": "#FF565E"}}, {"type": "Feature", "geometry": {"type": "Point", "coordinates": [2.357659, 48.880497]}, "properties": {"etat de la localisation": "Delocalise", "numparc": 1522, "duree": "00:00:22", "horodatage": "2022-10-09 15:16:43", "marker-color": "#FF565E"}}, {"type": "Feature", "geometry": {"type": "Point", "coordinates": [2.409054, 48.877262]}, "properties": {"etat de la localisation": "Hors service", "numparc": 1522, "duree": "", "horodatage": "2022-10-09 16:01:59", "marker-color": "#707070"}}, {"type": "Feature", "geometry": {"type": "Point", "coordinates": [2.357708, 48.880604]}, "properties": {"etat de la localisation": "Delocalise", "numparc": 1522, "duree": "00:01:44", "horodatage": "2022-10-09 16:50:20", "marker-color": "#FF565E"}}, {"type": "Feature", "geometry": {"type": "Point", "coordinates": [2.357555, 48.880512]}, "properties": {"etat de la localisation": "Delocalise", "numparc": 1522, "duree": "00:00:29", "horodatage": "2022-10-09 17:08:50", "marker-color": "#FF565E"}}, {"type": "Feature", "geometry": {"type": "Point", "coordinates": [2.357743, 48.88055]}, "properties": {"etat de la localisation": "Delocalise", "numparc": 1522, "duree": "00:01:53", "horodatage": "2022-10-09 18:48:42", "marker-color": "#FF565E"}}, {"type": "Feature", "geometry": {"type": "Point", "coordinates": [2.428049, 48.878986]}, "properties": {"etat de la localisation": "Hors service", "numparc": 1522, "duree": "", "horodatage": "2022-10-09 19:32:39", "marker-color": "#707070"}}, {"type": "Feature", "geometry": {"type": "Point", "coordinates": [2.357698, 48.880539]}, "properties": {"etat de la localisation": "Delocalise", "numparc": 1536, "duree": "00:00:24", "horodatage": "2022-10-10 00:30:57", "marker-color": "#FF565E"}}, {"type": "Feature", "geometry": {"type": "Point", "coordinates": [2.427838, 48.878567]}, "properties": {"etat de la localisation": "Hors service", "numparc": 1536, "duree": "", "horodatage": "2022-10-10 01:14:12", "marker-color": "#707070"}}]}