{"type": "FeatureCollection", "features": [{"type": "Feature", "geometry": {"type": "Point", "coordinates": [2.371264, 48.814915]}, "properties": {"numparc": 5702, "etat de la localisation": "autre", "ID BDGEO": "360", "horodatage": "2022-07-18 09:26:21", "distance (en metres)": 1997.12, "station": "VAILLANT-COUTURIER-LENINE", "marker-color": "#818181"}}, {"type": "Feature", "geometry": {"type": "Point", "coordinates": [2.370615, 48.816093]}, "properties": {"numparc": 5702, "etat de la localisation": "autre", "ID BDGEO": "360", "horodatage": "2022-07-18 09:27:59", "distance (en metres)": 2026.37, "station": "VAILLANT-COUTURIER-LENINE", "marker-color": "#818181"}}, {"type": "Feature", "geometry": {"type": "Point", "coordinates": [2.371595, 48.81543]}, "properties": {"numparc": 5702, "etat de la localisation": "autre", "ID BDGEO": "360", "horodatage": "2022-07-18 09:46:37", "distance (en metres)": 1964.22, "station": "VAILLANT-COUTURIER-LENINE", "marker-color": "#818181"}}, {"type": "Feature", "geometry": {"type": "Point", "coordinates": [2.371199, 48.814964]}, "properties": {"numparc": 5702, "etat de la localisation": "autre", "ID BDGEO": "360", "horodatage": "2022-07-18 10:03:43", "distance (en metres)": 2000.89, "station": "VAILLANT-COUTURIER-LENINE", "marker-color": "#818181"}}, {"type": "Feature", "geometry": {"type": "Point", "coordinates": [2.371415, 48.815277]}, "properties": {"numparc": 5702, "etat de la localisation": "autre", "ID BDGEO": "360", "horodatage": "2022-07-18 10:28:37", "distance (en metres)": 1979.76, "station": "VAILLANT-COUTURIER-LENINE", "marker-color": "#818181"}}, {"type": "Feature", "geometry": {"type": "Point", "coordinates": [2.372071, 48.814499]}, "properties": {"numparc": 5702, "etat de la localisation": "autre", "ID BDGEO": "360", "horodatage": "2022-07-18 13:38:20", "distance (en metres)": 1947.52, "station": "VAILLANT-COUTURIER-LENINE", "marker-color": "#818181"}}, {"type": "Feature", "geometry": {"type": "Point", "coordinates": [2.367421, 48.787251]}, "properties": {"numparc": 5702, "etat de la localisation": "autre", "ID BDGEO": "1", "horodatage": "2022-07-18 13:56:48", "distance (en metres)": 3136.04, "station": "RENTREE IVRY#", "marker-color": "#818181"}}, {"type": "Feature", "geometry": {"type": "Point", "coordinates": [2.367421, 48.787251]}, "properties": {"numparc": 5702, "etat de la localisation": "autre", "ID BDGEO": "1", "horodatage": "2022-07-18 14:00:57", "distance (en metres)": 3136.04, "station": "RENTREE IVRY#", "marker-color": "#818181"}}, {"type": "Feature", "geometry": {"type": "Point", "coordinates": [2.369908, 48.78854]}, "properties": {"numparc": 5702, "etat de la localisation": "autre", "ID BDGEO": "1", "horodatage": "2022-07-18 14:04:24", "distance (en metres)": 2979.59, "station": "RENTREE IVRY#", "marker-color": "#818181"}}, {"type": "Feature", "geometry": {"type": "Point", "coordinates": [2.376023, 48.788578]}, "properties": {"numparc": 5702, "etat de la localisation": "autre", "ID BDGEO": "1", "horodatage": "2022-07-18 14:06:32", "distance (en metres)": 2988.52, "station": "RENTREE IVRY#", "marker-color": "#818181"}}, {"type": "Feature", "geometry": {"type": "Point", "coordinates": [2.380229, 48.790318]}, "properties": {"numparc": 5702, "etat de la localisation": "autre", "ID BDGEO": "1", "horodatage": "2022-07-18 14:08:32", "distance (en metres)": 2847.06, "station": "RENTREE IVRY#", "marker-color": "#818181"}}, {"type": "Feature", "geometry": {"type": "Point", "coordinates": [2.384346, 48.789402]}, "properties": {"numparc": 5702, "etat de la localisation": "autre", "ID BDGEO": "1", "horodatage": "2022-07-18 14:10:07", "distance (en metres)": 3024.33, "station": "RENTREE IVRY#", "marker-color": "#818181"}}, {"type": "Feature", "geometry": {"type": "Point", "coordinates": [2.386119, 48.787739]}, "properties": {"numparc": 5702, "etat de la localisation": "autre", "ID BDGEO": "1", "horodatage": "2022-07-18 14:11:22", "distance (en metres)": 3240.73, "station": "RENTREE IVRY#", "marker-color": "#818181"}}, {"type": "Feature", "geometry": {"type": "Point", "coordinates": [2.388552, 48.789234]}, "properties": {"numparc": 5702, "etat de la localisation": "autre", "ID BDGEO": "1", "horodatage": "2022-07-18 14:12:25", "distance (en metres)": 3149.1, "station": "RENTREE IVRY#", "marker-color": "#818181"}}, {"type": "Feature", "geometry": {"type": "Point", "coordinates": [2.393332, 48.790836]}, "properties": {"numparc": 5702, "etat de la localisation": "autre", "ID BDGEO": "462", "horodatage": "2022-07-18 14:13:39", "distance (en metres)": 3021.07, "station": "VAILLANT-COUTURIER-LENINE#", "marker-color": "#818181"}}, {"type": "Feature", "geometry": {"type": "Point", "coordinates": [2.395382, 48.792561]}, "properties": {"numparc": 5702, "etat de la localisation": "autre", "ID BDGEO": "462", "horodatage": "2022-07-18 14:14:40", "distance (en metres)": 2815.36, "station": "VAILLANT-COUTURIER-LENINE#", "marker-color": "#818181"}}, {"type": "Feature", "geometry": {"type": "Point", "coordinates": [2.397642, 48.795467]}, "properties": {"numparc": 5702, "etat de la localisation": "autre", "ID BDGEO": "462", "horodatage": "2022-07-18 14:16:36", "distance (en metres)": 2484.33, "station": "VAILLANT-COUTURIER-LENINE#", "marker-color": "#818181"}}, {"type": "Feature", "geometry": {"type": "Point", "coordinates": [2.400125, 48.798485]}, "properties": {"numparc": 5702, "etat de la localisation": "autre", "ID BDGEO": "462", "horodatage": "2022-07-18 14:18:05", "distance (en metres)": 2152.28, "station": "VAILLANT-COUTURIER-LENINE#", "marker-color": "#818181"}}, {"type": "Feature", "geometry": {"type": "Point", "coordinates": [2.401893, 48.801041]}, "properties": {"numparc": 5702, "etat de la localisation": "autre", "ID BDGEO": "462", "horodatage": "2022-07-18 14:20:21", "distance (en metres)": 1882.2, "station": "VAILLANT-COUTURIER-LENINE#", "marker-color": "#818181"}}, {"type": "Feature", "geometry": {"type": "Point", "coordinates": [2.405055, 48.804424]}, "properties": {"numparc": 5702, "etat de la localisation": "autre", "ID BDGEO": "462", "horodatage": "2022-07-18 14:22:02", "distance (en metres)": 1567.09, "station": "VAILLANT-COUTURIER-LENINE#", "marker-color": "#818181"}}, {"type": "Feature", "geometry": {"type": "Point", "coordinates": [2.404107, 48.808411]}, "properties": {"numparc": 5702, "etat de la localisation": "autre", "ID BDGEO": "462", "horodatage": "2022-07-18 14:23:11", "distance (en metres)": 1126.83, "station": "VAILLANT-COUTURIER-LENINE#", "marker-color": "#818181"}}, {"type": "Feature", "geometry": {"type": "Point", "coordinates": [2.402991, 48.811962]}, "properties": {"numparc": 5702, "etat de la localisation": "autre", "ID BDGEO": "462", "horodatage": "2022-07-18 14:25:24", "distance (en metres)": 733.67, "station": "VAILLANT-COUTURIER-LENINE#", "marker-color": "#818181"}}, {"type": "Feature", "geometry": {"type": "Point", "coordinates": [2.402318, 48.814156]}, "properties": {"numparc": 5702, "etat de la localisation": "autre", "ID BDGEO": "462", "horodatage": "2022-07-18 14:26:14", "distance (en metres)": 499.67, "station": "VAILLANT-COUTURIER-LENINE#", "marker-color": "#818181"}}, {"type": "Feature", "geometry": {"type": "Point", "coordinates": [2.402909, 48.822327]}, "properties": {"numparc": 5702, "etat de la localisation": "autre", "ID BDGEO": "462", "horodatage": "2022-07-18 14:31:04", "distance (en metres)": 604.08, "station": "VAILLANT-COUTURIER-LENINE#", "marker-color": "#818181"}}, {"type": "Feature", "geometry": {"type": "Point", "coordinates": [2.407339, 48.825672]}, "properties": {"numparc": 5702, "etat de la localisation": "autre", "ID BDGEO": "462", "horodatage": "2022-07-18 14:33:45", "distance (en metres)": 1095.33, "station": "VAILLANT-COUTURIER-LENINE#", "marker-color": "#818181"}}, {"type": "Feature", "geometry": {"type": "Point", "coordinates": [2.415427, 48.821499]}, "properties": {"numparc": 5702, "etat de la localisation": "autre", "ID BDGEO": "340", "horodatage": "2022-07-18 14:36:07", "distance (en metres)": 2784.45, "station": "GABRIEL PERI", "marker-color": "#818181"}}, {"type": "Feature", "geometry": {"type": "Point", "coordinates": [2.415427, 48.821499]}, "properties": {"numparc": 5702, "etat de la localisation": "autre", "ID BDGEO": "340", "horodatage": "2022-07-18 14:36:11", "distance (en metres)": 2784.45, "station": "GABRIEL PERI", "marker-color": "#818181"}}, {"type": "Feature", "geometry": {"type": "Point", "coordinates": [2.415427, 48.821499]}, "properties": {"numparc": 5702, "etat de la localisation": "autre", "ID BDGEO": "340", "horodatage": "2022-07-18 14:42:21", "distance (en metres)": 2784.45, "station": "GABRIEL PERI", "marker-color": "#818181"}}, {"type": "Feature", "geometry": {"type": "Point", "coordinates": [2.415517, 48.82188]}, "properties": {"numparc": 5702, "etat de la localisation": "autre", "ID BDGEO": "340", "horodatage": "2022-07-18 15:01:17", "distance (en metres)": 2825.98, "station": "GABRIEL PERI", "marker-color": "#818181"}}, {"type": "Feature", "geometry": {"type": "Point", "coordinates": [2.409853, 48.824013]}, "properties": {"numparc": 5702, "etat de la localisation": "autre", "ID BDGEO": "340", "horodatage": "2022-07-18 15:11:37", "distance (en metres)": 2917.94, "station": "GABRIEL PERI", "marker-color": "#818181"}}, {"type": "Feature", "geometry": {"type": "Point", "coordinates": [2.406353, 48.82539]}, "properties": {"numparc": 5702, "etat de la localisation": "autre", "ID BDGEO": "340", "horodatage": "2022-07-18 15:13:48", "distance (en metres)": 3018.01, "station": "GABRIEL PERI", "marker-color": "#818181"}}, {"type": "Feature", "geometry": {"type": "Point", "coordinates": [2.404305, 48.823505]}, "properties": {"numparc": 5702, "etat de la localisation": "autre", "ID BDGEO": "340", "horodatage": "2022-07-18 15:15:33", "distance (en metres)": 2790.9, "station": "GABRIEL PERI", "marker-color": "#818181"}}, {"type": "Feature", "geometry": {"type": "Point", "coordinates": [2.400124, 48.822285]}, "properties": {"numparc": 5702, "etat de la localisation": "autre", "ID BDGEO": "340", "horodatage": "2022-07-18 15:16:46", "distance (en metres)": 2638.96, "station": "GABRIEL PERI", "marker-color": "#818181"}}, {"type": "Feature", "geometry": {"type": "Point", "coordinates": [2.398437, 48.817722]}, "properties": {"numparc": 5702, "etat de la localisation": "autre", "ID BDGEO": "340", "horodatage": "2022-07-18 15:19:30", "distance (en metres)": 2135.57, "station": "GABRIEL PERI", "marker-color": "#818181"}}, {"type": "Feature", "geometry": {"type": "Point", "coordinates": [2.402283, 48.814091]}, "properties": {"numparc": 5702, "etat de la localisation": "autre", "ID BDGEO": "340", "horodatage": "2022-07-18 15:22:13", "distance (en metres)": 1734.52, "station": "GABRIEL PERI", "marker-color": "#818181"}}, {"type": "Feature", "geometry": {"type": "Point", "coordinates": [2.403168, 48.81126]}, "properties": {"numparc": 5702, "etat de la localisation": "autre", "ID BDGEO": "340", "horodatage": "2022-07-18 15:23:15", "distance (en metres)": 1429.66, "station": "GABRIEL PERI", "marker-color": "#818181"}}, {"type": "Feature", "geometry": {"type": "Point", "coordinates": [2.404223, 48.807831]}, "properties": {"numparc": 5702, "etat de la localisation": "autre", "ID BDGEO": "340", "horodatage": "2022-07-18 15:24:40", "distance (en metres)": 1072.91, "station": "GABRIEL PERI", "marker-color": "#818181"}}, {"type": "Feature", "geometry": {"type": "Point", "coordinates": [2.405103, 48.805027]}, "properties": {"numparc": 5702, "etat de la localisation": "autre", "ID BDGEO": "340", "horodatage": "2022-07-18 15:25:37", "distance (en metres)": 804.42, "station": "GABRIEL PERI", "marker-color": "#818181"}}, {"type": "Feature", "geometry": {"type": "Point", "coordinates": [2.401892, 48.800762]}, "properties": {"numparc": 5702, "etat de la localisation": "autre", "ID BDGEO": "340", "horodatage": "2022-07-18 15:27:40", "distance (en metres)": 275.09, "station": "GABRIEL PERI", "marker-color": "#818181"}}, {"type": "Feature", "geometry": {"type": "Point", "coordinates": [2.367572, 48.787495]}, "properties": {"numparc": 5702, "etat de la localisation": "autre", "ID BDGEO": "1", "horodatage": "2022-07-18 15:45:43", "distance (en metres)": 3107.92, "station": "RENTREE IVRY#", "marker-color": "#818181"}}, {"type": "Feature", "geometry": {"type": "Point", "coordinates": [2.367459, 48.78722]}, "properties": {"numparc": 5702, "etat de la localisation": "autre", "ID BDGEO": "1", "horodatage": "2022-07-18 15:47:31", "distance (en metres)": 3139.14, "station": "RENTREE IVRY#", "marker-color": "#818181"}}, {"type": "Feature", "geometry": {"type": "Point", "coordinates": [2.367459, 48.78722]}, "properties": {"numparc": 5702, "etat de la localisation": "autre", "ID BDGEO": "1", "horodatage": "2022-07-18 16:02:48", "distance (en metres)": 3139.14, "station": "RENTREE IVRY#", "marker-color": "#818181"}}, {"type": "Feature", "geometry": {"type": "Point", "coordinates": [2.370041, 48.788555]}, "properties": {"numparc": 5702, "etat de la localisation": "autre", "ID BDGEO": "1", "horodatage": "2022-07-18 16:05:41", "distance (en metres)": 2977.46, "station": "RENTREE IVRY#", "marker-color": "#818181"}}, {"type": "Feature", "geometry": {"type": "Point", "coordinates": [2.376148, 48.788601]}, "properties": {"numparc": 5702, "etat de la localisation": "autre", "ID BDGEO": "1", "horodatage": "2022-07-18 16:06:56", "distance (en metres)": 2986.96, "station": "RENTREE IVRY#", "marker-color": "#818181"}}, {"type": "Feature", "geometry": {"type": "Point", "coordinates": [2.380235, 48.790318]}, "properties": {"numparc": 5702, "etat de la localisation": "autre", "ID BDGEO": "1", "horodatage": "2022-07-18 16:08:25", "distance (en metres)": 2847.16, "station": "RENTREE IVRY#", "marker-color": "#818181"}}, {"type": "Feature", "geometry": {"type": "Point", "coordinates": [2.384351, 48.789371]}, "properties": {"numparc": 5702, "etat de la localisation": "autre", "ID BDGEO": "1", "horodatage": "2022-07-18 16:10:48", "distance (en metres)": 3027.67, "station": "RENTREE IVRY#", "marker-color": "#818181"}}, {"type": "Feature", "geometry": {"type": "Point", "coordinates": [2.386145, 48.787731]}, "properties": {"numparc": 5702, "etat de la localisation": "autre", "ID BDGEO": "1", "horodatage": "2022-07-18 16:11:51", "distance (en metres)": 3242.16, "station": "RENTREE IVRY#", "marker-color": "#818181"}}, {"type": "Feature", "geometry": {"type": "Point", "coordinates": [2.388665, 48.789188]}, "properties": {"numparc": 5702, "etat de la localisation": "autre", "ID BDGEO": "1", "horodatage": "2022-07-18 16:12:58", "distance (en metres)": 3157.02, "station": "RENTREE IVRY#", "marker-color": "#818181"}}, {"type": "Feature", "geometry": {"type": "Point", "coordinates": [2.388816, 48.789242]}, "properties": {"numparc": 5702, "etat de la localisation": "autre", "ID BDGEO": "1", "horodatage": "2022-07-18 16:14:09", "distance (en metres)": 3155.93, "station": "RENTREE IVRY#", "marker-color": "#818181"}}, {"type": "Feature", "geometry": {"type": "Point", "coordinates": [2.393361, 48.790878]}, "properties": {"numparc": 5702, "etat de la localisation": "autre", "ID BDGEO": "462", "horodatage": "2022-07-18 16:15:33", "distance (en metres)": 3016.19, "station": "VAILLANT-COUTURIER-LENINE#", "marker-color": "#818181"}}, {"type": "Feature", "geometry": {"type": "Point", "coordinates": [2.395393, 48.792629]}, "properties": {"numparc": 5702, "etat de la localisation": "autre", "ID BDGEO": "462", "horodatage": "2022-07-18 16:16:34", "distance (en metres)": 2807.69, "station": "VAILLANT-COUTURIER-LENINE#", "marker-color": "#818181"}}, {"type": "Feature", "geometry": {"type": "Point", "coordinates": [2.397617, 48.79546]}, "properties": {"numparc": 5702, "etat de la localisation": "autre", "ID BDGEO": "462", "horodatage": "2022-07-18 16:18:09", "distance (en metres)": 2485.22, "station": "VAILLANT-COUTURIER-LENINE#", "marker-color": "#818181"}}, {"type": "Feature", "geometry": {"type": "Point", "coordinates": [2.400147, 48.798489]}, "properties": {"numparc": 5702, "etat de la localisation": "autre", "ID BDGEO": "462", "horodatage": "2022-07-18 16:20:12", "distance (en metres)": 2151.96, "station": "VAILLANT-COUTURIER-LENINE#", "marker-color": "#818181"}}, {"type": "Feature", "geometry": {"type": "Point", "coordinates": [2.401889, 48.801041]}, "properties": {"numparc": 5702, "etat de la localisation": "autre", "ID BDGEO": "462", "horodatage": "2022-07-18 16:22:22", "distance (en metres)": 1882.16, "station": "VAILLANT-COUTURIER-LENINE#", "marker-color": "#818181"}}, {"type": "Feature", "geometry": {"type": "Point", "coordinates": [2.404964, 48.804428]}, "properties": {"numparc": 5702, "etat de la localisation": "autre", "ID BDGEO": "462", "horodatage": "2022-07-18 16:24:31", "distance (en metres)": 1564.61, "station": "VAILLANT-COUTURIER-LENINE#", "marker-color": "#818181"}}, {"type": "Feature", "geometry": {"type": "Point", "coordinates": [2.404064, 48.80843]}, "properties": {"numparc": 5702, "etat de la localisation": "autre", "ID BDGEO": "462", "horodatage": "2022-07-18 16:25:49", "distance (en metres)": 1123.68, "station": "VAILLANT-COUTURIER-LENINE#", "marker-color": "#818181"}}, {"type": "Feature", "geometry": {"type": "Point", "coordinates": [2.402991, 48.811981]}, "properties": {"numparc": 5702, "etat de la localisation": "autre", "ID BDGEO": "462", "horodatage": "2022-07-18 16:27:04", "distance (en metres)": 731.79, "station": "VAILLANT-COUTURIER-LENINE#", "marker-color": "#818181"}}, {"type": "Feature", "geometry": {"type": "Point", "coordinates": [2.402349, 48.814041]}, "properties": {"numparc": 5702, "etat de la localisation": "autre", "ID BDGEO": "462", "horodatage": "2022-07-18 16:27:53", "distance (en metres)": 511.35, "station": "VAILLANT-COUTURIER-LENINE#", "marker-color": "#818181"}}, {"type": "Feature", "geometry": {"type": "Point", "coordinates": [2.402946, 48.82235]}, "properties": {"numparc": 5702, "etat de la localisation": "autre", "ID BDGEO": "462", "horodatage": "2022-07-18 16:33:07", "distance (en metres)": 607.69, "station": "VAILLANT-COUTURIER-LENINE#", "marker-color": "#818181"}}, {"type": "Feature", "geometry": {"type": "Point", "coordinates": [2.404599, 48.823685]}, "properties": {"numparc": 5702, "etat de la localisation": "autre", "ID BDGEO": "462", "horodatage": "2022-07-18 16:34:04", "distance (en metres)": 798.57, "station": "VAILLANT-COUTURIER-LENINE#", "marker-color": "#818181"}}, {"type": "Feature", "geometry": {"type": "Point", "coordinates": [2.407401, 48.825615]}, "properties": {"numparc": 5702, "etat de la localisation": "autre", "ID BDGEO": "462", "horodatage": "2022-07-18 16:36:45", "distance (en metres)": 1093.0, "station": "VAILLANT-COUTURIER-LENINE#", "marker-color": "#818181"}}, {"type": "Feature", "geometry": {"type": "Point", "coordinates": [2.410426, 48.823639]}, "properties": {"numparc": 5702, "etat de la localisation": "autre", "ID BDGEO": "462", "horodatage": "2022-07-18 16:38:01", "distance (en metres)": 1097.41, "station": "VAILLANT-COUTURIER-LENINE#", "marker-color": "#818181"}}, {"type": "Feature", "geometry": {"type": "Point", "coordinates": [2.415394, 48.821526]}, "properties": {"numparc": 5702, "etat de la localisation": "autre", "ID BDGEO": "340", "horodatage": "2022-07-18 16:41:05", "distance (en metres)": 2786.2, "station": "GABRIEL PERI", "marker-color": "#818181"}}, {"type": "Feature", "geometry": {"type": "Point", "coordinates": [2.415394, 48.821526]}, "properties": {"numparc": 5702, "etat de la localisation": "autre", "ID BDGEO": "340", "horodatage": "2022-07-18 16:50:15", "distance (en metres)": 2786.2, "station": "GABRIEL PERI", "marker-color": "#818181"}}, {"type": "Feature", "geometry": {"type": "Point", "coordinates": [2.415509, 48.821915]}, "properties": {"numparc": 5702, "etat de la localisation": "autre", "ID BDGEO": "340", "horodatage": "2022-07-18 17:03:57", "distance (en metres)": 2829.25, "station": "GABRIEL PERI", "marker-color": "#818181"}}, {"type": "Feature", "geometry": {"type": "Point", "coordinates": [2.415509, 48.821915]}, "properties": {"numparc": 5702, "etat de la localisation": "autre", "ID BDGEO": "340", "horodatage": "2022-07-18 17:05:33", "distance (en metres)": 2829.25, "station": "GABRIEL PERI", "marker-color": "#818181"}}, {"type": "Feature", "geometry": {"type": "Point", "coordinates": [2.415509, 48.821915]}, "properties": {"numparc": 5702, "etat de la localisation": "autre", "ID BDGEO": "340", "horodatage": "2022-07-18 17:05:50", "distance (en metres)": 2829.25, "station": "GABRIEL PERI", "marker-color": "#818181"}}, {"type": "Feature", "geometry": {"type": "Point", "coordinates": [2.415509, 48.821915]}, "properties": {"numparc": 5702, "etat de la localisation": "autre", "ID BDGEO": "340", "horodatage": "2022-07-18 17:06:20", "distance (en metres)": 2829.25, "station": "GABRIEL PERI", "marker-color": "#818181"}}, {"type": "Feature", "geometry": {"type": "Point", "coordinates": [2.409839, 48.824104]}, "properties": {"numparc": 5702, "etat de la localisation": "autre", "ID BDGEO": "340", "horodatage": "2022-07-18 17:09:20", "distance (en metres)": 2927.57, "station": "GABRIEL PERI", "marker-color": "#818181"}}, {"type": "Feature", "geometry": {"type": "Point", "coordinates": [2.406364, 48.825428]}, "properties": {"numparc": 5702, "etat de la localisation": "autre", "ID BDGEO": "340", "horodatage": "2022-07-18 17:11:15", "distance (en metres)": 3022.32, "station": "GABRIEL PERI", "marker-color": "#818181"}}, {"type": "Feature", "geometry": {"type": "Point", "coordinates": [2.404325, 48.823498]}, "properties": {"numparc": 5702, "etat de la localisation": "autre", "ID BDGEO": "340", "horodatage": "2022-07-18 17:12:55", "distance (en metres)": 2790.2, "station": "GABRIEL PERI", "marker-color": "#818181"}}, {"type": "Feature", "geometry": {"type": "Point", "coordinates": [2.400157, 48.822243]}, "properties": {"numparc": 5702, "etat de la localisation": "autre", "ID BDGEO": "340", "horodatage": "2022-07-18 17:15:01", "distance (en metres)": 2634.29, "station": "GABRIEL PERI", "marker-color": "#818181"}}, {"type": "Feature", "geometry": {"type": "Point", "coordinates": [2.398437, 48.817711]}, "properties": {"numparc": 5702, "etat de la localisation": "autre", "ID BDGEO": "340", "horodatage": "2022-07-18 17:18:38", "distance (en metres)": 2134.3, "station": "GABRIEL PERI", "marker-color": "#818181"}}, {"type": "Feature", "geometry": {"type": "Point", "coordinates": [2.402278, 48.814102]}, "properties": {"numparc": 5702, "etat de la localisation": "autre", "ID BDGEO": "340", "horodatage": "2022-07-18 17:21:28", "distance (en metres)": 1735.75, "station": "GABRIEL PERI", "marker-color": "#818181"}}, {"type": "Feature", "geometry": {"type": "Point", "coordinates": [2.403211, 48.811245]}, "properties": {"numparc": 5702, "etat de la localisation": "autre", "ID BDGEO": "340", "horodatage": "2022-07-18 17:23:07", "distance (en metres)": 1428.47, "station": "GABRIEL PERI", "marker-color": "#818181"}}, {"type": "Feature", "geometry": {"type": "Point", "coordinates": [2.404234, 48.807846]}, "properties": {"numparc": 5702, "etat de la localisation": "autre", "ID BDGEO": "340", "horodatage": "2022-07-18 17:24:16", "distance (en metres)": 1074.77, "station": "GABRIEL PERI", "marker-color": "#818181"}}, {"type": "Feature", "geometry": {"type": "Point", "coordinates": [2.405108, 48.805012]}, "properties": {"numparc": 5702, "etat de la localisation": "autre", "ID BDGEO": "340", "horodatage": "2022-07-18 17:25:31", "distance (en metres)": 803.07, "station": "GABRIEL PERI", "marker-color": "#818181"}}, {"type": "Feature", "geometry": {"type": "Point", "coordinates": [2.401862, 48.800774]}, "properties": {"numparc": 5702, "etat de la localisation": "autre", "ID BDGEO": "340", "horodatage": "2022-07-18 17:27:26", "distance (en metres)": 275.25, "station": "GABRIEL PERI", "marker-color": "#818181"}}, {"type": "Feature", "geometry": {"type": "Point", "coordinates": [2.367526, 48.787556]}, "properties": {"numparc": 5702, "etat de la localisation": "autre", "ID BDGEO": "1", "horodatage": "2022-07-18 17:46:40", "distance (en metres)": 3101.5, "station": "RENTREE IVRY#", "marker-color": "#818181"}}, {"type": "Feature", "geometry": {"type": "Point", "coordinates": [2.367486, 48.787472]}, "properties": {"numparc": 5702, "etat de la localisation": "autre", "ID BDGEO": "1", "horodatage": "2022-07-18 17:51:59", "distance (en metres)": 3111.09, "station": "RENTREE IVRY#", "marker-color": "#818181"}}, {"type": "Feature", "geometry": {"type": "Point", "coordinates": [2.367486, 48.787472]}, "properties": {"numparc": 5702, "etat de la localisation": "autre", "ID BDGEO": "1", "horodatage": "2022-07-18 18:01:38", "distance (en metres)": 3111.09, "station": "RENTREE IVRY#", "marker-color": "#818181"}}, {"type": "Feature", "geometry": {"type": "Point", "coordinates": [2.367401, 48.787247]}, "properties": {"numparc": 5702, "etat de la localisation": "autre", "ID BDGEO": "1", "horodatage": "2022-07-18 18:02:29", "distance (en metres)": 3136.62, "station": "RENTREE IVRY#", "marker-color": "#818181"}}, {"type": "Feature", "geometry": {"type": "Point", "coordinates": [2.370076, 48.788589]}, "properties": {"numparc": 5702, "etat de la localisation": "autre", "ID BDGEO": "1", "horodatage": "2022-07-18 18:10:32", "distance (en metres)": 2973.54, "station": "RENTREE IVRY#", "marker-color": "#818181"}}, {"type": "Feature", "geometry": {"type": "Point", "coordinates": [2.376157, 48.788612]}, "properties": {"numparc": 5702, "etat de la localisation": "autre", "ID BDGEO": "1", "horodatage": "2022-07-18 18:12:16", "distance (en metres)": 2985.77, "station": "RENTREE IVRY#", "marker-color": "#818181"}}, {"type": "Feature", "geometry": {"type": "Point", "coordinates": [2.380258, 48.79034]}, "properties": {"numparc": 5702, "etat de la localisation": "autre", "ID BDGEO": "1", "horodatage": "2022-07-18 18:13:28", "distance (en metres)": 2845.04, "station": "RENTREE IVRY#", "marker-color": "#818181"}}, {"type": "Feature", "geometry": {"type": "Point", "coordinates": [2.384309, 48.789371]}, "properties": {"numparc": 5702, "etat de la localisation": "autre", "ID BDGEO": "1", "horodatage": "2022-07-18 18:16:00", "distance (en metres)": 3026.74, "station": "RENTREE IVRY#", "marker-color": "#818181"}}, {"type": "Feature", "geometry": {"type": "Point", "coordinates": [2.386127, 48.787724]}, "properties": {"numparc": 5702, "etat de la localisation": "autre", "ID BDGEO": "1", "horodatage": "2022-07-18 18:17:55", "distance (en metres)": 3242.53, "station": "RENTREE IVRY#", "marker-color": "#818181"}}, {"type": "Feature", "geometry": {"type": "Point", "coordinates": [2.388707, 48.789227]}, "properties": {"numparc": 5702, "etat de la localisation": "autre", "ID BDGEO": "1", "horodatage": "2022-07-18 18:19:30", "distance (en metres)": 3154.34, "station": "RENTREE IVRY#", "marker-color": "#818181"}}, {"type": "Feature", "geometry": {"type": "Point", "coordinates": [2.388707, 48.789227]}, "properties": {"numparc": 5702, "etat de la localisation": "autre", "ID BDGEO": "1", "horodatage": "2022-07-18 18:19:58", "distance (en metres)": 3154.34, "station": "RENTREE IVRY#", "marker-color": "#818181"}}, {"type": "Feature", "geometry": {"type": "Point", "coordinates": [2.393356, 48.790886]}, "properties": {"numparc": 5702, "etat de la localisation": "autre", "ID BDGEO": "462", "horodatage": "2022-07-18 18:22:13", "distance (en metres)": 3015.39, "station": "VAILLANT-COUTURIER-LENINE#", "marker-color": "#818181"}}, {"type": "Feature", "geometry": {"type": "Point", "coordinates": [2.395398, 48.792614]}, "properties": {"numparc": 5702, "etat de la localisation": "autre", "ID BDGEO": "462", "horodatage": "2022-07-18 18:23:43", "distance (en metres)": 2809.35, "station": "VAILLANT-COUTURIER-LENINE#", "marker-color": "#818181"}}, {"type": "Feature", "geometry": {"type": "Point", "coordinates": [2.39763, 48.795475]}, "properties": {"numparc": 5702, "etat de la localisation": "autre", "ID BDGEO": "462", "horodatage": "2022-07-18 18:25:45", "distance (en metres)": 2483.5, "station": "VAILLANT-COUTURIER-LENINE#", "marker-color": "#818181"}}, {"type": "Feature", "geometry": {"type": "Point", "coordinates": [2.39763, 48.795475]}, "properties": {"numparc": 5702, "etat de la localisation": "autre", "ID BDGEO": "462", "horodatage": "2022-07-18 18:26:05", "distance (en metres)": 2483.5, "station": "VAILLANT-COUTURIER-LENINE#", "marker-color": "#818181"}}, {"type": "Feature", "geometry": {"type": "Point", "coordinates": [2.400171, 48.7985]}, "properties": {"numparc": 5702, "etat de la localisation": "autre", "ID BDGEO": "462", "horodatage": "2022-07-18 18:27:58", "distance (en metres)": 2150.8, "station": "VAILLANT-COUTURIER-LENINE#", "marker-color": "#818181"}}, {"type": "Feature", "geometry": {"type": "Point", "coordinates": [2.401907, 48.801056]}, "properties": {"numparc": 5702, "etat de la localisation": "autre", "ID BDGEO": "462", "horodatage": "2022-07-18 18:29:11", "distance (en metres)": 1880.67, "station": "VAILLANT-COUTURIER-LENINE#", "marker-color": "#818181"}}, {"type": "Feature", "geometry": {"type": "Point", "coordinates": [2.401907, 48.801056]}, "properties": {"numparc": 5702, "etat de la localisation": "autre", "ID BDGEO": "462", "horodatage": "2022-07-18 18:29:30", "distance (en metres)": 1880.67, "station": "VAILLANT-COUTURIER-LENINE#", "marker-color": "#818181"}}, {"type": "Feature", "geometry": {"type": "Point", "coordinates": [2.405092, 48.804432]}, "properties": {"numparc": 5702, "etat de la localisation": "autre", "ID BDGEO": "462", "horodatage": "2022-07-18 18:31:12", "distance (en metres)": 1567.14, "station": "VAILLANT-COUTURIER-LENINE#", "marker-color": "#818181"}}, {"type": "Feature", "geometry": {"type": "Point", "coordinates": [2.404091, 48.808399]}, "properties": {"numparc": 5702, "etat de la localisation": "autre", "ID BDGEO": "462", "horodatage": "2022-07-18 18:32:35", "distance (en metres)": 1127.56, "station": "VAILLANT-COUTURIER-LENINE#", "marker-color": "#818181"}}, {"type": "Feature", "geometry": {"type": "Point", "coordinates": [2.403007, 48.811974]}, "properties": {"numparc": 5702, "etat de la localisation": "autre", "ID BDGEO": "462", "horodatage": "2022-07-18 18:34:19", "distance (en metres)": 733.08, "station": "VAILLANT-COUTURIER-LENINE#", "marker-color": "#818181"}}, {"type": "Feature", "geometry": {"type": "Point", "coordinates": [2.402318, 48.814114]}, "properties": {"numparc": 5702, "etat de la localisation": "autre", "ID BDGEO": "462", "horodatage": "2022-07-18 18:35:11", "distance (en metres)": 503.46, "station": "VAILLANT-COUTURIER-LENINE#", "marker-color": "#818181"}}, {"type": "Feature", "geometry": {"type": "Point", "coordinates": [2.4029, 48.822327]}, "properties": {"numparc": 5702, "etat de la localisation": "autre", "ID BDGEO": "462", "horodatage": "2022-07-18 18:39:47", "distance (en metres)": 603.71, "station": "VAILLANT-COUTURIER-LENINE#", "marker-color": "#818181"}}, {"type": "Feature", "geometry": {"type": "Point", "coordinates": [2.404639, 48.823673]}, "properties": {"numparc": 5702, "etat de la localisation": "autre", "ID BDGEO": "462", "horodatage": "2022-07-18 18:40:37", "distance (en metres)": 799.22, "station": "VAILLANT-COUTURIER-LENINE#", "marker-color": "#818181"}}, {"type": "Feature", "geometry": {"type": "Point", "coordinates": [2.407346, 48.825657]}, "properties": {"numparc": 5702, "etat de la localisation": "autre", "ID BDGEO": "462", "horodatage": "2022-07-18 18:42:55", "distance (en metres)": 1094.27, "station": "VAILLANT-COUTURIER-LENINE#", "marker-color": "#818181"}}, {"type": "Feature", "geometry": {"type": "Point", "coordinates": [2.410412, 48.823662]}, "properties": {"numparc": 5702, "etat de la localisation": "autre", "ID BDGEO": "462", "horodatage": "2022-07-18 18:44:20", "distance (en metres)": 1098.1, "station": "VAILLANT-COUTURIER-LENINE#", "marker-color": "#818181"}}, {"type": "Feature", "geometry": {"type": "Point", "coordinates": [2.415468, 48.82151]}, "properties": {"numparc": 5702, "etat de la localisation": "autre", "ID BDGEO": "462", "horodatage": "2022-07-18 18:46:26", "distance (en metres)": 1320.25, "station": "VAILLANT-COUTURIER-LENINE#", "marker-color": "#818181"}}, {"type": "Feature", "geometry": {"type": "Point", "coordinates": [2.41555, 48.821888]}, "properties": {"numparc": 5702, "etat de la localisation": "autre", "ID BDGEO": "340", "horodatage": "2022-07-18 19:17:30", "distance (en metres)": 2827.71, "station": "GABRIEL PERI", "marker-color": "#818181"}}, {"type": "Feature", "geometry": {"type": "Point", "coordinates": [2.414789, 48.821712]}, "properties": {"numparc": 5702, "etat de la localisation": "autre", "ID BDGEO": "340", "horodatage": "2022-07-18 19:18:44", "distance (en metres)": 2788.0, "station": "GABRIEL PERI", "marker-color": "#818181"}}, {"type": "Feature", "geometry": {"type": "Point", "coordinates": [2.409797, 48.824081]}, "properties": {"numparc": 5702, "etat de la localisation": "autre", "ID BDGEO": "340", "horodatage": "2022-07-18 19:20:56", "distance (en metres)": 2924.36, "station": "GABRIEL PERI", "marker-color": "#818181"}}, {"type": "Feature", "geometry": {"type": "Point", "coordinates": [2.406332, 48.825451]}, "properties": {"numparc": 5702, "etat de la localisation": "autre", "ID BDGEO": "340", "horodatage": "2022-07-18 19:22:53", "distance (en metres)": 3024.49, "station": "GABRIEL PERI", "marker-color": "#818181"}}, {"type": "Feature", "geometry": {"type": "Point", "coordinates": [2.404314, 48.82349]}, "properties": {"numparc": 5702, "etat de la localisation": "autre", "ID BDGEO": "340", "horodatage": "2022-07-18 19:24:59", "distance (en metres)": 2789.28, "station": "GABRIEL PERI", "marker-color": "#818181"}}, {"type": "Feature", "geometry": {"type": "Point", "coordinates": [2.400107, 48.822323]}, "properties": {"numparc": 5702, "etat de la localisation": "autre", "ID BDGEO": "340", "horodatage": "2022-07-18 19:26:44", "distance (en metres)": 2643.21, "station": "GABRIEL PERI", "marker-color": "#818181"}}, {"type": "Feature", "geometry": {"type": "Point", "coordinates": [2.398448, 48.817749]}, "properties": {"numparc": 5702, "etat de la localisation": "autre", "ID BDGEO": "340", "horodatage": "2022-07-18 19:29:30", "distance (en metres)": 2138.48, "station": "GABRIEL PERI", "marker-color": "#818181"}}, {"type": "Feature", "geometry": {"type": "Point", "coordinates": [2.402321, 48.814114]}, "properties": {"numparc": 5702, "etat de la localisation": "autre", "ID BDGEO": "340", "horodatage": "2022-07-18 19:32:18", "distance (en metres)": 1737.3, "station": "GABRIEL PERI", "marker-color": "#818181"}}, {"type": "Feature", "geometry": {"type": "Point", "coordinates": [2.403183, 48.811256]}, "properties": {"numparc": 5702, "etat de la localisation": "autre", "ID BDGEO": "340", "horodatage": "2022-07-18 19:33:53", "distance (en metres)": 1429.41, "station": "GABRIEL PERI", "marker-color": "#818181"}}, {"type": "Feature", "geometry": {"type": "Point", "coordinates": [2.404208, 48.807831]}, "properties": {"numparc": 5702, "etat de la localisation": "autre", "ID BDGEO": "340", "horodatage": "2022-07-18 19:35:19", "distance (en metres)": 1072.61, "station": "GABRIEL PERI", "marker-color": "#818181"}}, {"type": "Feature", "geometry": {"type": "Point", "coordinates": [2.405106, 48.805019]}, "properties": {"numparc": 5702, "etat de la localisation": "autre", "ID BDGEO": "340", "horodatage": "2022-07-18 19:36:32", "distance (en metres)": 803.77, "station": "GABRIEL PERI", "marker-color": "#818181"}}, {"type": "Feature", "geometry": {"type": "Point", "coordinates": [2.401856, 48.800789]}, "properties": {"numparc": 5702, "etat de la localisation": "autre", "ID BDGEO": "340", "horodatage": "2022-07-18 19:38:52", "distance (en metres)": 276.58, "station": "GABRIEL PERI", "marker-color": "#818181"}}, {"type": "Feature", "geometry": {"type": "Point", "coordinates": [2.367519, 48.787556]}, "properties": {"numparc": 5702, "etat de la localisation": "autre", "ID BDGEO": "1", "horodatage": "2022-07-18 19:57:15", "distance (en metres)": 3101.56, "station": "RENTREE IVRY#", "marker-color": "#818181"}}, {"type": "Feature", "geometry": {"type": "Point", "coordinates": [2.367519, 48.787556]}, "properties": {"numparc": 5702, "etat de la localisation": "autre", "ID BDGEO": "1", "horodatage": "2022-07-18 19:57:40", "distance (en metres)": 3101.56, "station": "RENTREE IVRY#", "marker-color": "#818181"}}, {"type": "Feature", "geometry": {"type": "Point", "coordinates": [2.3674, 48.78727]}, "properties": {"numparc": 5702, "etat de la localisation": "autre", "ID BDGEO": "1", "horodatage": "2022-07-18 20:04:19", "distance (en metres)": 3134.09, "station": "RENTREE IVRY#", "marker-color": "#818181"}}, {"type": "Feature", "geometry": {"type": "Point", "coordinates": [2.370036, 48.78857]}, "properties": {"numparc": 5702, "etat de la localisation": "autre", "ID BDGEO": "1", "horodatage": "2022-07-18 20:07:23", "distance (en metres)": 2975.78, "station": "RENTREE IVRY#", "marker-color": "#818181"}}, {"type": "Feature", "geometry": {"type": "Point", "coordinates": [2.376117, 48.788601]}, "properties": {"numparc": 5702, "etat de la localisation": "autre", "ID BDGEO": "1", "horodatage": "2022-07-18 20:08:36", "distance (en metres)": 2986.72, "station": "RENTREE IVRY#", "marker-color": "#818181"}}, {"type": "Feature", "geometry": {"type": "Point", "coordinates": [2.380223, 48.79031]}, "properties": {"numparc": 5702, "etat de la localisation": "autre", "ID BDGEO": "1", "horodatage": "2022-07-18 20:09:40", "distance (en metres)": 2847.8, "station": "RENTREE IVRY#", "marker-color": "#818181"}}, {"type": "Feature", "geometry": {"type": "Point", "coordinates": [2.384325, 48.789375]}, "properties": {"numparc": 5702, "etat de la localisation": "autre", "ID BDGEO": "1", "horodatage": "2022-07-18 20:11:14", "distance (en metres)": 3026.69, "station": "RENTREE IVRY#", "marker-color": "#818181"}}, {"type": "Feature", "geometry": {"type": "Point", "coordinates": [2.386109, 48.787724]}, "properties": {"numparc": 5702, "etat de la localisation": "autre", "ID BDGEO": "1", "horodatage": "2022-07-18 20:12:42", "distance (en metres)": 3242.11, "station": "RENTREE IVRY#", "marker-color": "#818181"}}, {"type": "Feature", "geometry": {"type": "Point", "coordinates": [2.388637, 48.789192]}, "properties": {"numparc": 5702, "etat de la localisation": "autre", "ID BDGEO": "1", "horodatage": "2022-07-18 20:13:39", "distance (en metres)": 3155.84, "station": "RENTREE IVRY#", "marker-color": "#818181"}}, {"type": "Feature", "geometry": {"type": "Point", "coordinates": [2.393368, 48.790867]}, "properties": {"numparc": 5702, "etat de la localisation": "autre", "ID BDGEO": "462", "horodatage": "2022-07-18 20:15:17", "distance (en metres)": 3017.39, "station": "VAILLANT-COUTURIER-LENINE#", "marker-color": "#818181"}}, {"type": "Feature", "geometry": {"type": "Point", "coordinates": [2.395358, 48.792564]}, "properties": {"numparc": 5702, "etat de la localisation": "autre", "ID BDGEO": "462", "horodatage": "2022-07-18 20:16:15", "distance (en metres)": 2815.08, "station": "VAILLANT-COUTURIER-LENINE#", "marker-color": "#818181"}}, {"type": "Feature", "geometry": {"type": "Point", "coordinates": [2.397633, 48.79546]}, "properties": {"numparc": 5702, "etat de la localisation": "autre", "ID BDGEO": "462", "horodatage": "2022-07-18 20:17:58", "distance (en metres)": 2485.2, "station": "VAILLANT-COUTURIER-LENINE#", "marker-color": "#818181"}}, {"type": "Feature", "geometry": {"type": "Point", "coordinates": [2.400155, 48.798489]}, "properties": {"numparc": 5702, "etat de la localisation": "autre", "ID BDGEO": "462", "horodatage": "2022-07-18 20:19:10", "distance (en metres)": 2152.0, "station": "VAILLANT-COUTURIER-LENINE#", "marker-color": "#818181"}}, {"type": "Feature", "geometry": {"type": "Point", "coordinates": [2.401908, 48.801041]}, "properties": {"numparc": 5702, "etat de la localisation": "autre", "ID BDGEO": "462", "horodatage": "2022-07-18 20:20:55", "distance (en metres)": 1882.36, "station": "VAILLANT-COUTURIER-LENINE#", "marker-color": "#818181"}}, {"type": "Feature", "geometry": {"type": "Point", "coordinates": [2.405075, 48.804413]}, "properties": {"numparc": 5702, "etat de la localisation": "autre", "ID BDGEO": "462", "horodatage": "2022-07-18 20:22:51", "distance (en metres)": 1568.76, "station": "VAILLANT-COUTURIER-LENINE#", "marker-color": "#818181"}}, {"type": "Feature", "geometry": {"type": "Point", "coordinates": [2.404095, 48.808414]}, "properties": {"numparc": 5702, "etat de la localisation": "autre", "ID BDGEO": "462", "horodatage": "2022-07-18 20:24:08", "distance (en metres)": 1126.1, "station": "VAILLANT-COUTURIER-LENINE#", "marker-color": "#818181"}}, {"type": "Feature", "geometry": {"type": "Point", "coordinates": [2.40298, 48.811962]}, "properties": {"numparc": 5702, "etat de la localisation": "autre", "ID BDGEO": "462", "horodatage": "2022-07-18 20:25:18", "distance (en metres)": 733.29, "station": "VAILLANT-COUTURIER-LENINE#", "marker-color": "#818181"}}, {"type": "Feature", "geometry": {"type": "Point", "coordinates": [2.402305, 48.814114]}, "properties": {"numparc": 5702, "etat de la localisation": "autre", "ID BDGEO": "462", "horodatage": "2022-07-18 20:26:03", "distance (en metres)": 502.91, "station": "VAILLANT-COUTURIER-LENINE#", "marker-color": "#818181"}}, {"type": "Feature", "geometry": {"type": "Point", "coordinates": [2.402892, 48.822319]}, "properties": {"numparc": 5702, "etat de la localisation": "autre", "ID BDGEO": "462", "horodatage": "2022-07-18 20:31:00", "distance (en metres)": 602.69, "station": "VAILLANT-COUTURIER-LENINE#", "marker-color": "#818181"}}, {"type": "Feature", "geometry": {"type": "Point", "coordinates": [2.404618, 48.823708]}, "properties": {"numparc": 5702, "etat de la localisation": "autre", "ID BDGEO": "462", "horodatage": "2022-07-18 20:31:51", "distance (en metres)": 801.46, "station": "VAILLANT-COUTURIER-LENINE#", "marker-color": "#818181"}}, {"type": "Feature", "geometry": {"type": "Point", "coordinates": [2.407367, 48.825623]}, "properties": {"numparc": 5702, "etat de la localisation": "autre", "ID BDGEO": "462", "horodatage": "2022-07-18 20:33:51", "distance (en metres)": 1092.16, "station": "VAILLANT-COUTURIER-LENINE#", "marker-color": "#818181"}}, {"type": "Feature", "geometry": {"type": "Point", "coordinates": [2.415435, 48.82156]}, "properties": {"numparc": 5702, "etat de la localisation": "autre", "ID BDGEO": "340", "horodatage": "2022-07-18 20:36:48", "distance (en metres)": 2790.9, "station": "GABRIEL PERI", "marker-color": "#818181"}}, {"type": "Feature", "geometry": {"type": "Point", "coordinates": [2.415495, 48.821899]}, "properties": {"numparc": 5702, "etat de la localisation": "autre", "ID BDGEO": "340", "horodatage": "2022-07-18 21:01:18", "distance (en metres)": 2827.28, "station": "GABRIEL PERI", "marker-color": "#818181"}}, {"type": "Feature", "geometry": {"type": "Point", "coordinates": [2.4146, 48.821651]}, "properties": {"numparc": 5702, "etat de la localisation": "autre", "ID BDGEO": "340", "horodatage": "2022-07-18 21:12:22", "distance (en metres)": 2776.45, "station": "GABRIEL PERI", "marker-color": "#818181"}}, {"type": "Feature", "geometry": {"type": "Point", "coordinates": [2.41357, 48.821541]}, "properties": {"numparc": 5702, "etat de la localisation": "autre", "ID BDGEO": "340", "horodatage": "2022-07-18 21:13:02", "distance (en metres)": 2737.2, "station": "GABRIEL PERI", "marker-color": "#818181"}}, {"type": "Feature", "geometry": {"type": "Point", "coordinates": [2.406368, 48.825424]}, "properties": {"numparc": 5702, "etat de la localisation": "autre", "ID BDGEO": "340", "horodatage": "2022-07-18 21:15:20", "distance (en metres)": 3021.95, "station": "GABRIEL PERI", "marker-color": "#818181"}}, {"type": "Feature", "geometry": {"type": "Point", "coordinates": [2.400167, 48.822193]}, "properties": {"numparc": 5702, "etat de la localisation": "autre", "ID BDGEO": "340", "horodatage": "2022-07-18 21:17:56", "distance (en metres)": 2628.78, "station": "GABRIEL PERI", "marker-color": "#818181"}}, {"type": "Feature", "geometry": {"type": "Point", "coordinates": [2.398464, 48.817715]}, "properties": {"numparc": 5702, "etat de la localisation": "autre", "ID BDGEO": "340", "horodatage": "2022-07-18 21:19:52", "distance (en metres)": 2134.6, "station": "GABRIEL PERI", "marker-color": "#818181"}}, {"type": "Feature", "geometry": {"type": "Point", "coordinates": [2.40223, 48.814079]}, "properties": {"numparc": 5702, "etat de la localisation": "autre", "ID BDGEO": "340", "horodatage": "2022-07-18 21:21:34", "distance (en metres)": 1732.92, "station": "GABRIEL PERI", "marker-color": "#818181"}}, {"type": "Feature", "geometry": {"type": "Point", "coordinates": [2.404216, 48.807846]}, "properties": {"numparc": 5702, "etat de la localisation": "autre", "ID BDGEO": "340", "horodatage": "2022-07-18 21:22:58", "distance (en metres)": 1074.41, "station": "GABRIEL PERI", "marker-color": "#818181"}}, {"type": "Feature", "geometry": {"type": "Point", "coordinates": [2.405113, 48.805008]}, "properties": {"numparc": 5702, "etat de la localisation": "autre", "ID BDGEO": "340", "horodatage": "2022-07-18 21:23:53", "distance (en metres)": 802.85, "station": "GABRIEL PERI", "marker-color": "#818181"}}, {"type": "Feature", "geometry": {"type": "Point", "coordinates": [2.401813, 48.800804]}, "properties": {"numparc": 5702, "etat de la localisation": "autre", "ID BDGEO": "340", "horodatage": "2022-07-18 21:26:05", "distance (en metres)": 276.76, "station": "GABRIEL PERI", "marker-color": "#818181"}}, {"type": "Feature", "geometry": {"type": "Point", "coordinates": [2.367685, 48.787731]}, "properties": {"numparc": 5702, "etat de la localisation": "autre", "ID BDGEO": "360", "horodatage": "2022-07-18 21:42:19", "distance (en metres)": 4034.04, "station": "VAILLANT-COUTURIER-LENINE", "marker-color": "#818181"}}, {"type": "Feature", "geometry": {"type": "Point", "coordinates": [2.372031, 48.814209]}, "properties": {"numparc": 5702, "etat de la localisation": "autre", "ID BDGEO": "891", "horodatage": "2022-07-18 21:55:38", "distance (en metres)": 143.29, "station": "SORTIE IVRY#", "marker-color": "#818181"}}, {"type": "Feature", "geometry": {"type": "Point", "coordinates": [2.371733, 48.814163]}, "properties": {"numparc": 5702, "etat de la localisation": "autre", "ID BDGEO": "891", "horodatage": "2022-07-18 22:23:56", "distance (en metres)": 126.16, "station": "SORTIE IVRY#", "marker-color": "#818181"}}, {"type": "Feature", "geometry": {"type": "Point", "coordinates": [2.371733, 48.814163]}, "properties": {"numparc": 5702, "etat de la localisation": "autre", "ID BDGEO": "891", "horodatage": "2022-07-18 22:28:55", "distance (en metres)": 126.16, "station": "SORTIE IVRY#", "marker-color": "#818181"}}, {"type": "Feature", "geometry": {"type": "Point", "coordinates": [2.371785, 48.814079]}, "properties": {"numparc": 5702, "etat de la localisation": "autre", "ID BDGEO": "891", "horodatage": "2022-07-18 22:31:29", "distance (en metres)": 134.28, "station": "SORTIE IVRY#", "marker-color": "#818181"}}, {"type": "Feature", "geometry": {"type": "Point", "coordinates": [2.371548, 48.814205]}, "properties": {"numparc": 5702, "etat de la localisation": "autre", "ID BDGEO": "891", "horodatage": "2022-07-18 22:33:50", "distance (en metres)": 112.13, "station": "SORTIE IVRY#", "marker-color": "#818181"}}, {"type": "Feature", "geometry": {"type": "Point", "coordinates": [2.398146, 48.817958]}, "properties": {"station": "VAILLANT-COUTURIER-LENINE", "ID BDGEO": "360", "marker-color": "#56B3FF"}}, {"type": "Feature", "geometry": {"type": "Point", "coordinates": [2.371768, 48.815308]}, "properties": {"station": "RENTREE IVRY#", "ID BDGEO": "1", "marker-color": "#56B3FF"}}, {"type": "Feature", "geometry": {"type": "Point", "coordinates": [2.398336, 48.817805]}, "properties": {"station": "VAILLANT-COUTURIER-LENINE#", "ID BDGEO": "462", "marker-color": "#56B3FF"}}, {"type": "Feature", "geometry": {"type": "Point", "coordinates": [2.400204, 48.798552]}, "properties": {"station": "GABRIEL PERI", "ID BDGEO": "340", "marker-color": "#56B3FF"}}, {"type": "Feature", "geometry": {"type": "Point", "coordinates": [2.370243, 48.814733]}, "properties": {"station": "SORTIE IVRY#", "ID BDGEO": "891", "marker-color": "#56B3FF"}}]}