{"type": "FeatureCollection", "features": [{"type": "Feature", "geometry": {"type": "Point", "coordinates": [2.407045, 48.849194]}, "properties": {"numparc": 614, "etat de la localisation": "autre", "ID BDGEO": "468", "horodatage": "2021-08-03 05:26:27", "distance (en metres)": 76.81, "station": "LAGNY SORTIE#", "marker-color": "#818181"}}, {"type": "Feature", "geometry": {"type": "Point", "coordinates": [2.407045, 48.849194]}, "properties": {"numparc": 614, "etat de la localisation": "autre", "ID BDGEO": "468", "horodatage": "2021-08-03 05:26:44", "distance (en metres)": 76.81, "station": "LAGNY SORTIE#", "marker-color": "#818181"}}, {"type": "Feature", "geometry": {"type": "Point", "coordinates": [2.407316, 48.849632]}, "properties": {"numparc": 627, "etat de la localisation": "autre", "ID BDGEO": "468", "horodatage": "2021-08-03 05:45:40", "distance (en metres)": 44.93, "station": "LAGNY SORTIE#", "marker-color": "#818181"}}, {"type": "Feature", "geometry": {"type": "Point", "coordinates": [2.407397, 48.849407]}, "properties": {"numparc": 599, "etat de la localisation": "autre", "ID BDGEO": "468", "horodatage": "2021-08-03 05:49:41", "distance (en metres)": 66.52, "station": "LAGNY SORTIE#", "marker-color": "#818181"}}, {"type": "Feature", "geometry": {"type": "Point", "coordinates": [2.407459, 48.849762]}, "properties": {"numparc": 619, "etat de la localisation": "autre", "ID BDGEO": "468", "horodatage": "2021-08-03 06:05:36", "distance (en metres)": 48.43, "station": "LAGNY SORTIE#", "marker-color": "#818181"}}, {"type": "Feature", "geometry": {"type": "Point", "coordinates": [2.407217, 48.849586]}, "properties": {"numparc": 613, "etat de la localisation": "autre", "ID BDGEO": "468", "horodatage": "2021-08-03 06:12:52", "distance (en metres)": 42.84, "station": "LAGNY SORTIE#", "marker-color": "#818181"}}, {"type": "Feature", "geometry": {"type": "Point", "coordinates": [2.408329, 48.849457]}, "properties": {"numparc": 617, "etat de la localisation": "autre", "ID BDGEO": "468", "horodatage": "2021-08-03 06:24:51", "distance (en metres)": 119.7, "station": "LAGNY SORTIE#", "marker-color": "#818181"}}, {"type": "Feature", "geometry": {"type": "Point", "coordinates": [2.407793, 48.849503]}, "properties": {"numparc": 610, "etat de la localisation": "autre", "ID BDGEO": "468", "horodatage": "2021-08-03 06:32:56", "distance (en metres)": 82.15, "station": "LAGNY SORTIE#", "marker-color": "#818181"}}, {"type": "Feature", "geometry": {"type": "Point", "coordinates": [2.407685, 48.849239]}, "properties": {"numparc": 598, "etat de la localisation": "autre", "ID BDGEO": "468", "horodatage": "2021-08-03 06:37:51", "distance (en metres)": 94.43, "station": "LAGNY SORTIE#", "marker-color": "#818181"}}, {"type": "Feature", "geometry": {"type": "Point", "coordinates": [2.39832, 48.842564]}, "properties": {"numparc": 619, "etat de la localisation": "autre", "ID BDGEO": "39", "horodatage": "2021-08-03 06:39:32", "distance (en metres)": 52.51, "station": "HOPITAL ROTHSCHILD", "marker-color": "#818181"}}, {"type": "Feature", "geometry": {"type": "Point", "coordinates": [2.406613, 48.849884]}, "properties": {"numparc": 611, "etat de la localisation": "autre", "ID BDGEO": "45", "horodatage": "2021-08-03 06:53:23", "distance (en metres)": 582.05, "station": "DOCTEUR NETTER", "marker-color": "#818181"}}, {"type": "Feature", "geometry": {"type": "Point", "coordinates": [2.406613, 48.849884]}, "properties": {"numparc": 611, "etat de la localisation": "autre", "ID BDGEO": "45", "horodatage": "2021-08-03 06:53:51", "distance (en metres)": 582.05, "station": "DOCTEUR NETTER", "marker-color": "#818181"}}, {"type": "Feature", "geometry": {"type": "Point", "coordinates": [2.396678, 48.840073]}, "properties": {"numparc": 610, "etat de la localisation": "autre", "ID BDGEO": "49", "horodatage": "2021-08-03 06:55:24", "distance (en metres)": 47.77, "station": "DOCTEUR GOUJON-REUILLY", "marker-color": "#818181"}}, {"type": "Feature", "geometry": {"type": "Point", "coordinates": [2.350323, 48.857471]}, "properties": {"numparc": 599, "etat de la localisation": "Deviation programmee", "ID BDGEO": "74", "horodatage": "2021-08-03 07:01:42", "distance (en metres)": 471.56, "station": "CENTRE GEORGES POMPIDOU", "marker-color": "#56FF93"}}, {"type": "Feature", "geometry": {"type": "Point", "coordinates": [2.324975, 48.874722]}, "properties": {"numparc": 617, "etat de la localisation": "autre", "ID BDGEO": "184", "horodatage": "2021-08-03 07:03:25", "distance (en metres)": 64.65, "station": "GARE SAINT LAZARE", "marker-color": "#818181"}}, {"type": "Feature", "geometry": {"type": "Point", "coordinates": [2.355416, 48.855942]}, "properties": {"numparc": 599, "etat de la localisation": "Deviation programmee", "ID BDGEO": "22", "horodatage": "2021-08-03 07:04:07", "distance (en metres)": 392.14, "station": "RUE VIEILLE DU TEMPLE", "marker-color": "#56FF93"}}, {"type": "Feature", "geometry": {"type": "Point", "coordinates": [2.324975, 48.874722]}, "properties": {"numparc": 617, "etat de la localisation": "autre", "ID BDGEO": "184", "horodatage": "2021-08-03 07:08:48", "distance (en metres)": 64.65, "station": "GARE SAINT LAZARE", "marker-color": "#818181"}}, {"type": "Feature", "geometry": {"type": "Point", "coordinates": [2.348619, 48.864311]}, "properties": {"numparc": 615, "etat de la localisation": "autre", "ID BDGEO": "18", "horodatage": "2021-08-03 07:13:05", "distance (en metres)": 50.18, "station": "TURBIGO-ETIENNE MARCEL", "marker-color": "#818181"}}, {"type": "Feature", "geometry": {"type": "Point", "coordinates": [2.36213, 48.854813]}, "properties": {"numparc": 615, "etat de la localisation": "Deviation programmee", "ID BDGEO": "24", "horodatage": "2021-08-03 07:20:38", "distance (en metres)": 250.91, "station": "PLACE DES VOSGES", "marker-color": "#56FF93"}}, {"type": "Feature", "geometry": {"type": "Point", "coordinates": [2.408207, 48.849632]}, "properties": {"numparc": 631, "etat de la localisation": "Delocalise", "ID BDGEO": "45", "horodatage": "2021-08-03 07:35:13", "distance (en metres)": 591.21, "station": "DOCTEUR NETTER", "marker-color": "#FF565E"}}, {"type": "Feature", "geometry": {"type": "Point", "coordinates": [2.341374, 48.868633]}, "properties": {"numparc": 619, "etat de la localisation": "Deviation programmee", "ID BDGEO": "517", "horodatage": "2021-08-03 07:36:53", "distance (en metres)": 43.28, "station": "BOURSE", "marker-color": "#56FF93"}}, {"type": "Feature", "geometry": {"type": "Point", "coordinates": [2.325038, 48.874737]}, "properties": {"numparc": 611, "etat de la localisation": "autre", "ID BDGEO": "184", "horodatage": "2021-08-03 07:41:57", "distance (en metres)": 63.92, "station": "GARE SAINT LAZARE", "marker-color": "#818181"}}, {"type": "Feature", "geometry": {"type": "Point", "coordinates": [2.368148, 48.85331]}, "properties": {"numparc": 617, "etat de la localisation": "Deviation programmee", "ID BDGEO": "26", "horodatage": "2021-08-03 07:44:06", "distance (en metres)": 121.25, "station": "BASTILLE-BEAUMARCHAIS", "marker-color": "#56FF93"}}, {"type": "Feature", "geometry": {"type": "Point", "coordinates": [2.353511, 48.861351]}, "properties": {"numparc": 610, "etat de la localisation": "Delocalise", "ID BDGEO": "74", "horodatage": "2021-08-03 07:58:55", "distance (en metres)": 40.65, "station": "CENTRE GEORGES POMPIDOU", "marker-color": "#FF565E"}}, {"type": "Feature", "geometry": {"type": "Point", "coordinates": [2.341769, 48.868565]}, "properties": {"numparc": 598, "etat de la localisation": "Deviation programmee", "ID BDGEO": "517", "horodatage": "2021-08-03 08:09:41", "distance (en metres)": 72.79, "station": "BOURSE", "marker-color": "#56FF93"}}, {"type": "Feature", "geometry": {"type": "Point", "coordinates": [2.359677, 48.852627]}, "properties": {"numparc": 612, "etat de la localisation": "Deviation programmee", "ID BDGEO": "23", "horodatage": "2021-08-03 08:15:18", "distance (en metres)": 526.29, "station": "PAYENNE", "marker-color": "#56FF93"}}, {"type": "Feature", "geometry": {"type": "Point", "coordinates": [2.324947, 48.874916]}, "properties": {"numparc": 599, "etat de la localisation": "autre", "ID BDGEO": "184", "horodatage": "2021-08-03 08:31:24", "distance (en metres)": 43.01, "station": "GARE SAINT LAZARE", "marker-color": "#818181"}}, {"type": "Feature", "geometry": {"type": "Point", "coordinates": [2.353994, 48.862568]}, "properties": {"numparc": 600, "etat de la localisation": "Deviation programmee", "ID BDGEO": "501", "horodatage": "2021-08-03 08:38:13", "distance (en metres)": 87.74, "station": "GRENIER SAINT LAZARE-QUARTIER DE L'HORLOGE", "marker-color": "#56FF93"}}, {"type": "Feature", "geometry": {"type": "Point", "coordinates": [2.358234, 48.855583]}, "properties": {"numparc": 600, "etat de la localisation": "Deviation programmee", "ID BDGEO": "23", "horodatage": "2021-08-03 08:43:52", "distance (en metres)": 324.21, "station": "PAYENNE", "marker-color": "#56FF93"}}, {"type": "Feature", "geometry": {"type": "Point", "coordinates": [2.362191, 48.854809]}, "properties": {"numparc": 600, "etat de la localisation": "Deviation programmee", "ID BDGEO": "24", "horodatage": "2021-08-03 08:44:54", "distance (en metres)": 247.95, "station": "PLACE DES VOSGES", "marker-color": "#56FF93"}}, {"type": "Feature", "geometry": {"type": "Point", "coordinates": [2.362191, 48.854809]}, "properties": {"numparc": 600, "etat de la localisation": "Deviation programmee", "ID BDGEO": "24", "horodatage": "2021-08-03 08:45:00", "distance (en metres)": 247.95, "station": "PLACE DES VOSGES", "marker-color": "#56FF93"}}, {"type": "Feature", "geometry": {"type": "Point", "coordinates": [2.350289, 48.863674]}, "properties": {"numparc": 599, "etat de la localisation": "autre", "ID BDGEO": "63", "horodatage": "2021-08-03 09:06:14", "distance (en metres)": 94.36, "station": "SEBASTOPOL-ETIENNE MARCEL", "marker-color": "#818181"}}, {"type": "Feature", "geometry": {"type": "Point", "coordinates": [2.341554, 48.868656]}, "properties": {"numparc": 615, "etat de la localisation": "Deviation programmee", "ID BDGEO": "517", "horodatage": "2021-08-03 09:14:10", "distance (en metres)": 56.38, "station": "BOURSE", "marker-color": "#56FF93"}}, {"type": "Feature", "geometry": {"type": "Point", "coordinates": [2.361983, 48.854912]}, "properties": {"numparc": 599, "etat de la localisation": "Deviation programmee", "ID BDGEO": "23", "horodatage": "2021-08-03 09:14:43", "distance (en metres)": 243.61, "station": "PAYENNE", "marker-color": "#56FF93"}}, {"type": "Feature", "geometry": {"type": "Point", "coordinates": [2.357946, 48.861366]}, "properties": {"numparc": 610, "etat de la localisation": "autre", "ID BDGEO": "56", "horodatage": "2021-08-03 09:17:23", "distance (en metres)": 40.61, "station": "ARCHIVES-HAUDRIETTES", "marker-color": "#818181"}}, {"type": "Feature", "geometry": {"type": "Point", "coordinates": [2.374926, 48.847553]}, "properties": {"numparc": 612, "etat de la localisation": "autre", "ID BDGEO": "51", "horodatage": "2021-08-03 09:21:55", "distance (en metres)": 172.34, "station": "DAUMESNIL-LEDRU ROLLIN", "marker-color": "#818181"}}, {"type": "Feature", "geometry": {"type": "Point", "coordinates": [2.368207, 48.857307]}, "properties": {"numparc": 612, "etat de la localisation": "Deviation programmee", "ID BDGEO": "53", "horodatage": "2021-08-03 09:29:26", "distance (en metres)": 69.47, "station": "TOURNELLES-SAINT GILLES", "marker-color": "#56FF93"}}, {"type": "Feature", "geometry": {"type": "Point", "coordinates": [2.365469, 48.85379]}, "properties": {"numparc": 615, "etat de la localisation": "Deviation programmee", "ID BDGEO": "26", "horodatage": "2021-08-03 09:29:33", "distance (en metres)": 253.84, "station": "BASTILLE-BEAUMARCHAIS", "marker-color": "#56FF93"}}, {"type": "Feature", "geometry": {"type": "Point", "coordinates": [2.367908, 48.853325]}, "properties": {"numparc": 615, "etat de la localisation": "Deviation programmee", "ID BDGEO": "26", "horodatage": "2021-08-03 09:30:33", "distance (en metres)": 128.26, "station": "BASTILLE-BEAUMARCHAIS", "marker-color": "#56FF93"}}, {"type": "Feature", "geometry": {"type": "Point", "coordinates": [2.350232, 48.863564]}, "properties": {"numparc": 613, "etat de la localisation": "autre", "ID BDGEO": "63", "horodatage": "2021-08-03 09:33:26", "distance (en metres)": 92.74, "station": "SEBASTOPOL-ETIENNE MARCEL", "marker-color": "#818181"}}, {"type": "Feature", "geometry": {"type": "Point", "coordinates": [2.353327, 48.861435]}, "properties": {"numparc": 613, "etat de la localisation": "Deviation programmee", "ID BDGEO": "74", "horodatage": "2021-08-03 09:36:49", "distance (en metres)": 56.07, "station": "CENTRE GEORGES POMPIDOU", "marker-color": "#56FF93"}}, {"type": "Feature", "geometry": {"type": "Point", "coordinates": [2.352078, 48.864563]}, "properties": {"numparc": 612, "etat de la localisation": "Deviation programmee", "ID BDGEO": "70", "horodatage": "2021-08-03 09:38:59", "distance (en metres)": 166.65, "station": "SEBASTOPOL-ETIENNE MARCEL", "marker-color": "#56FF93"}}, {"type": "Feature", "geometry": {"type": "Point", "coordinates": [2.356457, 48.865517]}, "properties": {"numparc": 598, "etat de la localisation": "Deviation programmee", "ID BDGEO": "57", "horodatage": "2021-08-03 09:40:27", "distance (en metres)": 366.85, "station": "GRENIER SAINT LAZARE-QUARTIER DE L'HORLOGE", "marker-color": "#56FF93"}}, {"type": "Feature", "geometry": {"type": "Point", "coordinates": [2.355365, 48.855957]}, "properties": {"numparc": 613, "etat de la localisation": "Deviation programmee", "ID BDGEO": "22", "horodatage": "2021-08-03 09:43:19", "distance (en metres)": 392.86, "station": "RUE VIEILLE DU TEMPLE", "marker-color": "#56FF93"}}, {"type": "Feature", "geometry": {"type": "Point", "coordinates": [2.368214, 48.857285]}, "properties": {"numparc": 611, "etat de la localisation": "Deviation programmee", "ID BDGEO": "53", "horodatage": "2021-08-03 09:43:27", "distance (en metres)": 71.43, "station": "TOURNELLES-SAINT GILLES", "marker-color": "#56FF93"}}, {"type": "Feature", "geometry": {"type": "Point", "coordinates": [2.362824, 48.86726]}, "properties": {"numparc": 611, "etat de la localisation": "Deviation programmee", "ID BDGEO": "56", "horodatage": "2021-08-03 09:48:16", "distance (en metres)": 762.25, "station": "ARCHIVES-HAUDRIETTES", "marker-color": "#56FF93"}}, {"type": "Feature", "geometry": {"type": "Point", "coordinates": [2.356428, 48.865582]}, "properties": {"numparc": 611, "etat de la localisation": "Deviation programmee", "ID BDGEO": "57", "horodatage": "2021-08-03 09:49:33", "distance (en metres)": 371.59, "station": "GRENIER SAINT LAZARE-QUARTIER DE L'HORLOGE", "marker-color": "#56FF93"}}, {"type": "Feature", "geometry": {"type": "Point", "coordinates": [2.358075, 48.855495]}, "properties": {"numparc": 617, "etat de la localisation": "Deviation programmee", "ID BDGEO": "23", "horodatage": "2021-08-03 09:50:02", "distance (en metres)": 339.24, "station": "PAYENNE", "marker-color": "#56FF93"}}, {"type": "Feature", "geometry": {"type": "Point", "coordinates": [2.3655, 48.853802]}, "properties": {"numparc": 613, "etat de la localisation": "Deviation programmee", "ID BDGEO": "26", "horodatage": "2021-08-03 09:51:12", "distance (en metres)": 251.34, "station": "BASTILLE-BEAUMARCHAIS", "marker-color": "#56FF93"}}, {"type": "Feature", "geometry": {"type": "Point", "coordinates": [2.36806, 48.853348]}, "properties": {"numparc": 613, "etat de la localisation": "Deviation programmee", "ID BDGEO": "26", "horodatage": "2021-08-03 09:52:15", "distance (en metres)": 120.39, "station": "BASTILLE-BEAUMARCHAIS", "marker-color": "#56FF93"}}, {"type": "Feature", "geometry": {"type": "Point", "coordinates": [2.36806, 48.853348]}, "properties": {"numparc": 613, "etat de la localisation": "Deviation programmee", "ID BDGEO": "26", "horodatage": "2021-08-03 09:52:18", "distance (en metres)": 120.39, "station": "BASTILLE-BEAUMARCHAIS", "marker-color": "#56FF93"}}, {"type": "Feature", "geometry": {"type": "Point", "coordinates": [2.368026, 48.853313]}, "properties": {"numparc": 617, "etat de la localisation": "Deviation programmee", "ID BDGEO": "26", "horodatage": "2021-08-03 09:54:50", "distance (en metres)": 124.94, "station": "BASTILLE-BEAUMARCHAIS", "marker-color": "#56FF93"}}, {"type": "Feature", "geometry": {"type": "Point", "coordinates": [2.368203, 48.857361]}, "properties": {"numparc": 600, "etat de la localisation": "Deviation programmee", "ID BDGEO": "53", "horodatage": "2021-08-03 09:55:08", "distance (en metres)": 65.8, "station": "TOURNELLES-SAINT GILLES", "marker-color": "#56FF93"}}, {"type": "Feature", "geometry": {"type": "Point", "coordinates": [2.332985, 48.869213]}, "properties": {"numparc": 598, "etat de la localisation": "autre", "ID BDGEO": "10", "horodatage": "2021-08-03 09:55:21", "distance (en metres)": 78.72, "station": "OPERA-4 SEPTEMBRE", "marker-color": "#818181"}}, {"type": "Feature", "geometry": {"type": "Point", "coordinates": [2.368203, 48.857361]}, "properties": {"numparc": 600, "etat de la localisation": "Deviation programmee", "ID BDGEO": "53", "horodatage": "2021-08-03 09:55:22", "distance (en metres)": 65.8, "station": "TOURNELLES-SAINT GILLES", "marker-color": "#56FF93"}}, {"type": "Feature", "geometry": {"type": "Point", "coordinates": [2.362182, 48.854839]}, "properties": {"numparc": 619, "etat de la localisation": "Deviation programmee", "ID BDGEO": "24", "horodatage": "2021-08-03 09:59:52", "distance (en metres)": 246.11, "station": "PLACE DES VOSGES", "marker-color": "#56FF93"}}, {"type": "Feature", "geometry": {"type": "Point", "coordinates": [2.368061, 48.853336]}, "properties": {"numparc": 619, "etat de la localisation": "Deviation programmee", "ID BDGEO": "26", "horodatage": "2021-08-03 10:02:02", "distance (en metres)": 121.47, "station": "BASTILLE-BEAUMARCHAIS", "marker-color": "#56FF93"}}, {"type": "Feature", "geometry": {"type": "Point", "coordinates": [2.353461, 48.861382]}, "properties": {"numparc": 610, "etat de la localisation": "Deviation programmee", "ID BDGEO": "74", "horodatage": "2021-08-03 10:07:49", "distance (en metres)": 45.49, "station": "CENTRE GEORGES POMPIDOU", "marker-color": "#56FF93"}}, {"type": "Feature", "geometry": {"type": "Point", "coordinates": [2.340769, 48.86594]}, "properties": {"numparc": 612, "etat de la localisation": "Delocalise", "ID BDGEO": "76", "horodatage": "2021-08-03 10:15:06", "distance (en metres)": 89.68, "station": "VICTOIRES", "marker-color": "#FF565E"}}, {"type": "Feature", "geometry": {"type": "Point", "coordinates": [2.368268, 48.857281]}, "properties": {"numparc": 631, "etat de la localisation": "Deviation programmee", "ID BDGEO": "53", "horodatage": "2021-08-03 10:20:04", "distance (en metres)": 74.82, "station": "TOURNELLES-SAINT GILLES", "marker-color": "#56FF93"}}, {"type": "Feature", "geometry": {"type": "Point", "coordinates": [2.353608, 48.861511]}, "properties": {"numparc": 612, "etat de la localisation": "Deviation programmee", "ID BDGEO": "74", "horodatage": "2021-08-03 10:22:06", "distance (en metres)": 54.28, "station": "CENTRE GEORGES POMPIDOU", "marker-color": "#56FF93"}}, {"type": "Feature", "geometry": {"type": "Point", "coordinates": [2.355394, 48.864887]}, "properties": {"numparc": 631, "etat de la localisation": "Deviation programmee", "ID BDGEO": "57", "horodatage": "2021-08-03 10:27:30", "distance (en metres)": 266.01, "station": "GRENIER SAINT LAZARE-QUARTIER DE L'HORLOGE", "marker-color": "#56FF93"}}, {"type": "Feature", "geometry": {"type": "Point", "coordinates": [2.367942, 48.853344]}, "properties": {"numparc": 598, "etat de la localisation": "Deviation programmee", "ID BDGEO": "26", "horodatage": "2021-08-03 10:41:58", "distance (en metres)": 125.13, "station": "BASTILLE-BEAUMARCHAIS", "marker-color": "#56FF93"}}, {"type": "Feature", "geometry": {"type": "Point", "coordinates": [2.352697, 48.859806]}, "properties": {"numparc": 611, "etat de la localisation": "Deviation programmee", "ID BDGEO": "74", "horodatage": "2021-08-03 10:43:06", "distance (en metres)": 159.4, "station": "CENTRE GEORGES POMPIDOU", "marker-color": "#56FF93"}}, {"type": "Feature", "geometry": {"type": "Point", "coordinates": [2.352637, 48.859722]}, "properties": {"numparc": 611, "etat de la localisation": "Deviation programmee", "ID BDGEO": "74", "horodatage": "2021-08-03 10:43:28", "distance (en metres)": 169.66, "station": "CENTRE GEORGES POMPIDOU", "marker-color": "#56FF93"}}, {"type": "Feature", "geometry": {"type": "Point", "coordinates": [2.352637, 48.859722]}, "properties": {"numparc": 611, "etat de la localisation": "Deviation programmee", "ID BDGEO": "74", "horodatage": "2021-08-03 10:43:33", "distance (en metres)": 169.66, "station": "CENTRE GEORGES POMPIDOU", "marker-color": "#56FF93"}}, {"type": "Feature", "geometry": {"type": "Point", "coordinates": [2.355444, 48.855953]}, "properties": {"numparc": 611, "etat de la localisation": "Deviation programmee", "ID BDGEO": "22", "horodatage": "2021-08-03 10:46:41", "distance (en metres)": 389.94, "station": "RUE VIEILLE DU TEMPLE", "marker-color": "#56FF93"}}, {"type": "Feature", "geometry": {"type": "Point", "coordinates": [2.355444, 48.855953]}, "properties": {"numparc": 611, "etat de la localisation": "Deviation programmee", "ID BDGEO": "22", "horodatage": "2021-08-03 10:46:43", "distance (en metres)": 389.94, "station": "RUE VIEILLE DU TEMPLE", "marker-color": "#56FF93"}}, {"type": "Feature", "geometry": {"type": "Point", "coordinates": [2.362152, 48.854836]}, "properties": {"numparc": 611, "etat de la localisation": "Deviation programmee", "ID BDGEO": "24", "horodatage": "2021-08-03 10:48:22", "distance (en metres)": 248.0, "station": "PLACE DES VOSGES", "marker-color": "#56FF93"}}, {"type": "Feature", "geometry": {"type": "Point", "coordinates": [2.368151, 48.853352]}, "properties": {"numparc": 611, "etat de la localisation": "Deviation programmee", "ID BDGEO": "26", "horodatage": "2021-08-03 10:51:05", "distance (en metres)": 116.95, "station": "BASTILLE-BEAUMARCHAIS", "marker-color": "#56FF93"}}, {"type": "Feature", "geometry": {"type": "Point", "coordinates": [2.32492, 48.874905]}, "properties": {"numparc": 599, "etat de la localisation": "autre", "ID BDGEO": "184", "horodatage": "2021-08-03 10:51:15", "distance (en metres)": 43.91, "station": "GARE SAINT LAZARE", "marker-color": "#818181"}}, {"type": "Feature", "geometry": {"type": "Point", "coordinates": [2.358138, 48.855553]}, "properties": {"numparc": 600, "etat de la localisation": "Deviation programmee", "ID BDGEO": "23", "horodatage": "2021-08-03 11:00:32", "distance (en metres)": 331.97, "station": "PAYENNE", "marker-color": "#56FF93"}}, {"type": "Feature", "geometry": {"type": "Point", "coordinates": [2.362295, 48.85482]}, "properties": {"numparc": 600, "etat de la localisation": "Deviation programmee", "ID BDGEO": "24", "horodatage": "2021-08-03 11:01:50", "distance (en metres)": 241.61, "station": "PLACE DES VOSGES", "marker-color": "#56FF93"}}, {"type": "Feature", "geometry": {"type": "Point", "coordinates": [2.350343, 48.863564]}, "properties": {"numparc": 614, "etat de la localisation": "autre", "ID BDGEO": "63", "horodatage": "2021-08-03 11:02:15", "distance (en metres)": 85.26, "station": "SEBASTOPOL-ETIENNE MARCEL", "marker-color": "#818181"}}, {"type": "Feature", "geometry": {"type": "Point", "coordinates": [2.368151, 48.853336]}, "properties": {"numparc": 600, "etat de la localisation": "Deviation programmee", "ID BDGEO": "26", "horodatage": "2021-08-03 11:03:44", "distance (en metres)": 118.48, "station": "BASTILLE-BEAUMARCHAIS", "marker-color": "#56FF93"}}, {"type": "Feature", "geometry": {"type": "Point", "coordinates": [2.368196, 48.857258]}, "properties": {"numparc": 617, "etat de la localisation": "autre", "ID BDGEO": "53", "horodatage": "2021-08-03 11:10:25", "distance (en metres)": 72.33, "station": "TOURNELLES-SAINT GILLES", "marker-color": "#818181"}}, {"type": "Feature", "geometry": {"type": "Point", "coordinates": [2.356203, 48.855835]}, "properties": {"numparc": 614, "etat de la localisation": "Deviation programmee", "ID BDGEO": "22", "horodatage": "2021-08-03 11:11:28", "distance (en metres)": 373.48, "station": "RUE VIEILLE DU TEMPLE", "marker-color": "#56FF93"}}, {"type": "Feature", "geometry": {"type": "Point", "coordinates": [2.361744, 48.854931]}, "properties": {"numparc": 614, "etat de la localisation": "Deviation programmee", "ID BDGEO": "23", "horodatage": "2021-08-03 11:13:16", "distance (en metres)": 242.3, "station": "PAYENNE", "marker-color": "#56FF93"}}, {"type": "Feature", "geometry": {"type": "Point", "coordinates": [2.35349, 48.861458]}, "properties": {"numparc": 631, "etat de la localisation": "Deviation programmee", "ID BDGEO": "74", "horodatage": "2021-08-03 11:13:50", "distance (en metres)": 51.79, "station": "CENTRE GEORGES POMPIDOU", "marker-color": "#56FF93"}}, {"type": "Feature", "geometry": {"type": "Point", "coordinates": [2.355445, 48.855949]}, "properties": {"numparc": 631, "etat de la localisation": "Deviation programmee", "ID BDGEO": "22", "horodatage": "2021-08-03 11:18:17", "distance (en metres)": 390.25, "station": "RUE VIEILLE DU TEMPLE", "marker-color": "#56FF93"}}, {"type": "Feature", "geometry": {"type": "Point", "coordinates": [2.365509, 48.853786]}, "properties": {"numparc": 631, "etat de la localisation": "Deviation programmee", "ID BDGEO": "26", "horodatage": "2021-08-03 11:21:57", "distance (en metres)": 251.08, "station": "BASTILLE-BEAUMARCHAIS", "marker-color": "#56FF93"}}, {"type": "Feature", "geometry": {"type": "Point", "coordinates": [2.350279, 48.863564]}, "properties": {"numparc": 599, "etat de la localisation": "autre", "ID BDGEO": "63", "horodatage": "2021-08-03 11:23:24", "distance (en metres)": 89.55, "station": "SEBASTOPOL-ETIENNE MARCEL", "marker-color": "#818181"}}, {"type": "Feature", "geometry": {"type": "Point", "coordinates": [2.368028, 48.853336]}, "properties": {"numparc": 631, "etat de la localisation": "Deviation programmee", "ID BDGEO": "26", "horodatage": "2021-08-03 11:23:40", "distance (en metres)": 122.64, "station": "BASTILLE-BEAUMARCHAIS", "marker-color": "#56FF93"}}, {"type": "Feature", "geometry": {"type": "Point", "coordinates": [2.368162, 48.853325]}, "properties": {"numparc": 599, "etat de la localisation": "Deviation programmee", "ID BDGEO": "26", "horodatage": "2021-08-03 11:32:54", "distance (en metres)": 119.29, "station": "BASTILLE-BEAUMARCHAIS", "marker-color": "#56FF93"}}, {"type": "Feature", "geometry": {"type": "Point", "coordinates": [2.368162, 48.853325]}, "properties": {"numparc": 599, "etat de la localisation": "Deviation programmee", "ID BDGEO": "26", "horodatage": "2021-08-03 11:33:03", "distance (en metres)": 119.29, "station": "BASTILLE-BEAUMARCHAIS", "marker-color": "#56FF93"}}, {"type": "Feature", "geometry": {"type": "Point", "coordinates": [2.36221, 48.854813]}, "properties": {"numparc": 615, "etat de la localisation": "Deviation programmee", "ID BDGEO": "24", "horodatage": "2021-08-03 11:47:03", "distance (en metres)": 246.65, "station": "PLACE DES VOSGES", "marker-color": "#56FF93"}}, {"type": "Feature", "geometry": {"type": "Point", "coordinates": [2.368093, 48.853294]}, "properties": {"numparc": 615, "etat de la localisation": "Deviation programmee", "ID BDGEO": "26", "horodatage": "2021-08-03 11:49:18", "distance (en metres)": 124.54, "station": "BASTILLE-BEAUMARCHAIS", "marker-color": "#56FF93"}}, {"type": "Feature", "geometry": {"type": "Point", "coordinates": [2.327893, 48.873802]}, "properties": {"numparc": 610, "etat de la localisation": "Deviation programmee", "ID BDGEO": "5", "horodatage": "2021-08-03 11:59:56", "distance (en metres)": 50.76, "station": "HAVRE-HAUSSMANN", "marker-color": "#56FF93"}}, {"type": "Feature", "geometry": {"type": "Point", "coordinates": [2.355559, 48.855835]}, "properties": {"numparc": 613, "etat de la localisation": "Deviation programmee", "ID BDGEO": "22", "horodatage": "2021-08-03 12:00:25", "distance (en metres)": 396.35, "station": "RUE VIEILLE DU TEMPLE", "marker-color": "#56FF93"}}, {"type": "Feature", "geometry": {"type": "Point", "coordinates": [2.364557, 48.858154]}, "properties": {"numparc": 598, "etat de la localisation": "autre", "ID BDGEO": "54", "horodatage": "2021-08-03 12:00:46", "distance (en metres)": 45.23, "station": "TURENNE-SAINT GILLES", "marker-color": "#818181"}}, {"type": "Feature", "geometry": {"type": "Point", "coordinates": [2.344464, 48.865314]}, "properties": {"numparc": 617, "etat de la localisation": "autre", "ID BDGEO": "17", "horodatage": "2021-08-03 12:01:24", "distance (en metres)": 49.43, "station": "ETIENNE MARCEL-MONTMARTRE", "marker-color": "#818181"}}, {"type": "Feature", "geometry": {"type": "Point", "coordinates": [2.362243, 48.854752]}, "properties": {"numparc": 613, "etat de la localisation": "Deviation programmee", "ID BDGEO": "24", "horodatage": "2021-08-03 12:02:23", "distance (en metres)": 249.7, "station": "PLACE DES VOSGES", "marker-color": "#56FF93"}}, {"type": "Feature", "geometry": {"type": "Point", "coordinates": [2.396596, 48.840034]}, "properties": {"numparc": 600, "etat de la localisation": "autre", "ID BDGEO": "49", "horodatage": "2021-08-03 12:03:56", "distance (en metres)": 43.24, "station": "DOCTEUR GOUJON-REUILLY", "marker-color": "#818181"}}, {"type": "Feature", "geometry": {"type": "Point", "coordinates": [2.367845, 48.853367]}, "properties": {"numparc": 613, "etat de la localisation": "Deviation programmee", "ID BDGEO": "26", "horodatage": "2021-08-03 12:04:44", "distance (en metres)": 126.97, "station": "BASTILLE-BEAUMARCHAIS", "marker-color": "#56FF93"}}, {"type": "Feature", "geometry": {"type": "Point", "coordinates": [2.350306, 48.863552]}, "properties": {"numparc": 617, "etat de la localisation": "autre", "ID BDGEO": "63", "horodatage": "2021-08-03 12:05:05", "distance (en metres)": 87.24, "station": "SEBASTOPOL-ETIENNE MARCEL", "marker-color": "#818181"}}, {"type": "Feature", "geometry": {"type": "Point", "coordinates": [2.368147, 48.853306]}, "properties": {"numparc": 613, "etat de la localisation": "Deviation programmee", "ID BDGEO": "26", "horodatage": "2021-08-03 12:06:22", "distance (en metres)": 121.67, "station": "BASTILLE-BEAUMARCHAIS", "marker-color": "#56FF93"}}, {"type": "Feature", "geometry": {"type": "Point", "coordinates": [2.327937, 48.873772]}, "properties": {"numparc": 612, "etat de la localisation": "Deviation programmee", "ID BDGEO": "5", "horodatage": "2021-08-03 12:07:56", "distance (en metres)": 48.53, "station": "HAVRE-HAUSSMANN", "marker-color": "#56FF93"}}, {"type": "Feature", "geometry": {"type": "Point", "coordinates": [2.353702, 48.862663]}, "properties": {"numparc": 617, "etat de la localisation": "Deviation programmee", "ID BDGEO": "501", "horodatage": "2021-08-03 12:09:13", "distance (en metres)": 63.91, "station": "GRENIER SAINT LAZARE-QUARTIER DE L'HORLOGE", "marker-color": "#56FF93"}}, {"type": "Feature", "geometry": {"type": "Point", "coordinates": [2.362083, 48.854824]}, "properties": {"numparc": 617, "etat de la localisation": "Deviation programmee", "ID BDGEO": "24", "horodatage": "2021-08-03 12:17:35", "distance (en metres)": 252.59, "station": "PLACE DES VOSGES", "marker-color": "#56FF93"}}, {"type": "Feature", "geometry": {"type": "Point", "coordinates": [2.368073, 48.853359]}, "properties": {"numparc": 617, "etat de la localisation": "Deviation programmee", "ID BDGEO": "26", "horodatage": "2021-08-03 12:19:41", "distance (en metres)": 118.82, "station": "BASTILLE-BEAUMARCHAIS", "marker-color": "#56FF93"}}, {"type": "Feature", "geometry": {"type": "Point", "coordinates": [2.341555, 48.868645]}, "properties": {"numparc": 610, "etat de la localisation": "Deviation programmee", "ID BDGEO": "517", "horodatage": "2021-08-03 12:20:16", "distance (en metres)": 56.48, "station": "BOURSE", "marker-color": "#56FF93"}}, {"type": "Feature", "geometry": {"type": "Point", "coordinates": [2.368051, 48.853386]}, "properties": {"numparc": 619, "etat de la localisation": "Deviation programmee", "ID BDGEO": "26", "horodatage": "2021-08-03 12:22:16", "distance (en metres)": 117.02, "station": "BASTILLE-BEAUMARCHAIS", "marker-color": "#56FF93"}}, {"type": "Feature", "geometry": {"type": "Point", "coordinates": [2.399225, 48.839668]}, "properties": {"numparc": 635, "etat de la localisation": "autre", "ID BDGEO": "468", "horodatage": "2021-08-03 12:25:04", "distance (en metres)": 1262.91, "station": "LAGNY SORTIE#", "marker-color": "#818181"}}, {"type": "Feature", "geometry": {"type": "Point", "coordinates": [2.350251, 48.863506]}, "properties": {"numparc": 610, "etat de la localisation": "autre", "ID BDGEO": "63", "horodatage": "2021-08-03 12:26:13", "distance (en metres)": 89.24, "station": "SEBASTOPOL-ETIENNE MARCEL", "marker-color": "#818181"}}, {"type": "Feature", "geometry": {"type": "Point", "coordinates": [2.368104, 48.853302]}, "properties": {"numparc": 610, "etat de la localisation": "Deviation programmee", "ID BDGEO": "26", "horodatage": "2021-08-03 12:38:20", "distance (en metres)": 123.42, "station": "BASTILLE-BEAUMARCHAIS", "marker-color": "#56FF93"}}, {"type": "Feature", "geometry": {"type": "Point", "coordinates": [2.353702, 48.861485]}, "properties": {"numparc": 612, "etat de la localisation": "Deviation programmee", "ID BDGEO": "74", "horodatage": "2021-08-03 12:40:08", "distance (en metres)": 49.94, "station": "CENTRE GEORGES POMPIDOU", "marker-color": "#56FF93"}}, {"type": "Feature", "geometry": {"type": "Point", "coordinates": [2.332433, 48.871265]}, "properties": {"numparc": 600, "etat de la localisation": "Deviation programmee", "ID BDGEO": "9", "horodatage": "2021-08-03 12:46:17", "distance (en metres)": 90.46, "station": "OPERA", "marker-color": "#56FF93"}}, {"type": "Feature", "geometry": {"type": "Point", "coordinates": [2.327957, 48.873772]}, "properties": {"numparc": 600, "etat de la localisation": "Deviation programmee", "ID BDGEO": "5", "horodatage": "2021-08-03 12:47:59", "distance (en metres)": 49.07, "station": "HAVRE-HAUSSMANN", "marker-color": "#56FF93"}}, {"type": "Feature", "geometry": {"type": "Point", "coordinates": [2.365353, 48.853775]}, "properties": {"numparc": 612, "etat de la localisation": "Deviation programmee", "ID BDGEO": "26", "horodatage": "2021-08-03 12:49:21", "distance (en metres)": 262.48, "station": "BASTILLE-BEAUMARCHAIS", "marker-color": "#56FF93"}}, {"type": "Feature", "geometry": {"type": "Point", "coordinates": [2.367868, 48.853317]}, "properties": {"numparc": 612, "etat de la localisation": "Deviation programmee", "ID BDGEO": "26", "horodatage": "2021-08-03 12:51:09", "distance (en metres)": 130.56, "station": "BASTILLE-BEAUMARCHAIS", "marker-color": "#56FF93"}}, {"type": "Feature", "geometry": {"type": "Point", "coordinates": [2.353461, 48.855976]}, "properties": {"numparc": 598, "etat de la localisation": "Deviation programmee", "ID BDGEO": "22", "horodatage": "2021-08-03 12:52:30", "distance (en metres)": 484.71, "station": "RUE VIEILLE DU TEMPLE", "marker-color": "#56FF93"}}, {"type": "Feature", "geometry": {"type": "Point", "coordinates": [2.350262, 48.863472]}, "properties": {"numparc": 611, "etat de la localisation": "autre", "ID BDGEO": "63", "horodatage": "2021-08-03 12:56:19", "distance (en metres)": 87.33, "station": "SEBASTOPOL-ETIENNE MARCEL", "marker-color": "#818181"}}, {"type": "Feature", "geometry": {"type": "Point", "coordinates": [2.358129, 48.855511]}, "properties": {"numparc": 611, "etat de la localisation": "Deviation programmee", "ID BDGEO": "23", "horodatage": "2021-08-03 13:04:14", "distance (en metres)": 334.98, "station": "PAYENNE", "marker-color": "#56FF93"}}, {"type": "Feature", "geometry": {"type": "Point", "coordinates": [2.368057, 48.853287]}, "properties": {"numparc": 611, "etat de la localisation": "Deviation programmee", "ID BDGEO": "26", "horodatage": "2021-08-03 13:07:33", "distance (en metres)": 126.48, "station": "BASTILLE-BEAUMARCHAIS", "marker-color": "#56FF93"}}, {"type": "Feature", "geometry": {"type": "Point", "coordinates": [2.350255, 48.863522]}, "properties": {"numparc": 600, "etat de la localisation": "autre", "ID BDGEO": "63", "horodatage": "2021-08-03 13:14:31", "distance (en metres)": 89.51, "station": "SEBASTOPOL-ETIENNE MARCEL", "marker-color": "#818181"}}, {"type": "Feature", "geometry": {"type": "Point", "coordinates": [2.353498, 48.861382]}, "properties": {"numparc": 600, "etat de la localisation": "Deviation programmee", "ID BDGEO": "74", "horodatage": "2021-08-03 13:17:10", "distance (en metres)": 44.05, "station": "CENTRE GEORGES POMPIDOU", "marker-color": "#56FF93"}}, {"type": "Feature", "geometry": {"type": "Point", "coordinates": [2.368114, 48.853333]}, "properties": {"numparc": 600, "etat de la localisation": "Deviation programmee", "ID BDGEO": "26", "horodatage": "2021-08-03 13:25:08", "distance (en metres)": 120.06, "station": "BASTILLE-BEAUMARCHAIS", "marker-color": "#56FF93"}}, {"type": "Feature", "geometry": {"type": "Point", "coordinates": [2.362, 48.854885]}, "properties": {"numparc": 614, "etat de la localisation": "Deviation programmee", "ID BDGEO": "23", "horodatage": "2021-08-03 13:30:59", "distance (en metres)": 246.57, "station": "PAYENNE", "marker-color": "#56FF93"}}, {"type": "Feature", "geometry": {"type": "Point", "coordinates": [2.368076, 48.85331]}, "properties": {"numparc": 614, "etat de la localisation": "Deviation programmee", "ID BDGEO": "26", "horodatage": "2021-08-03 13:34:31", "distance (en metres)": 123.58, "station": "BASTILLE-BEAUMARCHAIS", "marker-color": "#56FF93"}}, {"type": "Feature", "geometry": {"type": "Point", "coordinates": [2.352732, 48.859772]}, "properties": {"numparc": 631, "etat de la localisation": "Deviation programmee", "ID BDGEO": "74", "horodatage": "2021-08-03 13:37:47", "distance (en metres)": 161.44, "station": "CENTRE GEORGES POMPIDOU", "marker-color": "#56FF93"}}, {"type": "Feature", "geometry": {"type": "Point", "coordinates": [2.368132, 48.853367]}, "properties": {"numparc": 631, "etat de la localisation": "Deviation programmee", "ID BDGEO": "26", "horodatage": "2021-08-03 13:46:03", "distance (en metres)": 116.05, "station": "BASTILLE-BEAUMARCHAIS", "marker-color": "#56FF93"}}, {"type": "Feature", "geometry": {"type": "Point", "coordinates": [2.350218, 48.863571]}, "properties": {"numparc": 599, "etat de la localisation": "autre", "ID BDGEO": "63", "horodatage": "2021-08-03 13:52:14", "distance (en metres)": 94.0, "station": "SEBASTOPOL-ETIENNE MARCEL", "marker-color": "#818181"}}, {"type": "Feature", "geometry": {"type": "Point", "coordinates": [2.352729, 48.859844]}, "properties": {"numparc": 599, "etat de la localisation": "Deviation programmee", "ID BDGEO": "74", "horodatage": "2021-08-03 13:56:31", "distance (en metres)": 154.55, "station": "CENTRE GEORGES POMPIDOU", "marker-color": "#56FF93"}}, {"type": "Feature", "geometry": {"type": "Point", "coordinates": [2.350468, 48.863506]}, "properties": {"numparc": 615, "etat de la localisation": "autre", "ID BDGEO": "63", "horodatage": "2021-08-03 14:01:28", "distance (en metres)": 74.35, "station": "SEBASTOPOL-ETIENNE MARCEL", "marker-color": "#818181"}}, {"type": "Feature", "geometry": {"type": "Point", "coordinates": [2.362191, 48.854847]}, "properties": {"numparc": 599, "etat de la localisation": "Deviation programmee", "ID BDGEO": "24", "horodatage": "2021-08-03 14:03:19", "distance (en metres)": 245.05, "station": "PLACE DES VOSGES", "marker-color": "#56FF93"}}, {"type": "Feature", "geometry": {"type": "Point", "coordinates": [2.353585, 48.861408]}, "properties": {"numparc": 615, "etat de la localisation": "Deviation programmee", "ID BDGEO": "74", "horodatage": "2021-08-03 14:04:58", "distance (en metres)": 43.93, "station": "CENTRE GEORGES POMPIDOU", "marker-color": "#56FF93"}}, {"type": "Feature", "geometry": {"type": "Point", "coordinates": [2.368078, 48.853367]}, "properties": {"numparc": 599, "etat de la localisation": "Deviation programmee", "ID BDGEO": "26", "horodatage": "2021-08-03 14:06:01", "distance (en metres)": 117.9, "station": "BASTILLE-BEAUMARCHAIS", "marker-color": "#56FF93"}}, {"type": "Feature", "geometry": {"type": "Point", "coordinates": [2.368078, 48.853367]}, "properties": {"numparc": 599, "etat de la localisation": "Deviation programmee", "ID BDGEO": "26", "horodatage": "2021-08-03 14:06:09", "distance (en metres)": 117.9, "station": "BASTILLE-BEAUMARCHAIS", "marker-color": "#56FF93"}}, {"type": "Feature", "geometry": {"type": "Point", "coordinates": [2.344591, 48.865345]}, "properties": {"numparc": 613, "etat de la localisation": "autre", "ID BDGEO": "17", "horodatage": "2021-08-03 14:07:11", "distance (en metres)": 53.49, "station": "ETIENNE MARCEL-MONTMARTRE", "marker-color": "#818181"}}, {"type": "Feature", "geometry": {"type": "Point", "coordinates": [2.382098, 48.844009]}, "properties": {"numparc": 598, "etat de la localisation": "autre", "ID BDGEO": "34", "horodatage": "2021-08-03 14:08:15", "distance (en metres)": 76.63, "station": "RAMBOUILLET", "marker-color": "#818181"}}, {"type": "Feature", "geometry": {"type": "Point", "coordinates": [2.350398, 48.863647]}, "properties": {"numparc": 613, "etat de la localisation": "Delocalise", "ID BDGEO": "63", "horodatage": "2021-08-03 14:09:16", "distance (en metres)": 85.98, "station": "SEBASTOPOL-ETIENNE MARCEL", "marker-color": "#FF565E"}}, {"type": "Feature", "geometry": {"type": "Point", "coordinates": [2.3536, 48.861408]}, "properties": {"numparc": 613, "etat de la localisation": "Delocalise", "ID BDGEO": "74", "horodatage": "2021-08-03 14:11:01", "distance (en metres)": 43.54, "station": "CENTRE GEORGES POMPIDOU", "marker-color": "#FF565E"}}, {"type": "Feature", "geometry": {"type": "Point", "coordinates": [2.355456, 48.856007]}, "properties": {"numparc": 615, "etat de la localisation": "Deviation programmee", "ID BDGEO": "22", "horodatage": "2021-08-03 14:11:20", "distance (en metres)": 384.53, "station": "RUE VIEILLE DU TEMPLE", "marker-color": "#56FF93"}}, {"type": "Feature", "geometry": {"type": "Point", "coordinates": [2.362149, 48.854847]}, "properties": {"numparc": 615, "etat de la localisation": "Deviation programmee", "ID BDGEO": "24", "horodatage": "2021-08-03 14:14:07", "distance (en metres)": 247.3, "station": "PLACE DES VOSGES", "marker-color": "#56FF93"}}, {"type": "Feature", "geometry": {"type": "Point", "coordinates": [2.367926, 48.853348]}, "properties": {"numparc": 615, "etat de la localisation": "Deviation programmee", "ID BDGEO": "26", "horodatage": "2021-08-03 14:16:20", "distance (en metres)": 125.41, "station": "BASTILLE-BEAUMARCHAIS", "marker-color": "#56FF93"}}, {"type": "Feature", "geometry": {"type": "Point", "coordinates": [2.333025, 48.869114]}, "properties": {"numparc": 610, "etat de la localisation": "autre", "ID BDGEO": "10", "horodatage": "2021-08-03 14:17:24", "distance (en metres)": 90.13, "station": "OPERA-4 SEPTEMBRE", "marker-color": "#818181"}}, {"type": "Feature", "geometry": {"type": "Point", "coordinates": [2.368055, 48.853333]}, "properties": {"numparc": 613, "etat de la localisation": "Delocalise", "ID BDGEO": "26", "horodatage": "2021-08-03 14:22:06", "distance (en metres)": 122.05, "station": "BASTILLE-BEAUMARCHAIS", "marker-color": "#FF565E"}}, {"type": "Feature", "geometry": {"type": "Point", "coordinates": [2.357112, 48.861858]}, "properties": {"numparc": 598, "etat de la localisation": "autre", "ID BDGEO": "56", "horodatage": "2021-08-03 14:24:04", "distance (en metres)": 122.26, "station": "ARCHIVES-HAUDRIETTES", "marker-color": "#818181"}}, {"type": "Feature", "geometry": {"type": "Point", "coordinates": [2.352685, 48.859821]}, "properties": {"numparc": 617, "etat de la localisation": "Deviation programmee", "ID BDGEO": "74", "horodatage": "2021-08-03 14:29:11", "distance (en metres)": 158.39, "station": "CENTRE GEORGES POMPIDOU", "marker-color": "#56FF93"}}, {"type": "Feature", "geometry": {"type": "Point", "coordinates": [2.38604, 48.84211]}, "properties": {"numparc": 615, "etat de la localisation": "autre", "ID BDGEO": "69", "horodatage": "2021-08-03 14:29:22", "distance (en metres)": 181.1, "station": "CHARLES BOSSUT", "marker-color": "#818181"}}, {"type": "Feature", "geometry": {"type": "Point", "coordinates": [2.361423, 48.855038]}, "properties": {"numparc": 617, "etat de la localisation": "Deviation programmee", "ID BDGEO": "23", "horodatage": "2021-08-03 14:35:55", "distance (en metres)": 233.67, "station": "PAYENNE", "marker-color": "#56FF93"}}, {"type": "Feature", "geometry": {"type": "Point", "coordinates": [2.362077, 48.854881]}, "properties": {"numparc": 617, "etat de la localisation": "Deviation programmee", "ID BDGEO": "23", "horodatage": "2021-08-03 14:37:23", "distance (en metres)": 247.04, "station": "PAYENNE", "marker-color": "#56FF93"}}, {"type": "Feature", "geometry": {"type": "Point", "coordinates": [2.368067, 48.853302]}, "properties": {"numparc": 617, "etat de la localisation": "Deviation programmee", "ID BDGEO": "26", "horodatage": "2021-08-03 14:39:36", "distance (en metres)": 124.64, "station": "BASTILLE-BEAUMARCHAIS", "marker-color": "#56FF93"}}, {"type": "Feature", "geometry": {"type": "Point", "coordinates": [2.412623, 48.841293]}, "properties": {"numparc": 631, "etat de la localisation": "autre", "ID BDGEO": "29002", "horodatage": "2021-08-03 14:39:43", "distance (en metres)": 43.29, "station": "PORTE DE MONTEMPOIVRE", "marker-color": "#818181"}}, {"type": "Feature", "geometry": {"type": "Point", "coordinates": [2.35271, 48.859917]}, "properties": {"numparc": 619, "etat de la localisation": "Deviation programmee", "ID BDGEO": "74", "horodatage": "2021-08-03 14:43:11", "distance (en metres)": 148.42, "station": "CENTRE GEORGES POMPIDOU", "marker-color": "#56FF93"}}, {"type": "Feature", "geometry": {"type": "Point", "coordinates": [2.350191, 48.863651]}, "properties": {"numparc": 610, "etat de la localisation": "autre", "ID BDGEO": "63", "horodatage": "2021-08-03 14:49:13", "distance (en metres)": 99.48, "station": "SEBASTOPOL-ETIENNE MARCEL", "marker-color": "#818181"}}, {"type": "Feature", "geometry": {"type": "Point", "coordinates": [2.362156, 48.854836]}, "properties": {"numparc": 619, "etat de la localisation": "Deviation programmee", "ID BDGEO": "24", "horodatage": "2021-08-03 14:49:16", "distance (en metres)": 247.79, "station": "PLACE DES VOSGES", "marker-color": "#56FF93"}}, {"type": "Feature", "geometry": {"type": "Point", "coordinates": [2.36805, 48.853291]}, "properties": {"numparc": 619, "etat de la localisation": "Deviation programmee", "ID BDGEO": "26", "horodatage": "2021-08-03 14:51:37", "distance (en metres)": 126.34, "station": "BASTILLE-BEAUMARCHAIS", "marker-color": "#56FF93"}}, {"type": "Feature", "geometry": {"type": "Point", "coordinates": [2.352587, 48.859905]}, "properties": {"numparc": 610, "etat de la localisation": "Deviation programmee", "ID BDGEO": "74", "horodatage": "2021-08-03 14:52:32", "distance (en metres)": 154.49, "station": "CENTRE GEORGES POMPIDOU", "marker-color": "#56FF93"}}, {"type": "Feature", "geometry": {"type": "Point", "coordinates": [2.355323, 48.855942]}, "properties": {"numparc": 610, "etat de la localisation": "Deviation programmee", "ID BDGEO": "22", "horodatage": "2021-08-03 14:57:50", "distance (en metres)": 396.01, "station": "RUE VIEILLE DU TEMPLE", "marker-color": "#56FF93"}}, {"type": "Feature", "geometry": {"type": "Point", "coordinates": [2.362012, 48.854847]}, "properties": {"numparc": 610, "etat de la localisation": "Deviation programmee", "ID BDGEO": "23", "horodatage": "2021-08-03 14:59:48", "distance (en metres)": 250.81, "station": "PAYENNE", "marker-color": "#56FF93"}}, {"type": "Feature", "geometry": {"type": "Point", "coordinates": [2.368076, 48.853275]}, "properties": {"numparc": 610, "etat de la localisation": "Deviation programmee", "ID BDGEO": "26", "horodatage": "2021-08-03 15:01:54", "distance (en metres)": 126.99, "station": "BASTILLE-BEAUMARCHAIS", "marker-color": "#56FF93"}}, {"type": "Feature", "geometry": {"type": "Point", "coordinates": [2.350235, 48.863701]}, "properties": {"numparc": 612, "etat de la localisation": "autre", "ID BDGEO": "63", "horodatage": "2021-08-03 15:02:15", "distance (en metres)": 99.27, "station": "SEBASTOPOL-ETIENNE MARCEL", "marker-color": "#818181"}}, {"type": "Feature", "geometry": {"type": "Point", "coordinates": [2.325717, 48.875477]}, "properties": {"numparc": 611, "etat de la localisation": "autre", "ID BDGEO": "184", "horodatage": "2021-08-03 15:10:51", "distance (en metres)": 68.04, "station": "GARE SAINT LAZARE", "marker-color": "#818181"}}, {"type": "Feature", "geometry": {"type": "Point", "coordinates": [2.407511, 48.849636]}, "properties": {"numparc": 618, "etat de la localisation": "autre", "ID BDGEO": "468", "horodatage": "2021-08-03 15:12:52", "distance (en metres)": 56.94, "station": "LAGNY SORTIE#", "marker-color": "#818181"}}, {"type": "Feature", "geometry": {"type": "Point", "coordinates": [2.348623, 48.864189]}, "properties": {"numparc": 598, "etat de la localisation": "autre", "ID BDGEO": "18", "horodatage": "2021-08-03 15:13:14", "distance (en metres)": 41.84, "station": "TURBIGO-ETIENNE MARCEL", "marker-color": "#818181"}}, {"type": "Feature", "geometry": {"type": "Point", "coordinates": [2.362039, 48.854801]}, "properties": {"numparc": 612, "etat de la localisation": "Deviation programmee", "ID BDGEO": "23", "horodatage": "2021-08-03 15:13:29", "distance (en metres)": 255.91, "station": "PAYENNE", "marker-color": "#56FF93"}}, {"type": "Feature", "geometry": {"type": "Point", "coordinates": [2.350508, 48.863689]}, "properties": {"numparc": 598, "etat de la localisation": "Delocalise", "ID BDGEO": "63", "horodatage": "2021-08-03 15:14:19", "distance (en metres)": 81.86, "station": "SEBASTOPOL-ETIENNE MARCEL", "marker-color": "#FF565E"}}, {"type": "Feature", "geometry": {"type": "Point", "coordinates": [2.407511, 48.849636]}, "properties": {"numparc": 618, "etat de la localisation": "autre", "ID BDGEO": "468", "horodatage": "2021-08-03 15:17:05", "distance (en metres)": 56.94, "station": "LAGNY SORTIE#", "marker-color": "#818181"}}, {"type": "Feature", "geometry": {"type": "Point", "coordinates": [2.406862, 48.848881]}, "properties": {"numparc": 618, "etat de la localisation": "autre", "ID BDGEO": "29", "horodatage": "2021-08-03 15:20:00", "distance (en metres)": 2749.93, "station": "BASTILLE", "marker-color": "#818181"}}, {"type": "Feature", "geometry": {"type": "Point", "coordinates": [2.355476, 48.856071]}, "properties": {"numparc": 598, "etat de la localisation": "Deviation programmee", "ID BDGEO": "22", "horodatage": "2021-08-03 15:23:01", "distance (en metres)": 377.78, "station": "RUE VIEILLE DU TEMPLE", "marker-color": "#56FF93"}}, {"type": "Feature", "geometry": {"type": "Point", "coordinates": [2.367786, 48.85318]}, "properties": {"numparc": 598, "etat de la localisation": "Deviation programmee", "ID BDGEO": "26", "horodatage": "2021-08-03 15:27:38", "distance (en metres)": 146.66, "station": "BASTILLE-BEAUMARCHAIS", "marker-color": "#56FF93"}}, {"type": "Feature", "geometry": {"type": "Point", "coordinates": [2.353432, 48.86132]}, "properties": {"numparc": 611, "etat de la localisation": "Deviation programmee", "ID BDGEO": "74", "horodatage": "2021-08-03 15:27:49", "distance (en metres)": 41.38, "station": "CENTRE GEORGES POMPIDOU", "marker-color": "#56FF93"}}, {"type": "Feature", "geometry": {"type": "Point", "coordinates": [2.355385, 48.855991]}, "properties": {"numparc": 611, "etat de la localisation": "Deviation programmee", "ID BDGEO": "22", "horodatage": "2021-08-03 15:34:42", "distance (en metres)": 388.88, "station": "RUE VIEILLE DU TEMPLE", "marker-color": "#56FF93"}}, {"type": "Feature", "geometry": {"type": "Point", "coordinates": [2.366518, 48.857841]}, "properties": {"numparc": 613, "etat de la localisation": "autre", "ID BDGEO": "53", "horodatage": "2021-08-03 15:34:57", "distance (en metres)": 70.43, "station": "TOURNELLES-SAINT GILLES", "marker-color": "#818181"}}, {"type": "Feature", "geometry": {"type": "Point", "coordinates": [2.358057, 48.855488]}, "properties": {"numparc": 611, "etat de la localisation": "Deviation programmee", "ID BDGEO": "23", "horodatage": "2021-08-03 15:35:51", "distance (en metres)": 340.8, "station": "PAYENNE", "marker-color": "#56FF93"}}, {"type": "Feature", "geometry": {"type": "Point", "coordinates": [2.362169, 48.854771]}, "properties": {"numparc": 611, "etat de la localisation": "Deviation programmee", "ID BDGEO": "24", "horodatage": "2021-08-03 15:37:12", "distance (en metres)": 252.05, "station": "PLACE DES VOSGES", "marker-color": "#56FF93"}}, {"type": "Feature", "geometry": {"type": "Point", "coordinates": [2.365463, 48.853733]}, "properties": {"numparc": 611, "etat de la localisation": "Deviation programmee", "ID BDGEO": "26", "horodatage": "2021-08-03 15:38:31", "distance (en metres)": 255.75, "station": "BASTILLE-BEAUMARCHAIS", "marker-color": "#56FF93"}}, {"type": "Feature", "geometry": {"type": "Point", "coordinates": [2.368095, 48.853287]}, "properties": {"numparc": 611, "etat de la localisation": "Deviation programmee", "ID BDGEO": "26", "horodatage": "2021-08-03 15:40:16", "distance (en metres)": 125.23, "station": "BASTILLE-BEAUMARCHAIS", "marker-color": "#56FF93"}}, {"type": "Feature", "geometry": {"type": "Point", "coordinates": [2.350173, 48.863487]}, "properties": {"numparc": 600, "etat de la localisation": "autre", "ID BDGEO": "63", "horodatage": "2021-08-03 15:42:21", "distance (en metres)": 94.04, "station": "SEBASTOPOL-ETIENNE MARCEL", "marker-color": "#818181"}}, {"type": "Feature", "geometry": {"type": "Point", "coordinates": [2.362012, 48.854836]}, "properties": {"numparc": 600, "etat de la localisation": "Deviation programmee", "ID BDGEO": "23", "horodatage": "2021-08-03 15:53:19", "distance (en metres)": 252.09, "station": "PAYENNE", "marker-color": "#56FF93"}}, {"type": "Feature", "geometry": {"type": "Point", "coordinates": [2.367978, 48.85339]}, "properties": {"numparc": 600, "etat de la localisation": "Deviation programmee", "ID BDGEO": "26", "horodatage": "2021-08-03 15:56:37", "distance (en metres)": 119.42, "station": "BASTILLE-BEAUMARCHAIS", "marker-color": "#56FF93"}}, {"type": "Feature", "geometry": {"type": "Point", "coordinates": [2.324653, 48.874947]}, "properties": {"numparc": 613, "etat de la localisation": "autre", "ID BDGEO": "184", "horodatage": "2021-08-03 15:58:03", "distance (en metres)": 40.81, "station": "GARE SAINT LAZARE", "marker-color": "#818181"}}, {"type": "Feature", "geometry": {"type": "Point", "coordinates": [2.362049, 48.854866]}, "properties": {"numparc": 614, "etat de la localisation": "Deviation programmee", "ID BDGEO": "23", "horodatage": "2021-08-03 16:01:24", "distance (en metres)": 248.7, "station": "PAYENNE", "marker-color": "#56FF93"}}, {"type": "Feature", "geometry": {"type": "Point", "coordinates": [2.350276, 48.863506]}, "properties": {"numparc": 631, "etat de la localisation": "autre", "ID BDGEO": "63", "horodatage": "2021-08-03 16:03:21", "distance (en metres)": 87.5, "station": "SEBASTOPOL-ETIENNE MARCEL", "marker-color": "#818181"}}, {"type": "Feature", "geometry": {"type": "Point", "coordinates": [2.368118, 48.853321]}, "properties": {"numparc": 614, "etat de la localisation": "Deviation programmee", "ID BDGEO": "26", "horodatage": "2021-08-03 16:05:16", "distance (en metres)": 121.06, "station": "BASTILLE-BEAUMARCHAIS", "marker-color": "#56FF93"}}, {"type": "Feature", "geometry": {"type": "Point", "coordinates": [2.357177, 48.861782]}, "properties": {"numparc": 617, "etat de la localisation": "autre", "ID BDGEO": "56", "horodatage": "2021-08-03 16:05:40", "distance (en metres)": 112.94, "station": "ARCHIVES-HAUDRIETTES", "marker-color": "#818181"}}, {"type": "Feature", "geometry": {"type": "Point", "coordinates": [2.324653, 48.874947]}, "properties": {"numparc": 613, "etat de la localisation": "autre", "ID BDGEO": "184", "horodatage": "2021-08-03 16:08:28", "distance (en metres)": 40.81, "station": "GARE SAINT LAZARE", "marker-color": "#818181"}}, {"type": "Feature", "geometry": {"type": "Point", "coordinates": [2.358123, 48.855469]}, "properties": {"numparc": 631, "etat de la localisation": "Deviation programmee", "ID BDGEO": "23", "horodatage": "2021-08-03 16:13:17", "distance (en metres)": 337.84, "station": "PAYENNE", "marker-color": "#56FF93"}}, {"type": "Feature", "geometry": {"type": "Point", "coordinates": [2.365509, 48.853775]}, "properties": {"numparc": 631, "etat de la localisation": "Deviation programmee", "ID BDGEO": "26", "horodatage": "2021-08-03 16:16:11", "distance (en metres)": 251.37, "station": "BASTILLE-BEAUMARCHAIS", "marker-color": "#56FF93"}}, {"type": "Feature", "geometry": {"type": "Point", "coordinates": [2.352628, 48.859791]}, "properties": {"numparc": 599, "etat de la localisation": "Deviation programmee", "ID BDGEO": "74", "horodatage": "2021-08-03 16:16:40", "distance (en metres)": 163.46, "station": "CENTRE GEORGES POMPIDOU", "marker-color": "#56FF93"}}, {"type": "Feature", "geometry": {"type": "Point", "coordinates": [2.368103, 48.853287]}, "properties": {"numparc": 631, "etat de la localisation": "Deviation programmee", "ID BDGEO": "26", "horodatage": "2021-08-03 16:17:26", "distance (en metres)": 124.97, "station": "BASTILLE-BEAUMARCHAIS", "marker-color": "#56FF93"}}, {"type": "Feature", "geometry": {"type": "Point", "coordinates": [2.368103, 48.853287]}, "properties": {"numparc": 631, "etat de la localisation": "Deviation programmee", "ID BDGEO": "26", "horodatage": "2021-08-03 16:18:23", "distance (en metres)": 124.97, "station": "BASTILLE-BEAUMARCHAIS", "marker-color": "#56FF93"}}, {"type": "Feature", "geometry": {"type": "Point", "coordinates": [2.355219, 48.855957]}, "properties": {"numparc": 599, "etat de la localisation": "Deviation programmee", "ID BDGEO": "22", "horodatage": "2021-08-03 16:22:41", "distance (en metres)": 399.07, "station": "RUE VIEILLE DU TEMPLE", "marker-color": "#56FF93"}}, {"type": "Feature", "geometry": {"type": "Point", "coordinates": [2.362002, 48.854851]}, "properties": {"numparc": 599, "etat de la localisation": "Deviation programmee", "ID BDGEO": "23", "horodatage": "2021-08-03 16:26:52", "distance (en metres)": 250.4, "station": "PAYENNE", "marker-color": "#56FF93"}}, {"type": "Feature", "geometry": {"type": "Point", "coordinates": [2.362026, 48.854866]}, "properties": {"numparc": 615, "etat de la localisation": "Deviation programmee", "ID BDGEO": "23", "horodatage": "2021-08-03 16:29:47", "distance (en metres)": 248.69, "station": "PAYENNE", "marker-color": "#56FF93"}}, {"type": "Feature", "geometry": {"type": "Point", "coordinates": [2.367954, 48.853336]}, "properties": {"numparc": 599, "etat de la localisation": "Deviation programmee", "ID BDGEO": "26", "horodatage": "2021-08-03 16:29:48", "distance (en metres)": 125.39, "station": "BASTILLE-BEAUMARCHAIS", "marker-color": "#56FF93"}}, {"type": "Feature", "geometry": {"type": "Point", "coordinates": [2.367964, 48.853329]}, "properties": {"numparc": 615, "etat de la localisation": "Deviation programmee", "ID BDGEO": "26", "horodatage": "2021-08-03 16:32:45", "distance (en metres)": 125.74, "station": "BASTILLE-BEAUMARCHAIS", "marker-color": "#56FF93"}}, {"type": "Feature", "geometry": {"type": "Point", "coordinates": [2.35025, 48.863571]}, "properties": {"numparc": 618, "etat de la localisation": "autre", "ID BDGEO": "63", "horodatage": "2021-08-03 16:34:30", "distance (en metres)": 91.84, "station": "SEBASTOPOL-ETIENNE MARCEL", "marker-color": "#818181"}}, {"type": "Feature", "geometry": {"type": "Point", "coordinates": [2.350635, 48.863441]}, "properties": {"numparc": 618, "etat de la localisation": "autre", "ID BDGEO": "63", "horodatage": "2021-08-03 16:34:52", "distance (en metres)": 60.34, "station": "SEBASTOPOL-ETIENNE MARCEL", "marker-color": "#818181"}}, {"type": "Feature", "geometry": {"type": "Point", "coordinates": [2.367902, 48.853363]}, "properties": {"numparc": 618, "etat de la localisation": "Deviation programmee", "ID BDGEO": "26", "horodatage": "2021-08-03 16:46:24", "distance (en metres)": 124.94, "station": "BASTILLE-BEAUMARCHAIS", "marker-color": "#56FF93"}}, {"type": "Feature", "geometry": {"type": "Point", "coordinates": [2.344535, 48.865242]}, "properties": {"numparc": 617, "etat de la localisation": "autre", "ID BDGEO": "17", "horodatage": "2021-08-03 16:52:14", "distance (en metres)": 41.6, "station": "ETIENNE MARCEL-MONTMARTRE", "marker-color": "#818181"}}, {"type": "Feature", "geometry": {"type": "Point", "coordinates": [2.368044, 48.853336]}, "properties": {"numparc": 613, "etat de la localisation": "Deviation programmee", "ID BDGEO": "26", "horodatage": "2021-08-03 16:57:49", "distance (en metres)": 122.07, "station": "BASTILLE-BEAUMARCHAIS", "marker-color": "#56FF93"}}, {"type": "Feature", "geometry": {"type": "Point", "coordinates": [2.368044, 48.853336]}, "properties": {"numparc": 613, "etat de la localisation": "Deviation programmee", "ID BDGEO": "26", "horodatage": "2021-08-03 16:58:04", "distance (en metres)": 122.07, "station": "BASTILLE-BEAUMARCHAIS", "marker-color": "#56FF93"}}, {"type": "Feature", "geometry": {"type": "Point", "coordinates": [2.353566, 48.861374]}, "properties": {"numparc": 617, "etat de la localisation": "Deviation programmee", "ID BDGEO": "74", "horodatage": "2021-08-03 16:59:05", "distance (en metres)": 40.98, "station": "CENTRE GEORGES POMPIDOU", "marker-color": "#56FF93"}}, {"type": "Feature", "geometry": {"type": "Point", "coordinates": [2.355181, 48.855885]}, "properties": {"numparc": 617, "etat de la localisation": "Deviation programmee", "ID BDGEO": "22", "horodatage": "2021-08-03 17:06:19", "distance (en metres)": 407.22, "station": "RUE VIEILLE DU TEMPLE", "marker-color": "#56FF93"}}, {"type": "Feature", "geometry": {"type": "Point", "coordinates": [2.358105, 48.855488]}, "properties": {"numparc": 617, "etat de la localisation": "Deviation programmee", "ID BDGEO": "23", "horodatage": "2021-08-03 17:07:34", "distance (en metres)": 337.82, "station": "PAYENNE", "marker-color": "#56FF93"}}, {"type": "Feature", "geometry": {"type": "Point", "coordinates": [2.362095, 48.854855]}, "properties": {"numparc": 617, "etat de la localisation": "Deviation programmee", "ID BDGEO": "24", "horodatage": "2021-08-03 17:09:49", "distance (en metres)": 249.66, "station": "PLACE DES VOSGES", "marker-color": "#56FF93"}}, {"type": "Feature", "geometry": {"type": "Point", "coordinates": [2.368134, 48.853359]}, "properties": {"numparc": 617, "etat de la localisation": "Deviation programmee", "ID BDGEO": "26", "horodatage": "2021-08-03 17:12:54", "distance (en metres)": 116.74, "station": "BASTILLE-BEAUMARCHAIS", "marker-color": "#56FF93"}}, {"type": "Feature", "geometry": {"type": "Point", "coordinates": [2.358085, 48.855526]}, "properties": {"numparc": 619, "etat de la localisation": "Deviation programmee", "ID BDGEO": "23", "horodatage": "2021-08-03 17:13:06", "distance (en metres)": 336.84, "station": "PAYENNE", "marker-color": "#56FF93"}}, {"type": "Feature", "geometry": {"type": "Point", "coordinates": [2.361977, 48.854858]}, "properties": {"numparc": 619, "etat de la localisation": "Deviation programmee", "ID BDGEO": "23", "horodatage": "2021-08-03 17:14:53", "distance (en metres)": 249.56, "station": "PAYENNE", "marker-color": "#56FF93"}}, {"type": "Feature", "geometry": {"type": "Point", "coordinates": [2.350356, 48.86356]}, "properties": {"numparc": 610, "etat de la localisation": "autre", "ID BDGEO": "63", "horodatage": "2021-08-03 17:16:15", "distance (en metres)": 84.21, "station": "SEBASTOPOL-ETIENNE MARCEL", "marker-color": "#818181"}}, {"type": "Feature", "geometry": {"type": "Point", "coordinates": [2.341772, 48.868591]}, "properties": {"numparc": 612, "etat de la localisation": "Deviation programmee", "ID BDGEO": "517", "horodatage": "2021-08-03 17:18:14", "distance (en metres)": 72.67, "station": "BOURSE", "marker-color": "#56FF93"}}, {"type": "Feature", "geometry": {"type": "Point", "coordinates": [2.343919, 48.866909]}, "properties": {"numparc": 612, "etat de la localisation": "Deviation programmee", "ID BDGEO": "76", "horodatage": "2021-08-03 17:19:30", "distance (en metres)": 219.51, "station": "VICTOIRES", "marker-color": "#56FF93"}}, {"type": "Feature", "geometry": {"type": "Point", "coordinates": [2.350086, 48.857376]}, "properties": {"numparc": 612, "etat de la localisation": "Deviation programmee", "ID BDGEO": "74", "horodatage": "2021-08-03 17:29:39", "distance (en metres)": 489.93, "station": "CENTRE GEORGES POMPIDOU", "marker-color": "#56FF93"}}, {"type": "Feature", "geometry": {"type": "Point", "coordinates": [2.362211, 48.854851]}, "properties": {"numparc": 610, "etat de la localisation": "Deviation programmee", "ID BDGEO": "24", "horodatage": "2021-08-03 17:29:44", "distance (en metres)": 243.69, "station": "PLACE DES VOSGES", "marker-color": "#56FF93"}}, {"type": "Feature", "geometry": {"type": "Point", "coordinates": [2.399231, 48.840668]}, "properties": {"numparc": 619, "etat de la localisation": "autre", "ID BDGEO": "36", "horodatage": "2021-08-03 17:32:02", "distance (en metres)": 113.88, "station": "PICPUS-REUILLY", "marker-color": "#818181"}}, {"type": "Feature", "geometry": {"type": "Point", "coordinates": [2.396352, 48.844215]}, "properties": {"numparc": 619, "etat de la localisation": "autre", "ID BDGEO": "40", "horodatage": "2021-08-03 17:33:21", "distance (en metres)": 144.0, "station": "FABRE D'EGLANTINE", "marker-color": "#818181"}}, {"type": "Feature", "geometry": {"type": "Point", "coordinates": [2.362246, 48.854866]}, "properties": {"numparc": 612, "etat de la localisation": "Deviation programmee", "ID BDGEO": "24", "horodatage": "2021-08-03 17:35:42", "distance (en metres)": 240.65, "station": "PLACE DES VOSGES", "marker-color": "#56FF93"}}, {"type": "Feature", "geometry": {"type": "Point", "coordinates": [2.350372, 48.863552]}, "properties": {"numparc": 598, "etat de la localisation": "autre", "ID BDGEO": "63", "horodatage": "2021-08-03 17:37:16", "distance (en metres)": 82.8, "station": "SEBASTOPOL-ETIENNE MARCEL", "marker-color": "#818181"}}, {"type": "Feature", "geometry": {"type": "Point", "coordinates": [2.352703, 48.859783]}, "properties": {"numparc": 598, "etat de la localisation": "Deviation programmee", "ID BDGEO": "74", "horodatage": "2021-08-03 17:41:29", "distance (en metres)": 161.37, "station": "CENTRE GEORGES POMPIDOU", "marker-color": "#56FF93"}}, {"type": "Feature", "geometry": {"type": "Point", "coordinates": [2.348681, 48.864094]}, "properties": {"numparc": 611, "etat de la localisation": "autre", "ID BDGEO": "18", "horodatage": "2021-08-03 17:43:37", "distance (en metres)": 41.34, "station": "TURBIGO-ETIENNE MARCEL", "marker-color": "#818181"}}, {"type": "Feature", "geometry": {"type": "Point", "coordinates": [2.350478, 48.863602]}, "properties": {"numparc": 611, "etat de la localisation": "autre", "ID BDGEO": "63", "horodatage": "2021-08-03 17:44:17", "distance (en metres)": 78.37, "station": "SEBASTOPOL-ETIENNE MARCEL", "marker-color": "#818181"}}, {"type": "Feature", "geometry": {"type": "Point", "coordinates": [2.407633, 48.849426]}, "properties": {"numparc": 619, "etat de la localisation": "autre", "ID BDGEO": "468", "horodatage": "2021-08-03 17:44:19", "distance (en metres)": 77.31, "station": "LAGNY SORTIE#", "marker-color": "#818181"}}, {"type": "Feature", "geometry": {"type": "Point", "coordinates": [2.350483, 48.863605]}, "properties": {"numparc": 611, "etat de la localisation": "autre", "ID BDGEO": "63", "horodatage": "2021-08-03 17:44:28", "distance (en metres)": 78.26, "station": "SEBASTOPOL-ETIENNE MARCEL", "marker-color": "#818181"}}, {"type": "Feature", "geometry": {"type": "Point", "coordinates": [2.355426, 48.85585]}, "properties": {"numparc": 598, "etat de la localisation": "Deviation programmee", "ID BDGEO": "22", "horodatage": "2021-08-03 17:46:27", "distance (en metres)": 400.19, "station": "RUE VIEILLE DU TEMPLE", "marker-color": "#56FF93"}}, {"type": "Feature", "geometry": {"type": "Point", "coordinates": [2.353623, 48.86142]}, "properties": {"numparc": 611, "etat de la localisation": "Deviation programmee", "ID BDGEO": "74", "horodatage": "2021-08-03 17:47:30", "distance (en metres)": 44.21, "station": "CENTRE GEORGES POMPIDOU", "marker-color": "#56FF93"}}, {"type": "Feature", "geometry": {"type": "Point", "coordinates": [2.362187, 48.854763]}, "properties": {"numparc": 598, "etat de la localisation": "Deviation programmee", "ID BDGEO": "24", "horodatage": "2021-08-03 17:49:10", "distance (en metres)": 251.7, "station": "PLACE DES VOSGES", "marker-color": "#56FF93"}}, {"type": "Feature", "geometry": {"type": "Point", "coordinates": [2.407518, 48.849453]}, "properties": {"numparc": 619, "etat de la localisation": "autre", "ID BDGEO": "468", "horodatage": "2021-08-03 17:49:35", "distance (en metres)": 68.98, "station": "LAGNY SORTIE#", "marker-color": "#818181"}}, {"type": "Feature", "geometry": {"type": "Point", "coordinates": [2.407518, 48.849453]}, "properties": {"numparc": 619, "etat de la localisation": "autre", "ID BDGEO": "468", "horodatage": "2021-08-03 17:49:40", "distance (en metres)": 68.98, "station": "LAGNY SORTIE#", "marker-color": "#818181"}}, {"type": "Feature", "geometry": {"type": "Point", "coordinates": [2.357932, 48.855499]}, "properties": {"numparc": 611, "etat de la localisation": "Deviation programmee", "ID BDGEO": "23", "horodatage": "2021-08-03 17:54:22", "distance (en metres)": 347.94, "station": "PAYENNE", "marker-color": "#56FF93"}}, {"type": "Feature", "geometry": {"type": "Point", "coordinates": [2.35354, 48.86142]}, "properties": {"numparc": 600, "etat de la localisation": "Deviation programmee", "ID BDGEO": "74", "horodatage": "2021-08-03 18:07:11", "distance (en metres)": 46.39, "station": "CENTRE GEORGES POMPIDOU", "marker-color": "#56FF93"}}, {"type": "Feature", "geometry": {"type": "Point", "coordinates": [2.344602, 48.865559]}, "properties": {"numparc": 614, "etat de la localisation": "autre", "ID BDGEO": "17", "horodatage": "2021-08-03 18:10:38", "distance (en metres)": 77.13, "station": "ETIENNE MARCEL-MONTMARTRE", "marker-color": "#818181"}}, {"type": "Feature", "geometry": {"type": "Point", "coordinates": [2.362261, 48.85479]}, "properties": {"numparc": 600, "etat de la localisation": "Deviation programmee", "ID BDGEO": "24", "horodatage": "2021-08-03 18:16:15", "distance (en metres)": 245.76, "station": "PLACE DES VOSGES", "marker-color": "#56FF93"}}, {"type": "Feature", "geometry": {"type": "Point", "coordinates": [2.368218, 48.853359]}, "properties": {"numparc": 600, "etat de la localisation": "Deviation programmee", "ID BDGEO": "26", "horodatage": "2021-08-03 18:19:04", "distance (en metres)": 114.11, "station": "BASTILLE-BEAUMARCHAIS", "marker-color": "#56FF93"}}, {"type": "Feature", "geometry": {"type": "Point", "coordinates": [2.355505, 48.855991]}, "properties": {"numparc": 614, "etat de la localisation": "Deviation programmee", "ID BDGEO": "22", "horodatage": "2021-08-03 18:21:21", "distance (en metres)": 383.92, "station": "RUE VIEILLE DU TEMPLE", "marker-color": "#56FF93"}}, {"type": "Feature", "geometry": {"type": "Point", "coordinates": [2.367941, 48.853374]}, "properties": {"numparc": 614, "etat de la localisation": "Deviation programmee", "ID BDGEO": "26", "horodatage": "2021-08-03 18:25:33", "distance (en metres)": 122.32, "station": "BASTILLE-BEAUMARCHAIS", "marker-color": "#56FF93"}}, {"type": "Feature", "geometry": {"type": "Point", "coordinates": [2.396872, 48.842953]}, "properties": {"numparc": 611, "etat de la localisation": "autre", "ID BDGEO": "38", "horodatage": "2021-08-03 18:27:35", "distance (en metres)": 41.36, "station": "HOPITAL ROTHSCHILD", "marker-color": "#818181"}}, {"type": "Feature", "geometry": {"type": "Point", "coordinates": [2.372186, 48.848869]}, "properties": {"numparc": 610, "etat de la localisation": "autre", "ID BDGEO": "51", "horodatage": "2021-08-03 18:29:35", "distance (en metres)": 75.9, "station": "DAUMESNIL-LEDRU ROLLIN", "marker-color": "#818181"}}, {"type": "Feature", "geometry": {"type": "Point", "coordinates": [2.372126, 48.848892]}, "properties": {"numparc": 610, "etat de la localisation": "autre", "ID BDGEO": "51", "horodatage": "2021-08-03 18:30:00", "distance (en metres)": 80.94, "station": "DAUMESNIL-LEDRU ROLLIN", "marker-color": "#818181"}}, {"type": "Feature", "geometry": {"type": "Point", "coordinates": [2.348644, 48.864323]}, "properties": {"numparc": 599, "etat de la localisation": "autre", "ID BDGEO": "18", "horodatage": "2021-08-03 18:30:06", "distance (en metres)": 52.37, "station": "TURBIGO-ETIENNE MARCEL", "marker-color": "#818181"}}, {"type": "Feature", "geometry": {"type": "Point", "coordinates": [2.338557, 48.869198]}, "properties": {"numparc": 615, "etat de la localisation": "autre", "ID BDGEO": "60", "horodatage": "2021-08-03 18:30:31", "distance (en metres)": 42.46, "station": "RICHELIEU 4 SEPTEMBRE", "marker-color": "#818181"}}, {"type": "Feature", "geometry": {"type": "Point", "coordinates": [2.368153, 48.85334]}, "properties": {"numparc": 631, "etat de la localisation": "Deviation programmee", "ID BDGEO": "26", "horodatage": "2021-08-03 18:33:08", "distance (en metres)": 118.03, "station": "BASTILLE-BEAUMARCHAIS", "marker-color": "#56FF93"}}, {"type": "Feature", "geometry": {"type": "Point", "coordinates": [2.355457, 48.855984]}, "properties": {"numparc": 599, "etat de la localisation": "Deviation programmee", "ID BDGEO": "22", "horodatage": "2021-08-03 18:37:39", "distance (en metres)": 386.59, "station": "RUE VIEILLE DU TEMPLE", "marker-color": "#56FF93"}}, {"type": "Feature", "geometry": {"type": "Point", "coordinates": [2.362155, 48.854843]}, "properties": {"numparc": 599, "etat de la localisation": "Deviation programmee", "ID BDGEO": "24", "horodatage": "2021-08-03 18:40:28", "distance (en metres)": 247.27, "station": "PLACE DES VOSGES", "marker-color": "#56FF93"}}, {"type": "Feature", "geometry": {"type": "Point", "coordinates": [2.407561, 48.849506]}, "properties": {"numparc": 600, "etat de la localisation": "autre", "ID BDGEO": "468", "horodatage": "2021-08-03 18:49:43", "distance (en metres)": 67.67, "station": "LAGNY SORTIE#", "marker-color": "#818181"}}, {"type": "Feature", "geometry": {"type": "Point", "coordinates": [2.368157, 48.853352]}, "properties": {"numparc": 615, "etat de la localisation": "Deviation programmee", "ID BDGEO": "26", "horodatage": "2021-08-03 18:50:48", "distance (en metres)": 116.76, "station": "BASTILLE-BEAUMARCHAIS", "marker-color": "#56FF93"}}, {"type": "Feature", "geometry": {"type": "Point", "coordinates": [2.407874, 48.850365]}, "properties": {"numparc": 600, "etat de la localisation": "autre", "ID BDGEO": "468", "horodatage": "2021-08-03 18:54:10", "distance (en metres)": 95.04, "station": "LAGNY SORTIE#", "marker-color": "#818181"}}, {"type": "Feature", "geometry": {"type": "Point", "coordinates": [2.362168, 48.854836]}, "properties": {"numparc": 618, "etat de la localisation": "Deviation programmee", "ID BDGEO": "24", "horodatage": "2021-08-03 18:56:40", "distance (en metres)": 247.14, "station": "PLACE DES VOSGES", "marker-color": "#56FF93"}}, {"type": "Feature", "geometry": {"type": "Point", "coordinates": [2.365485, 48.853703]}, "properties": {"numparc": 618, "etat de la localisation": "Deviation programmee", "ID BDGEO": "26", "horodatage": "2021-08-03 18:58:07", "distance (en metres)": 255.05, "station": "BASTILLE-BEAUMARCHAIS", "marker-color": "#56FF93"}}, {"type": "Feature", "geometry": {"type": "Point", "coordinates": [2.368159, 48.853313]}, "properties": {"numparc": 618, "etat de la localisation": "Deviation programmee", "ID BDGEO": "26", "horodatage": "2021-08-03 18:59:28", "distance (en metres)": 120.53, "station": "BASTILLE-BEAUMARCHAIS", "marker-color": "#56FF93"}}, {"type": "Feature", "geometry": {"type": "Point", "coordinates": [2.350326, 48.863472]}, "properties": {"numparc": 613, "etat de la localisation": "autre", "ID BDGEO": "63", "horodatage": "2021-08-03 19:01:19", "distance (en metres)": 82.84, "station": "SEBASTOPOL-ETIENNE MARCEL", "marker-color": "#818181"}}, {"type": "Feature", "geometry": {"type": "Point", "coordinates": [2.355515, 48.85585]}, "properties": {"numparc": 613, "etat de la localisation": "Deviation programmee", "ID BDGEO": "22", "horodatage": "2021-08-03 19:13:14", "distance (en metres)": 396.64, "station": "RUE VIEILLE DU TEMPLE", "marker-color": "#56FF93"}}, {"type": "Feature", "geometry": {"type": "Point", "coordinates": [2.362013, 48.854851]}, "properties": {"numparc": 617, "etat de la localisation": "Deviation programmee", "ID BDGEO": "23", "horodatage": "2021-08-03 19:20:44", "distance (en metres)": 250.39, "station": "PAYENNE", "marker-color": "#56FF93"}}, {"type": "Feature", "geometry": {"type": "Point", "coordinates": [2.367969, 48.853352]}, "properties": {"numparc": 617, "etat de la localisation": "Deviation programmee", "ID BDGEO": "26", "horodatage": "2021-08-03 19:23:29", "distance (en metres)": 123.37, "station": "BASTILLE-BEAUMARCHAIS", "marker-color": "#56FF93"}}, {"type": "Feature", "geometry": {"type": "Point", "coordinates": [2.407447, 48.849487]}, "properties": {"numparc": 615, "etat de la localisation": "autre", "ID BDGEO": "468", "horodatage": "2021-08-03 19:24:12", "distance (en metres)": 62.58, "station": "LAGNY SORTIE#", "marker-color": "#818181"}}, {"type": "Feature", "geometry": {"type": "Point", "coordinates": [2.333107, 48.869129]}, "properties": {"numparc": 611, "etat de la localisation": "autre", "ID BDGEO": "10", "horodatage": "2021-08-03 19:26:35", "distance (en metres)": 90.34, "station": "OPERA-4 SEPTEMBRE", "marker-color": "#818181"}}, {"type": "Feature", "geometry": {"type": "Point", "coordinates": [2.35038, 48.863537]}, "properties": {"numparc": 610, "etat de la localisation": "autre", "ID BDGEO": "63", "horodatage": "2021-08-03 19:27:22", "distance (en metres)": 81.6, "station": "SEBASTOPOL-ETIENNE MARCEL", "marker-color": "#818181"}}, {"type": "Feature", "geometry": {"type": "Point", "coordinates": [2.406667, 48.850563]}, "properties": {"numparc": 615, "etat de la localisation": "autre", "ID BDGEO": "468", "horodatage": "2021-08-03 19:29:57", "distance (en metres)": 78.08, "station": "LAGNY SORTIE#", "marker-color": "#818181"}}, {"type": "Feature", "geometry": {"type": "Point", "coordinates": [2.35041, 48.863533]}, "properties": {"numparc": 612, "etat de la localisation": "Delocalise", "ID BDGEO": "63", "horodatage": "2021-08-03 19:36:13", "distance (en metres)": 79.41, "station": "SEBASTOPOL-ETIENNE MARCEL", "marker-color": "#FF565E"}}, {"type": "Feature", "geometry": {"type": "Point", "coordinates": [2.352273, 48.858795]}, "properties": {"numparc": 612, "etat de la localisation": "Deviation programmee", "ID BDGEO": "74", "horodatage": "2021-08-03 19:39:28", "distance (en metres)": 273.66, "station": "CENTRE GEORGES POMPIDOU", "marker-color": "#56FF93"}}, {"type": "Feature", "geometry": {"type": "Point", "coordinates": [2.350138, 48.857479]}, "properties": {"numparc": 612, "etat de la localisation": "Deviation programmee", "ID BDGEO": "74", "horodatage": "2021-08-03 19:41:41", "distance (en metres)": 478.31, "station": "CENTRE GEORGES POMPIDOU", "marker-color": "#56FF93"}}, {"type": "Feature", "geometry": {"type": "Point", "coordinates": [2.358127, 48.855453]}, "properties": {"numparc": 612, "etat de la localisation": "Deviation programmee", "ID BDGEO": "23", "horodatage": "2021-08-03 19:46:18", "distance (en metres)": 338.5, "station": "PAYENNE", "marker-color": "#56FF93"}}, {"type": "Feature", "geometry": {"type": "Point", "coordinates": [2.40752, 48.84951]}, "properties": {"numparc": 598, "etat de la localisation": "autre", "ID BDGEO": "468", "horodatage": "2021-08-03 19:52:29", "distance (en metres)": 65.02, "station": "LAGNY SORTIE#", "marker-color": "#818181"}}, {"type": "Feature", "geometry": {"type": "Point", "coordinates": [2.350286, 48.863506]}, "properties": {"numparc": 611, "etat de la localisation": "autre", "ID BDGEO": "63", "horodatage": "2021-08-03 19:58:27", "distance (en metres)": 86.81, "station": "SEBASTOPOL-ETIENNE MARCEL", "marker-color": "#818181"}}, {"type": "Feature", "geometry": {"type": "Point", "coordinates": [2.350291, 48.863518]}, "properties": {"numparc": 614, "etat de la localisation": "autre", "ID BDGEO": "63", "horodatage": "2021-08-03 20:27:18", "distance (en metres)": 86.88, "station": "SEBASTOPOL-ETIENNE MARCEL", "marker-color": "#818181"}}, {"type": "Feature", "geometry": {"type": "Point", "coordinates": [2.407445, 48.849514]}, "properties": {"numparc": 599, "etat de la localisation": "autre", "ID BDGEO": "468", "horodatage": "2021-08-03 20:33:32", "distance (en metres)": 60.49, "station": "LAGNY SORTIE#", "marker-color": "#818181"}}, {"type": "Feature", "geometry": {"type": "Point", "coordinates": [2.368173, 48.853348]}, "properties": {"numparc": 614, "etat de la localisation": "Deviation programmee", "ID BDGEO": "26", "horodatage": "2021-08-03 20:38:49", "distance (en metres)": 116.64, "station": "BASTILLE-BEAUMARCHAIS", "marker-color": "#56FF93"}}, {"type": "Feature", "geometry": {"type": "Point", "coordinates": [2.407038, 48.849293]}, "properties": {"numparc": 599, "etat de la localisation": "autre", "ID BDGEO": "468", "horodatage": "2021-08-03 20:40:32", "distance (en metres)": 65.96, "station": "LAGNY SORTIE#", "marker-color": "#818181"}}, {"type": "Feature", "geometry": {"type": "Point", "coordinates": [2.407038, 48.849293]}, "properties": {"numparc": 599, "etat de la localisation": "autre", "ID BDGEO": "468", "horodatage": "2021-08-03 20:40:35", "distance (en metres)": 65.96, "station": "LAGNY SORTIE#", "marker-color": "#818181"}}, {"type": "Feature", "geometry": {"type": "Point", "coordinates": [2.407422, 48.849499]}, "properties": {"numparc": 611, "etat de la localisation": "autre", "ID BDGEO": "468", "horodatage": "2021-08-03 20:45:48", "distance (en metres)": 60.37, "station": "LAGNY SORTIE#", "marker-color": "#818181"}}, {"type": "Feature", "geometry": {"type": "Point", "coordinates": [2.407042, 48.849163]}, "properties": {"numparc": 611, "etat de la localisation": "autre", "ID BDGEO": "468", "horodatage": "2021-08-03 20:52:11", "distance (en metres)": 80.09, "station": "LAGNY SORTIE#", "marker-color": "#818181"}}, {"type": "Feature", "geometry": {"type": "Point", "coordinates": [2.368669, 48.855682]}, "properties": {"numparc": 610, "etat de la localisation": "autre", "ID BDGEO": "27", "horodatage": "2021-08-03 20:57:27", "distance (en metres)": 139.45, "station": "BASTILLE-BEAUMARCHAIS", "marker-color": "#818181"}}, {"type": "Feature", "geometry": {"type": "Point", "coordinates": [2.407555, 48.849514]}, "properties": {"numparc": 614, "etat de la localisation": "autre", "ID BDGEO": "468", "horodatage": "2021-08-03 21:05:52", "distance (en metres)": 66.82, "station": "LAGNY SORTIE#", "marker-color": "#818181"}}, {"type": "Feature", "geometry": {"type": "Point", "coordinates": [2.350311, 48.863518]}, "properties": {"numparc": 613, "etat de la localisation": "autre", "ID BDGEO": "63", "horodatage": "2021-08-03 21:08:19", "distance (en metres)": 85.51, "station": "SEBASTOPOL-ETIENNE MARCEL", "marker-color": "#818181"}}, {"type": "Feature", "geometry": {"type": "Point", "coordinates": [2.407325, 48.849342]}, "properties": {"numparc": 614, "etat de la localisation": "autre", "ID BDGEO": "468", "horodatage": "2021-08-03 21:10:50", "distance (en metres)": 69.26, "station": "LAGNY SORTIE#", "marker-color": "#818181"}}, {"type": "Feature", "geometry": {"type": "Point", "coordinates": [2.406483, 48.848614]}, "properties": {"numparc": 614, "etat de la localisation": "autre", "ID BDGEO": "468", "horodatage": "2021-08-03 21:14:09", "distance (en metres)": 141.58, "station": "LAGNY SORTIE#", "marker-color": "#818181"}}, {"type": "Feature", "geometry": {"type": "Point", "coordinates": [2.406483, 48.848614]}, "properties": {"numparc": 614, "etat de la localisation": "autre", "ID BDGEO": "468", "horodatage": "2021-08-03 21:14:14", "distance (en metres)": 141.58, "station": "LAGNY SORTIE#", "marker-color": "#818181"}}, {"type": "Feature", "geometry": {"type": "Point", "coordinates": [2.407547, 48.849525]}, "properties": {"numparc": 618, "etat de la localisation": "autre", "ID BDGEO": "45", "horodatage": "2021-08-03 21:30:00", "distance (en metres)": 562.3, "station": "DOCTEUR NETTER", "marker-color": "#818181"}}, {"type": "Feature", "geometry": {"type": "Point", "coordinates": [2.368112, 48.853367]}, "properties": {"numparc": 617, "etat de la localisation": "Deviation programmee", "ID BDGEO": "26", "horodatage": "2021-08-03 21:31:12", "distance (en metres)": 116.72, "station": "BASTILLE-BEAUMARCHAIS", "marker-color": "#56FF93"}}, {"type": "Feature", "geometry": {"type": "Point", "coordinates": [2.406603, 48.849617]}, "properties": {"numparc": 618, "etat de la localisation": "autre", "ID BDGEO": "45", "horodatage": "2021-08-03 21:34:16", "distance (en metres)": 552.88, "station": "DOCTEUR NETTER", "marker-color": "#818181"}}, {"type": "Feature", "geometry": {"type": "Point", "coordinates": [2.350413, 48.863529]}, "properties": {"numparc": 610, "etat de la localisation": "autre", "ID BDGEO": "63", "horodatage": "2021-08-03 21:42:25", "distance (en metres)": 79.04, "station": "SEBASTOPOL-ETIENNE MARCEL", "marker-color": "#818181"}}, {"type": "Feature", "geometry": {"type": "Point", "coordinates": [2.40744, 48.849586]}, "properties": {"numparc": 617, "etat de la localisation": "autre", "ID BDGEO": "468", "horodatage": "2021-08-03 21:55:40", "distance (en metres)": 55.28, "station": "LAGNY SORTIE#", "marker-color": "#818181"}}, {"type": "Feature", "geometry": {"type": "Point", "coordinates": [2.406602, 48.85025]}, "properties": {"numparc": 617, "etat de la localisation": "autre", "ID BDGEO": "468", "horodatage": "2021-08-03 22:00:14", "distance (en metres)": 45.34, "station": "LAGNY SORTIE#", "marker-color": "#818181"}}, {"type": "Feature", "geometry": {"type": "Point", "coordinates": [2.407558, 48.849499]}, "properties": {"numparc": 610, "etat de la localisation": "autre", "ID BDGEO": "468", "horodatage": "2021-08-03 22:23:15", "distance (en metres)": 68.0, "station": "LAGNY SORTIE#", "marker-color": "#818181"}}, {"type": "Feature", "geometry": {"type": "Point", "coordinates": [2.40754, 48.849434]}, "properties": {"numparc": 612, "etat de la localisation": "autre", "ID BDGEO": "468", "horodatage": "2021-08-03 22:35:38", "distance (en metres)": 71.61, "station": "LAGNY SORTIE#", "marker-color": "#818181"}}, {"type": "Feature", "geometry": {"type": "Point", "coordinates": [2.355389, 48.855911]}, "properties": {"numparc": 631, "etat de la localisation": "Deviation programmee", "ID BDGEO": "22", "horodatage": "2021-08-03 22:39:58", "distance (en metres)": 396.05, "station": "RUE VIEILLE DU TEMPLE", "marker-color": "#56FF93"}}, {"type": "Feature", "geometry": {"type": "Point", "coordinates": [2.406595, 48.849636]}, "properties": {"numparc": 618, "etat de la localisation": "autre", "ID BDGEO": "45", "horodatage": "2021-08-03 22:41:59", "distance (en metres)": 554.82, "station": "DOCTEUR NETTER", "marker-color": "#818181"}}, {"type": "Feature", "geometry": {"type": "Point", "coordinates": [2.362173, 48.854904]}, "properties": {"numparc": 613, "etat de la localisation": "Deviation programmee", "ID BDGEO": "24", "horodatage": "2021-08-03 23:03:54", "distance (en metres)": 241.74, "station": "PLACE DES VOSGES", "marker-color": "#56FF93"}}, {"type": "Feature", "geometry": {"type": "Point", "coordinates": [2.407507, 48.849533]}, "properties": {"numparc": 631, "etat de la localisation": "autre", "ID BDGEO": "468", "horodatage": "2021-08-03 23:10:28", "distance (en metres)": 62.72, "station": "LAGNY SORTIE#", "marker-color": "#818181"}}, {"type": "Feature", "geometry": {"type": "Point", "coordinates": [2.407396, 48.849545]}, "properties": {"numparc": 613, "etat de la localisation": "autre", "ID BDGEO": "468", "horodatage": "2021-08-03 23:34:25", "distance (en metres)": 55.57, "station": "LAGNY SORTIE#", "marker-color": "#818181"}}, {"type": "Feature", "geometry": {"type": "Point", "coordinates": [2.407438, 48.849709]}, "properties": {"numparc": 613, "etat de la localisation": "autre", "ID BDGEO": "468", "horodatage": "2021-08-03 23:39:15", "distance (en metres)": 48.76, "station": "LAGNY SORTIE#", "marker-color": "#818181"}}, {"type": "Feature", "geometry": {"type": "Point", "coordinates": [2.406881, 48.85067]}, "properties": {"numparc": 610, "etat de la localisation": "autre", "ID BDGEO": "468", "horodatage": "2021-08-04 01:51:31", "distance (en metres)": 89.3, "station": "LAGNY SORTIE#", "marker-color": "#818181"}}, {"type": "Feature", "geometry": {"type": "Point", "coordinates": [2.406817, 48.849868]}, "properties": {"station": "LAGNY SORTIE#", "ID BDGEO": "468", "marker-color": "#56B3FF"}}, {"type": "Feature", "geometry": {"type": "Point", "coordinates": [2.397603, 48.842575]}, "properties": {"station": "HOPITAL ROTHSCHILD", "ID BDGEO": "39", "marker-color": "#56B3FF"}}, {"type": "Feature", "geometry": {"type": "Point", "coordinates": [2.404958, 48.844764]}, "properties": {"station": "DOCTEUR NETTER", "ID BDGEO": "45", "marker-color": "#56B3FF"}}, {"type": "Feature", "geometry": {"type": "Point", "coordinates": [2.396605, 48.839646]}, "properties": {"station": "DOCTEUR GOUJON-REUILLY", "ID BDGEO": "49", "marker-color": "#56B3FF"}}, {"type": "Feature", "geometry": {"type": "Point", "coordinates": [2.353805, 48.86104]}, "properties": {"station": "CENTRE GEORGES POMPIDOU", "ID BDGEO": "74", "marker-color": "#56B3FF"}}, {"type": "Feature", "geometry": {"type": "Point", "coordinates": [2.324829, 48.875295]}, "properties": {"station": "GARE SAINT LAZARE", "ID BDGEO": "184", "marker-color": "#56B3FF"}}, {"type": "Feature", "geometry": {"type": "Point", "coordinates": [2.358435, 48.858856]}, "properties": {"station": "RUE VIEILLE DU TEMPLE", "ID BDGEO": "22", "marker-color": "#56B3FF"}}, {"type": "Feature", "geometry": {"type": "Point", "coordinates": [2.348139, 48.863989]}, "properties": {"station": "TURBIGO-ETIENNE MARCEL", "ID BDGEO": "18", "marker-color": "#56B3FF"}}, {"type": "Feature", "geometry": {"type": "Point", "coordinates": [2.364645, 48.856347]}, "properties": {"station": "PLACE DES VOSGES", "ID BDGEO": "24", "marker-color": "#56B3FF"}}, {"type": "Feature", "geometry": {"type": "Point", "coordinates": [2.340783, 48.868654]}, "properties": {"station": "BOURSE", "ID BDGEO": "517", "marker-color": "#56B3FF"}}, {"type": "Feature", "geometry": {"type": "Point", "coordinates": [2.368852, 48.854297]}, "properties": {"station": "BASTILLE-BEAUMARCHAIS", "ID BDGEO": "26", "marker-color": "#56B3FF"}}, {"type": "Feature", "geometry": {"type": "Point", "coordinates": [2.362016, 48.857103]}, "properties": {"station": "PAYENNE", "ID BDGEO": "23", "marker-color": "#56B3FF"}}, {"type": "Feature", "geometry": {"type": "Point", "coordinates": [2.35292, 48.862919]}, "properties": {"station": "GRENIER SAINT LAZARE-QUARTIER DE L'HORLOGE", "ID BDGEO": "501", "marker-color": "#56B3FF"}}, {"type": "Feature", "geometry": {"type": "Point", "coordinates": [2.351408, 48.863252]}, "properties": {"station": "SEBASTOPOL-ETIENNE MARCEL", "ID BDGEO": "63", "marker-color": "#56B3FF"}}, {"type": "Feature", "geometry": {"type": "Point", "coordinates": [2.3583, 48.861085]}, "properties": {"station": "ARCHIVES-HAUDRIETTES", "ID BDGEO": "56", "marker-color": "#56B3FF"}}, {"type": "Feature", "geometry": {"type": "Point", "coordinates": [2.373029, 48.848472]}, "properties": {"station": "DAUMESNIL-LEDRU ROLLIN", "ID BDGEO": "51", "marker-color": "#56B3FF"}}, {"type": "Feature", "geometry": {"type": "Point", "coordinates": [2.367451, 48.857686]}, "properties": {"station": "TOURNELLES-SAINT GILLES", "ID BDGEO": "53", "marker-color": "#56B3FF"}}, {"type": "Feature", "geometry": {"type": "Point", "coordinates": [2.350509, 48.863476]}, "properties": {"station": "SEBASTOPOL-ETIENNE MARCEL", "ID BDGEO": "70", "marker-color": "#56B3FF"}}, {"type": "Feature", "geometry": {"type": "Point", "coordinates": [2.353587, 48.862811]}, "properties": {"station": "GRENIER SAINT LAZARE-QUARTIER DE L'HORLOGE", "ID BDGEO": "57", "marker-color": "#56B3FF"}}, {"type": "Feature", "geometry": {"type": "Point", "coordinates": [2.332691, 48.869894]}, "properties": {"station": "OPERA-4 SEPTEMBRE", "ID BDGEO": "10", "marker-color": "#56B3FF"}}, {"type": "Feature", "geometry": {"type": "Point", "coordinates": [2.341805, 48.865508]}, "properties": {"station": "VICTOIRES", "ID BDGEO": "76", "marker-color": "#56B3FF"}}, {"type": "Feature", "geometry": {"type": "Point", "coordinates": [2.327704, 48.873363]}, "properties": {"station": "HAVRE-HAUSSMANN", "ID BDGEO": "5", "marker-color": "#56B3FF"}}, {"type": "Feature", "geometry": {"type": "Point", "coordinates": [2.363965, 48.858271]}, "properties": {"station": "TURENNE-SAINT GILLES", "ID BDGEO": "54", "marker-color": "#56B3FF"}}, {"type": "Feature", "geometry": {"type": "Point", "coordinates": [2.344474, 48.86487]}, "properties": {"station": "ETIENNE MARCEL-MONTMARTRE", "ID BDGEO": "17", "marker-color": "#56B3FF"}}, {"type": "Feature", "geometry": {"type": "Point", "coordinates": [2.331219, 48.871422]}, "properties": {"station": "OPERA", "ID BDGEO": "9", "marker-color": "#56B3FF"}}, {"type": "Feature", "geometry": {"type": "Point", "coordinates": [2.381224, 48.844389]}, "properties": {"station": "RAMBOUILLET", "ID BDGEO": "34", "marker-color": "#56B3FF"}}, {"type": "Feature", "geometry": {"type": "Point", "coordinates": [2.384028, 48.843058]}, "properties": {"station": "CHARLES BOSSUT", "ID BDGEO": "69", "marker-color": "#56B3FF"}}, {"type": "Feature", "geometry": {"type": "Point", "coordinates": [2.412143, 48.841066]}, "properties": {"station": "PORTE DE MONTEMPOIVRE", "ID BDGEO": "29002", "marker-color": "#56B3FF"}}, {"type": "Feature", "geometry": {"type": "Point", "coordinates": [2.369627, 48.852239]}, "properties": {"station": "BASTILLE", "ID BDGEO": "29", "marker-color": "#56B3FF"}}, {"type": "Feature", "geometry": {"type": "Point", "coordinates": [2.399288, 48.839644]}, "properties": {"station": "PICPUS-REUILLY", "ID BDGEO": "36", "marker-color": "#56B3FF"}}, {"type": "Feature", "geometry": {"type": "Point", "coordinates": [2.395768, 48.845452]}, "properties": {"station": "FABRE D'EGLANTINE", "ID BDGEO": "40", "marker-color": "#56B3FF"}}, {"type": "Feature", "geometry": {"type": "Point", "coordinates": [2.397399, 48.842818]}, "properties": {"station": "HOPITAL ROTHSCHILD", "ID BDGEO": "38", "marker-color": "#56B3FF"}}, {"type": "Feature", "geometry": {"type": "Point", "coordinates": [2.337977, 48.869211]}, "properties": {"station": "RICHELIEU 4 SEPTEMBRE", "ID BDGEO": "60", "marker-color": "#56B3FF"}}, {"type": "Feature", "geometry": {"type": "Point", "coordinates": [2.368811, 48.854432]}, "properties": {"station": "BASTILLE-BEAUMARCHAIS", "ID BDGEO": "27", "marker-color": "#56B3FF"}}]}