{"type": "FeatureCollection", "features": [{"type": "Feature", "geometry": {"type": "Point", "coordinates": [2.330173, 48.822796]}, "properties": {"etat de la localisation": "Delocalise", "numparc": 1376, "duree": "00:02:02", "horodatage": "2021-11-05 05:39:21", "marker-color": "#FF565E"}}, {"type": "Feature", "geometry": {"type": "Point", "coordinates": [2.328408, 48.822891]}, "properties": {"etat de la localisation": "Hors service", "numparc": 1376, "duree": "", "horodatage": "2021-11-05 05:41:23", "marker-color": "#707070"}}, {"type": "Feature", "geometry": {"type": "Point", "coordinates": [2.329963, 48.823112]}, "properties": {"etat de la localisation": "Delocalise", "numparc": 1458, "duree": "00:08:03", "horodatage": "2021-11-05 05:48:21", "marker-color": "#FF565E"}}, {"type": "Feature", "geometry": {"type": "Point", "coordinates": [2.329963, 48.823112]}, "properties": {"etat de la localisation": "Hors service", "numparc": 1458, "duree": "", "horodatage": "2021-11-05 06:03:24", "marker-color": "#707070"}}, {"type": "Feature", "geometry": {"type": "Point", "coordinates": [2.329963, 48.823112]}, "properties": {"etat de la localisation": "Delocalise", "numparc": 1458, "duree": "00:02:28", "horodatage": "2021-11-05 06:04:09", "marker-color": "#FF565E"}}, {"type": "Feature", "geometry": {"type": "Point", "coordinates": [2.33007, 48.822865]}, "properties": {"etat de la localisation": "Delocalise", "numparc": 1477, "duree": "00:02:54", "horodatage": "2021-11-05 06:05:25", "marker-color": "#FF565E"}}, {"type": "Feature", "geometry": {"type": "Point", "coordinates": [2.329963, 48.823112]}, "properties": {"etat de la localisation": "Hors service", "numparc": 1458, "duree": "", "horodatage": "2021-11-05 06:19:12", "marker-color": "#707070"}}, {"type": "Feature", "geometry": {"type": "Point", "coordinates": [2.329963, 48.823112]}, "properties": {"etat de la localisation": "Mission inconnue", "numparc": 1458, "duree": "", "horodatage": "2021-11-05 06:20:29", "marker-color": "#FF9F56"}}, {"type": "Feature", "geometry": {"type": "Point", "coordinates": [2.327471, 48.823826]}, "properties": {"etat de la localisation": "Mission inconnue", "numparc": 1470, "duree": "", "horodatage": "2021-11-05 06:24:26", "marker-color": "#FF9F56"}}, {"type": "Feature", "geometry": {"type": "Point", "coordinates": [2.327424, 48.823902]}, "properties": {"etat de la localisation": "Mission inconnue", "numparc": 1468, "duree": "", "horodatage": "2021-11-05 06:26:40", "marker-color": "#FF9F56"}}, {"type": "Feature", "geometry": {"type": "Point", "coordinates": [2.329963, 48.823112]}, "properties": {"etat de la localisation": "Hors service", "numparc": 1458, "duree": "", "horodatage": "2021-11-05 06:35:35", "marker-color": "#707070"}}, {"type": "Feature", "geometry": {"type": "Point", "coordinates": [2.329963, 48.823112]}, "properties": {"etat de la localisation": "Delocalise", "numparc": 1458, "duree": "00:00:39", "horodatage": "2021-11-05 06:36:50", "marker-color": "#FF565E"}}, {"type": "Feature", "geometry": {"type": "Point", "coordinates": [2.341083, 48.847301]}, "properties": {"etat de la localisation": "Mission suivante non connue", "numparc": 1470, "duree": "", "horodatage": "2021-11-05 06:45:24", "marker-color": "#7156FF"}}, {"type": "Feature", "geometry": {"type": "Point", "coordinates": [2.344942, 48.845909]}, "properties": {"etat de la localisation": "Delocalise", "numparc": 1470, "duree": "00:02:28", "horodatage": "2021-11-05 06:47:11", "marker-color": "#FF565E"}}, {"type": "Feature", "geometry": {"type": "Point", "coordinates": [2.297438, 48.892338]}, "properties": {"etat de la localisation": "Hors service", "numparc": 1458, "duree": "", "horodatage": "2021-11-05 06:51:52", "marker-color": "#707070"}}, {"type": "Feature", "geometry": {"type": "Point", "coordinates": [2.300485, 48.892063]}, "properties": {"etat de la localisation": "Hors service", "numparc": 1458, "duree": "", "horodatage": "2021-11-05 07:11:08", "marker-color": "#707070"}}, {"type": "Feature", "geometry": {"type": "Point", "coordinates": [2.29666, 48.888916]}, "properties": {"etat de la localisation": "Mission inconnue", "numparc": 1458, "duree": "", "horodatage": "2021-11-05 07:13:26", "marker-color": "#FF9F56"}}, {"type": "Feature", "geometry": {"type": "Point", "coordinates": [2.329917, 48.823536]}, "properties": {"etat de la localisation": "Delocalise", "numparc": 1453, "duree": "00:03:49", "horodatage": "2021-11-05 07:26:05", "marker-color": "#FF565E"}}, {"type": "Feature", "geometry": {"type": "Point", "coordinates": [2.323375, 48.869591]}, "properties": {"etat de la localisation": "Hors service", "numparc": 1458, "duree": "", "horodatage": "2021-11-05 07:28:32", "marker-color": "#707070"}}, {"type": "Feature", "geometry": {"type": "Point", "coordinates": [2.323384, 48.869587]}, "properties": {"etat de la localisation": "Mission inconnue", "numparc": 1458, "duree": "", "horodatage": "2021-11-05 07:31:11", "marker-color": "#FF9F56"}}, {"type": "Feature", "geometry": {"type": "Point", "coordinates": [2.328547, 48.823784]}, "properties": {"etat de la localisation": "Delocalise", "numparc": 1466, "duree": "00:16:00", "horodatage": "2021-11-05 07:38:43", "marker-color": "#FF565E"}}, {"type": "Feature", "geometry": {"type": "Point", "coordinates": [2.340071, 48.847626]}, "properties": {"etat de la localisation": "Hors service", "numparc": 1458, "duree": "", "horodatage": "2021-11-05 07:46:16", "marker-color": "#707070"}}, {"type": "Feature", "geometry": {"type": "Point", "coordinates": [2.343588, 48.846729]}, "properties": {"etat de la localisation": "Delocalise", "numparc": 1458, "duree": "00:09:12", "horodatage": "2021-11-05 07:49:47", "marker-color": "#FF565E"}}, {"type": "Feature", "geometry": {"type": "Point", "coordinates": [2.340476, 48.84763]}, "properties": {"etat de la localisation": "Hors service", "numparc": 1458, "duree": "", "horodatage": "2021-11-05 08:04:49", "marker-color": "#707070"}}, {"type": "Feature", "geometry": {"type": "Point", "coordinates": [2.326435, 48.853516]}, "properties": {"etat de la localisation": "Hors service", "numparc": 1458, "duree": "", "horodatage": "2021-11-05 08:21:41", "marker-color": "#707070"}}, {"type": "Feature", "geometry": {"type": "Point", "coordinates": [2.326435, 48.853516]}, "properties": {"etat de la localisation": "Delocalise", "numparc": 1458, "duree": "00:01:52", "horodatage": "2021-11-05 08:22:31", "marker-color": "#FF565E"}}, {"type": "Feature", "geometry": {"type": "Point", "coordinates": [2.303651, 48.878925]}, "properties": {"etat de la localisation": "Hors service", "numparc": 1458, "duree": "", "horodatage": "2021-11-05 08:37:34", "marker-color": "#707070"}}, {"type": "Feature", "geometry": {"type": "Point", "coordinates": [2.300199, 48.89283]}, "properties": {"etat de la localisation": "Hors service", "numparc": 1458, "duree": "", "horodatage": "2021-11-05 08:53:21", "marker-color": "#707070"}}, {"type": "Feature", "geometry": {"type": "Point", "coordinates": [2.300199, 48.89283]}, "properties": {"etat de la localisation": "Mission inconnue", "numparc": 1458, "duree": "", "horodatage": "2021-11-05 08:58:43", "marker-color": "#FF9F56"}}, {"type": "Feature", "geometry": {"type": "Point", "coordinates": [2.300278, 48.882008]}, "properties": {"etat de la localisation": "Mission inconnue", "numparc": 1458, "duree": "", "horodatage": "2021-11-05 09:07:30", "marker-color": "#FF9F56"}}, {"type": "Feature", "geometry": {"type": "Point", "coordinates": [2.305411, 48.877953]}, "properties": {"etat de la localisation": "Hors service", "numparc": 1458, "duree": "", "horodatage": "2021-11-05 09:09:17", "marker-color": "#707070"}}, {"type": "Feature", "geometry": {"type": "Point", "coordinates": [2.305424, 48.877945]}, "properties": {"etat de la localisation": "Delocalise", "numparc": 1458, "duree": "00:00:36", "horodatage": "2021-11-05 09:10:06", "marker-color": "#FF565E"}}, {"type": "Feature", "geometry": {"type": "Point", "coordinates": [2.305424, 48.877945]}, "properties": {"etat de la localisation": "Mission inconnue", "numparc": 1458, "duree": "", "horodatage": "2021-11-05 09:16:59", "marker-color": "#FF9F56"}}, {"type": "Feature", "geometry": {"type": "Point", "coordinates": [2.305424, 48.877945]}, "properties": {"etat de la localisation": "Hors service", "numparc": 1458, "duree": "", "horodatage": "2021-11-05 09:25:08", "marker-color": "#707070"}}, {"type": "Feature", "geometry": {"type": "Point", "coordinates": [2.329101, 48.852016]}, "properties": {"etat de la localisation": "Delocalise", "numparc": 1458, "duree": "00:01:16", "horodatage": "2021-11-05 09:28:48", "marker-color": "#FF565E"}}, {"type": "Feature", "geometry": {"type": "Point", "coordinates": [2.329107, 48.852009]}, "properties": {"etat de la localisation": "Mission inconnue", "numparc": 1458, "duree": "", "horodatage": "2021-11-05 09:30:24", "marker-color": "#FF9F56"}}, {"type": "Feature", "geometry": {"type": "Point", "coordinates": [2.340047, 48.847645]}, "properties": {"etat de la localisation": "Delocalise", "numparc": 1458, "duree": "00:02:18", "horodatage": "2021-11-05 09:38:39", "marker-color": "#FF565E"}}, {"type": "Feature", "geometry": {"type": "Point", "coordinates": [2.340047, 48.847645]}, "properties": {"etat de la localisation": "Mission suivante non connue", "numparc": 1458, "duree": "", "horodatage": "2021-11-05 09:40:57", "marker-color": "#7156FF"}}, {"type": "Feature", "geometry": {"type": "Point", "coordinates": [2.340047, 48.847645]}, "properties": {"etat de la localisation": "Hors service", "numparc": 1458, "duree": "", "horodatage": "2021-11-05 09:43:51", "marker-color": "#707070"}}, {"type": "Feature", "geometry": {"type": "Point", "coordinates": [2.320981, 48.865623]}, "properties": {"etat de la localisation": "Delocalise", "numparc": 1477, "duree": "00:01:08", "horodatage": "2021-11-05 09:44:21", "marker-color": "#FF565E"}}, {"type": "Feature", "geometry": {"type": "Point", "coordinates": [2.340047, 48.847645]}, "properties": {"etat de la localisation": "Delocalise", "numparc": 1458, "duree": "00:10:22", "horodatage": "2021-11-05 09:47:20", "marker-color": "#FF565E"}}, {"type": "Feature", "geometry": {"type": "Point", "coordinates": [2.344178, 48.846684]}, "properties": {"etat de la localisation": "Hors service", "numparc": 1458, "duree": "", "horodatage": "2021-11-05 10:02:23", "marker-color": "#707070"}}, {"type": "Feature", "geometry": {"type": "Point", "coordinates": [2.322503, 48.867157]}, "properties": {"etat de la localisation": "Hors service", "numparc": 1458, "duree": "", "horodatage": "2021-11-05 10:25:40", "marker-color": "#707070"}}, {"type": "Feature", "geometry": {"type": "Point", "coordinates": [2.325362, 48.870068]}, "properties": {"etat de la localisation": "Delocalise", "numparc": 1458, "duree": "00:01:17", "horodatage": "2021-11-05 10:28:09", "marker-color": "#FF565E"}}, {"type": "Feature", "geometry": {"type": "Point", "coordinates": [2.298223, 48.884079]}, "properties": {"etat de la localisation": "Hors service", "numparc": 1458, "duree": "", "horodatage": "2021-11-05 10:43:11", "marker-color": "#707070"}}, {"type": "Feature", "geometry": {"type": "Point", "coordinates": [2.297881, 48.885204]}, "properties": {"etat de la localisation": "Delocalise", "numparc": 1458, "duree": "00:00:47", "horodatage": "2021-11-05 10:44:20", "marker-color": "#FF565E"}}, {"type": "Feature", "geometry": {"type": "Point", "coordinates": [2.300097, 48.892761]}, "properties": {"etat de la localisation": "Hors service", "numparc": 1458, "duree": "", "horodatage": "2021-11-05 10:59:22", "marker-color": "#707070"}}, {"type": "Feature", "geometry": {"type": "Point", "coordinates": [2.300097, 48.892761]}, "properties": {"etat de la localisation": "Delocalise", "numparc": 1458, "duree": "00:00:22", "horodatage": "2021-11-05 11:00:30", "marker-color": "#FF565E"}}, {"type": "Feature", "geometry": {"type": "Point", "coordinates": [2.300226, 48.892822]}, "properties": {"etat de la localisation": "Hors service", "numparc": 1466, "duree": "", "horodatage": "2021-11-05 11:03:34", "marker-color": "#707070"}}, {"type": "Feature", "geometry": {"type": "Point", "coordinates": [2.320099, 48.874344]}, "properties": {"etat de la localisation": "Hors service", "numparc": 1458, "duree": "", "horodatage": "2021-11-05 11:15:32", "marker-color": "#707070"}}, {"type": "Feature", "geometry": {"type": "Point", "coordinates": [2.346887, 48.846012]}, "properties": {"etat de la localisation": "Hors service", "numparc": 1458, "duree": "", "horodatage": "2021-11-05 11:44:24", "marker-color": "#707070"}}, {"type": "Feature", "geometry": {"type": "Point", "coordinates": [2.328247, 48.823608]}, "properties": {"etat de la localisation": "Hors service", "numparc": 1458, "duree": "", "horodatage": "2021-11-05 11:47:55", "marker-color": "#707070"}}, {"type": "Feature", "geometry": {"type": "Point", "coordinates": [2.299248, 48.891121]}, "properties": {"etat de la localisation": "Delocalise", "numparc": 1455, "duree": "00:02:09", "horodatage": "2021-11-05 12:10:57", "marker-color": "#FF565E"}}, {"type": "Feature", "geometry": {"type": "Point", "coordinates": [2.340365, 48.847591]}, "properties": {"etat de la localisation": "Mission inconnue", "numparc": 1467, "duree": "", "horodatage": "2021-11-05 12:30:38", "marker-color": "#FF9F56"}}, {"type": "Feature", "geometry": {"type": "Point", "coordinates": [2.300235, 48.892776]}, "properties": {"etat de la localisation": "Hors service", "numparc": 1477, "duree": "", "horodatage": "2021-11-05 12:43:51", "marker-color": "#707070"}}, {"type": "Feature", "geometry": {"type": "Point", "coordinates": [2.329009, 48.823009]}, "properties": {"etat de la localisation": "Hors service", "numparc": 1464, "duree": "", "horodatage": "2021-11-05 12:57:15", "marker-color": "#707070"}}, {"type": "Feature", "geometry": {"type": "Point", "coordinates": [2.31479, 48.875111]}, "properties": {"etat de la localisation": "Mission inconnue", "numparc": 1466, "duree": "", "horodatage": "2021-11-05 13:00:55", "marker-color": "#FF9F56"}}, {"type": "Feature", "geometry": {"type": "Point", "coordinates": [2.326418, 48.824097]}, "properties": {"etat de la localisation": "Delocalise", "numparc": 1458, "duree": "00:00:03", "horodatage": "2021-11-05 13:21:04", "marker-color": "#FF565E"}}, {"type": "Feature", "geometry": {"type": "Point", "coordinates": [2.330205, 48.823284]}, "properties": {"etat de la localisation": "Delocalise", "numparc": 1418, "duree": "00:14:06", "horodatage": "2021-11-05 13:33:29", "marker-color": "#FF565E"}}, {"type": "Feature", "geometry": {"type": "Point", "coordinates": [2.326418, 48.824097]}, "properties": {"etat de la localisation": "Hors service", "numparc": 1458, "duree": "", "horodatage": "2021-11-05 13:36:06", "marker-color": "#707070"}}, {"type": "Feature", "geometry": {"type": "Point", "coordinates": [2.329589, 48.822674]}, "properties": {"etat de la localisation": "Hors service", "numparc": 1469, "duree": "", "horodatage": "2021-11-05 13:38:10", "marker-color": "#707070"}}, {"type": "Feature", "geometry": {"type": "Point", "coordinates": [2.326418, 48.824097]}, "properties": {"etat de la localisation": "Delocalise", "numparc": 1458, "duree": "00:02:12", "horodatage": "2021-11-05 13:53:44", "marker-color": "#FF565E"}}, {"type": "Feature", "geometry": {"type": "Point", "coordinates": [2.325079, 48.85656]}, "properties": {"etat de la localisation": "Mission suivante non connue", "numparc": 1376, "duree": "", "horodatage": "2021-11-05 13:55:18", "marker-color": "#7156FF"}}, {"type": "Feature", "geometry": {"type": "Point", "coordinates": [2.325079, 48.85656]}, "properties": {"etat de la localisation": "Mission inconnue", "numparc": 1376, "duree": "", "horodatage": "2021-11-05 13:55:57", "marker-color": "#FF9F56"}}, {"type": "Feature", "geometry": {"type": "Point", "coordinates": [2.325079, 48.85656]}, "properties": {"etat de la localisation": "Mission inconnue", "numparc": 1376, "duree": "", "horodatage": "2021-11-05 13:56:20", "marker-color": "#FF9F56"}}, {"type": "Feature", "geometry": {"type": "Point", "coordinates": [2.330272, 48.823456]}, "properties": {"etat de la localisation": "Hors service", "numparc": 1466, "duree": "", "horodatage": "2021-11-05 13:58:10", "marker-color": "#707070"}}, {"type": "Feature", "geometry": {"type": "Point", "coordinates": [2.32397, 48.857689]}, "properties": {"etat de la localisation": "Mission inconnue", "numparc": 1376, "duree": "", "horodatage": "2021-11-05 13:59:13", "marker-color": "#FF9F56"}}, {"type": "Feature", "geometry": {"type": "Point", "coordinates": [2.319294, 48.862591]}, "properties": {"etat de la localisation": "Delocalise", "numparc": 1376, "duree": "00:02:45", "horodatage": "2021-11-05 14:04:37", "marker-color": "#FF565E"}}, {"type": "Feature", "geometry": {"type": "Point", "coordinates": [2.302768, 48.879524]}, "properties": {"etat de la localisation": "Hors service", "numparc": 1458, "duree": "", "horodatage": "2021-11-05 14:08:45", "marker-color": "#707070"}}, {"type": "Feature", "geometry": {"type": "Point", "coordinates": [2.3254, 48.870201]}, "properties": {"etat de la localisation": "Delocalise", "numparc": 1376, "duree": "00:03:04", "horodatage": "2021-11-05 14:09:24", "marker-color": "#FF565E"}}, {"type": "Feature", "geometry": {"type": "Point", "coordinates": [2.302768, 48.879524]}, "properties": {"etat de la localisation": "Delocalise", "numparc": 1458, "duree": "00:04:59", "horodatage": "2021-11-05 14:09:46", "marker-color": "#FF565E"}}, {"type": "Feature", "geometry": {"type": "Point", "coordinates": [2.32075, 48.873863]}, "properties": {"etat de la localisation": "Delocalise", "numparc": 1376, "duree": "00:00:20", "horodatage": "2021-11-05 14:13:41", "marker-color": "#FF565E"}}, {"type": "Feature", "geometry": {"type": "Point", "coordinates": [2.318635, 48.874466]}, "properties": {"etat de la localisation": "Delocalise", "numparc": 1376, "duree": "00:04:11", "horodatage": "2021-11-05 14:15:33", "marker-color": "#FF565E"}}, {"type": "Feature", "geometry": {"type": "Point", "coordinates": [2.303246, 48.879189]}, "properties": {"etat de la localisation": "Delocalise", "numparc": 1376, "duree": "00:03:43", "horodatage": "2021-11-05 14:21:21", "marker-color": "#FF565E"}}, {"type": "Feature", "geometry": {"type": "Point", "coordinates": [2.32227, 48.867268]}, "properties": {"etat de la localisation": "Hors service", "numparc": 1458, "duree": "", "horodatage": "2021-11-05 14:24:48", "marker-color": "#707070"}}, {"type": "Feature", "geometry": {"type": "Point", "coordinates": [2.297824, 48.885288]}, "properties": {"etat de la localisation": "Delocalise", "numparc": 1376, "duree": "00:00:43", "horodatage": "2021-11-05 14:27:15", "marker-color": "#FF565E"}}, {"type": "Feature", "geometry": {"type": "Point", "coordinates": [2.295884, 48.886349]}, "properties": {"etat de la localisation": "Delocalise", "numparc": 1376, "duree": "00:06:08", "horodatage": "2021-11-05 14:29:05", "marker-color": "#FF565E"}}, {"type": "Feature", "geometry": {"type": "Point", "coordinates": [2.320162, 48.861576]}, "properties": {"etat de la localisation": "Mission inconnue", "numparc": 1458, "duree": "", "horodatage": "2021-11-05 14:29:38", "marker-color": "#FF9F56"}}, {"type": "Feature", "geometry": {"type": "Point", "coordinates": [2.332808, 48.851017]}, "properties": {"etat de la localisation": "Hors service", "numparc": 1458, "duree": "", "horodatage": "2021-11-05 14:44:44", "marker-color": "#707070"}}, {"type": "Feature", "geometry": {"type": "Point", "coordinates": [2.325132, 48.856483]}, "properties": {"etat de la localisation": "Mission suivante non connue", "numparc": 1468, "duree": "", "horodatage": "2021-11-05 14:47:43", "marker-color": "#7156FF"}}, {"type": "Feature", "geometry": {"type": "Point", "coordinates": [2.325243, 48.856426]}, "properties": {"etat de la localisation": "Mission inconnue", "numparc": 1468, "duree": "", "horodatage": "2021-11-05 14:48:13", "marker-color": "#FF9F56"}}, {"type": "Feature", "geometry": {"type": "Point", "coordinates": [2.346975, 48.845798]}, "properties": {"etat de la localisation": "Delocalise", "numparc": 1458, "duree": "00:01:52", "horodatage": "2021-11-05 14:56:27", "marker-color": "#FF565E"}}, {"type": "Feature", "geometry": {"type": "Point", "coordinates": [2.326269, 48.854149]}, "properties": {"etat de la localisation": "Mission inconnue", "numparc": 1468, "duree": "", "horodatage": "2021-11-05 14:57:11", "marker-color": "#FF9F56"}}, {"type": "Feature", "geometry": {"type": "Point", "coordinates": [2.325812, 48.855473]}, "properties": {"etat de la localisation": "Mission inconnue", "numparc": 1468, "duree": "", "horodatage": "2021-11-05 14:58:00", "marker-color": "#FF9F56"}}, {"type": "Feature", "geometry": {"type": "Point", "coordinates": [2.319813, 48.862202]}, "properties": {"etat de la localisation": "Mission inconnue", "numparc": 1468, "duree": "", "horodatage": "2021-11-05 15:04:18", "marker-color": "#FF9F56"}}, {"type": "Feature", "geometry": {"type": "Point", "coordinates": [2.327524, 48.851665]}, "properties": {"etat de la localisation": "Hors service", "numparc": 1458, "duree": "", "horodatage": "2021-11-05 15:11:29", "marker-color": "#707070"}}, {"type": "Feature", "geometry": {"type": "Point", "coordinates": [2.327524, 48.851665]}, "properties": {"etat de la localisation": "Delocalise", "numparc": 1458, "duree": "00:01:23", "horodatage": "2021-11-05 15:13:58", "marker-color": "#FF565E"}}, {"type": "Feature", "geometry": {"type": "Point", "coordinates": [2.322558, 48.867237]}, "properties": {"etat de la localisation": "Hors service", "numparc": 1458, "duree": "", "horodatage": "2021-11-05 15:28:59", "marker-color": "#707070"}}, {"type": "Feature", "geometry": {"type": "Point", "coordinates": [2.325177, 48.856613]}, "properties": {"etat de la localisation": "Mission suivante non connue", "numparc": 1477, "duree": "", "horodatage": "2021-11-05 15:33:42", "marker-color": "#7156FF"}}, {"type": "Feature", "geometry": {"type": "Point", "coordinates": [2.325223, 48.856583]}, "properties": {"etat de la localisation": "Mission suivante non connue", "numparc": 1477, "duree": "", "horodatage": "2021-11-05 15:34:40", "marker-color": "#7156FF"}}, {"type": "Feature", "geometry": {"type": "Point", "coordinates": [2.325498, 48.856247]}, "properties": {"etat de la localisation": "Mission inconnue", "numparc": 1477, "duree": "", "horodatage": "2021-11-05 15:35:23", "marker-color": "#FF9F56"}}, {"type": "Feature", "geometry": {"type": "Point", "coordinates": [2.296361, 48.885952]}, "properties": {"etat de la localisation": "Mission inconnue", "numparc": 1468, "duree": "", "horodatage": "2021-11-05 15:36:42", "marker-color": "#FF9F56"}}, {"type": "Feature", "geometry": {"type": "Point", "coordinates": [2.32387, 48.857872]}, "properties": {"etat de la localisation": "Delocalise", "numparc": 1477, "duree": "00:00:12", "horodatage": "2021-11-05 15:42:49", "marker-color": "#FF565E"}}, {"type": "Feature", "geometry": {"type": "Point", "coordinates": [2.32293, 48.858845]}, "properties": {"etat de la localisation": "Delocalise", "numparc": 1477, "duree": "00:00:26", "horodatage": "2021-11-05 15:43:23", "marker-color": "#FF565E"}}, {"type": "Feature", "geometry": {"type": "Point", "coordinates": [2.298313, 48.892857]}, "properties": {"etat de la localisation": "Mission inconnue", "numparc": 1468, "duree": "", "horodatage": "2021-11-05 15:43:29", "marker-color": "#FF9F56"}}, {"type": "Feature", "geometry": {"type": "Point", "coordinates": [2.321271, 48.860584]}, "properties": {"etat de la localisation": "Delocalise", "numparc": 1477, "duree": "00:01:11", "horodatage": "2021-11-05 15:44:19", "marker-color": "#FF565E"}}, {"type": "Feature", "geometry": {"type": "Point", "coordinates": [2.30364, 48.878914]}, "properties": {"etat de la localisation": "Hors service", "numparc": 1458, "duree": "", "horodatage": "2021-11-05 15:47:45", "marker-color": "#707070"}}, {"type": "Feature", "geometry": {"type": "Point", "coordinates": [2.297764, 48.885315]}, "properties": {"etat de la localisation": "Delocalise", "numparc": 1458, "duree": "00:00:18", "horodatage": "2021-11-05 15:53:01", "marker-color": "#FF565E"}}, {"type": "Feature", "geometry": {"type": "Point", "coordinates": [2.330272, 48.823456]}, "properties": {"etat de la localisation": "Delocalise", "numparc": 1466, "duree": "00:01:22", "horodatage": "2021-11-05 16:06:37", "marker-color": "#FF565E"}}, {"type": "Feature", "geometry": {"type": "Point", "coordinates": [2.300186, 48.892754]}, "properties": {"etat de la localisation": "Hors service", "numparc": 1458, "duree": "", "horodatage": "2021-11-05 16:08:02", "marker-color": "#707070"}}, {"type": "Feature", "geometry": {"type": "Point", "coordinates": [2.305542, 48.877914]}, "properties": {"etat de la localisation": "Hors service", "numparc": 1458, "duree": "", "horodatage": "2021-11-05 16:23:42", "marker-color": "#707070"}}, {"type": "Feature", "geometry": {"type": "Point", "coordinates": [2.305542, 48.877914]}, "properties": {"etat de la localisation": "Mission inconnue", "numparc": 1458, "duree": "", "horodatage": "2021-11-05 16:26:29", "marker-color": "#FF9F56"}}, {"type": "Feature", "geometry": {"type": "Point", "coordinates": [2.300131, 48.892841]}, "properties": {"etat de la localisation": "Mission suivante non connue", "numparc": 1477, "duree": "", "horodatage": "2021-11-05 16:26:52", "marker-color": "#7156FF"}}, {"type": "Feature", "geometry": {"type": "Point", "coordinates": [2.300131, 48.892841]}, "properties": {"etat de la localisation": "Mission inconnue", "numparc": 1477, "duree": "", "horodatage": "2021-11-05 16:27:05", "marker-color": "#FF9F56"}}, {"type": "Feature", "geometry": {"type": "Point", "coordinates": [2.324746, 48.856838]}, "properties": {"etat de la localisation": "Delocalise", "numparc": 1420, "duree": "00:03:22", "horodatage": "2021-11-05 16:36:42", "marker-color": "#FF565E"}}, {"type": "Feature", "geometry": {"type": "Point", "coordinates": [2.331969, 48.851967]}, "properties": {"etat de la localisation": "Delocalise", "numparc": 1420, "duree": "00:04:38", "horodatage": "2021-11-05 16:40:36", "marker-color": "#FF565E"}}, {"type": "Feature", "geometry": {"type": "Point", "coordinates": [2.320163, 48.861576]}, "properties": {"etat de la localisation": "Hors service", "numparc": 1458, "duree": "", "horodatage": "2021-11-05 16:41:34", "marker-color": "#707070"}}, {"type": "Feature", "geometry": {"type": "Point", "coordinates": [2.320163, 48.861576]}, "properties": {"etat de la localisation": "Mission inconnue", "numparc": 1458, "duree": "", "horodatage": "2021-11-05 16:43:09", "marker-color": "#FF9F56"}}, {"type": "Feature", "geometry": {"type": "Point", "coordinates": [2.320198, 48.874386]}, "properties": {"etat de la localisation": "Mission suivante non connue", "numparc": 1418, "duree": "", "horodatage": "2021-11-05 16:56:48", "marker-color": "#7156FF"}}, {"type": "Feature", "geometry": {"type": "Point", "coordinates": [2.320198, 48.874386]}, "properties": {"etat de la localisation": "Mission inconnue", "numparc": 1418, "duree": "", "horodatage": "2021-11-05 16:57:51", "marker-color": "#FF9F56"}}, {"type": "Feature", "geometry": {"type": "Point", "coordinates": [2.340102, 48.847614]}, "properties": {"etat de la localisation": "Hors service", "numparc": 1458, "duree": "", "horodatage": "2021-11-05 16:58:15", "marker-color": "#707070"}}, {"type": "Feature", "geometry": {"type": "Point", "coordinates": [2.325151, 48.856724]}, "properties": {"etat de la localisation": "Mission suivante non connue", "numparc": 1470, "duree": "", "horodatage": "2021-11-05 17:02:04", "marker-color": "#7156FF"}}, {"type": "Feature", "geometry": {"type": "Point", "coordinates": [2.325168, 48.856693]}, "properties": {"etat de la localisation": "Mission inconnue", "numparc": 1470, "duree": "", "horodatage": "2021-11-05 17:02:26", "marker-color": "#FF9F56"}}, {"type": "Feature", "geometry": {"type": "Point", "coordinates": [2.340134, 48.847546]}, "properties": {"etat de la localisation": "Mission inconnue", "numparc": 1458, "duree": "", "horodatage": "2021-11-05 17:04:02", "marker-color": "#FF9F56"}}, {"type": "Feature", "geometry": {"type": "Point", "coordinates": [2.340134, 48.847546]}, "properties": {"etat de la localisation": "Mission suivante non connue", "numparc": 1458, "duree": "", "horodatage": "2021-11-05 17:04:22", "marker-color": "#7156FF"}}, {"type": "Feature", "geometry": {"type": "Point", "coordinates": [2.322626, 48.870983]}, "properties": {"etat de la localisation": "Delocalise", "numparc": 1418, "duree": "00:01:59", "horodatage": "2021-11-05 17:04:32", "marker-color": "#FF565E"}}, {"type": "Feature", "geometry": {"type": "Point", "coordinates": [2.340134, 48.847546]}, "properties": {"etat de la localisation": "Mission inconnue", "numparc": 1458, "duree": "", "horodatage": "2021-11-05 17:04:40", "marker-color": "#FF9F56"}}, {"type": "Feature", "geometry": {"type": "Point", "coordinates": [2.33906, 48.848831]}, "properties": {"etat de la localisation": "Delocalise", "numparc": 1468, "duree": "00:01:52", "horodatage": "2021-11-05 17:06:48", "marker-color": "#FF565E"}}, {"type": "Feature", "geometry": {"type": "Point", "coordinates": [2.321154, 48.866173]}, "properties": {"etat de la localisation": "Delocalise", "numparc": 1418, "duree": "00:01:42", "horodatage": "2021-11-05 17:08:18", "marker-color": "#FF565E"}}, {"type": "Feature", "geometry": {"type": "Point", "coordinates": [2.325513, 48.856377]}, "properties": {"etat de la localisation": "Mission inconnue", "numparc": 1470, "duree": "", "horodatage": "2021-11-05 17:09:36", "marker-color": "#FF9F56"}}, {"type": "Feature", "geometry": {"type": "Point", "coordinates": [2.319799, 48.863792]}, "properties": {"etat de la localisation": "Mission inconnue", "numparc": 1418, "duree": "", "horodatage": "2021-11-05 17:10:00", "marker-color": "#FF9F56"}}, {"type": "Feature", "geometry": {"type": "Point", "coordinates": [2.319329, 48.863148]}, "properties": {"etat de la localisation": "Mission inconnue", "numparc": 1418, "duree": "", "horodatage": "2021-11-05 17:10:20", "marker-color": "#FF9F56"}}, {"type": "Feature", "geometry": {"type": "Point", "coordinates": [2.322973, 48.858574]}, "properties": {"etat de la localisation": "Delocalise", "numparc": 1418, "duree": "00:00:20", "horodatage": "2021-11-05 17:13:42", "marker-color": "#FF565E"}}, {"type": "Feature", "geometry": {"type": "Point", "coordinates": [2.324786, 48.856743]}, "properties": {"etat de la localisation": "Delocalise", "numparc": 1418, "duree": "00:00:19", "horodatage": "2021-11-05 17:14:48", "marker-color": "#FF565E"}}, {"type": "Feature", "geometry": {"type": "Point", "coordinates": [2.325604, 48.855339]}, "properties": {"etat de la localisation": "Delocalise", "numparc": 1418, "duree": "00:00:50", "horodatage": "2021-11-05 17:15:42", "marker-color": "#FF565E"}}, {"type": "Feature", "geometry": {"type": "Point", "coordinates": [2.338927, 48.849094]}, "properties": {"etat de la localisation": "Delocalise", "numparc": 1420, "duree": "00:02:17", "horodatage": "2021-11-05 17:15:54", "marker-color": "#FF565E"}}, {"type": "Feature", "geometry": {"type": "Point", "coordinates": [2.326594, 48.852257]}, "properties": {"etat de la localisation": "Delocalise", "numparc": 1418, "duree": "00:00:55", "horodatage": "2021-11-05 17:17:48", "marker-color": "#FF565E"}}, {"type": "Feature", "geometry": {"type": "Point", "coordinates": [2.333018, 48.848778]}, "properties": {"etat de la localisation": "Mission inconnue", "numparc": 1420, "duree": "", "horodatage": "2021-11-05 17:18:11", "marker-color": "#FF9F56"}}, {"type": "Feature", "geometry": {"type": "Point", "coordinates": [2.332728, 48.848843]}, "properties": {"etat de la localisation": "Delocalise", "numparc": 1420, "duree": "00:00:51", "horodatage": "2021-11-05 17:18:22", "marker-color": "#FF565E"}}, {"type": "Feature", "geometry": {"type": "Point", "coordinates": [2.340184, 48.847504]}, "properties": {"etat de la localisation": "Hors service", "numparc": 1458, "duree": "", "horodatage": "2021-11-05 17:19:07", "marker-color": "#707070"}}, {"type": "Feature", "geometry": {"type": "Point", "coordinates": [2.329583, 48.852016]}, "properties": {"etat de la localisation": "Delocalise", "numparc": 1418, "duree": "00:02:56", "horodatage": "2021-11-05 17:19:53", "marker-color": "#FF565E"}}, {"type": "Feature", "geometry": {"type": "Point", "coordinates": [2.340184, 48.847504]}, "properties": {"etat de la localisation": "Mission suivante non connue", "numparc": 1458, "duree": "", "horodatage": "2021-11-05 17:20:39", "marker-color": "#7156FF"}}, {"type": "Feature", "geometry": {"type": "Point", "coordinates": [2.340184, 48.847504]}, "properties": {"etat de la localisation": "Mission inconnue", "numparc": 1458, "duree": "", "horodatage": "2021-11-05 17:20:50", "marker-color": "#FF9F56"}}, {"type": "Feature", "geometry": {"type": "Point", "coordinates": [2.3327, 48.85033]}, "properties": {"etat de la localisation": "Delocalise", "numparc": 1418, "duree": "00:00:55", "horodatage": "2021-11-05 17:24:11", "marker-color": "#FF565E"}}, {"type": "Feature", "geometry": {"type": "Point", "coordinates": [2.334784, 48.849083]}, "properties": {"etat de la localisation": "Delocalise", "numparc": 1418, "duree": "00:01:58", "horodatage": "2021-11-05 17:25:30", "marker-color": "#FF565E"}}, {"type": "Feature", "geometry": {"type": "Point", "coordinates": [2.340092, 48.847698]}, "properties": {"etat de la localisation": "Mission suivante non connue", "numparc": 1455, "duree": "", "horodatage": "2021-11-05 17:34:00", "marker-color": "#7156FF"}}, {"type": "Feature", "geometry": {"type": "Point", "coordinates": [2.332909, 48.850636]}, "properties": {"etat de la localisation": "Hors service", "numparc": 1458, "duree": "", "horodatage": "2021-11-05 17:35:44", "marker-color": "#707070"}}, {"type": "Feature", "geometry": {"type": "Point", "coordinates": [2.338937, 48.848938]}, "properties": {"etat de la localisation": "Delocalise", "numparc": 1453, "duree": "00:02:55", "horodatage": "2021-11-05 17:38:46", "marker-color": "#FF565E"}}, {"type": "Feature", "geometry": {"type": "Point", "coordinates": [2.340271, 48.847511]}, "properties": {"etat de la localisation": "Mission suivante non connue", "numparc": 1455, "duree": "", "horodatage": "2021-11-05 17:39:11", "marker-color": "#7156FF"}}, {"type": "Feature", "geometry": {"type": "Point", "coordinates": [2.340271, 48.847511]}, "properties": {"etat de la localisation": "Mission inconnue", "numparc": 1455, "duree": "", "horodatage": "2021-11-05 17:39:14", "marker-color": "#FF9F56"}}, {"type": "Feature", "geometry": {"type": "Point", "coordinates": [2.340271, 48.847511]}, "properties": {"etat de la localisation": "Mission inconnue", "numparc": 1455, "duree": "", "horodatage": "2021-11-05 17:41:35", "marker-color": "#FF9F56"}}, {"type": "Feature", "geometry": {"type": "Point", "coordinates": [2.330188, 48.823128]}, "properties": {"etat de la localisation": "Hors service", "numparc": 1477, "duree": "", "horodatage": "2021-11-05 17:41:36", "marker-color": "#707070"}}, {"type": "Feature", "geometry": {"type": "Point", "coordinates": [2.292709, 48.889751]}, "properties": {"etat de la localisation": "Mission inconnue", "numparc": 1470, "duree": "", "horodatage": "2021-11-05 17:46:53", "marker-color": "#FF9F56"}}, {"type": "Feature", "geometry": {"type": "Point", "coordinates": [2.3389, 48.84903]}, "properties": {"etat de la localisation": "Delocalise", "numparc": 1418, "duree": "00:02:01", "horodatage": "2021-11-05 17:50:40", "marker-color": "#FF565E"}}, {"type": "Feature", "geometry": {"type": "Point", "coordinates": [2.323372, 48.858322]}, "properties": {"etat de la localisation": "Mission inconnue", "numparc": 1458, "duree": "", "horodatage": "2021-11-05 17:52:02", "marker-color": "#FF9F56"}}, {"type": "Feature", "geometry": {"type": "Point", "coordinates": [2.323372, 48.858322]}, "properties": {"etat de la localisation": "Mission inconnue", "numparc": 1458, "duree": "", "horodatage": "2021-11-05 17:52:11", "marker-color": "#FF9F56"}}, {"type": "Feature", "geometry": {"type": "Point", "coordinates": [2.340484, 48.847622]}, "properties": {"etat de la localisation": "Mission inconnue", "numparc": 1455, "duree": "", "horodatage": "2021-11-05 17:59:56", "marker-color": "#FF9F56"}}, {"type": "Feature", "geometry": {"type": "Point", "coordinates": [2.319434, 48.874523]}, "properties": {"etat de la localisation": "Mission inconnue", "numparc": 1458, "duree": "", "horodatage": "2021-11-05 18:03:19", "marker-color": "#FF9F56"}}, {"type": "Feature", "geometry": {"type": "Point", "coordinates": [2.319434, 48.874523]}, "properties": {"etat de la localisation": "Hors service", "numparc": 1458, "duree": "", "horodatage": "2021-11-05 18:07:08", "marker-color": "#707070"}}, {"type": "Feature", "geometry": {"type": "Point", "coordinates": [2.325767, 48.855637]}, "properties": {"etat de la localisation": "Mission inconnue", "numparc": 1455, "duree": "", "horodatage": "2021-11-05 18:11:34", "marker-color": "#FF9F56"}}, {"type": "Feature", "geometry": {"type": "Point", "coordinates": [2.322333, 48.867275]}, "properties": {"etat de la localisation": "Mission inconnue", "numparc": 1458, "duree": "", "horodatage": "2021-11-05 18:16:40", "marker-color": "#FF9F56"}}, {"type": "Feature", "geometry": {"type": "Point", "coordinates": [2.322333, 48.867275]}, "properties": {"etat de la localisation": "Mission inconnue", "numparc": 1458, "duree": "", "horodatage": "2021-11-05 18:17:12", "marker-color": "#FF9F56"}}, {"type": "Feature", "geometry": {"type": "Point", "coordinates": [2.319977, 48.874607]}, "properties": {"etat de la localisation": "Mission suivante non connue", "numparc": 1455, "duree": "", "horodatage": "2021-11-05 18:31:23", "marker-color": "#7156FF"}}, {"type": "Feature", "geometry": {"type": "Point", "coordinates": [2.332786, 48.851112]}, "properties": {"etat de la localisation": "Hors service", "numparc": 1458, "duree": "", "horodatage": "2021-11-05 18:31:45", "marker-color": "#707070"}}, {"type": "Feature", "geometry": {"type": "Point", "coordinates": [2.320129, 48.874363]}, "properties": {"etat de la localisation": "Mission inconnue", "numparc": 1455, "duree": "", "horodatage": "2021-11-05 18:31:49", "marker-color": "#FF9F56"}}, {"type": "Feature", "geometry": {"type": "Point", "coordinates": [2.320129, 48.874363]}, "properties": {"etat de la localisation": "Mission inconnue", "numparc": 1455, "duree": "", "horodatage": "2021-11-05 18:34:57", "marker-color": "#FF9F56"}}, {"type": "Feature", "geometry": {"type": "Point", "coordinates": [2.33879, 48.849052]}, "properties": {"etat de la localisation": "Delocalise", "numparc": 1466, "duree": "00:02:36", "horodatage": "2021-11-05 18:39:48", "marker-color": "#FF565E"}}, {"type": "Feature", "geometry": {"type": "Point", "coordinates": [2.332718, 48.850056]}, "properties": {"etat de la localisation": "Delocalise", "numparc": 1467, "duree": "00:00:36", "horodatage": "2021-11-05 18:54:39", "marker-color": "#FF565E"}}, {"type": "Feature", "geometry": {"type": "Point", "coordinates": [2.337248, 48.849289]}, "properties": {"etat de la localisation": "Mission inconnue", "numparc": 1455, "duree": "", "horodatage": "2021-11-05 19:03:47", "marker-color": "#FF9F56"}}, {"type": "Feature", "geometry": {"type": "Point", "coordinates": [2.340055, 48.847595]}, "properties": {"etat de la localisation": "Hors service", "numparc": 1458, "duree": "", "horodatage": "2021-11-05 19:04:36", "marker-color": "#707070"}}, {"type": "Feature", "geometry": {"type": "Point", "coordinates": [2.340077, 48.847702]}, "properties": {"etat de la localisation": "Mission suivante non connue", "numparc": 1470, "duree": "", "horodatage": "2021-11-05 19:21:21", "marker-color": "#7156FF"}}, {"type": "Feature", "geometry": {"type": "Point", "coordinates": [2.323569, 48.858295]}, "properties": {"etat de la localisation": "Hors service", "numparc": 1458, "duree": "", "horodatage": "2021-11-05 19:21:32", "marker-color": "#707070"}}, {"type": "Feature", "geometry": {"type": "Point", "coordinates": [2.328601, 48.823975]}, "properties": {"etat de la localisation": "Hors service", "numparc": 1455, "duree": "", "horodatage": "2021-11-05 19:28:36", "marker-color": "#707070"}}, {"type": "Feature", "geometry": {"type": "Point", "coordinates": [2.327366, 48.82375]}, "properties": {"etat de la localisation": "Delocalise", "numparc": 1468, "duree": "00:06:19", "horodatage": "2021-11-05 19:33:18", "marker-color": "#FF565E"}}, {"type": "Feature", "geometry": {"type": "Point", "coordinates": [2.319488, 48.874535]}, "properties": {"etat de la localisation": "Hors service", "numparc": 1458, "duree": "", "horodatage": "2021-11-05 19:37:26", "marker-color": "#707070"}}, {"type": "Feature", "geometry": {"type": "Point", "coordinates": [2.319488, 48.874535]}, "properties": {"etat de la localisation": "Delocalise", "numparc": 1458, "duree": "00:00:04", "horodatage": "2021-11-05 19:39:22", "marker-color": "#FF565E"}}, {"type": "Feature", "geometry": {"type": "Point", "coordinates": [2.327366, 48.82375]}, "properties": {"etat de la localisation": "Hors service", "numparc": 1468, "duree": "", "horodatage": "2021-11-05 19:39:37", "marker-color": "#707070"}}, {"type": "Feature", "geometry": {"type": "Point", "coordinates": [2.298568, 48.892967]}, "properties": {"etat de la localisation": "Hors service", "numparc": 1458, "duree": "", "horodatage": "2021-11-05 19:54:25", "marker-color": "#707070"}}, {"type": "Feature", "geometry": {"type": "Point", "coordinates": [2.300163, 48.892815]}, "properties": {"etat de la localisation": "Delocalise", "numparc": 1458, "duree": "00:00:01", "horodatage": "2021-11-05 19:55:31", "marker-color": "#FF565E"}}, {"type": "Feature", "geometry": {"type": "Point", "coordinates": [2.328856, 48.823307]}, "properties": {"etat de la localisation": "Hors service", "numparc": 1453, "duree": "", "horodatage": "2021-11-05 19:58:23", "marker-color": "#707070"}}, {"type": "Feature", "geometry": {"type": "Point", "coordinates": [2.339023, 48.848881]}, "properties": {"etat de la localisation": "Delocalise", "numparc": 1420, "duree": "00:05:31", "horodatage": "2021-11-05 19:59:22", "marker-color": "#FF565E"}}, {"type": "Feature", "geometry": {"type": "Point", "coordinates": [2.330236, 48.823765]}, "properties": {"etat de la localisation": "Hors service", "numparc": 1418, "duree": "", "horodatage": "2021-11-05 20:06:32", "marker-color": "#707070"}}, {"type": "Feature", "geometry": {"type": "Point", "coordinates": [2.296843, 48.889084]}, "properties": {"etat de la localisation": "Hors service", "numparc": 1458, "duree": "", "horodatage": "2021-11-05 20:10:33", "marker-color": "#707070"}}, {"type": "Feature", "geometry": {"type": "Point", "coordinates": [2.296476, 48.885887]}, "properties": {"etat de la localisation": "Delocalise", "numparc": 1458, "duree": "00:01:13", "horodatage": "2021-11-05 20:12:39", "marker-color": "#FF565E"}}, {"type": "Feature", "geometry": {"type": "Point", "coordinates": [2.32004, 48.874363]}, "properties": {"etat de la localisation": "Hors service", "numparc": 1458, "duree": "", "horodatage": "2021-11-05 20:27:41", "marker-color": "#707070"}}, {"type": "Feature", "geometry": {"type": "Point", "coordinates": [2.322257, 48.867279]}, "properties": {"etat de la localisation": "Mission inconnue", "numparc": 1458, "duree": "", "horodatage": "2021-11-05 20:30:40", "marker-color": "#FF9F56"}}, {"type": "Feature", "geometry": {"type": "Point", "coordinates": [2.332646, 48.849457]}, "properties": {"etat de la localisation": "Delocalise", "numparc": 1376, "duree": "00:00:41", "horodatage": "2021-11-05 20:31:44", "marker-color": "#FF565E"}}, {"type": "Feature", "geometry": {"type": "Point", "coordinates": [2.33286, 48.850986]}, "properties": {"etat de la localisation": "Hors service", "numparc": 1458, "duree": "", "horodatage": "2021-11-05 20:45:45", "marker-color": "#707070"}}, {"type": "Feature", "geometry": {"type": "Point", "coordinates": [2.332712, 48.849976]}, "properties": {"etat de la localisation": "Delocalise", "numparc": 1466, "duree": "00:00:34", "horodatage": "2021-11-05 20:46:43", "marker-color": "#FF565E"}}, {"type": "Feature", "geometry": {"type": "Point", "coordinates": [2.33286, 48.850986]}, "properties": {"etat de la localisation": "Mission inconnue", "numparc": 1458, "duree": "", "horodatage": "2021-11-05 20:47:08", "marker-color": "#FF9F56"}}, {"type": "Feature", "geometry": {"type": "Point", "coordinates": [2.340415, 48.847584]}, "properties": {"etat de la localisation": "Hors service", "numparc": 1458, "duree": "", "horodatage": "2021-11-05 21:02:13", "marker-color": "#707070"}}, {"type": "Feature", "geometry": {"type": "Point", "coordinates": [2.327548, 48.851765]}, "properties": {"etat de la localisation": "Mission inconnue", "numparc": 1458, "duree": "", "horodatage": "2021-11-05 21:04:18", "marker-color": "#FF9F56"}}, {"type": "Feature", "geometry": {"type": "Point", "coordinates": [2.327534, 48.851768]}, "properties": {"etat de la localisation": "Hors service", "numparc": 1458, "duree": "", "horodatage": "2021-11-05 21:19:23", "marker-color": "#707070"}}, {"type": "Feature", "geometry": {"type": "Point", "coordinates": [2.327534, 48.851768]}, "properties": {"etat de la localisation": "Delocalise", "numparc": 1458, "duree": "00:00:01", "horodatage": "2021-11-05 21:20:24", "marker-color": "#FF565E"}}, {"type": "Feature", "geometry": {"type": "Point", "coordinates": [2.33906, 48.848789]}, "properties": {"etat de la localisation": "Delocalise", "numparc": 1467, "duree": "00:05:52", "horodatage": "2021-11-05 21:30:26", "marker-color": "#FF565E"}}, {"type": "Feature", "geometry": {"type": "Point", "coordinates": [2.3002, 48.892792]}, "properties": {"etat de la localisation": "Hors service", "numparc": 1458, "duree": "", "horodatage": "2021-11-05 21:35:27", "marker-color": "#707070"}}, {"type": "Feature", "geometry": {"type": "Point", "coordinates": [2.328916, 48.822983]}, "properties": {"etat de la localisation": "Hors service", "numparc": 1420, "duree": "", "horodatage": "2021-11-05 21:48:53", "marker-color": "#707070"}}, {"type": "Feature", "geometry": {"type": "Point", "coordinates": [2.3002, 48.892792]}, "properties": {"etat de la localisation": "Hors service", "numparc": 1458, "duree": "", "horodatage": "2021-11-05 21:53:46", "marker-color": "#707070"}}, {"type": "Feature", "geometry": {"type": "Point", "coordinates": [2.305529, 48.877945]}, "properties": {"etat de la localisation": "Hors service", "numparc": 1458, "duree": "", "horodatage": "2021-11-05 22:11:03", "marker-color": "#707070"}}, {"type": "Feature", "geometry": {"type": "Point", "coordinates": [2.305529, 48.877945]}, "properties": {"etat de la localisation": "Mission inconnue", "numparc": 1458, "duree": "", "horodatage": "2021-11-05 22:12:35", "marker-color": "#FF9F56"}}, {"type": "Feature", "geometry": {"type": "Point", "coordinates": [2.337868, 48.849251]}, "properties": {"etat de la localisation": "Delocalise", "numparc": 1376, "duree": "00:01:43", "horodatage": "2021-11-05 22:14:26", "marker-color": "#FF565E"}}, {"type": "Feature", "geometry": {"type": "Point", "coordinates": [2.329461, 48.822655]}, "properties": {"etat de la localisation": "Hors service", "numparc": 1466, "duree": "", "horodatage": "2021-11-05 22:16:37", "marker-color": "#707070"}}, {"type": "Feature", "geometry": {"type": "Point", "coordinates": [2.340178, 48.847519]}, "properties": {"etat de la localisation": "Hors service", "numparc": 1458, "duree": "", "horodatage": "2021-11-05 22:27:41", "marker-color": "#707070"}}, {"type": "Feature", "geometry": {"type": "Point", "coordinates": [2.340178, 48.847519]}, "properties": {"etat de la localisation": "Delocalise", "numparc": 1458, "duree": "00:00:01", "horodatage": "2021-11-05 22:30:21", "marker-color": "#FF565E"}}, {"type": "Feature", "geometry": {"type": "Point", "coordinates": [2.305173, 48.878151]}, "properties": {"etat de la localisation": "Delocalise", "numparc": 1376, "duree": "00:00:37", "horodatage": "2021-11-05 22:41:46", "marker-color": "#FF565E"}}, {"type": "Feature", "geometry": {"type": "Point", "coordinates": [2.327495, 48.851654]}, "properties": {"etat de la localisation": "Hors service", "numparc": 1458, "duree": "", "horodatage": "2021-11-05 22:45:23", "marker-color": "#707070"}}, {"type": "Feature", "geometry": {"type": "Point", "coordinates": [2.327495, 48.851654]}, "properties": {"etat de la localisation": "Delocalise", "numparc": 1458, "duree": "00:00:49", "horodatage": "2021-11-05 22:49:18", "marker-color": "#FF565E"}}, {"type": "Feature", "geometry": {"type": "Point", "coordinates": [2.340857, 48.847389]}, "properties": {"etat de la localisation": "Mission suivante non connue", "numparc": 1470, "duree": "", "horodatage": "2021-11-05 22:54:51", "marker-color": "#7156FF"}}, {"type": "Feature", "geometry": {"type": "Point", "coordinates": [2.340405, 48.847668]}, "properties": {"etat de la localisation": "Mission suivante non connue", "numparc": 1470, "duree": "", "horodatage": "2021-11-05 22:55:07", "marker-color": "#7156FF"}}, {"type": "Feature", "geometry": {"type": "Point", "coordinates": [2.339754, 48.84565]}, "properties": {"etat de la localisation": "Delocalise", "numparc": 1467, "duree": "00:32:03", "horodatage": "2021-11-05 22:55:11", "marker-color": "#FF565E"}}, {"type": "Feature", "geometry": {"type": "Point", "coordinates": [2.297804, 48.885307]}, "properties": {"etat de la localisation": "Hors service", "numparc": 1458, "duree": "", "horodatage": "2021-11-05 23:04:19", "marker-color": "#707070"}}, {"type": "Feature", "geometry": {"type": "Point", "coordinates": [2.297463, 48.892227]}, "properties": {"etat de la localisation": "Hors service", "numparc": 1458, "duree": "", "horodatage": "2021-11-05 23:20:56", "marker-color": "#707070"}}, {"type": "Feature", "geometry": {"type": "Point", "coordinates": [2.328863, 48.823467]}, "properties": {"etat de la localisation": "Hors service", "numparc": 1467, "duree": "", "horodatage": "2021-11-05 23:27:14", "marker-color": "#707070"}}, {"type": "Feature", "geometry": {"type": "Point", "coordinates": [2.300205, 48.892799]}, "properties": {"etat de la localisation": "Hors service", "numparc": 1458, "duree": "", "horodatage": "2021-11-05 23:37:13", "marker-color": "#707070"}}, {"type": "Feature", "geometry": {"type": "Point", "coordinates": [2.300205, 48.892799]}, "properties": {"etat de la localisation": "Mission inconnue", "numparc": 1458, "duree": "", "horodatage": "2021-11-05 23:39:01", "marker-color": "#FF9F56"}}, {"type": "Feature", "geometry": {"type": "Point", "coordinates": [2.300205, 48.892799]}, "properties": {"etat de la localisation": "Hors service", "numparc": 1458, "duree": "", "horodatage": "2021-11-05 23:54:07", "marker-color": "#707070"}}, {"type": "Feature", "geometry": {"type": "Point", "coordinates": [2.300205, 48.892799]}, "properties": {"etat de la localisation": "Mission inconnue", "numparc": 1458, "duree": "", "horodatage": "2021-11-05 23:55:24", "marker-color": "#FF9F56"}}, {"type": "Feature", "geometry": {"type": "Point", "coordinates": [2.339871, 48.847866]}, "properties": {"etat de la localisation": "Hors service", "numparc": 1458, "duree": "", "horodatage": "2021-11-06 00:10:29", "marker-color": "#707070"}}, {"type": "Feature", "geometry": {"type": "Point", "coordinates": [2.34025, 48.847462]}, "properties": {"etat de la localisation": "Hors service", "numparc": 1458, "duree": "", "horodatage": "2021-11-06 00:26:58", "marker-color": "#707070"}}, {"type": "Feature", "geometry": {"type": "Point", "coordinates": [2.327426, 48.823875]}, "properties": {"etat de la localisation": "Delocalise", "numparc": 1470, "duree": "00:06:07", "horodatage": "2021-11-06 00:30:55", "marker-color": "#FF565E"}}, {"type": "Feature", "geometry": {"type": "Point", "coordinates": [2.327426, 48.823875]}, "properties": {"etat de la localisation": "Hors service", "numparc": 1470, "duree": "", "horodatage": "2021-11-06 00:37:02", "marker-color": "#707070"}}, {"type": "Feature", "geometry": {"type": "Point", "coordinates": [2.330522, 48.851868]}, "properties": {"etat de la localisation": "Hors service", "numparc": 1458, "duree": "", "horodatage": "2021-11-06 00:42:35", "marker-color": "#707070"}}, {"type": "Feature", "geometry": {"type": "Point", "coordinates": [2.330522, 48.851868]}, "properties": {"etat de la localisation": "Delocalise", "numparc": 1458, "duree": "00:00:49", "horodatage": "2021-11-06 00:44:28", "marker-color": "#FF565E"}}, {"type": "Feature", "geometry": {"type": "Point", "coordinates": [2.297775, 48.885315]}, "properties": {"etat de la localisation": "Hors service", "numparc": 1458, "duree": "", "horodatage": "2021-11-06 00:59:30", "marker-color": "#707070"}}, {"type": "Feature", "geometry": {"type": "Point", "coordinates": [2.328559, 48.823689]}, "properties": {"etat de la localisation": "Hors service", "numparc": 1376, "duree": "", "horodatage": "2021-11-06 01:06:36", "marker-color": "#707070"}}, {"type": "Feature", "geometry": {"type": "Point", "coordinates": [2.297775, 48.885315]}, "properties": {"etat de la localisation": "Hors service", "numparc": 1458, "duree": "", "horodatage": "2021-11-06 01:15:03", "marker-color": "#707070"}}, {"type": "Feature", "geometry": {"type": "Point", "coordinates": [2.297775, 48.885315]}, "properties": {"etat de la localisation": "Delocalise", "numparc": 1458, "duree": "00:04:37", "horodatage": "2021-11-06 01:15:38", "marker-color": "#FF565E"}}, {"type": "Feature", "geometry": {"type": "Point", "coordinates": [2.297775, 48.885315]}, "properties": {"etat de la localisation": "Hors service", "numparc": 1458, "duree": "", "horodatage": "2021-11-06 01:20:15", "marker-color": "#707070"}}]}