{"type": "FeatureCollection", "features": [{"type": "Feature", "geometry": {"type": "Point", "coordinates": [2.329548, 48.822975]}, "properties": {"alarme": "DEFAUT LIAISON DATA SAEIV / AIGLE", "numparc": 1416, "type": "TECHNIQUE", "duree": "00:00:55", "horodatage": "2022-03-22 06:00:58", "statut": "start", "marker-color": "#ff0000"}}, {"type": "Feature", "geometry": {"type": "Point", "coordinates": [2.314273, 48.789768]}, "properties": {"alarme": "DEFAUT LIAISON DATA SAEIV / AIGLE", "numparc": 1417, "type": "TECHNIQUE", "duree": "00:00:14", "horodatage": "2022-03-22 07:52:41", "statut": "start", "marker-color": "#ff0000"}}, {"type": "Feature", "geometry": {"type": "Point", "coordinates": [2.327466, 48.823887]}, "properties": {"alarme": "VEHICULE DELOCALISE", "numparc": 1460, "type": "EXPLOITATION", "duree": "00:06:22", "horodatage": "2022-03-22 10:04:59", "statut": "start", "marker-color": "#ff0000"}}, {"type": "Feature", "geometry": {"type": "Point", "coordinates": [2.326482, 48.821728]}, "properties": {"alarme": "VEHICULE DELOCALISE", "numparc": 1413, "type": "EXPLOITATION", "duree": "00:05:54", "horodatage": "2022-03-22 10:53:51", "statut": "start", "marker-color": "#ff0000"}}, {"type": "Feature", "geometry": {"type": "Point", "coordinates": [2.315799, 48.792915]}, "properties": {"alarme": "DEFAUT LIAISON DATA SAEIV / AIGLE", "numparc": 1417, "type": "TECHNIQUE", "duree": "00:00:19", "horodatage": "2022-03-22 11:12:24", "statut": "start", "marker-color": "#ff0000"}}, {"type": "Feature", "geometry": {"type": "Point", "coordinates": [2.310691, 48.785645]}, "properties": {"alarme": "VEHICULE DELOCALISE", "numparc": 1418, "type": "EXPLOITATION", "duree": "00:00:14", "horodatage": "2022-03-22 11:41:18", "statut": "start", "marker-color": "#ff0000"}}, {"type": "Feature", "geometry": {"type": "Point", "coordinates": [2.311856, 48.786533]}, "properties": {"alarme": "VEHICULE DELOCALISE", "numparc": 1418, "type": "EXPLOITATION", "duree": "00:01:27", "horodatage": "2022-03-22 11:42:14", "statut": "start", "marker-color": "#ff0000"}}, {"type": "Feature", "geometry": {"type": "Point", "coordinates": [2.315602, 48.792454]}, "properties": {"alarme": "VEHICULE DELOCALISE", "numparc": 1418, "type": "EXPLOITATION", "duree": "00:00:16", "horodatage": "2022-03-22 11:44:36", "statut": "start", "marker-color": "#ff0000"}}, {"type": "Feature", "geometry": {"type": "Point", "coordinates": [2.316408, 48.794193]}, "properties": {"alarme": "VEHICULE DELOCALISE", "numparc": 1418, "type": "EXPLOITATION", "duree": "00:00:36", "horodatage": "2022-03-22 11:45:45", "statut": "start", "marker-color": "#ff0000"}}, {"type": "Feature", "geometry": {"type": "Point", "coordinates": [2.317453, 48.797783]}, "properties": {"alarme": "VEHICULE DELOCALISE", "numparc": 1418, "type": "EXPLOITATION", "duree": "00:01:09", "horodatage": "2022-03-22 11:47:20", "statut": "start", "marker-color": "#ff0000"}}, {"type": "Feature", "geometry": {"type": "Point", "coordinates": [2.318572, 48.801548]}, "properties": {"alarme": "VEHICULE DELOCALISE", "numparc": 1418, "type": "EXPLOITATION", "duree": "00:00:16", "horodatage": "2022-03-22 11:49:01", "statut": "start", "marker-color": "#ff0000"}}, {"type": "Feature", "geometry": {"type": "Point", "coordinates": [2.319131, 48.802723]}, "properties": {"alarme": "VEHICULE DELOCALISE", "numparc": 1418, "type": "EXPLOITATION", "duree": "00:01:25", "horodatage": "2022-03-22 11:50:17", "statut": "start", "marker-color": "#ff0000"}}, {"type": "Feature", "geometry": {"type": "Point", "coordinates": [2.322767, 48.80492]}, "properties": {"alarme": "VEHICULE DELOCALISE", "numparc": 1418, "type": "EXPLOITATION", "duree": "00:00:16", "horodatage": "2022-03-22 11:52:24", "statut": "start", "marker-color": "#ff0000"}}, {"type": "Feature", "geometry": {"type": "Point", "coordinates": [2.324625, 48.805866]}, "properties": {"alarme": "VEHICULE DELOCALISE", "numparc": 1418, "type": "EXPLOITATION", "duree": "00:02:09", "horodatage": "2022-03-22 11:53:14", "statut": "start", "marker-color": "#ff0000"}}, {"type": "Feature", "geometry": {"type": "Point", "coordinates": [2.326524, 48.81144]}, "properties": {"alarme": "VEHICULE DELOCALISE", "numparc": 1418, "type": "EXPLOITATION", "duree": "00:00:38", "horodatage": "2022-03-22 11:56:58", "statut": "start", "marker-color": "#ff0000"}}, {"type": "Feature", "geometry": {"type": "Point", "coordinates": [2.314917, 48.791279]}, "properties": {"alarme": "DEFAUT LIAISON DATA SAEIV / AIGLE", "numparc": 1417, "type": "TECHNIQUE", "duree": "00:01:05", "horodatage": "2022-03-22 12:26:49", "statut": "start", "marker-color": "#ff0000"}}, {"type": "Feature", "geometry": {"type": "Point", "coordinates": [2.319033, 48.802483]}, "properties": {"alarme": "VEHICULE DELOCALISE", "numparc": 1420, "type": "EXPLOITATION", "duree": "00:00:11", "horodatage": "2022-03-22 16:08:37", "statut": "start", "marker-color": "#ff0000"}}, {"type": "Feature", "geometry": {"type": "Point", "coordinates": [2.319945, 48.803524]}, "properties": {"alarme": "VEHICULE DELOCALISE", "numparc": 1420, "type": "EXPLOITATION", "duree": "00:00:49", "horodatage": "2022-03-22 16:09:02", "statut": "start", "marker-color": "#ff0000"}}, {"type": "Feature", "geometry": {"type": "Point", "coordinates": [2.314991, 48.791443]}, "properties": {"alarme": "DEFAUT LIAISON DATA SAEIV / AIGLE", "numparc": 1417, "type": "TECHNIQUE", "duree": "00:00:48", "horodatage": "2022-03-22 16:14:22", "statut": "start", "marker-color": "#ff0000"}}, {"type": "Feature", "geometry": {"type": "Point", "coordinates": [2.300739, 48.797462]}, "properties": {"alarme": "VEHICULE DELOCALISE", "numparc": 1415, "type": "EXPLOITATION", "duree": "00:00:19", "horodatage": "2022-03-22 17:21:52", "statut": "start", "marker-color": "#ff0000"}}, {"type": "Feature", "geometry": {"type": "Point", "coordinates": [2.303037, 48.785419]}, "properties": {"alarme": "VEHICULE DELOCALISE", "numparc": 1418, "type": "EXPLOITATION", "duree": "00:00:45", "horodatage": "2022-03-22 17:57:22", "statut": "start", "marker-color": "#ff0000"}}, {"type": "Feature", "geometry": {"type": "Point", "coordinates": [2.300735, 48.797466]}, "properties": {"alarme": "VEHICULE DELOCALISE", "numparc": 1412, "type": "EXPLOITATION", "duree": "00:01:25", "horodatage": "2022-03-22 19:39:33", "statut": "start", "marker-color": "#ff0000"}}, {"type": "Feature", "geometry": {"type": "Point", "coordinates": [2.300736, 48.797447]}, "properties": {"alarme": "VEHICULE DELOCALISE", "numparc": 1416, "type": "EXPLOITATION", "duree": "00:00:13", "horodatage": "2022-03-22 22:03:03", "statut": "start", "marker-color": "#ff0000"}}, {"type": "Feature", "geometry": {"type": "Point", "coordinates": [2.300667, 48.797409]}, "properties": {"alarme": "VEHICULE DELOCALISE", "numparc": 1416, "type": "EXPLOITATION", "duree": "00:04:44", "horodatage": "2022-03-22 23:06:16", "statut": "start", "marker-color": "#ff0000"}}, {"type": "Feature", "geometry": {"type": "Point", "coordinates": [2.300707, 48.797451]}, "properties": {"alarme": "VEHICULE DELOCALISE", "numparc": 1416, "type": "EXPLOITATION", "duree": "00:05:38", "horodatage": "2022-03-23 00:26:07", "statut": "start", "marker-color": "#ff0000"}}, {"type": "Feature", "geometry": {"type": "Point", "coordinates": [2.328672, 48.823421]}, "properties": {"alarme": "DEFAUT LIAISON DATA SAEIV / AIGLE", "numparc": 1416, "type": "TECHNIQUE", "duree": "00:00:55", "horodatage": "2022-03-22 06:01:53", "statut": "end", "marker-color": "#2fe184"}}, {"type": "Feature", "geometry": {"type": "Point", "coordinates": [2.314257, 48.789707]}, "properties": {"alarme": "DEFAUT LIAISON DATA SAEIV / AIGLE", "numparc": 1417, "type": "TECHNIQUE", "duree": "00:00:14", "horodatage": "2022-03-22 07:52:55", "statut": "end", "marker-color": "#2fe184"}}, {"type": "Feature", "geometry": {"type": "Point", "coordinates": [2.327466, 48.823887]}, "properties": {"alarme": "VEHICULE DELOCALISE", "numparc": 1460, "type": "EXPLOITATION", "duree": "00:06:22", "horodatage": "2022-03-22 10:11:21", "statut": "end", "marker-color": "#2fe184"}}, {"type": "Feature", "geometry": {"type": "Point", "coordinates": [2.329913, 48.822777]}, "properties": {"alarme": "VEHICULE DELOCALISE", "numparc": 1413, "type": "EXPLOITATION", "duree": "00:05:54", "horodatage": "2022-03-22 10:59:45", "statut": "end", "marker-color": "#2fe184"}}, {"type": "Feature", "geometry": {"type": "Point", "coordinates": [2.316288, 48.793964]}, "properties": {"alarme": "DEFAUT LIAISON DATA SAEIV / AIGLE", "numparc": 1417, "type": "TECHNIQUE", "duree": "00:00:19", "horodatage": "2022-03-22 11:12:43", "statut": "end", "marker-color": "#2fe184"}}, {"type": "Feature", "geometry": {"type": "Point", "coordinates": [2.310924, 48.785816]}, "properties": {"alarme": "VEHICULE DELOCALISE", "numparc": 1418, "type": "EXPLOITATION", "duree": "00:00:14", "horodatage": "2022-03-22 11:41:32", "statut": "end", "marker-color": "#2fe184"}}, {"type": "Feature", "geometry": {"type": "Point", "coordinates": [2.314441, 48.790024]}, "properties": {"alarme": "VEHICULE DELOCALISE", "numparc": 1418, "type": "EXPLOITATION", "duree": "00:01:27", "horodatage": "2022-03-22 11:43:41", "statut": "end", "marker-color": "#2fe184"}}, {"type": "Feature", "geometry": {"type": "Point", "coordinates": [2.315736, 48.792721]}, "properties": {"alarme": "VEHICULE DELOCALISE", "numparc": 1418, "type": "EXPLOITATION", "duree": "00:00:16", "horodatage": "2022-03-22 11:44:52", "statut": "end", "marker-color": "#2fe184"}}, {"type": "Feature", "geometry": {"type": "Point", "coordinates": [2.317264, 48.796127]}, "properties": {"alarme": "VEHICULE DELOCALISE", "numparc": 1418, "type": "EXPLOITATION", "duree": "00:00:36", "horodatage": "2022-03-22 11:46:21", "statut": "end", "marker-color": "#2fe184"}}, {"type": "Feature", "geometry": {"type": "Point", "coordinates": [2.318129, 48.800026]}, "properties": {"alarme": "VEHICULE DELOCALISE", "numparc": 1418, "type": "EXPLOITATION", "duree": "00:01:09", "horodatage": "2022-03-22 11:48:29", "statut": "end", "marker-color": "#2fe184"}}, {"type": "Feature", "geometry": {"type": "Point", "coordinates": [2.318718, 48.801796]}, "properties": {"alarme": "VEHICULE DELOCALISE", "numparc": 1418, "type": "EXPLOITATION", "duree": "00:00:16", "horodatage": "2022-03-22 11:49:17", "statut": "end", "marker-color": "#2fe184"}}, {"type": "Feature", "geometry": {"type": "Point", "coordinates": [2.320845, 48.803997]}, "properties": {"alarme": "VEHICULE DELOCALISE", "numparc": 1418, "type": "EXPLOITATION", "duree": "00:01:25", "horodatage": "2022-03-22 11:51:42", "statut": "end", "marker-color": "#2fe184"}}, {"type": "Feature", "geometry": {"type": "Point", "coordinates": [2.323287, 48.805157]}, "properties": {"alarme": "VEHICULE DELOCALISE", "numparc": 1418, "type": "EXPLOITATION", "duree": "00:00:16", "horodatage": "2022-03-22 11:52:40", "statut": "end", "marker-color": "#2fe184"}}, {"type": "Feature", "geometry": {"type": "Point", "coordinates": [2.326659, 48.809204]}, "properties": {"alarme": "VEHICULE DELOCALISE", "numparc": 1418, "type": "EXPLOITATION", "duree": "00:02:09", "horodatage": "2022-03-22 11:55:23", "statut": "end", "marker-color": "#2fe184"}}, {"type": "Feature", "geometry": {"type": "Point", "coordinates": [2.326055, 48.813625]}, "properties": {"alarme": "VEHICULE DELOCALISE", "numparc": 1418, "type": "EXPLOITATION", "duree": "00:00:38", "horodatage": "2022-03-22 11:57:36", "statut": "end", "marker-color": "#2fe184"}}, {"type": "Feature", "geometry": {"type": "Point", "coordinates": [2.315855, 48.793041]}, "properties": {"alarme": "DEFAUT LIAISON DATA SAEIV / AIGLE", "numparc": 1417, "type": "TECHNIQUE", "duree": "00:01:05", "horodatage": "2022-03-22 12:27:54", "statut": "end", "marker-color": "#2fe184"}}, {"type": "Feature", "geometry": {"type": "Point", "coordinates": [2.319205, 48.802834]}, "properties": {"alarme": "VEHICULE DELOCALISE", "numparc": 1420, "type": "EXPLOITATION", "duree": "00:00:11", "horodatage": "2022-03-22 16:08:48", "statut": "end", "marker-color": "#2fe184"}}, {"type": "Feature", "geometry": {"type": "Point", "coordinates": [2.321706, 48.80442]}, "properties": {"alarme": "VEHICULE DELOCALISE", "numparc": 1420, "type": "EXPLOITATION", "duree": "00:00:49", "horodatage": "2022-03-22 16:09:51", "statut": "end", "marker-color": "#2fe184"}}, {"type": "Feature", "geometry": {"type": "Point", "coordinates": [2.315799, 48.79298]}, "properties": {"alarme": "DEFAUT LIAISON DATA SAEIV / AIGLE", "numparc": 1417, "type": "TECHNIQUE", "duree": "00:00:48", "horodatage": "2022-03-22 16:15:10", "statut": "end", "marker-color": "#2fe184"}}, {"type": "Feature", "geometry": {"type": "Point", "coordinates": [2.300191, 48.797253]}, "properties": {"alarme": "VEHICULE DELOCALISE", "numparc": 1415, "type": "EXPLOITATION", "duree": "00:00:19", "horodatage": "2022-03-22 17:22:11", "statut": "end", "marker-color": "#2fe184"}}, {"type": "Feature", "geometry": {"type": "Point", "coordinates": [2.304365, 48.785172]}, "properties": {"alarme": "VEHICULE DELOCALISE", "numparc": 1418, "type": "EXPLOITATION", "duree": "00:00:45", "horodatage": "2022-03-22 17:58:07", "statut": "end", "marker-color": "#2fe184"}}, {"type": "Feature", "geometry": {"type": "Point", "coordinates": [2.300273, 48.795238]}, "properties": {"alarme": "VEHICULE DELOCALISE", "numparc": 1412, "type": "EXPLOITATION", "duree": "00:01:25", "horodatage": "2022-03-22 19:40:58", "statut": "end", "marker-color": "#2fe184"}}, {"type": "Feature", "geometry": {"type": "Point", "coordinates": [2.300504, 48.797359]}, "properties": {"alarme": "VEHICULE DELOCALISE", "numparc": 1416, "type": "EXPLOITATION", "duree": "00:00:13", "horodatage": "2022-03-22 22:03:16", "statut": "end", "marker-color": "#2fe184"}}, {"type": "Feature", "geometry": {"type": "Point", "coordinates": [2.309225, 48.784927]}, "properties": {"alarme": "VEHICULE DELOCALISE", "numparc": 1416, "type": "EXPLOITATION", "duree": "00:04:44", "horodatage": "2022-03-22 23:11:00", "statut": "end", "marker-color": "#2fe184"}}, {"type": "Feature", "geometry": {"type": "Point", "coordinates": [2.309222, 48.784916]}, "properties": {"alarme": "VEHICULE DELOCALISE", "numparc": 1416, "type": "EXPLOITATION", "duree": "00:05:38", "horodatage": "2022-03-23 00:31:45", "statut": "end", "marker-color": "#2fe184"}}]}