{"type": "FeatureCollection", "features": [{"type": "Feature", "geometry": {"type": "Point", "coordinates": [2.34892, 48.896591]}, "properties": {"numparc": 4410, "etat de la localisation": "autre", "ID BDGEO": "450", "horodatage": "2022-04-10 14:38:57", "distance (en metres)": 49.41, "station": "SORTIE DEPOT", "marker-color": "#818181"}}, {"type": "Feature", "geometry": {"type": "Point", "coordinates": [2.32373, 48.875938]}, "properties": {"numparc": 4410, "etat de la localisation": "autre", "ID BDGEO": "119", "horodatage": "2022-04-10 15:19:41", "distance (en metres)": 46.62, "station": "GARE SAINT-LAZARE-ROME", "marker-color": "#818181"}}, {"type": "Feature", "geometry": {"type": "Point", "coordinates": [2.323842, 48.874573]}, "properties": {"numparc": 4410, "etat de la localisation": "autre", "ID BDGEO": "129", "horodatage": "2022-04-10 15:21:02", "distance (en metres)": 62.81, "station": "PASQUIER-ANJOU", "marker-color": "#818181"}}, {"type": "Feature", "geometry": {"type": "Point", "coordinates": [2.302651, 48.864258]}, "properties": {"numparc": 4410, "etat de la localisation": "Deviation programmee", "ID BDGEO": "72", "horodatage": "2022-04-10 16:38:30", "distance (en metres)": 90.72, "station": "ALMA-MARCEAU", "marker-color": "#56FF93"}}, {"type": "Feature", "geometry": {"type": "Point", "coordinates": [2.344689, 48.893028]}, "properties": {"numparc": 4410, "etat de la localisation": "autre", "ID BDGEO": "4", "horodatage": "2022-04-10 17:14:42", "distance (en metres)": 42.19, "station": "MAIRIE DU 18E-J. JOFFRIN", "marker-color": "#818181"}}, {"type": "Feature", "geometry": {"type": "Point", "coordinates": [2.323746, 48.875866]}, "properties": {"numparc": 4410, "etat de la localisation": "autre", "ID BDGEO": "119", "horodatage": "2022-04-10 17:41:20", "distance (en metres)": 54.66, "station": "GARE SAINT-LAZARE-ROME", "marker-color": "#818181"}}, {"type": "Feature", "geometry": {"type": "Point", "coordinates": [2.323826, 48.874638]}, "properties": {"numparc": 4410, "etat de la localisation": "autre", "ID BDGEO": "129", "horodatage": "2022-04-10 17:42:04", "distance (en metres)": 65.54, "station": "PASQUIER-ANJOU", "marker-color": "#818181"}}, {"type": "Feature", "geometry": {"type": "Point", "coordinates": [2.302598, 48.864262]}, "properties": {"numparc": 4410, "etat de la localisation": "Deviation programmee", "ID BDGEO": "72", "horodatage": "2022-04-10 19:02:16", "distance (en metres)": 90.12, "station": "ALMA-MARCEAU", "marker-color": "#56FF93"}}, {"type": "Feature", "geometry": {"type": "Point", "coordinates": [2.344545, 48.893009]}, "properties": {"numparc": 4410, "etat de la localisation": "autre", "ID BDGEO": "4", "horodatage": "2022-04-10 19:30:39", "distance (en metres)": 51.91, "station": "MAIRIE DU 18E-J. JOFFRIN", "marker-color": "#818181"}}, {"type": "Feature", "geometry": {"type": "Point", "coordinates": [2.323805, 48.875942]}, "properties": {"numparc": 4410, "etat de la localisation": "autre", "ID BDGEO": "119", "horodatage": "2022-04-10 20:02:05", "distance (en metres)": 48.2, "station": "GARE SAINT-LAZARE-ROME", "marker-color": "#818181"}}, {"type": "Feature", "geometry": {"type": "Point", "coordinates": [2.323922, 48.874657]}, "properties": {"numparc": 4410, "etat de la localisation": "autre", "ID BDGEO": "129", "horodatage": "2022-04-10 20:03:24", "distance (en metres)": 72.57, "station": "PASQUIER-ANJOU", "marker-color": "#818181"}}, {"type": "Feature", "geometry": {"type": "Point", "coordinates": [2.321346, 48.874916]}, "properties": {"numparc": 4410, "etat de la localisation": "autre", "ID BDGEO": "130", "horodatage": "2022-04-10 20:04:53", "distance (en metres)": 43.92, "station": "SAINT AUGUSTIN", "marker-color": "#818181"}}, {"type": "Feature", "geometry": {"type": "Point", "coordinates": [2.302601, 48.864231]}, "properties": {"numparc": 4410, "etat de la localisation": "Deviation programmee", "ID BDGEO": "72", "horodatage": "2022-04-10 21:07:16", "distance (en metres)": 93.52, "station": "ALMA-MARCEAU", "marker-color": "#56FF93"}}, {"type": "Feature", "geometry": {"type": "Point", "coordinates": [2.348525, 48.897263]}, "properties": {"numparc": 4410, "etat de la localisation": "autre", "ID BDGEO": "450", "horodatage": "2022-04-10 21:37:19", "distance (en metres)": 91.69, "station": "SORTIE DEPOT", "marker-color": "#818181"}}, {"type": "Feature", "geometry": {"type": "Point", "coordinates": [2.348818, 48.896595]}, "properties": {"numparc": 4410, "etat de la localisation": "autre", "ID BDGEO": "450", "horodatage": "2022-04-10 21:40:42", "distance (en metres)": 56.14, "station": "SORTIE DEPOT", "marker-color": "#818181"}}, {"type": "Feature", "geometry": {"type": "Point", "coordinates": [2.349536, 48.896774]}, "properties": {"station": "SORTIE DEPOT", "ID BDGEO": "450", "marker-color": "#56B3FF"}}, {"type": "Feature", "geometry": {"type": "Point", "coordinates": [2.323534, 48.876337]}, "properties": {"station": "GARE SAINT-LAZARE-ROME", "ID BDGEO": "119", "marker-color": "#56B3FF"}}, {"type": "Feature", "geometry": {"type": "Point", "coordinates": [2.323085, 48.874306]}, "properties": {"station": "PASQUIER-ANJOU", "ID BDGEO": "129", "marker-color": "#56B3FF"}}, {"type": "Feature", "geometry": {"type": "Point", "coordinates": [2.302572, 48.865072]}, "properties": {"station": "ALMA-MARCEAU", "ID BDGEO": "72", "marker-color": "#56B3FF"}}, {"type": "Feature", "geometry": {"type": "Point", "coordinates": [2.345242, 48.892919]}, "properties": {"station": "MAIRIE DU 18E-J. JOFFRIN", "ID BDGEO": "4", "marker-color": "#56B3FF"}}, {"type": "Feature", "geometry": {"type": "Point", "coordinates": [2.321477, 48.874531]}, "properties": {"station": "SAINT AUGUSTIN", "ID BDGEO": "130", "marker-color": "#56B3FF"}}]}