{"type": "FeatureCollection", "features": [{"type": "Feature", "geometry": {"type": "Point", "coordinates": [2.334962, 48.792305]}, "properties": {"alarme": "DEFAUT LIAISON DATA SAEIV / AIGLE", "numparc": 1313, "type": "TECHNIQUE", "duree": "00:00:57", "horodatage": "2022-07-25 12:18:19", "statut": "start", "marker-color": "#ff0000"}}, {"type": "Feature", "geometry": {"type": "Point", "coordinates": [2.328751, 48.797852]}, "properties": {"alarme": "DEFAUT LIAISON DATA SAEIV / AIGLE", "numparc": 1315, "type": "TECHNIQUE", "duree": "00:00:15", "horodatage": "2022-07-25 15:51:11", "statut": "start", "marker-color": "#ff0000"}}, {"type": "Feature", "geometry": {"type": "Point", "coordinates": [2.334347, 48.794991]}, "properties": {"alarme": "DEFAUT LIAISON DATA SAEIV / AIGLE", "numparc": 1313, "type": "TECHNIQUE", "duree": "00:00:24", "horodatage": "2022-07-25 20:08:50", "statut": "start", "marker-color": "#ff0000"}}, {"type": "Feature", "geometry": {"type": "Point", "coordinates": [2.332559, 48.789669]}, "properties": {"alarme": "DEFAUT LIAISON DATA SAEIV / AIGLE", "numparc": 1313, "type": "TECHNIQUE", "duree": "00:00:55", "horodatage": "2022-07-25 20:13:17", "statut": "start", "marker-color": "#ff0000"}}, {"type": "Feature", "geometry": {"type": "Point", "coordinates": [2.327138, 48.798454]}, "properties": {"alarme": "DEFAUT LIAISON DATA SAEIV / AIGLE", "numparc": 1311, "type": "TECHNIQUE", "duree": "00:00:08", "horodatage": "2022-07-25 20:18:34", "statut": "start", "marker-color": "#ff0000"}}, {"type": "Feature", "geometry": {"type": "Point", "coordinates": [2.334053, 48.793613]}, "properties": {"alarme": "DEFAUT LIAISON DATA SAEIV / AIGLE", "numparc": 1313, "type": "TECHNIQUE", "duree": "00:00:57", "horodatage": "2022-07-25 12:19:16", "statut": "end", "marker-color": "#2fe184"}}, {"type": "Feature", "geometry": {"type": "Point", "coordinates": [2.328729, 48.797836]}, "properties": {"alarme": "DEFAUT LIAISON DATA SAEIV / AIGLE", "numparc": 1315, "type": "TECHNIQUE", "duree": "00:00:15", "horodatage": "2022-07-25 15:51:26", "statut": "end", "marker-color": "#2fe184"}}, {"type": "Feature", "geometry": {"type": "Point", "coordinates": [2.334677, 48.794914]}, "properties": {"alarme": "DEFAUT LIAISON DATA SAEIV / AIGLE", "numparc": 1313, "type": "TECHNIQUE", "duree": "00:00:24", "horodatage": "2022-07-25 20:09:14", "statut": "end", "marker-color": "#2fe184"}}, {"type": "Feature", "geometry": {"type": "Point", "coordinates": [2.332949, 48.788464]}, "properties": {"alarme": "DEFAUT LIAISON DATA SAEIV / AIGLE", "numparc": 1313, "type": "TECHNIQUE", "duree": "00:00:55", "horodatage": "2022-07-25 20:14:12", "statut": "end", "marker-color": "#2fe184"}}, {"type": "Feature", "geometry": {"type": "Point", "coordinates": [2.326388, 48.798737]}, "properties": {"alarme": "DEFAUT LIAISON DATA SAEIV / AIGLE", "numparc": 1311, "type": "TECHNIQUE", "duree": "00:00:08", "horodatage": "2022-07-25 20:18:42", "statut": "end", "marker-color": "#2fe184"}}]}