{"type": "FeatureCollection", "features": [{"type": "Feature", "geometry": {"type": "Point", "coordinates": [2.443036, 48.772362]}, "properties": {"numparc": 9535, "etat de la localisation": "autre", "ID BDGEO": "131", "horodatage": "2022-10-02 06:11:15", "distance (en metres)": 469.36, "station": "VAL POMPADOUR", "marker-color": "#818181"}}, {"type": "Feature", "geometry": {"type": "Point", "coordinates": [2.443093, 48.772167]}, "properties": {"numparc": 9548, "etat de la localisation": "autre", "ID BDGEO": "208", "horodatage": "2022-10-02 06:49:08", "distance (en metres)": 45.41, "station": "DEPOT CRETEIL SORTIE", "marker-color": "#818181"}}, {"type": "Feature", "geometry": {"type": "Point", "coordinates": [2.442318, 48.772728]}, "properties": {"numparc": 9548, "etat de la localisation": "autre", "ID BDGEO": "208", "horodatage": "2022-10-02 06:51:53", "distance (en metres)": 69.84, "station": "DEPOT CRETEIL SORTIE", "marker-color": "#818181"}}, {"type": "Feature", "geometry": {"type": "Point", "coordinates": [2.417419, 48.767822]}, "properties": {"numparc": 9535, "etat de la localisation": "autre", "ID BDGEO": "121", "horodatage": "2022-10-02 07:15:12", "distance (en metres)": 44.05, "station": "PASTEUR", "marker-color": "#818181"}}, {"type": "Feature", "geometry": {"type": "Point", "coordinates": [2.506569, 48.771854]}, "properties": {"numparc": 9535, "etat de la localisation": "autre", "ID BDGEO": "154", "horodatage": "2022-10-02 07:36:26", "distance (en metres)": 44.22, "station": "SUCY-BONNEUIL RER.", "marker-color": "#818181"}}, {"type": "Feature", "geometry": {"type": "Point", "coordinates": [2.506718, 48.771648]}, "properties": {"numparc": 9535, "etat de la localisation": "autre", "ID BDGEO": "154", "horodatage": "2022-10-02 07:37:02", "distance (en metres)": 64.77, "station": "SUCY-BONNEUIL RER.", "marker-color": "#818181"}}, {"type": "Feature", "geometry": {"type": "Point", "coordinates": [2.421663, 48.769093]}, "properties": {"numparc": 9524, "etat de la localisation": "autre", "ID BDGEO": "123", "horodatage": "2022-10-02 09:25:01", "distance (en metres)": 48.15, "station": "MARCELLIN BERTHELOT", "marker-color": "#818181"}}, {"type": "Feature", "geometry": {"type": "Point", "coordinates": [2.40203, 48.763275]}, "properties": {"numparc": 9535, "etat de la localisation": "Delocalise", "ID BDGEO": "117", "horodatage": "2022-10-02 09:35:11", "distance (en metres)": 230.58, "station": "ROUGET DE LISLE", "marker-color": "#FF565E"}}, {"type": "Feature", "geometry": {"type": "Point", "coordinates": [2.409368, 48.765572]}, "properties": {"numparc": 9536, "etat de la localisation": "autre", "ID BDGEO": "119", "horodatage": "2022-10-02 11:06:00", "distance (en metres)": 57.54, "station": "CHOISY-LE-ROI RER", "marker-color": "#818181"}}, {"type": "Feature", "geometry": {"type": "Point", "coordinates": [2.400027, 48.7612]}, "properties": {"numparc": 9548, "etat de la localisation": "Delocalise", "ID BDGEO": "117", "horodatage": "2022-10-02 11:28:09", "distance (en metres)": 484.09, "station": "ROUGET DE LISLE", "marker-color": "#FF565E"}}, {"type": "Feature", "geometry": {"type": "Point", "coordinates": [2.401956, 48.763229]}, "properties": {"numparc": 9548, "etat de la localisation": "Delocalise", "ID BDGEO": "117", "horodatage": "2022-10-02 11:32:01", "distance (en metres)": 237.66, "station": "ROUGET DE LISLE", "marker-color": "#FF565E"}}, {"type": "Feature", "geometry": {"type": "Point", "coordinates": [2.401956, 48.763229]}, "properties": {"numparc": 9548, "etat de la localisation": "Delocalise", "ID BDGEO": "117", "horodatage": "2022-10-02 11:32:05", "distance (en metres)": 237.66, "station": "ROUGET DE LISLE", "marker-color": "#FF565E"}}, {"type": "Feature", "geometry": {"type": "Point", "coordinates": [2.442554, 48.771824]}, "properties": {"numparc": 9525, "etat de la localisation": "Delocalise", "ID BDGEO": "208", "horodatage": "2022-10-02 11:35:13", "distance (en metres)": 96.39, "station": "DEPOT CRETEIL SORTIE", "marker-color": "#FF565E"}}, {"type": "Feature", "geometry": {"type": "Point", "coordinates": [2.442544, 48.77182]}, "properties": {"numparc": 9525, "etat de la localisation": "Delocalise", "ID BDGEO": "208", "horodatage": "2022-10-02 11:35:28", "distance (en metres)": 97.13, "station": "DEPOT CRETEIL SORTIE", "marker-color": "#FF565E"}}, {"type": "Feature", "geometry": {"type": "Point", "coordinates": [2.442524, 48.771832]}, "properties": {"numparc": 9525, "etat de la localisation": "Delocalise", "ID BDGEO": "208", "horodatage": "2022-10-02 11:37:46", "distance (en metres)": 96.84, "station": "DEPOT CRETEIL SORTIE", "marker-color": "#FF565E"}}, {"type": "Feature", "geometry": {"type": "Point", "coordinates": [2.441785, 48.772648]}, "properties": {"numparc": 9525, "etat de la localisation": "Delocalise", "ID BDGEO": "208", "horodatage": "2022-10-02 11:42:54", "distance (en metres)": 106.88, "station": "DEPOT CRETEIL SORTIE", "marker-color": "#FF565E"}}, {"type": "Feature", "geometry": {"type": "Point", "coordinates": [2.400964, 48.762516]}, "properties": {"numparc": 9535, "etat de la localisation": "Delocalise", "ID BDGEO": "128", "horodatage": "2022-10-02 11:56:31", "distance (en metres)": 2744.2, "station": "POMPADOUR#", "marker-color": "#FF565E"}}, {"type": "Feature", "geometry": {"type": "Point", "coordinates": [2.444594, 48.773232]}, "properties": {"numparc": 9548, "etat de la localisation": "autre", "ID BDGEO": "129", "horodatage": "2022-10-02 13:09:50", "distance (en metres)": 258.04, "station": "BASSE QUINTE", "marker-color": "#818181"}}, {"type": "Feature", "geometry": {"type": "Point", "coordinates": [2.444896, 48.772789]}, "properties": {"numparc": 9524, "etat de la localisation": "autre", "ID BDGEO": "208", "horodatage": "2022-10-02 13:16:32", "distance (en metres)": 124.04, "station": "DEPOT CRETEIL SORTIE", "marker-color": "#818181"}}, {"type": "Feature", "geometry": {"type": "Point", "coordinates": [2.447201, 48.769157]}, "properties": {"numparc": 9524, "etat de la localisation": "autre", "ID BDGEO": "208", "horodatage": "2022-10-02 13:18:12", "distance (en metres)": 477.34, "station": "DEPOT CRETEIL SORTIE", "marker-color": "#818181"}}, {"type": "Feature", "geometry": {"type": "Point", "coordinates": [2.50656, 48.771843]}, "properties": {"numparc": 9524, "etat de la localisation": "autre", "ID BDGEO": "154", "horodatage": "2022-10-02 13:37:02", "distance (en metres)": 45.64, "station": "SUCY-BONNEUIL RER.", "marker-color": "#818181"}}, {"type": "Feature", "geometry": {"type": "Point", "coordinates": [2.506769, 48.772537]}, "properties": {"numparc": 9524, "etat de la localisation": "autre", "ID BDGEO": "291", "horodatage": "2022-10-02 16:27:34", "distance (en metres)": 66.27, "station": "SUCY-BONNEUIL RER", "marker-color": "#818181"}}, {"type": "Feature", "geometry": {"type": "Point", "coordinates": [2.389619, 48.757439]}, "properties": {"numparc": 9535, "etat de la localisation": "autre", "ID BDGEO": "109", "horodatage": "2022-10-02 17:18:55", "distance (en metres)": 50.2, "station": "CARREFOUR RESISTANCE", "marker-color": "#818181"}}, {"type": "Feature", "geometry": {"type": "Point", "coordinates": [2.44311, 48.772114]}, "properties": {"numparc": 9529, "etat de la localisation": "autre", "ID BDGEO": "126", "horodatage": "2022-10-02 18:29:49", "distance (en metres)": 617.59, "station": "POMPADOUR", "marker-color": "#818181"}}, {"type": "Feature", "geometry": {"type": "Point", "coordinates": [2.444953, 48.772758]}, "properties": {"numparc": 9525, "etat de la localisation": "autre", "ID BDGEO": "129", "horodatage": "2022-10-02 18:48:44", "distance (en metres)": 316.79, "station": "BASSE QUINTE", "marker-color": "#818181"}}, {"type": "Feature", "geometry": {"type": "Point", "coordinates": [2.443184, 48.771793]}, "properties": {"numparc": 9548, "etat de la localisation": "autre", "ID BDGEO": "208", "horodatage": "2022-10-02 19:06:12", "distance (en metres)": 85.81, "station": "DEPOT CRETEIL SORTIE", "marker-color": "#818181"}}, {"type": "Feature", "geometry": {"type": "Point", "coordinates": [2.443188, 48.771793]}, "properties": {"numparc": 9548, "etat de la localisation": "autre", "ID BDGEO": "208", "horodatage": "2022-10-02 19:12:28", "distance (en metres)": 85.8, "station": "DEPOT CRETEIL SORTIE", "marker-color": "#818181"}}, {"type": "Feature", "geometry": {"type": "Point", "coordinates": [2.442416, 48.771881]}, "properties": {"numparc": 9548, "etat de la localisation": "autre", "ID BDGEO": "208", "horodatage": "2022-10-02 19:14:03", "distance (en metres)": 96.95, "station": "DEPOT CRETEIL SORTIE", "marker-color": "#818181"}}, {"type": "Feature", "geometry": {"type": "Point", "coordinates": [2.442416, 48.771881]}, "properties": {"numparc": 9548, "etat de la localisation": "autre", "ID BDGEO": "208", "horodatage": "2022-10-02 19:14:13", "distance (en metres)": 96.95, "station": "DEPOT CRETEIL SORTIE", "marker-color": "#818181"}}, {"type": "Feature", "geometry": {"type": "Point", "coordinates": [2.44241, 48.771881]}, "properties": {"numparc": 9548, "etat de la localisation": "autre", "ID BDGEO": "208", "horodatage": "2022-10-02 19:14:30", "distance (en metres)": 97.22, "station": "DEPOT CRETEIL SORTIE", "marker-color": "#818181"}}, {"type": "Feature", "geometry": {"type": "Point", "coordinates": [2.441704, 48.772255]}, "properties": {"numparc": 9524, "etat de la localisation": "autre", "ID BDGEO": "208", "horodatage": "2022-10-02 19:22:47", "distance (en metres)": 117.56, "station": "DEPOT CRETEIL SORTIE", "marker-color": "#818181"}}, {"type": "Feature", "geometry": {"type": "Point", "coordinates": [2.443141, 48.77179]}, "properties": {"numparc": 9536, "etat de la localisation": "autre", "ID BDGEO": "208", "horodatage": "2022-10-02 19:26:07", "distance (en metres)": 86.44, "station": "DEPOT CRETEIL SORTIE", "marker-color": "#818181"}}, {"type": "Feature", "geometry": {"type": "Point", "coordinates": [2.442593, 48.77195]}, "properties": {"numparc": 9536, "etat de la localisation": "autre", "ID BDGEO": "208", "horodatage": "2022-10-02 19:27:37", "distance (en metres)": 83.08, "station": "DEPOT CRETEIL SORTIE", "marker-color": "#818181"}}, {"type": "Feature", "geometry": {"type": "Point", "coordinates": [2.389278, 48.757332]}, "properties": {"numparc": 9529, "etat de la localisation": "autre", "ID BDGEO": "802", "horodatage": "2022-10-02 20:16:28", "distance (en metres)": 3785.97, "station": "POMPADOUR#", "marker-color": "#818181"}}, {"type": "Feature", "geometry": {"type": "Point", "coordinates": [2.441736, 48.772381]}, "properties": {"numparc": 9529, "etat de la localisation": "autre", "ID BDGEO": "126", "horodatage": "2022-10-02 20:29:33", "distance (en metres)": 513.3, "station": "POMPADOUR", "marker-color": "#818181"}}, {"type": "Feature", "geometry": {"type": "Point", "coordinates": [2.44241, 48.771885]}, "properties": {"numparc": 9548, "etat de la localisation": "autre", "ID BDGEO": "208", "horodatage": "2022-10-02 20:56:49", "distance (en metres)": 96.9, "station": "DEPOT CRETEIL SORTIE", "marker-color": "#818181"}}, {"type": "Feature", "geometry": {"type": "Point", "coordinates": [2.50657, 48.771816]}, "properties": {"numparc": 9525, "etat de la localisation": "autre", "ID BDGEO": "154", "horodatage": "2022-10-02 21:41:12", "distance (en metres)": 48.22, "station": "SUCY-BONNEUIL RER.", "marker-color": "#818181"}}, {"type": "Feature", "geometry": {"type": "Point", "coordinates": [2.442997, 48.772484]}, "properties": {"numparc": 9529, "etat de la localisation": "autre", "ID BDGEO": "126", "horodatage": "2022-10-03 01:14:20", "distance (en metres)": 603.25, "station": "POMPADOUR", "marker-color": "#818181"}}, {"type": "Feature", "geometry": {"type": "Point", "coordinates": [2.443007, 48.77248]}, "properties": {"numparc": 9529, "etat de la localisation": "autre", "ID BDGEO": "126", "horodatage": "2022-10-03 01:15:59", "distance (en metres)": 604.03, "station": "POMPADOUR", "marker-color": "#818181"}}, {"type": "Feature", "geometry": {"type": "Point", "coordinates": [2.447215, 48.769163]}, "properties": {"station": "VAL POMPADOUR", "ID BDGEO": "131", "marker-color": "#56B3FF"}}, {"type": "Feature", "geometry": {"type": "Point", "coordinates": [2.443238, 48.772564]}, "properties": {"station": "DEPOT CRETEIL SORTIE", "ID BDGEO": "208", "marker-color": "#56B3FF"}}, {"type": "Feature", "geometry": {"type": "Point", "coordinates": [2.416877, 48.76765]}, "properties": {"station": "PASTEUR", "ID BDGEO": "121", "marker-color": "#56B3FF"}}, {"type": "Feature", "geometry": {"type": "Point", "coordinates": [2.506767, 48.77223]}, "properties": {"station": "SUCY-BONNEUIL RER.", "ID BDGEO": "154", "marker-color": "#56B3FF"}}, {"type": "Feature", "geometry": {"type": "Point", "coordinates": [2.421108, 48.768861]}, "properties": {"station": "MARCELLIN BERTHELOT", "ID BDGEO": "123", "marker-color": "#56B3FF"}}, {"type": "Feature", "geometry": {"type": "Point", "coordinates": [2.404881, 48.764152]}, "properties": {"station": "ROUGET DE LISLE", "ID BDGEO": "117", "marker-color": "#56B3FF"}}, {"type": "Feature", "geometry": {"type": "Point", "coordinates": [2.408662, 48.765346]}, "properties": {"station": "CHOISY-LE-ROI RER", "ID BDGEO": "119", "marker-color": "#56B3FF"}}, {"type": "Feature", "geometry": {"type": "Point", "coordinates": [2.434781, 48.773111]}, "properties": {"station": "POMPADOUR#", "ID BDGEO": "128", "marker-color": "#56B3FF"}}, {"type": "Feature", "geometry": {"type": "Point", "coordinates": [2.443189, 48.77536]}, "properties": {"station": "BASSE QUINTE", "ID BDGEO": "129", "marker-color": "#56B3FF"}}, {"type": "Feature", "geometry": {"type": "Point", "coordinates": [2.506712, 48.771942]}, "properties": {"station": "SUCY-BONNEUIL RER", "ID BDGEO": "291", "marker-color": "#56B3FF"}}, {"type": "Feature", "geometry": {"type": "Point", "coordinates": [2.389034, 48.757204]}, "properties": {"station": "CARREFOUR RESISTANCE", "ID BDGEO": "109", "marker-color": "#56B3FF"}}, {"type": "Feature", "geometry": {"type": "Point", "coordinates": [2.434822, 48.77312]}, "properties": {"station": "POMPADOUR", "ID BDGEO": "126", "marker-color": "#56B3FF"}}, {"type": "Feature", "geometry": {"type": "Point", "coordinates": [2.435094, 48.773057]}, "properties": {"station": "POMPADOUR#", "ID BDGEO": "802", "marker-color": "#56B3FF"}}]}