{"type": "FeatureCollection", "features": [{"type": "Feature", "geometry": {"type": "Point", "coordinates": [2.455251, 48.777454]}, "properties": {"alarme": "VEHICULE DELOCALISE", "numparc": 2824, "type": "EXPLOITATION", "duree": "00:00:23", "horodatage": "2021-10-12 06:07:31", "statut": "start", "marker-color": "#ff0000"}}, {"type": "Feature", "geometry": {"type": "Point", "coordinates": [2.454193, 48.778458]}, "properties": {"alarme": "VEHICULE DELOCALISE", "numparc": 2824, "type": "EXPLOITATION", "duree": "00:02:26", "horodatage": "2021-10-12 06:10:39", "statut": "start", "marker-color": "#ff0000"}}, {"type": "Feature", "geometry": {"type": "Point", "coordinates": [2.455123, 48.77887]}, "properties": {"alarme": "VEHICULE DELOCALISE", "numparc": 2825, "type": "EXPLOITATION", "duree": "00:03:33", "horodatage": "2021-10-12 06:44:54", "statut": "start", "marker-color": "#ff0000"}}, {"type": "Feature", "geometry": {"type": "Point", "coordinates": [2.493852, 48.837929]}, "properties": {"alarme": "VEHICULE DELOCALISE", "numparc": 2830, "type": "EXPLOITATION", "duree": "00:02:50", "horodatage": "2021-10-12 07:13:36", "statut": "start", "marker-color": "#ff0000"}}, {"type": "Feature", "geometry": {"type": "Point", "coordinates": [2.455133, 48.778831]}, "properties": {"alarme": "VEHICULE DELOCALISE", "numparc": 2830, "type": "EXPLOITATION", "duree": "00:00:25", "horodatage": "2021-10-12 08:35:20", "statut": "start", "marker-color": "#ff0000"}}, {"type": "Feature", "geometry": {"type": "Point", "coordinates": [2.478312, 48.806713]}, "properties": {"alarme": "VEHICULE DELOCALISE", "numparc": 2824, "type": "EXPLOITATION", "duree": "00:00:51", "horodatage": "2021-10-12 09:36:02", "statut": "start", "marker-color": "#ff0000"}}, {"type": "Feature", "geometry": {"type": "Point", "coordinates": [2.481629, 48.805779]}, "properties": {"alarme": "VEHICULE DELOCALISE", "numparc": 2824, "type": "EXPLOITATION", "duree": "00:00:59", "horodatage": "2021-10-12 09:37:23", "statut": "start", "marker-color": "#ff0000"}}, {"type": "Feature", "geometry": {"type": "Point", "coordinates": [2.455148, 48.778866]}, "properties": {"alarme": "VEHICULE DELOCALISE", "numparc": 2828, "type": "EXPLOITATION", "duree": "00:00:28", "horodatage": "2021-10-12 09:56:15", "statut": "start", "marker-color": "#ff0000"}}, {"type": "Feature", "geometry": {"type": "Point", "coordinates": [2.475534, 48.807213]}, "properties": {"alarme": "VEHICULE DELOCALISE", "numparc": 2827, "type": "EXPLOITATION", "duree": "00:30:14", "horodatage": "2021-10-12 10:35:44", "statut": "start", "marker-color": "#ff0000"}}, {"type": "Feature", "geometry": {"type": "Point", "coordinates": [2.481183, 48.805908]}, "properties": {"alarme": "VEHICULE DELOCALISE", "numparc": 2827, "type": "EXPLOITATION", "duree": "00:01:08", "horodatage": "2021-10-12 11:06:26", "statut": "start", "marker-color": "#ff0000"}}, {"type": "Feature", "geometry": {"type": "Point", "coordinates": [2.48732, 48.802151]}, "properties": {"alarme": "VEHICULE DELOCALISE", "numparc": 2827, "type": "EXPLOITATION", "duree": "00:08:10", "horodatage": "2021-10-12 11:09:34", "statut": "start", "marker-color": "#ff0000"}}, {"type": "Feature", "geometry": {"type": "Point", "coordinates": [2.46271, 48.795395]}, "properties": {"alarme": "VEHICULE DELOCALISE", "numparc": 2827, "type": "EXPLOITATION", "duree": "00:04:24", "horodatage": "2021-10-12 11:19:11", "statut": "start", "marker-color": "#ff0000"}}, {"type": "Feature", "geometry": {"type": "Point", "coordinates": [2.455208, 48.788498]}, "properties": {"alarme": "VEHICULE DELOCALISE", "numparc": 2827, "type": "EXPLOITATION", "duree": "00:01:06", "horodatage": "2021-10-12 11:25:09", "statut": "start", "marker-color": "#ff0000"}}, {"type": "Feature", "geometry": {"type": "Point", "coordinates": [2.45184, 48.783871]}, "properties": {"alarme": "VEHICULE DELOCALISE", "numparc": 2827, "type": "EXPLOITATION", "duree": "00:02:03", "horodatage": "2021-10-12 11:28:27", "statut": "start", "marker-color": "#ff0000"}}, {"type": "Feature", "geometry": {"type": "Point", "coordinates": [2.45453, 48.782043]}, "properties": {"alarme": "VEHICULE DELOCALISE", "numparc": 2827, "type": "EXPLOITATION", "duree": "00:01:35", "horodatage": "2021-10-12 11:30:31", "statut": "start", "marker-color": "#ff0000"}}, {"type": "Feature", "geometry": {"type": "Point", "coordinates": [2.45531, 48.77758]}, "properties": {"alarme": "VEHICULE DELOCALISE", "numparc": 2827, "type": "EXPLOITATION", "duree": "00:00:22", "horodatage": "2021-10-12 11:33:04", "statut": "start", "marker-color": "#ff0000"}}, {"type": "Feature", "geometry": {"type": "Point", "coordinates": [2.455121, 48.778896]}, "properties": {"alarme": "VEHICULE DELOCALISE", "numparc": 2828, "type": "EXPLOITATION", "duree": "00:00:31", "horodatage": "2021-10-12 12:12:01", "statut": "start", "marker-color": "#ff0000"}}, {"type": "Feature", "geometry": {"type": "Point", "coordinates": [2.455164, 48.778873]}, "properties": {"alarme": "VEHICULE DELOCALISE", "numparc": 2824, "type": "EXPLOITATION", "duree": "00:00:29", "horodatage": "2021-10-12 12:27:52", "statut": "start", "marker-color": "#ff0000"}}, {"type": "Feature", "geometry": {"type": "Point", "coordinates": [2.455134, 48.778912]}, "properties": {"alarme": "VEHICULE DELOCALISE", "numparc": 2822, "type": "EXPLOITATION", "duree": "00:00:31", "horodatage": "2021-10-12 13:06:34", "statut": "start", "marker-color": "#ff0000"}}, {"type": "Feature", "geometry": {"type": "Point", "coordinates": [2.455125, 48.778858]}, "properties": {"alarme": "VEHICULE DELOCALISE", "numparc": 2827, "type": "EXPLOITATION", "duree": "00:00:26", "horodatage": "2021-10-12 13:46:28", "statut": "start", "marker-color": "#ff0000"}}, {"type": "Feature", "geometry": {"type": "Point", "coordinates": [2.454278, 48.7803]}, "properties": {"alarme": "VEHICULE DELOCALISE", "numparc": 2824, "type": "EXPLOITATION", "duree": "00:01:33", "horodatage": "2021-10-12 14:23:53", "statut": "start", "marker-color": "#ff0000"}}, {"type": "Feature", "geometry": {"type": "Point", "coordinates": [2.455188, 48.778831]}, "properties": {"alarme": "VEHICULE DELOCALISE", "numparc": 2830, "type": "EXPLOITATION", "duree": "00:00:24", "horodatage": "2021-10-12 14:36:00", "statut": "start", "marker-color": "#ff0000"}}, {"type": "Feature", "geometry": {"type": "Point", "coordinates": [2.455145, 48.778816]}, "properties": {"alarme": "VEHICULE DELOCALISE", "numparc": 2830, "type": "EXPLOITATION", "duree": "00:00:21", "horodatage": "2021-10-12 16:39:37", "statut": "start", "marker-color": "#ff0000"}}, {"type": "Feature", "geometry": {"type": "Point", "coordinates": [2.455153, 48.778904]}, "properties": {"alarme": "VEHICULE DELOCALISE", "numparc": 2827, "type": "EXPLOITATION", "duree": "00:00:24", "horodatage": "2021-10-12 17:52:54", "statut": "start", "marker-color": "#ff0000"}}, {"type": "Feature", "geometry": {"type": "Point", "coordinates": [2.454957, 48.778927]}, "properties": {"alarme": "VEHICULE DELOCALISE", "numparc": 2855, "type": "EXPLOITATION", "duree": "00:00:27", "horodatage": "2021-10-12 19:35:03", "statut": "start", "marker-color": "#ff0000"}}, {"type": "Feature", "geometry": {"type": "Point", "coordinates": [2.454825, 48.778851]}, "properties": {"alarme": "VEHICULE DELOCALISE", "numparc": 2821, "type": "EXPLOITATION", "duree": "00:00:23", "horodatage": "2021-10-12 20:04:56", "statut": "start", "marker-color": "#ff0000"}}, {"type": "Feature", "geometry": {"type": "Point", "coordinates": [2.455108, 48.778877]}, "properties": {"alarme": "VEHICULE DELOCALISE", "numparc": 2824, "type": "EXPLOITATION", "duree": "00:00:31", "horodatage": "2021-10-12 20:20:56", "statut": "start", "marker-color": "#ff0000"}}, {"type": "Feature", "geometry": {"type": "Point", "coordinates": [2.454638, 48.778824]}, "properties": {"alarme": "VEHICULE DELOCALISE", "numparc": 2829, "type": "EXPLOITATION", "duree": "00:00:35", "horodatage": "2021-10-12 20:57:17", "statut": "start", "marker-color": "#ff0000"}}, {"type": "Feature", "geometry": {"type": "Point", "coordinates": [2.454755, 48.778774]}, "properties": {"alarme": "VEHICULE DELOCALISE", "numparc": 2825, "type": "EXPLOITATION", "duree": "00:05:10", "horodatage": "2021-10-12 21:30:30", "statut": "start", "marker-color": "#ff0000"}}, {"type": "Feature", "geometry": {"type": "Point", "coordinates": [2.487223, 48.79987]}, "properties": {"alarme": "VEHICULE DELOCALISE", "numparc": 2829, "type": "EXPLOITATION", "duree": "00:00:54", "horodatage": "2021-10-12 22:01:25", "statut": "start", "marker-color": "#ff0000"}}, {"type": "Feature", "geometry": {"type": "Point", "coordinates": [2.493996, 48.837658]}, "properties": {"alarme": "VEHICULE DELOCALISE", "numparc": 2825, "type": "EXPLOITATION", "duree": "00:03:03", "horodatage": "2021-10-12 22:16:04", "statut": "start", "marker-color": "#ff0000"}}, {"type": "Feature", "geometry": {"type": "Point", "coordinates": [2.455324, 48.778839]}, "properties": {"alarme": "VEHICULE DELOCALISE", "numparc": 2829, "type": "EXPLOITATION", "duree": "00:00:23", "horodatage": "2021-10-12 22:26:28", "statut": "start", "marker-color": "#ff0000"}}, {"type": "Feature", "geometry": {"type": "Point", "coordinates": [2.454895, 48.777798]}, "properties": {"alarme": "VEHICULE DELOCALISE", "numparc": 2824, "type": "EXPLOITATION", "duree": "00:00:23", "horodatage": "2021-10-12 06:07:54", "statut": "end", "marker-color": "#2fe184"}}, {"type": "Feature", "geometry": {"type": "Point", "coordinates": [2.455433, 48.786316]}, "properties": {"alarme": "VEHICULE DELOCALISE", "numparc": 2824, "type": "EXPLOITATION", "duree": "00:02:26", "horodatage": "2021-10-12 06:13:05", "statut": "end", "marker-color": "#2fe184"}}, {"type": "Feature", "geometry": {"type": "Point", "coordinates": [2.453956, 48.789818]}, "properties": {"alarme": "VEHICULE DELOCALISE", "numparc": 2825, "type": "EXPLOITATION", "duree": "00:03:33", "horodatage": "2021-10-12 06:48:27", "statut": "end", "marker-color": "#2fe184"}}, {"type": "Feature", "geometry": {"type": "Point", "coordinates": [2.493632, 48.835258]}, "properties": {"alarme": "VEHICULE DELOCALISE", "numparc": 2830, "type": "EXPLOITATION", "duree": "00:02:50", "horodatage": "2021-10-12 07:16:26", "statut": "end", "marker-color": "#2fe184"}}, {"type": "Feature", "geometry": {"type": "Point", "coordinates": [2.455081, 48.77972]}, "properties": {"alarme": "VEHICULE DELOCALISE", "numparc": 2830, "type": "EXPLOITATION", "duree": "00:00:25", "horodatage": "2021-10-12 08:35:45", "statut": "end", "marker-color": "#2fe184"}}, {"type": "Feature", "geometry": {"type": "Point", "coordinates": [2.479795, 48.806271]}, "properties": {"alarme": "VEHICULE DELOCALISE", "numparc": 2824, "type": "EXPLOITATION", "duree": "00:00:51", "horodatage": "2021-10-12 09:36:53", "statut": "end", "marker-color": "#2fe184"}}, {"type": "Feature", "geometry": {"type": "Point", "coordinates": [2.485314, 48.80489]}, "properties": {"alarme": "VEHICULE DELOCALISE", "numparc": 2824, "type": "EXPLOITATION", "duree": "00:00:59", "horodatage": "2021-10-12 09:38:22", "statut": "end", "marker-color": "#2fe184"}}, {"type": "Feature", "geometry": {"type": "Point", "coordinates": [2.455087, 48.779819]}, "properties": {"alarme": "VEHICULE DELOCALISE", "numparc": 2828, "type": "EXPLOITATION", "duree": "00:00:28", "horodatage": "2021-10-12 09:56:43", "statut": "end", "marker-color": "#2fe184"}}, {"type": "Feature", "geometry": {"type": "Point", "coordinates": [2.479672, 48.80632]}, "properties": {"alarme": "VEHICULE DELOCALISE", "numparc": 2827, "type": "EXPLOITATION", "duree": "00:30:14", "horodatage": "2021-10-12 11:05:58", "statut": "end", "marker-color": "#2fe184"}}, {"type": "Feature", "geometry": {"type": "Point", "coordinates": [2.486236, 48.804352]}, "properties": {"alarme": "VEHICULE DELOCALISE", "numparc": 2827, "type": "EXPLOITATION", "duree": "00:01:08", "horodatage": "2021-10-12 11:07:34", "statut": "end", "marker-color": "#2fe184"}}, {"type": "Feature", "geometry": {"type": "Point", "coordinates": [2.464584, 48.797985]}, "properties": {"alarme": "VEHICULE DELOCALISE", "numparc": 2827, "type": "EXPLOITATION", "duree": "00:08:10", "horodatage": "2021-10-12 11:17:44", "statut": "end", "marker-color": "#2fe184"}}, {"type": "Feature", "geometry": {"type": "Point", "coordinates": [2.453728, 48.790031]}, "properties": {"alarme": "VEHICULE DELOCALISE", "numparc": 2827, "type": "EXPLOITATION", "duree": "00:04:24", "horodatage": "2021-10-12 11:23:35", "statut": "end", "marker-color": "#2fe184"}}, {"type": "Feature", "geometry": {"type": "Point", "coordinates": [2.453447, 48.785648]}, "properties": {"alarme": "VEHICULE DELOCALISE", "numparc": 2827, "type": "EXPLOITATION", "duree": "00:01:06", "horodatage": "2021-10-12 11:26:15", "statut": "end", "marker-color": "#2fe184"}}, {"type": "Feature", "geometry": {"type": "Point", "coordinates": [2.454494, 48.782055]}, "properties": {"alarme": "VEHICULE DELOCALISE", "numparc": 2827, "type": "EXPLOITATION", "duree": "00:02:03", "horodatage": "2021-10-12 11:30:30", "statut": "end", "marker-color": "#2fe184"}}, {"type": "Feature", "geometry": {"type": "Point", "coordinates": [2.455033, 48.779572]}, "properties": {"alarme": "VEHICULE DELOCALISE", "numparc": 2827, "type": "EXPLOITATION", "duree": "00:01:35", "horodatage": "2021-10-12 11:32:06", "statut": "end", "marker-color": "#2fe184"}}, {"type": "Feature", "geometry": {"type": "Point", "coordinates": [2.455089, 48.777962]}, "properties": {"alarme": "VEHICULE DELOCALISE", "numparc": 2827, "type": "EXPLOITATION", "duree": "00:00:22", "horodatage": "2021-10-12 11:33:26", "statut": "end", "marker-color": "#2fe184"}}, {"type": "Feature", "geometry": {"type": "Point", "coordinates": [2.455053, 48.779781]}, "properties": {"alarme": "VEHICULE DELOCALISE", "numparc": 2828, "type": "EXPLOITATION", "duree": "00:00:31", "horodatage": "2021-10-12 12:12:32", "statut": "end", "marker-color": "#2fe184"}}, {"type": "Feature", "geometry": {"type": "Point", "coordinates": [2.455057, 48.779766]}, "properties": {"alarme": "VEHICULE DELOCALISE", "numparc": 2824, "type": "EXPLOITATION", "duree": "00:00:29", "horodatage": "2021-10-12 12:28:21", "statut": "end", "marker-color": "#2fe184"}}, {"type": "Feature", "geometry": {"type": "Point", "coordinates": [2.455082, 48.779751]}, "properties": {"alarme": "VEHICULE DELOCALISE", "numparc": 2822, "type": "EXPLOITATION", "duree": "00:00:31", "horodatage": "2021-10-12 13:07:05", "statut": "end", "marker-color": "#2fe184"}}, {"type": "Feature", "geometry": {"type": "Point", "coordinates": [2.455093, 48.779762]}, "properties": {"alarme": "VEHICULE DELOCALISE", "numparc": 2827, "type": "EXPLOITATION", "duree": "00:00:26", "horodatage": "2021-10-12 13:46:54", "statut": "end", "marker-color": "#2fe184"}}, {"type": "Feature", "geometry": {"type": "Point", "coordinates": [2.453842, 48.784081]}, "properties": {"alarme": "VEHICULE DELOCALISE", "numparc": 2824, "type": "EXPLOITATION", "duree": "00:01:33", "horodatage": "2021-10-12 14:25:26", "statut": "end", "marker-color": "#2fe184"}}, {"type": "Feature", "geometry": {"type": "Point", "coordinates": [2.455116, 48.77977]}, "properties": {"alarme": "VEHICULE DELOCALISE", "numparc": 2830, "type": "EXPLOITATION", "duree": "00:00:24", "horodatage": "2021-10-12 14:36:24", "statut": "end", "marker-color": "#2fe184"}}, {"type": "Feature", "geometry": {"type": "Point", "coordinates": [2.455107, 48.779736]}, "properties": {"alarme": "VEHICULE DELOCALISE", "numparc": 2830, "type": "EXPLOITATION", "duree": "00:00:21", "horodatage": "2021-10-12 16:39:58", "statut": "end", "marker-color": "#2fe184"}}, {"type": "Feature", "geometry": {"type": "Point", "coordinates": [2.455094, 48.779781]}, "properties": {"alarme": "VEHICULE DELOCALISE", "numparc": 2827, "type": "EXPLOITATION", "duree": "00:00:24", "horodatage": "2021-10-12 17:53:18", "statut": "end", "marker-color": "#2fe184"}}, {"type": "Feature", "geometry": {"type": "Point", "coordinates": [2.454867, 48.779793]}, "properties": {"alarme": "VEHICULE DELOCALISE", "numparc": 2855, "type": "EXPLOITATION", "duree": "00:00:27", "horodatage": "2021-10-12 19:35:30", "statut": "end", "marker-color": "#2fe184"}}, {"type": "Feature", "geometry": {"type": "Point", "coordinates": [2.454702, 48.779762]}, "properties": {"alarme": "VEHICULE DELOCALISE", "numparc": 2821, "type": "EXPLOITATION", "duree": "00:00:23", "horodatage": "2021-10-12 20:05:19", "statut": "end", "marker-color": "#2fe184"}}, {"type": "Feature", "geometry": {"type": "Point", "coordinates": [2.454989, 48.77972]}, "properties": {"alarme": "VEHICULE DELOCALISE", "numparc": 2824, "type": "EXPLOITATION", "duree": "00:00:31", "horodatage": "2021-10-12 20:21:27", "statut": "end", "marker-color": "#2fe184"}}, {"type": "Feature", "geometry": {"type": "Point", "coordinates": [2.454557, 48.779755]}, "properties": {"alarme": "VEHICULE DELOCALISE", "numparc": 2829, "type": "EXPLOITATION", "duree": "00:00:35", "horodatage": "2021-10-12 20:57:52", "statut": "end", "marker-color": "#2fe184"}}, {"type": "Feature", "geometry": {"type": "Point", "coordinates": [2.453984, 48.789753]}, "properties": {"alarme": "VEHICULE DELOCALISE", "numparc": 2825, "type": "EXPLOITATION", "duree": "00:05:10", "horodatage": "2021-10-12 21:35:40", "statut": "end", "marker-color": "#2fe184"}}, {"type": "Feature", "geometry": {"type": "Point", "coordinates": [2.485432, 48.798107]}, "properties": {"alarme": "VEHICULE DELOCALISE", "numparc": 2829, "type": "EXPLOITATION", "duree": "00:00:54", "horodatage": "2021-10-12 22:02:19", "statut": "end", "marker-color": "#2fe184"}}, {"type": "Feature", "geometry": {"type": "Point", "coordinates": [2.493662, 48.828228]}, "properties": {"alarme": "VEHICULE DELOCALISE", "numparc": 2825, "type": "EXPLOITATION", "duree": "00:03:03", "horodatage": "2021-10-12 22:19:07", "statut": "end", "marker-color": "#2fe184"}}, {"type": "Feature", "geometry": {"type": "Point", "coordinates": [2.455285, 48.779728]}, "properties": {"alarme": "VEHICULE DELOCALISE", "numparc": 2829, "type": "EXPLOITATION", "duree": "00:00:23", "horodatage": "2021-10-12 22:26:51", "statut": "end", "marker-color": "#2fe184"}}]}