{"type": "FeatureCollection", "features": [{"type": "Feature", "geometry": {"type": "Point", "coordinates": [2.296661, 48.72118]}, "properties": {"etat de la localisation": "Mission inconnue", "numparc": 4878, "duree": "", "horodatage": "2022-08-02 04:45:40", "marker-color": "#FF9F56"}}, {"type": "Feature", "geometry": {"type": "Point", "coordinates": [2.260713, 48.725361]}, "properties": {"etat de la localisation": "Delocalise", "numparc": 4890, "duree": "00:00:12", "horodatage": "2022-08-02 08:19:49", "marker-color": "#FF565E"}}, {"type": "Feature", "geometry": {"type": "Point", "coordinates": [2.298029, 48.721371]}, "properties": {"etat de la localisation": "Hors service", "numparc": 4889, "duree": "", "horodatage": "2022-08-02 09:25:07", "marker-color": "#707070"}}, {"type": "Feature", "geometry": {"type": "Point", "coordinates": [2.26081, 48.724968]}, "properties": {"etat de la localisation": "Delocalise", "numparc": 4890, "duree": "00:00:52", "horodatage": "2022-08-02 09:39:35", "marker-color": "#FF565E"}}, {"type": "Feature", "geometry": {"type": "Point", "coordinates": [2.298019, 48.721352]}, "properties": {"etat de la localisation": "Hors service", "numparc": 5821, "duree": "", "horodatage": "2022-08-02 09:44:21", "marker-color": "#707070"}}, {"type": "Feature", "geometry": {"type": "Point", "coordinates": [2.260217, 48.72459]}, "properties": {"etat de la localisation": "Delocalise", "numparc": 4878, "duree": "00:00:57", "horodatage": "2022-08-02 10:02:16", "marker-color": "#FF565E"}}, {"type": "Feature", "geometry": {"type": "Point", "coordinates": [2.297862, 48.721371]}, "properties": {"etat de la localisation": "Hors service", "numparc": 4890, "duree": "", "horodatage": "2022-08-02 10:11:07", "marker-color": "#707070"}}, {"type": "Feature", "geometry": {"type": "Point", "coordinates": [2.259994, 48.724609]}, "properties": {"etat de la localisation": "Delocalise", "numparc": 5815, "duree": "00:01:35", "horodatage": "2022-08-02 10:35:37", "marker-color": "#FF565E"}}, {"type": "Feature", "geometry": {"type": "Point", "coordinates": [2.29731, 48.72192]}, "properties": {"etat de la localisation": "Hors service", "numparc": 4878, "duree": "", "horodatage": "2022-08-02 10:49:50", "marker-color": "#707070"}}, {"type": "Feature", "geometry": {"type": "Point", "coordinates": [2.297683, 48.721676]}, "properties": {"etat de la localisation": "Mission inconnue", "numparc": 4890, "duree": "", "horodatage": "2022-08-02 12:10:27", "marker-color": "#FF9F56"}}, {"type": "Feature", "geometry": {"type": "Point", "coordinates": [2.295609, 48.688351]}, "properties": {"etat de la localisation": "Mission suivante non connue", "numparc": 5815, "duree": "", "horodatage": "2022-08-02 13:55:35", "marker-color": "#7156FF"}}, {"type": "Feature", "geometry": {"type": "Point", "coordinates": [2.29495, 48.687893]}, "properties": {"etat de la localisation": "Delocalise", "numparc": 5815, "duree": "00:00:27", "horodatage": "2022-08-02 13:56:01", "marker-color": "#FF565E"}}, {"type": "Feature", "geometry": {"type": "Point", "coordinates": [2.297384, 48.72163]}, "properties": {"etat de la localisation": "Hors service", "numparc": 5815, "duree": "", "horodatage": "2022-08-02 14:06:42", "marker-color": "#707070"}}, {"type": "Feature", "geometry": {"type": "Point", "coordinates": [2.297707, 48.722176]}, "properties": {"etat de la localisation": "Delocalise", "numparc": 5819, "duree": "00:00:14", "horodatage": "2022-08-02 15:43:24", "marker-color": "#FF565E"}}, {"type": "Feature", "geometry": {"type": "Point", "coordinates": [2.298226, 48.721497]}, "properties": {"etat de la localisation": "Hors service", "numparc": 4890, "duree": "", "horodatage": "2022-08-02 16:02:16", "marker-color": "#707070"}}, {"type": "Feature", "geometry": {"type": "Point", "coordinates": [2.291091, 48.699043]}, "properties": {"etat de la localisation": "Delocalise", "numparc": 5819, "duree": "00:00:38", "horodatage": "2022-08-02 18:46:32", "marker-color": "#FF565E"}}, {"type": "Feature", "geometry": {"type": "Point", "coordinates": [2.297202, 48.721577]}, "properties": {"etat de la localisation": "Mission inconnue", "numparc": 4878, "duree": "", "horodatage": "2022-08-02 19:24:36", "marker-color": "#FF9F56"}}, {"type": "Feature", "geometry": {"type": "Point", "coordinates": [2.298603, 48.722469]}, "properties": {"etat de la localisation": "Hors service", "numparc": 4891, "duree": "", "horodatage": "2022-08-02 19:59:26", "marker-color": "#707070"}}, {"type": "Feature", "geometry": {"type": "Point", "coordinates": [2.29896, 48.722603]}, "properties": {"etat de la localisation": "Hors service", "numparc": 4892, "duree": "", "horodatage": "2022-08-02 21:45:28", "marker-color": "#707070"}}, {"type": "Feature", "geometry": {"type": "Point", "coordinates": [2.297603, 48.722038]}, "properties": {"etat de la localisation": "Hors service", "numparc": 5819, "duree": "", "horodatage": "2022-08-02 21:52:49", "marker-color": "#707070"}}, {"type": "Feature", "geometry": {"type": "Point", "coordinates": [2.297677, 48.722206]}, "properties": {"etat de la localisation": "Hors service", "numparc": 5818, "duree": "", "horodatage": "2022-08-02 23:06:47", "marker-color": "#707070"}}, {"type": "Feature", "geometry": {"type": "Point", "coordinates": [2.262179, 48.7258]}, "properties": {"etat de la localisation": "Delocalise", "numparc": 4878, "duree": "00:11:27", "horodatage": "2022-08-03 00:48:41", "marker-color": "#FF565E"}}, {"type": "Feature", "geometry": {"type": "Point", "coordinates": [2.297172, 48.721825]}, "properties": {"etat de la localisation": "Hors service", "numparc": 4882, "duree": "", "horodatage": "2022-08-03 00:58:04", "marker-color": "#707070"}}, {"type": "Feature", "geometry": {"type": "Point", "coordinates": [2.297305, 48.721806]}, "properties": {"etat de la localisation": "Hors service", "numparc": 4878, "duree": "", "horodatage": "2022-08-03 01:00:08", "marker-color": "#707070"}}]}