{"type": "FeatureCollection", "features": [{"type": "Feature", "geometry": {"type": "Point", "coordinates": [2.44132, 48.86158]}, "properties": {"numparc": 1579, "etat de la localisation": "autre", "ID BDGEO": "81", "horodatage": "2022-12-20 10:06:51", "distance (en metres)": 5640.09, "station": "CHATEAU DE VILLEMOMBLE", "marker-color": "#818181"}}, {"type": "Feature", "geometry": {"type": "Point", "coordinates": [2.45011, 48.863644]}, "properties": {"numparc": 1579, "etat de la localisation": "autre", "ID BDGEO": "81", "horodatage": "2022-12-20 10:18:10", "distance (en metres)": 4962.78, "station": "CHATEAU DE VILLEMOMBLE", "marker-color": "#818181"}}, {"type": "Feature", "geometry": {"type": "Point", "coordinates": [2.453804, 48.865173]}, "properties": {"numparc": 1579, "etat de la localisation": "autre", "ID BDGEO": "81", "horodatage": "2022-12-20 10:19:18", "distance (en metres)": 4644.71, "station": "CHATEAU DE VILLEMOMBLE", "marker-color": "#818181"}}, {"type": "Feature", "geometry": {"type": "Point", "coordinates": [2.458309, 48.867764]}, "properties": {"numparc": 1579, "etat de la localisation": "autre", "ID BDGEO": "81", "horodatage": "2022-12-20 10:20:42", "distance (en metres)": 4221.72, "station": "CHATEAU DE VILLEMOMBLE", "marker-color": "#818181"}}, {"type": "Feature", "geometry": {"type": "Point", "coordinates": [2.461741, 48.868904]}, "properties": {"numparc": 1579, "etat de la localisation": "autre", "ID BDGEO": "81", "horodatage": "2022-12-20 10:21:58", "distance (en metres)": 3940.54, "station": "CHATEAU DE VILLEMOMBLE", "marker-color": "#818181"}}, {"type": "Feature", "geometry": {"type": "Point", "coordinates": [2.465411, 48.869968]}, "properties": {"numparc": 1579, "etat de la localisation": "autre", "ID BDGEO": "81", "horodatage": "2022-12-20 10:23:17", "distance (en metres)": 3647.32, "station": "CHATEAU DE VILLEMOMBLE", "marker-color": "#818181"}}, {"type": "Feature", "geometry": {"type": "Point", "coordinates": [2.470062, 48.871078]}, "properties": {"numparc": 1579, "etat de la localisation": "autre", "ID BDGEO": "81", "horodatage": "2022-12-20 10:25:03", "distance (en metres)": 3287.37, "station": "CHATEAU DE VILLEMOMBLE", "marker-color": "#818181"}}, {"type": "Feature", "geometry": {"type": "Point", "coordinates": [2.478364, 48.872845]}, "properties": {"numparc": 1579, "etat de la localisation": "autre", "ID BDGEO": "81", "horodatage": "2022-12-20 10:27:28", "distance (en metres)": 2657.42, "station": "CHATEAU DE VILLEMOMBLE", "marker-color": "#818181"}}, {"type": "Feature", "geometry": {"type": "Point", "coordinates": [2.483889, 48.874908]}, "properties": {"numparc": 1579, "etat de la localisation": "autre", "ID BDGEO": "81", "horodatage": "2022-12-20 10:29:47", "distance (en metres)": 2192.91, "station": "CHATEAU DE VILLEMOMBLE", "marker-color": "#818181"}}, {"type": "Feature", "geometry": {"type": "Point", "coordinates": [2.485929, 48.877792]}, "properties": {"numparc": 1579, "etat de la localisation": "autre", "ID BDGEO": "81", "horodatage": "2022-12-20 10:32:24", "distance (en metres)": 1923.09, "station": "CHATEAU DE VILLEMOMBLE", "marker-color": "#818181"}}, {"type": "Feature", "geometry": {"type": "Point", "coordinates": [2.485305, 48.878189]}, "properties": {"numparc": 1579, "etat de la localisation": "autre", "ID BDGEO": "81", "horodatage": "2022-12-20 10:33:18", "distance (en metres)": 1950.26, "station": "CHATEAU DE VILLEMOMBLE", "marker-color": "#818181"}}, {"type": "Feature", "geometry": {"type": "Point", "coordinates": [2.48181, 48.88261]}, "properties": {"numparc": 1579, "etat de la localisation": "autre", "ID BDGEO": "81", "horodatage": "2022-12-20 10:34:36", "distance (en metres)": 2097.54, "station": "CHATEAU DE VILLEMOMBLE", "marker-color": "#818181"}}, {"type": "Feature", "geometry": {"type": "Point", "coordinates": [2.485396, 48.884327]}, "properties": {"numparc": 1579, "etat de la localisation": "autre", "ID BDGEO": "81", "horodatage": "2022-12-20 10:36:59", "distance (en metres)": 1828.71, "station": "CHATEAU DE VILLEMOMBLE", "marker-color": "#818181"}}, {"type": "Feature", "geometry": {"type": "Point", "coordinates": [2.490495, 48.883331]}, "properties": {"numparc": 1579, "etat de la localisation": "autre", "ID BDGEO": "81", "horodatage": "2022-12-20 10:38:32", "distance (en metres)": 1458.39, "station": "CHATEAU DE VILLEMOMBLE", "marker-color": "#818181"}}, {"type": "Feature", "geometry": {"type": "Point", "coordinates": [2.510404, 48.884121]}, "properties": {"station": "CHATEAU DE VILLEMOMBLE", "ID BDGEO": "81", "marker-color": "#56B3FF"}}]}