{"type": "FeatureCollection", "features": [{"type": "Feature", "geometry": {"type": "Point", "coordinates": [2.427388, 48.8792]}, "properties": {"etat de la localisation": "Hors service", "numparc": 4949, "duree": "", "horodatage": "2021-08-29 05:55:05", "marker-color": "#707070"}}, {"type": "Feature", "geometry": {"type": "Point", "coordinates": [2.427253, 48.879154]}, "properties": {"etat de la localisation": "Hors service", "numparc": 4938, "duree": "", "horodatage": "2021-08-29 05:57:21", "marker-color": "#707070"}}]}