{"type": "FeatureCollection", "features": [{"type": "Feature", "geometry": {"type": "Point", "coordinates": [2.42719, 48.878525]}, "properties": {"alarme": "DEFAUT LIAISON DATA SAEIV / AIGLE", "numparc": 1520, "type": "TECHNIQUE", "duree": "00:00:41", "horodatage": "2022-07-03 06:47:04", "statut": "start", "marker-color": "#ff0000"}}, {"type": "Feature", "geometry": {"type": "Point", "coordinates": [2.408436, 48.877884]}, "properties": {"alarme": "VEHICULE DELOCALISE", "numparc": 1551, "type": "EXPLOITATION", "duree": "00:01:09", "horodatage": "2022-07-03 07:00:51", "statut": "start", "marker-color": "#ff0000"}}, {"type": "Feature", "geometry": {"type": "Point", "coordinates": [2.357245, 48.881233]}, "properties": {"alarme": "VEHICULE DELOCALISE", "numparc": 1520, "type": "EXPLOITATION", "duree": "00:06:35", "horodatage": "2022-07-03 07:08:19", "statut": "start", "marker-color": "#ff0000"}}, {"type": "Feature", "geometry": {"type": "Point", "coordinates": [2.357679, 48.88055]}, "properties": {"alarme": "VEHICULE DELOCALISE", "numparc": 1551, "type": "EXPLOITATION", "duree": "00:00:37", "horodatage": "2022-07-03 07:25:35", "statut": "start", "marker-color": "#ff0000"}}, {"type": "Feature", "geometry": {"type": "Point", "coordinates": [2.357808, 48.880718]}, "properties": {"alarme": "VEHICULE DELOCALISE", "numparc": 1520, "type": "EXPLOITATION", "duree": "00:15:21", "horodatage": "2022-07-03 07:55:33", "statut": "start", "marker-color": "#ff0000"}}, {"type": "Feature", "geometry": {"type": "Point", "coordinates": [2.357688, 48.880676]}, "properties": {"alarme": "VEHICULE DELOCALISE", "numparc": 1517, "type": "EXPLOITATION", "duree": "00:01:01", "horodatage": "2022-07-03 08:24:23", "statut": "start", "marker-color": "#ff0000"}}, {"type": "Feature", "geometry": {"type": "Point", "coordinates": [2.357749, 48.880558]}, "properties": {"alarme": "VEHICULE DELOCALISE", "numparc": 1517, "type": "EXPLOITATION", "duree": "00:00:20", "horodatage": "2022-07-03 08:35:14", "statut": "start", "marker-color": "#ff0000"}}, {"type": "Feature", "geometry": {"type": "Point", "coordinates": [2.35769, 48.880661]}, "properties": {"alarme": "VEHICULE DELOCALISE", "numparc": 1520, "type": "EXPLOITATION", "duree": "00:01:02", "horodatage": "2022-07-03 09:14:20", "statut": "start", "marker-color": "#ff0000"}}, {"type": "Feature", "geometry": {"type": "Point", "coordinates": [2.357358, 48.880589]}, "properties": {"alarme": "VEHICULE DELOCALISE", "numparc": 1520, "type": "EXPLOITATION", "duree": "00:00:37", "horodatage": "2022-07-03 09:32:16", "statut": "start", "marker-color": "#ff0000"}}, {"type": "Feature", "geometry": {"type": "Point", "coordinates": [2.357614, 48.880558]}, "properties": {"alarme": "VEHICULE DELOCALISE", "numparc": 1517, "type": "EXPLOITATION", "duree": "00:00:49", "horodatage": "2022-07-03 09:41:33", "statut": "start", "marker-color": "#ff0000"}}, {"type": "Feature", "geometry": {"type": "Point", "coordinates": [2.357592, 48.880516]}, "properties": {"alarme": "VEHICULE DELOCALISE", "numparc": 1517, "type": "EXPLOITATION", "duree": "00:00:27", "horodatage": "2022-07-03 09:49:11", "statut": "start", "marker-color": "#ff0000"}}, {"type": "Feature", "geometry": {"type": "Point", "coordinates": [2.357771, 48.880562]}, "properties": {"alarme": "VEHICULE DELOCALISE", "numparc": 1520, "type": "EXPLOITATION", "duree": "00:00:54", "horodatage": "2022-07-03 10:35:06", "statut": "start", "marker-color": "#ff0000"}}, {"type": "Feature", "geometry": {"type": "Point", "coordinates": [2.357159, 48.880535]}, "properties": {"alarme": "VEHICULE DELOCALISE", "numparc": 1520, "type": "EXPLOITATION", "duree": "00:00:39", "horodatage": "2022-07-03 10:48:09", "statut": "start", "marker-color": "#ff0000"}}, {"type": "Feature", "geometry": {"type": "Point", "coordinates": [2.357672, 48.880535]}, "properties": {"alarme": "VEHICULE DELOCALISE", "numparc": 1517, "type": "EXPLOITATION", "duree": "00:00:47", "horodatage": "2022-07-03 10:53:45", "statut": "start", "marker-color": "#ff0000"}}, {"type": "Feature", "geometry": {"type": "Point", "coordinates": [2.357648, 48.880524]}, "properties": {"alarme": "VEHICULE DELOCALISE", "numparc": 1517, "type": "EXPLOITATION", "duree": "00:00:18", "horodatage": "2022-07-03 11:07:04", "statut": "start", "marker-color": "#ff0000"}}, {"type": "Feature", "geometry": {"type": "Point", "coordinates": [2.35775, 48.880661]}, "properties": {"alarme": "VEHICULE DELOCALISE", "numparc": 1520, "type": "EXPLOITATION", "duree": "00:02:09", "horodatage": "2022-07-03 11:57:31", "statut": "start", "marker-color": "#ff0000"}}, {"type": "Feature", "geometry": {"type": "Point", "coordinates": [2.357733, 48.88063]}, "properties": {"alarme": "VEHICULE DELOCALISE", "numparc": 1517, "type": "EXPLOITATION", "duree": "00:00:50", "horodatage": "2022-07-03 12:16:13", "statut": "start", "marker-color": "#ff0000"}}, {"type": "Feature", "geometry": {"type": "Point", "coordinates": [2.357659, 48.880558]}, "properties": {"alarme": "VEHICULE DELOCALISE", "numparc": 1517, "type": "EXPLOITATION", "duree": "00:00:40", "horodatage": "2022-07-03 12:22:59", "statut": "start", "marker-color": "#ff0000"}}, {"type": "Feature", "geometry": {"type": "Point", "coordinates": [2.40856, 48.877872]}, "properties": {"alarme": "VEHICULE DELOCALISE", "numparc": 1517, "type": "EXPLOITATION", "duree": "00:03:37", "horodatage": "2022-07-03 18:33:57", "statut": "start", "marker-color": "#ff0000"}}, {"type": "Feature", "geometry": {"type": "Point", "coordinates": [2.357709, 48.880634]}, "properties": {"alarme": "VEHICULE DELOCALISE", "numparc": 1517, "type": "EXPLOITATION", "duree": "00:00:57", "horodatage": "2022-07-03 19:13:21", "statut": "start", "marker-color": "#ff0000"}}, {"type": "Feature", "geometry": {"type": "Point", "coordinates": [2.357535, 48.880543]}, "properties": {"alarme": "VEHICULE DELOCALISE", "numparc": 1517, "type": "EXPLOITATION", "duree": "00:00:31", "horodatage": "2022-07-03 19:18:28", "statut": "start", "marker-color": "#ff0000"}}, {"type": "Feature", "geometry": {"type": "Point", "coordinates": [2.357794, 48.880726]}, "properties": {"alarme": "VEHICULE DELOCALISE", "numparc": 1521, "type": "EXPLOITATION", "duree": "00:01:06", "horodatage": "2022-07-03 20:22:52", "statut": "start", "marker-color": "#ff0000"}}, {"type": "Feature", "geometry": {"type": "Point", "coordinates": [2.3574, 48.880558]}, "properties": {"alarme": "VEHICULE DELOCALISE", "numparc": 1521, "type": "EXPLOITATION", "duree": "00:00:27", "horodatage": "2022-07-03 20:36:27", "statut": "start", "marker-color": "#ff0000"}}, {"type": "Feature", "geometry": {"type": "Point", "coordinates": [2.357649, 48.880554]}, "properties": {"alarme": "VEHICULE DELOCALISE", "numparc": 1517, "type": "EXPLOITATION", "duree": "00:00:54", "horodatage": "2022-07-03 20:46:05", "statut": "start", "marker-color": "#ff0000"}}, {"type": "Feature", "geometry": {"type": "Point", "coordinates": [2.35759, 48.880516]}, "properties": {"alarme": "VEHICULE DELOCALISE", "numparc": 1517, "type": "EXPLOITATION", "duree": "00:00:25", "horodatage": "2022-07-03 21:05:50", "statut": "start", "marker-color": "#ff0000"}}, {"type": "Feature", "geometry": {"type": "Point", "coordinates": [2.357714, 48.88055]}, "properties": {"alarme": "VEHICULE DELOCALISE", "numparc": 1521, "type": "EXPLOITATION", "duree": "00:00:58", "horodatage": "2022-07-03 21:45:35", "statut": "start", "marker-color": "#ff0000"}}, {"type": "Feature", "geometry": {"type": "Point", "coordinates": [2.357335, 48.880581]}, "properties": {"alarme": "VEHICULE DELOCALISE", "numparc": 1521, "type": "EXPLOITATION", "duree": "00:00:29", "horodatage": "2022-07-03 21:51:16", "statut": "start", "marker-color": "#ff0000"}}, {"type": "Feature", "geometry": {"type": "Point", "coordinates": [2.357734, 48.880577]}, "properties": {"alarme": "VEHICULE DELOCALISE", "numparc": 1517, "type": "EXPLOITATION", "duree": "00:00:56", "horodatage": "2022-07-03 22:19:22", "statut": "start", "marker-color": "#ff0000"}}, {"type": "Feature", "geometry": {"type": "Point", "coordinates": [2.408065, 48.879662]}, "properties": {"alarme": "VEHICULE DELOCALISE", "numparc": 1520, "type": "EXPLOITATION", "duree": "00:11:47", "horodatage": "2022-07-03 22:29:27", "statut": "start", "marker-color": "#ff0000"}}, {"type": "Feature", "geometry": {"type": "Point", "coordinates": [2.357663, 48.880505]}, "properties": {"alarme": "VEHICULE DELOCALISE", "numparc": 1517, "type": "EXPLOITATION", "duree": "00:00:28", "horodatage": "2022-07-03 22:30:04", "statut": "start", "marker-color": "#ff0000"}}, {"type": "Feature", "geometry": {"type": "Point", "coordinates": [2.369074, 48.883816]}, "properties": {"alarme": "VEHICULE DELOCALISE", "numparc": 1520, "type": "EXPLOITATION", "duree": "00:01:38", "horodatage": "2022-07-03 22:42:26", "statut": "start", "marker-color": "#ff0000"}}, {"type": "Feature", "geometry": {"type": "Point", "coordinates": [2.357543, 48.881283]}, "properties": {"alarme": "VEHICULE DELOCALISE", "numparc": 1520, "type": "EXPLOITATION", "duree": "00:00:19", "horodatage": "2022-07-03 22:46:54", "statut": "start", "marker-color": "#ff0000"}}, {"type": "Feature", "geometry": {"type": "Point", "coordinates": [2.357455, 48.880508]}, "properties": {"alarme": "VEHICULE DELOCALISE", "numparc": 1520, "type": "EXPLOITATION", "duree": "00:00:23", "horodatage": "2022-07-03 22:52:56", "statut": "start", "marker-color": "#ff0000"}}, {"type": "Feature", "geometry": {"type": "Point", "coordinates": [2.357628, 48.880539]}, "properties": {"alarme": "VEHICULE DELOCALISE", "numparc": 1521, "type": "EXPLOITATION", "duree": "00:00:53", "horodatage": "2022-07-03 22:58:18", "statut": "start", "marker-color": "#ff0000"}}, {"type": "Feature", "geometry": {"type": "Point", "coordinates": [2.357348, 48.880615]}, "properties": {"alarme": "VEHICULE DELOCALISE", "numparc": 1521, "type": "EXPLOITATION", "duree": "00:00:29", "horodatage": "2022-07-03 23:14:02", "statut": "start", "marker-color": "#ff0000"}}, {"type": "Feature", "geometry": {"type": "Point", "coordinates": [2.35762, 48.880558]}, "properties": {"alarme": "VEHICULE DELOCALISE", "numparc": 1517, "type": "EXPLOITATION", "duree": "00:00:50", "horodatage": "2022-07-03 23:14:24", "statut": "start", "marker-color": "#ff0000"}}, {"type": "Feature", "geometry": {"type": "Point", "coordinates": [2.357687, 48.880661]}, "properties": {"alarme": "VEHICULE DELOCALISE", "numparc": 1551, "type": "EXPLOITATION", "duree": "00:00:36", "horodatage": "2022-07-03 23:29:28", "statut": "start", "marker-color": "#ff0000"}}, {"type": "Feature", "geometry": {"type": "Point", "coordinates": [2.357339, 48.88118]}, "properties": {"alarme": "VEHICULE DELOCALISE", "numparc": 1551, "type": "EXPLOITATION", "duree": "00:00:17", "horodatage": "2022-07-03 23:30:54", "statut": "start", "marker-color": "#ff0000"}}, {"type": "Feature", "geometry": {"type": "Point", "coordinates": [2.357514, 48.880543]}, "properties": {"alarme": "VEHICULE DELOCALISE", "numparc": 1517, "type": "EXPLOITATION", "duree": "00:00:23", "horodatage": "2022-07-03 23:30:59", "statut": "start", "marker-color": "#ff0000"}}, {"type": "Feature", "geometry": {"type": "Point", "coordinates": [2.400918, 48.88279]}, "properties": {"alarme": "VEHICULE DELOCALISE", "numparc": 1520, "type": "EXPLOITATION", "duree": "00:06:10", "horodatage": "2022-07-03 23:34:27", "statut": "start", "marker-color": "#ff0000"}}, {"type": "Feature", "geometry": {"type": "Point", "coordinates": [2.357684, 48.880512]}, "properties": {"alarme": "VEHICULE DELOCALISE", "numparc": 1551, "type": "EXPLOITATION", "duree": "00:00:22", "horodatage": "2022-07-03 23:48:02", "statut": "start", "marker-color": "#ff0000"}}, {"type": "Feature", "geometry": {"type": "Point", "coordinates": [2.357247, 48.880634]}, "properties": {"alarme": "VEHICULE DELOCALISE", "numparc": 1520, "type": "EXPLOITATION", "duree": "00:00:29", "horodatage": "2022-07-03 23:59:34", "statut": "start", "marker-color": "#ff0000"}}, {"type": "Feature", "geometry": {"type": "Point", "coordinates": [2.357706, 48.880672]}, "properties": {"alarme": "VEHICULE DELOCALISE", "numparc": 1521, "type": "EXPLOITATION", "duree": "00:00:58", "horodatage": "2022-07-04 00:07:27", "statut": "start", "marker-color": "#ff0000"}}, {"type": "Feature", "geometry": {"type": "Point", "coordinates": [2.357547, 48.880512]}, "properties": {"alarme": "VEHICULE DELOCALISE", "numparc": 1520, "type": "EXPLOITATION", "duree": "00:00:21", "horodatage": "2022-07-04 00:11:56", "statut": "start", "marker-color": "#ff0000"}}, {"type": "Feature", "geometry": {"type": "Point", "coordinates": [2.426616, 48.877426]}, "properties": {"alarme": "DEFAUT LIAISON DATA SAEIV / AIGLE", "numparc": 1520, "type": "TECHNIQUE", "duree": "00:00:41", "horodatage": "2022-07-03 06:47:45", "statut": "end", "marker-color": "#2fe184"}}, {"type": "Feature", "geometry": {"type": "Point", "coordinates": [2.409429, 48.877068]}, "properties": {"alarme": "VEHICULE DELOCALISE", "numparc": 1551, "type": "EXPLOITATION", "duree": "00:01:09", "horodatage": "2022-07-03 07:02:00", "statut": "end", "marker-color": "#2fe184"}}, {"type": "Feature", "geometry": {"type": "Point", "coordinates": [2.36997, 48.882645]}, "properties": {"alarme": "VEHICULE DELOCALISE", "numparc": 1520, "type": "EXPLOITATION", "duree": "00:06:35", "horodatage": "2022-07-03 07:14:54", "statut": "end", "marker-color": "#2fe184"}}, {"type": "Feature", "geometry": {"type": "Point", "coordinates": [2.357499, 48.881054]}, "properties": {"alarme": "VEHICULE DELOCALISE", "numparc": 1551, "type": "EXPLOITATION", "duree": "00:00:37", "horodatage": "2022-07-03 07:26:12", "statut": "end", "marker-color": "#2fe184"}}, {"type": "Feature", "geometry": {"type": "Point", "coordinates": [2.35784, 48.880825]}, "properties": {"alarme": "VEHICULE DELOCALISE", "numparc": 1520, "type": "EXPLOITATION", "duree": "00:15:21", "horodatage": "2022-07-03 08:10:54", "statut": "end", "marker-color": "#2fe184"}}, {"type": "Feature", "geometry": {"type": "Point", "coordinates": [2.357373, 48.880932]}, "properties": {"alarme": "VEHICULE DELOCALISE", "numparc": 1517, "type": "EXPLOITATION", "duree": "00:01:01", "horodatage": "2022-07-03 08:25:24", "statut": "end", "marker-color": "#2fe184"}}, {"type": "Feature", "geometry": {"type": "Point", "coordinates": [2.357911, 48.88084]}, "properties": {"alarme": "VEHICULE DELOCALISE", "numparc": 1517, "type": "EXPLOITATION", "duree": "00:00:20", "horodatage": "2022-07-03 08:35:34", "statut": "end", "marker-color": "#2fe184"}}, {"type": "Feature", "geometry": {"type": "Point", "coordinates": [2.357343, 48.881107]}, "properties": {"alarme": "VEHICULE DELOCALISE", "numparc": 1520, "type": "EXPLOITATION", "duree": "00:01:02", "horodatage": "2022-07-03 09:15:22", "statut": "end", "marker-color": "#2fe184"}}, {"type": "Feature", "geometry": {"type": "Point", "coordinates": [2.357831, 48.880814]}, "properties": {"alarme": "VEHICULE DELOCALISE", "numparc": 1520, "type": "EXPLOITATION", "duree": "00:00:37", "horodatage": "2022-07-03 09:32:53", "statut": "end", "marker-color": "#2fe184"}}, {"type": "Feature", "geometry": {"type": "Point", "coordinates": [2.357284, 48.880928]}, "properties": {"alarme": "VEHICULE DELOCALISE", "numparc": 1517, "type": "EXPLOITATION", "duree": "00:00:49", "horodatage": "2022-07-03 09:42:22", "statut": "end", "marker-color": "#2fe184"}}, {"type": "Feature", "geometry": {"type": "Point", "coordinates": [2.357812, 48.88081]}, "properties": {"alarme": "VEHICULE DELOCALISE", "numparc": 1517, "type": "EXPLOITATION", "duree": "00:00:27", "horodatage": "2022-07-03 09:49:38", "statut": "end", "marker-color": "#2fe184"}}, {"type": "Feature", "geometry": {"type": "Point", "coordinates": [2.357368, 48.881027]}, "properties": {"alarme": "VEHICULE DELOCALISE", "numparc": 1520, "type": "EXPLOITATION", "duree": "00:00:54", "horodatage": "2022-07-03 10:36:00", "statut": "end", "marker-color": "#2fe184"}}, {"type": "Feature", "geometry": {"type": "Point", "coordinates": [2.35783, 48.880817]}, "properties": {"alarme": "VEHICULE DELOCALISE", "numparc": 1520, "type": "EXPLOITATION", "duree": "00:00:39", "horodatage": "2022-07-03 10:48:48", "statut": "end", "marker-color": "#2fe184"}}, {"type": "Feature", "geometry": {"type": "Point", "coordinates": [2.357357, 48.88092]}, "properties": {"alarme": "VEHICULE DELOCALISE", "numparc": 1517, "type": "EXPLOITATION", "duree": "00:00:47", "horodatage": "2022-07-03 10:54:32", "statut": "end", "marker-color": "#2fe184"}}, {"type": "Feature", "geometry": {"type": "Point", "coordinates": [2.357825, 48.880802]}, "properties": {"alarme": "VEHICULE DELOCALISE", "numparc": 1517, "type": "EXPLOITATION", "duree": "00:00:18", "horodatage": "2022-07-03 11:07:22", "statut": "end", "marker-color": "#2fe184"}}, {"type": "Feature", "geometry": {"type": "Point", "coordinates": [2.357796, 48.880825]}, "properties": {"alarme": "VEHICULE DELOCALISE", "numparc": 1520, "type": "EXPLOITATION", "duree": "00:02:09", "horodatage": "2022-07-03 11:59:40", "statut": "end", "marker-color": "#2fe184"}}, {"type": "Feature", "geometry": {"type": "Point", "coordinates": [2.357402, 48.880962]}, "properties": {"alarme": "VEHICULE DELOCALISE", "numparc": 1517, "type": "EXPLOITATION", "duree": "00:00:50", "horodatage": "2022-07-03 12:17:03", "statut": "end", "marker-color": "#2fe184"}}, {"type": "Feature", "geometry": {"type": "Point", "coordinates": [2.357868, 48.880871]}, "properties": {"alarme": "VEHICULE DELOCALISE", "numparc": 1517, "type": "EXPLOITATION", "duree": "00:00:40", "horodatage": "2022-07-03 12:23:39", "statut": "end", "marker-color": "#2fe184"}}, {"type": "Feature", "geometry": {"type": "Point", "coordinates": [2.409472, 48.877052]}, "properties": {"alarme": "VEHICULE DELOCALISE", "numparc": 1517, "type": "EXPLOITATION", "duree": "00:03:37", "horodatage": "2022-07-03 18:37:34", "statut": "end", "marker-color": "#2fe184"}}, {"type": "Feature", "geometry": {"type": "Point", "coordinates": [2.35738, 48.881046]}, "properties": {"alarme": "VEHICULE DELOCALISE", "numparc": 1517, "type": "EXPLOITATION", "duree": "00:00:57", "horodatage": "2022-07-03 19:14:18", "statut": "end", "marker-color": "#2fe184"}}, {"type": "Feature", "geometry": {"type": "Point", "coordinates": [2.357866, 48.880833]}, "properties": {"alarme": "VEHICULE DELOCALISE", "numparc": 1517, "type": "EXPLOITATION", "duree": "00:00:31", "horodatage": "2022-07-03 19:18:59", "statut": "end", "marker-color": "#2fe184"}}, {"type": "Feature", "geometry": {"type": "Point", "coordinates": [2.357305, 48.881039]}, "properties": {"alarme": "VEHICULE DELOCALISE", "numparc": 1521, "type": "EXPLOITATION", "duree": "00:01:06", "horodatage": "2022-07-03 20:23:58", "statut": "end", "marker-color": "#2fe184"}}, {"type": "Feature", "geometry": {"type": "Point", "coordinates": [2.357862, 48.880795]}, "properties": {"alarme": "VEHICULE DELOCALISE", "numparc": 1521, "type": "EXPLOITATION", "duree": "00:00:27", "horodatage": "2022-07-03 20:36:54", "statut": "end", "marker-color": "#2fe184"}}, {"type": "Feature", "geometry": {"type": "Point", "coordinates": [2.357388, 48.881008]}, "properties": {"alarme": "VEHICULE DELOCALISE", "numparc": 1517, "type": "EXPLOITATION", "duree": "00:00:54", "horodatage": "2022-07-03 20:46:59", "statut": "end", "marker-color": "#2fe184"}}, {"type": "Feature", "geometry": {"type": "Point", "coordinates": [2.357885, 48.880829]}, "properties": {"alarme": "VEHICULE DELOCALISE", "numparc": 1517, "type": "EXPLOITATION", "duree": "00:00:25", "horodatage": "2022-07-03 21:06:15", "statut": "end", "marker-color": "#2fe184"}}, {"type": "Feature", "geometry": {"type": "Point", "coordinates": [2.357254, 48.881104]}, "properties": {"alarme": "VEHICULE DELOCALISE", "numparc": 1521, "type": "EXPLOITATION", "duree": "00:00:58", "horodatage": "2022-07-03 21:46:33", "statut": "end", "marker-color": "#2fe184"}}, {"type": "Feature", "geometry": {"type": "Point", "coordinates": [2.357851, 48.880817]}, "properties": {"alarme": "VEHICULE DELOCALISE", "numparc": 1521, "type": "EXPLOITATION", "duree": "00:00:29", "horodatage": "2022-07-03 21:51:45", "statut": "end", "marker-color": "#2fe184"}}, {"type": "Feature", "geometry": {"type": "Point", "coordinates": [2.357364, 48.880917]}, "properties": {"alarme": "VEHICULE DELOCALISE", "numparc": 1517, "type": "EXPLOITATION", "duree": "00:00:56", "horodatage": "2022-07-03 22:20:18", "statut": "end", "marker-color": "#2fe184"}}, {"type": "Feature", "geometry": {"type": "Point", "coordinates": [2.370621, 48.882988]}, "properties": {"alarme": "VEHICULE DELOCALISE", "numparc": 1520, "type": "EXPLOITATION", "duree": "00:11:47", "horodatage": "2022-07-03 22:41:14", "statut": "end", "marker-color": "#2fe184"}}, {"type": "Feature", "geometry": {"type": "Point", "coordinates": [2.3579, 48.880867]}, "properties": {"alarme": "VEHICULE DELOCALISE", "numparc": 1517, "type": "EXPLOITATION", "duree": "00:00:28", "horodatage": "2022-07-03 22:30:32", "statut": "end", "marker-color": "#2fe184"}}, {"type": "Feature", "geometry": {"type": "Point", "coordinates": [2.361847, 48.884533]}, "properties": {"alarme": "VEHICULE DELOCALISE", "numparc": 1520, "type": "EXPLOITATION", "duree": "00:01:38", "horodatage": "2022-07-03 22:44:04", "statut": "end", "marker-color": "#2fe184"}}, {"type": "Feature", "geometry": {"type": "Point", "coordinates": [2.357376, 48.881092]}, "properties": {"alarme": "VEHICULE DELOCALISE", "numparc": 1520, "type": "EXPLOITATION", "duree": "00:00:19", "horodatage": "2022-07-03 22:47:13", "statut": "end", "marker-color": "#2fe184"}}, {"type": "Feature", "geometry": {"type": "Point", "coordinates": [2.357774, 48.880795]}, "properties": {"alarme": "VEHICULE DELOCALISE", "numparc": 1520, "type": "EXPLOITATION", "duree": "00:00:23", "horodatage": "2022-07-03 22:53:19", "statut": "end", "marker-color": "#2fe184"}}, {"type": "Feature", "geometry": {"type": "Point", "coordinates": [2.357315, 48.881165]}, "properties": {"alarme": "VEHICULE DELOCALISE", "numparc": 1521, "type": "EXPLOITATION", "duree": "00:00:53", "horodatage": "2022-07-03 22:59:11", "statut": "end", "marker-color": "#2fe184"}}, {"type": "Feature", "geometry": {"type": "Point", "coordinates": [2.357872, 48.880859]}, "properties": {"alarme": "VEHICULE DELOCALISE", "numparc": 1521, "type": "EXPLOITATION", "duree": "00:00:29", "horodatage": "2022-07-03 23:14:31", "statut": "end", "marker-color": "#2fe184"}}, {"type": "Feature", "geometry": {"type": "Point", "coordinates": [2.357378, 48.881046]}, "properties": {"alarme": "VEHICULE DELOCALISE", "numparc": 1517, "type": "EXPLOITATION", "duree": "00:00:50", "horodatage": "2022-07-03 23:15:14", "statut": "end", "marker-color": "#2fe184"}}, {"type": "Feature", "geometry": {"type": "Point", "coordinates": [2.35735, 48.880924]}, "properties": {"alarme": "VEHICULE DELOCALISE", "numparc": 1551, "type": "EXPLOITATION", "duree": "00:00:36", "horodatage": "2022-07-03 23:30:04", "statut": "end", "marker-color": "#2fe184"}}, {"type": "Feature", "geometry": {"type": "Point", "coordinates": [2.357342, 48.880939]}, "properties": {"alarme": "VEHICULE DELOCALISE", "numparc": 1551, "type": "EXPLOITATION", "duree": "00:00:17", "horodatage": "2022-07-03 23:31:11", "statut": "end", "marker-color": "#2fe184"}}, {"type": "Feature", "geometry": {"type": "Point", "coordinates": [2.357886, 48.880867]}, "properties": {"alarme": "VEHICULE DELOCALISE", "numparc": 1517, "type": "EXPLOITATION", "duree": "00:00:23", "horodatage": "2022-07-03 23:31:22", "statut": "end", "marker-color": "#2fe184"}}, {"type": "Feature", "geometry": {"type": "Point", "coordinates": [2.408345, 48.879929]}, "properties": {"alarme": "VEHICULE DELOCALISE", "numparc": 1520, "type": "EXPLOITATION", "duree": "00:06:10", "horodatage": "2022-07-03 23:40:37", "statut": "end", "marker-color": "#2fe184"}}, {"type": "Feature", "geometry": {"type": "Point", "coordinates": [2.357916, 48.880863]}, "properties": {"alarme": "VEHICULE DELOCALISE", "numparc": 1551, "type": "EXPLOITATION", "duree": "00:00:22", "horodatage": "2022-07-03 23:48:24", "statut": "end", "marker-color": "#2fe184"}}, {"type": "Feature", "geometry": {"type": "Point", "coordinates": [2.35736, 48.881027]}, "properties": {"alarme": "VEHICULE DELOCALISE", "numparc": 1520, "type": "EXPLOITATION", "duree": "00:00:29", "horodatage": "2022-07-04 00:00:03", "statut": "end", "marker-color": "#2fe184"}}, {"type": "Feature", "geometry": {"type": "Point", "coordinates": [2.35739, 48.881222]}, "properties": {"alarme": "VEHICULE DELOCALISE", "numparc": 1521, "type": "EXPLOITATION", "duree": "00:00:58", "horodatage": "2022-07-04 00:08:25", "statut": "end", "marker-color": "#2fe184"}}, {"type": "Feature", "geometry": {"type": "Point", "coordinates": [2.357887, 48.880844]}, "properties": {"alarme": "VEHICULE DELOCALISE", "numparc": 1520, "type": "EXPLOITATION", "duree": "00:00:21", "horodatage": "2022-07-04 00:12:17", "statut": "end", "marker-color": "#2fe184"}}]}