{"type": "FeatureCollection", "features": [{"type": "Feature", "geometry": {"type": "Point", "coordinates": [2.442196, 48.77211]}, "properties": {"etat de la localisation": "Delocalise", "numparc": 9541, "duree": "00:00:41", "horodatage": "2022-08-30 13:17:17", "marker-color": "#FF565E"}}, {"type": "Feature", "geometry": {"type": "Point", "coordinates": [2.511055, 48.806919]}, "properties": {"etat de la localisation": "Hors service", "numparc": 9544, "duree": "", "horodatage": "2022-08-30 14:59:06", "marker-color": "#707070"}}, {"type": "Feature", "geometry": {"type": "Point", "coordinates": [2.557375, 48.806938]}, "properties": {"etat de la localisation": "Mission inconnue", "numparc": 9541, "duree": "", "horodatage": "2022-08-30 15:19:29", "marker-color": "#FF9F56"}}, {"type": "Feature", "geometry": {"type": "Point", "coordinates": [2.530909, 48.806259]}, "properties": {"etat de la localisation": "Delocalise", "numparc": 9541, "duree": "00:01:11", "horodatage": "2022-08-30 15:51:19", "marker-color": "#FF565E"}}, {"type": "Feature", "geometry": {"type": "Point", "coordinates": [2.523465, 48.809231]}, "properties": {"etat de la localisation": "Delocalise", "numparc": 9541, "duree": "00:05:05", "horodatage": "2022-08-30 15:53:32", "marker-color": "#FF565E"}}, {"type": "Feature", "geometry": {"type": "Point", "coordinates": [2.509451, 48.808907]}, "properties": {"etat de la localisation": "Delocalise", "numparc": 9541, "duree": "00:09:28", "horodatage": "2022-08-30 15:59:36", "marker-color": "#FF565E"}}, {"type": "Feature", "geometry": {"type": "Point", "coordinates": [2.509902, 48.807392]}, "properties": {"etat de la localisation": "Hors service", "numparc": 9541, "duree": "", "horodatage": "2022-08-30 16:09:04", "marker-color": "#707070"}}, {"type": "Feature", "geometry": {"type": "Point", "coordinates": [2.51055, 48.807182]}, "properties": {"etat de la localisation": "Mission inconnue", "numparc": 9541, "duree": "", "horodatage": "2022-08-30 16:29:42", "marker-color": "#FF9F56"}}, {"type": "Feature", "geometry": {"type": "Point", "coordinates": [2.511259, 48.807312]}, "properties": {"etat de la localisation": "Mission suivante non connue", "numparc": 9541, "duree": "", "horodatage": "2022-08-30 16:30:23", "marker-color": "#7156FF"}}, {"type": "Feature", "geometry": {"type": "Point", "coordinates": [2.508986, 48.807098]}, "properties": {"etat de la localisation": "Delocalise", "numparc": 9544, "duree": "00:08:39", "horodatage": "2022-08-30 16:52:36", "marker-color": "#FF565E"}}, {"type": "Feature", "geometry": {"type": "Point", "coordinates": [2.441843, 48.771885]}, "properties": {"etat de la localisation": "Hors service", "numparc": 9541, "duree": "", "horodatage": "2022-08-30 17:03:32", "marker-color": "#707070"}}, {"type": "Feature", "geometry": {"type": "Point", "coordinates": [2.441232, 48.772526]}, "properties": {"etat de la localisation": "Hors service", "numparc": 9544, "duree": "", "horodatage": "2022-08-30 17:18:15", "marker-color": "#707070"}}]}