{"type": "FeatureCollection", "features": [{"type": "Feature", "geometry": {"type": "Point", "coordinates": [2.369547, 48.852097]}, "properties": {"alarme": "VEHICULE DELOCALISE", "numparc": 622, "type": "EXPLOITATION", "duree": "00:02:42", "horodatage": "2021-12-04 03:20:52", "statut": "start", "marker-color": "#ff0000"}}, {"type": "Feature", "geometry": {"type": "Point", "coordinates": [2.367931, 48.845783]}, "properties": {"alarme": "VEHICULE DELOCALISE", "numparc": 622, "type": "EXPLOITATION", "duree": "00:01:54", "horodatage": "2021-12-04 03:25:12", "statut": "start", "marker-color": "#ff0000"}}, {"type": "Feature", "geometry": {"type": "Point", "coordinates": [2.369462, 48.852039]}, "properties": {"alarme": "VEHICULE DELOCALISE", "numparc": 622, "type": "EXPLOITATION", "duree": "00:02:27", "horodatage": "2021-12-04 04:47:14", "statut": "start", "marker-color": "#ff0000"}}, {"type": "Feature", "geometry": {"type": "Point", "coordinates": [2.32994, 48.858887]}, "properties": {"alarme": "VEHICULE DELOCALISE", "numparc": 622, "type": "EXPLOITATION", "duree": "00:07:34", "horodatage": "2021-12-04 05:18:40", "statut": "start", "marker-color": "#ff0000"}}, {"type": "Feature", "geometry": {"type": "Point", "coordinates": [2.37144, 48.845779]}, "properties": {"alarme": "VEHICULE DELOCALISE", "numparc": 622, "type": "EXPLOITATION", "duree": "00:02:42", "horodatage": "2021-12-04 03:23:34", "statut": "end", "marker-color": "#2fe184"}}, {"type": "Feature", "geometry": {"type": "Point", "coordinates": [2.364239, 48.843063]}, "properties": {"alarme": "VEHICULE DELOCALISE", "numparc": 622, "type": "EXPLOITATION", "duree": "00:01:54", "horodatage": "2021-12-04 03:27:06", "statut": "end", "marker-color": "#2fe184"}}, {"type": "Feature", "geometry": {"type": "Point", "coordinates": [2.371423, 48.845692]}, "properties": {"alarme": "VEHICULE DELOCALISE", "numparc": 622, "type": "EXPLOITATION", "duree": "00:02:27", "horodatage": "2021-12-04 04:49:41", "statut": "end", "marker-color": "#2fe184"}}, {"type": "Feature", "geometry": {"type": "Point", "coordinates": [2.314363, 48.875069]}, "properties": {"alarme": "VEHICULE DELOCALISE", "numparc": 622, "type": "EXPLOITATION", "duree": "00:07:34", "horodatage": "2021-12-04 05:26:14", "statut": "end", "marker-color": "#2fe184"}}]}