{"type": "FeatureCollection", "features": [{"type": "Feature", "geometry": {"type": "Point", "coordinates": [2.659148, 48.842506]}, "properties": {"etat de la localisation": "Delocalise", "numparc": 6886, "duree": "00:06:05", "horodatage": "2022-11-02 05:06:30", "marker-color": "#FF565E"}}, {"type": "Feature", "geometry": {"type": "Point", "coordinates": [2.59289, 48.878151]}, "properties": {"etat de la localisation": "Delocalise", "numparc": 6905, "duree": "00:02:00", "horodatage": "2022-11-02 06:21:07", "marker-color": "#FF565E"}}, {"type": "Feature", "geometry": {"type": "Point", "coordinates": [2.513653, 48.853283]}, "properties": {"etat de la localisation": "Mission suivante non connue", "numparc": 6886, "duree": "", "horodatage": "2022-11-02 10:57:37", "marker-color": "#7156FF"}}, {"type": "Feature", "geometry": {"type": "Point", "coordinates": [2.513653, 48.853283]}, "properties": {"etat de la localisation": "Mission inconnue", "numparc": 6886, "duree": "", "horodatage": "2022-11-02 10:57:55", "marker-color": "#FF9F56"}}, {"type": "Feature", "geometry": {"type": "Point", "coordinates": [2.659314, 48.84251]}, "properties": {"etat de la localisation": "Hors service", "numparc": 6886, "duree": "", "horodatage": "2022-11-02 11:30:45", "marker-color": "#707070"}}, {"type": "Feature", "geometry": {"type": "Point", "coordinates": [2.659168, 48.842834]}, "properties": {"etat de la localisation": "Mission inconnue", "numparc": 6900, "duree": "", "horodatage": "2022-11-02 13:32:55", "marker-color": "#FF9F56"}}, {"type": "Feature", "geometry": {"type": "Point", "coordinates": [2.659295, 48.842205]}, "properties": {"etat de la localisation": "Hors service", "numparc": 6900, "duree": "", "horodatage": "2022-11-02 20:55:48", "marker-color": "#707070"}}]}