{"type": "FeatureCollection", "features": [{"type": "Feature", "geometry": {"type": "Point", "coordinates": [2.331995, 48.852413]}, "properties": {"alarme": "VEHICULE DELOCALISE", "numparc": 616, "type": "EXPLOITATION", "duree": "00:16:01", "horodatage": "2023-04-27 09:34:18", "statut": "start", "marker-color": "#ff0000"}}, {"type": "Feature", "geometry": {"type": "Point", "coordinates": [2.332274, 48.852844]}, "properties": {"alarme": "VEHICULE DELOCALISE", "numparc": 616, "type": "EXPLOITATION", "duree": "00:08:22", "horodatage": "2023-04-27 11:36:14", "statut": "start", "marker-color": "#ff0000"}}, {"type": "Feature", "geometry": {"type": "Point", "coordinates": [2.36967, 48.853313]}, "properties": {"alarme": "VEHICULE DELOCALISE", "numparc": 616, "type": "EXPLOITATION", "duree": "00:17:24", "horodatage": "2023-04-27 17:35:03", "statut": "start", "marker-color": "#ff0000"}}, {"type": "Feature", "geometry": {"type": "Point", "coordinates": [2.333413, 48.853664]}, "properties": {"alarme": "VEHICULE DELOCALISE", "numparc": 616, "type": "EXPLOITATION", "duree": "00:16:01", "horodatage": "2023-04-27 09:50:19", "statut": "end", "marker-color": "#2fe184"}}, {"type": "Feature", "geometry": {"type": "Point", "coordinates": [2.333305, 48.853722]}, "properties": {"alarme": "VEHICULE DELOCALISE", "numparc": 616, "type": "EXPLOITATION", "duree": "00:08:22", "horodatage": "2023-04-27 11:44:36", "statut": "end", "marker-color": "#2fe184"}}, {"type": "Feature", "geometry": {"type": "Point", "coordinates": [2.371156, 48.852772]}, "properties": {"alarme": "VEHICULE DELOCALISE", "numparc": 616, "type": "EXPLOITATION", "duree": "00:17:24", "horodatage": "2023-04-27 17:52:27", "statut": "end", "marker-color": "#2fe184"}}]}