{"type": "FeatureCollection", "features": [{"type": "Feature", "geometry": {"type": "Point", "coordinates": [2.326035, 48.706387]}, "properties": {"alarme": "VEHICULE DELOCALISE", "numparc": 7049, "type": "EXPLOITATION", "duree": "00:01:42", "horodatage": "2022-12-22 21:51:54", "statut": "start", "marker-color": "#ff0000"}}, {"type": "Feature", "geometry": {"type": "Point", "coordinates": [2.320153, 48.702759]}, "properties": {"alarme": "VEHICULE DELOCALISE", "numparc": 7049, "type": "EXPLOITATION", "duree": "00:01:42", "horodatage": "2022-12-22 21:53:36", "statut": "end", "marker-color": "#2fe184"}}, {"type": "Feature", "geometry": {"type": "Point", "coordinates": [2.296789, 48.721928]}, "properties": {"alarme": "DEFAUT LIAISON DATA SAEIV / AIGLE", "numparc": 7070, "type": "TECHNIQUE", "duree": "24:00:00", "horodatage": "2022-12-22 22:22:33", "statut": "start", "marker-color": "#000000"}}]}