{"type": "FeatureCollection", "features": [{"type": "Feature", "geometry": {"type": "Point", "coordinates": [2.442212, 48.773075]}, "properties": {"ALARME": "ABSENCE CONNEXION CEC", "NUMPARC": 2784, "TYPE": "TECHNIQUE", "DUREE": "00:00:49", "HORODATAGE": "2019-08-31 19:25:27", "STATUT": "start", "marker-color": "#ff0000"}}, {"type": "Feature", "geometry": {"type": "Point", "coordinates": [2.399523, 48.760277]}, "properties": {"ALARME": "VEHICULE DELOCALISE", "NUMPARC": 2784, "TYPE": "EXPLOITATION", "DUREE": "00:00:27", "HORODATAGE": "2019-08-31 20:18:33", "STATUT": "start", "marker-color": "#ff0000"}}, {"type": "Feature", "geometry": {"type": "Point", "coordinates": [2.39996, 48.761253]}, "properties": {"ALARME": "DEFAUT LIAISON IP BALE", "NUMPARC": 2784, "TYPE": "TECHNIQUE", "DUREE": "00:00:30", "HORODATAGE": "2019-08-31 20:26:31", "STATUT": "start", "marker-color": "#ff0000"}}, {"type": "Feature", "geometry": {"type": "Point", "coordinates": [2.36872, 48.758923]}, "properties": {"ALARME": "VEHICULE DELOCALISE", "NUMPARC": 2784, "TYPE": "EXPLOITATION", "DUREE": "00:00:19", "HORODATAGE": "2019-08-31 22:04:08", "STATUT": "start", "marker-color": "#ff0000"}}, {"type": "Feature", "geometry": {"type": "Point", "coordinates": [2.368263, 48.761978]}, "properties": {"ALARME": "VEHICULE DELOCALISE", "NUMPARC": 2784, "TYPE": "EXPLOITATION", "DUREE": "00:02:10", "HORODATAGE": "2019-08-31 23:57:09", "STATUT": "start", "marker-color": "#ff0000"}}, {"type": "Feature", "geometry": {"type": "Point", "coordinates": [2.442212, 48.773075]}, "properties": {"ALARME": "ABSENCE CONNEXION CEC", "NUMPARC": 2784, "TYPE": "TECHNIQUE", "DUREE": "00:00:49", "HORODATAGE": "2019-08-31 19:26:16", "STATUT": "end", "marker-color": "#2fe184"}}, {"type": "Feature", "geometry": {"type": "Point", "coordinates": [2.39996, 48.761253]}, "properties": {"ALARME": "VEHICULE DELOCALISE", "NUMPARC": 2784, "TYPE": "EXPLOITATION", "DUREE": "00:00:27", "HORODATAGE": "2019-08-31 20:19:00", "STATUT": "end", "marker-color": "#2fe184"}}, {"type": "Feature", "geometry": {"type": "Point", "coordinates": [2.39996, 48.761253]}, "properties": {"ALARME": "DEFAUT LIAISON IP BALE", "NUMPARC": 2784, "TYPE": "TECHNIQUE", "DUREE": "00:00:30", "HORODATAGE": "2019-08-31 20:27:01", "STATUT": "end", "marker-color": "#2fe184"}}, {"type": "Feature", "geometry": {"type": "Point", "coordinates": [2.3687, 48.759632]}, "properties": {"ALARME": "VEHICULE DELOCALISE", "NUMPARC": 2784, "TYPE": "EXPLOITATION", "DUREE": "00:00:19", "HORODATAGE": "2019-08-31 22:04:27", "STATUT": "end", "marker-color": "#2fe184"}}, {"type": "Feature", "geometry": {"type": "Point", "coordinates": [2.358263, 48.763309]}, "properties": {"ALARME": "VEHICULE DELOCALISE", "NUMPARC": 2784, "TYPE": "EXPLOITATION", "DUREE": "00:02:10", "HORODATAGE": "2019-08-31 23:59:19", "STATUT": "end", "marker-color": "#2fe184"}}]}