{"type": "FeatureCollection", "features": [{"type": "Feature", "geometry": {"type": "Point", "coordinates": [2.282375, 48.762417]}, "properties": {"alarme": "DEFAUT LIAISON DATA SAEIV / AIGLE", "numparc": 5826, "type": "TECHNIQUE", "duree": "00:00:40", "horodatage": "2023-05-08 10:40:45", "statut": "start", "marker-color": "#ff0000"}}, {"type": "Feature", "geometry": {"type": "Point", "coordinates": [2.294972, 48.760658]}, "properties": {"alarme": "VEHICULE DELOCALISE", "numparc": 5835, "type": "EXPLOITATION", "duree": "00:01:26", "horodatage": "2023-05-08 19:59:58", "statut": "start", "marker-color": "#ff0000"}}, {"type": "Feature", "geometry": {"type": "Point", "coordinates": [2.278591, 48.763058]}, "properties": {"alarme": "DEFAUT LIAISON DATA SAEIV / AIGLE", "numparc": 5827, "type": "TECHNIQUE", "duree": "00:00:47", "horodatage": "2023-05-08 22:45:10", "statut": "start", "marker-color": "#ff0000"}}, {"type": "Feature", "geometry": {"type": "Point", "coordinates": [2.283896, 48.762234]}, "properties": {"alarme": "DEFAUT LIAISON DATA SAEIV / AIGLE", "numparc": 5826, "type": "TECHNIQUE", "duree": "00:00:40", "horodatage": "2023-05-08 10:41:25", "statut": "end", "marker-color": "#2fe184"}}, {"type": "Feature", "geometry": {"type": "Point", "coordinates": [2.304153, 48.762707]}, "properties": {"alarme": "VEHICULE DELOCALISE", "numparc": 5835, "type": "EXPLOITATION", "duree": "00:01:26", "horodatage": "2023-05-08 20:01:24", "statut": "end", "marker-color": "#2fe184"}}, {"type": "Feature", "geometry": {"type": "Point", "coordinates": [2.274709, 48.763592]}, "properties": {"alarme": "DEFAUT LIAISON DATA SAEIV / AIGLE", "numparc": 5827, "type": "TECHNIQUE", "duree": "00:00:47", "horodatage": "2023-05-08 22:45:57", "statut": "end", "marker-color": "#2fe184"}}]}