{"type": "FeatureCollection", "features": [{"type": "Feature", "geometry": {"type": "Point", "coordinates": [2.443061, 48.772327]}, "properties": {"etat de la localisation": "Delocalise", "numparc": 9542, "duree": "00:13:10", "horodatage": "2021-09-11 04:59:15", "marker-color": "#FF565E"}}, {"type": "Feature", "geometry": {"type": "Point", "coordinates": [2.557735, 48.814011]}, "properties": {"etat de la localisation": "Mission suivante non connue", "numparc": 9542, "duree": "", "horodatage": "2021-09-11 05:42:43", "marker-color": "#7156FF"}}, {"type": "Feature", "geometry": {"type": "Point", "coordinates": [2.509677, 48.807373]}, "properties": {"etat de la localisation": "Mission suivante non connue", "numparc": 9542, "duree": "", "horodatage": "2021-09-11 06:01:21", "marker-color": "#7156FF"}}, {"type": "Feature", "geometry": {"type": "Point", "coordinates": [2.509486, 48.807377]}, "properties": {"etat de la localisation": "Mission suivante non connue", "numparc": 9542, "duree": "", "horodatage": "2021-09-11 06:45:42", "marker-color": "#7156FF"}}, {"type": "Feature", "geometry": {"type": "Point", "coordinates": [2.557141, 48.80677]}, "properties": {"etat de la localisation": "Mission suivante non connue", "numparc": 9542, "duree": "", "horodatage": "2021-09-11 07:13:55", "marker-color": "#7156FF"}}, {"type": "Feature", "geometry": {"type": "Point", "coordinates": [2.50958, 48.807396]}, "properties": {"etat de la localisation": "Mission suivante non connue", "numparc": 9542, "duree": "", "horodatage": "2021-09-11 07:35:17", "marker-color": "#7156FF"}}, {"type": "Feature", "geometry": {"type": "Point", "coordinates": [2.557163, 48.806782]}, "properties": {"etat de la localisation": "Mission suivante non connue", "numparc": 9542, "duree": "", "horodatage": "2021-09-11 08:03:33", "marker-color": "#7156FF"}}, {"type": "Feature", "geometry": {"type": "Point", "coordinates": [2.509589, 48.807415]}, "properties": {"etat de la localisation": "Mission suivante non connue", "numparc": 9542, "duree": "", "horodatage": "2021-09-11 08:25:29", "marker-color": "#7156FF"}}, {"type": "Feature", "geometry": {"type": "Point", "coordinates": [2.557736, 48.814018]}, "properties": {"etat de la localisation": "Mission suivante non connue", "numparc": 9542, "duree": "", "horodatage": "2021-09-11 08:57:16", "marker-color": "#7156FF"}}, {"type": "Feature", "geometry": {"type": "Point", "coordinates": [2.509712, 48.807365]}, "properties": {"etat de la localisation": "Mission suivante non connue", "numparc": 9542, "duree": "", "horodatage": "2021-09-11 09:18:03", "marker-color": "#7156FF"}}, {"type": "Feature", "geometry": {"type": "Point", "coordinates": [2.557137, 48.806828]}, "properties": {"etat de la localisation": "Mission suivante non connue", "numparc": 9542, "duree": "", "horodatage": "2021-09-11 09:54:26", "marker-color": "#7156FF"}}, {"type": "Feature", "geometry": {"type": "Point", "coordinates": [2.509593, 48.807396]}, "properties": {"etat de la localisation": "Mission suivante non connue", "numparc": 9542, "duree": "", "horodatage": "2021-09-11 10:21:27", "marker-color": "#7156FF"}}, {"type": "Feature", "geometry": {"type": "Point", "coordinates": [2.557176, 48.80677]}, "properties": {"etat de la localisation": "Mission suivante non connue", "numparc": 9542, "duree": "", "horodatage": "2021-09-11 10:52:13", "marker-color": "#7156FF"}}, {"type": "Feature", "geometry": {"type": "Point", "coordinates": [2.509509, 48.807381]}, "properties": {"etat de la localisation": "Mission suivante non connue", "numparc": 9542, "duree": "", "horodatage": "2021-09-11 11:23:22", "marker-color": "#7156FF"}}, {"type": "Feature", "geometry": {"type": "Point", "coordinates": [2.442255, 48.77161]}, "properties": {"etat de la localisation": "Hors service", "numparc": 9542, "duree": "", "horodatage": "2021-09-11 11:48:04", "marker-color": "#707070"}}, {"type": "Feature", "geometry": {"type": "Point", "coordinates": [2.443112, 48.772167]}, "properties": {"etat de la localisation": "Delocalise", "numparc": 9543, "duree": "00:15:22", "horodatage": "2021-09-11 15:18:27", "marker-color": "#FF565E"}}, {"type": "Feature", "geometry": {"type": "Point", "coordinates": [2.557736, 48.814014]}, "properties": {"etat de la localisation": "Mission suivante non connue", "numparc": 9543, "duree": "", "horodatage": "2021-09-11 16:12:23", "marker-color": "#7156FF"}}, {"type": "Feature", "geometry": {"type": "Point", "coordinates": [2.509397, 48.8074]}, "properties": {"etat de la localisation": "Delocalise", "numparc": 9543, "duree": "00:10:54", "horodatage": "2021-09-11 16:33:41", "marker-color": "#FF565E"}}, {"type": "Feature", "geometry": {"type": "Point", "coordinates": [2.557753, 48.814018]}, "properties": {"etat de la localisation": "Mission suivante non connue", "numparc": 9542, "duree": "", "horodatage": "2021-09-11 16:47:14", "marker-color": "#7156FF"}}, {"type": "Feature", "geometry": {"type": "Point", "coordinates": [2.557725, 48.814007]}, "properties": {"etat de la localisation": "Mission suivante non connue", "numparc": 9543, "duree": "", "horodatage": "2021-09-11 17:09:24", "marker-color": "#7156FF"}}, {"type": "Feature", "geometry": {"type": "Point", "coordinates": [2.557194, 48.806808]}, "properties": {"etat de la localisation": "Mission suivante non connue", "numparc": 9542, "duree": "", "horodatage": "2021-09-11 17:45:41", "marker-color": "#7156FF"}}, {"type": "Feature", "geometry": {"type": "Point", "coordinates": [2.557187, 48.806782]}, "properties": {"etat de la localisation": "Mission suivante non connue", "numparc": 9543, "duree": "", "horodatage": "2021-09-11 18:11:16", "marker-color": "#7156FF"}}, {"type": "Feature", "geometry": {"type": "Point", "coordinates": [2.557198, 48.806782]}, "properties": {"etat de la localisation": "Mission suivante non connue", "numparc": 9543, "duree": "", "horodatage": "2021-09-11 19:11:13", "marker-color": "#7156FF"}}, {"type": "Feature", "geometry": {"type": "Point", "coordinates": [2.557781, 48.814007]}, "properties": {"etat de la localisation": "Mission suivante non connue", "numparc": 9543, "duree": "", "horodatage": "2021-09-11 20:23:37", "marker-color": "#7156FF"}}, {"type": "Feature", "geometry": {"type": "Point", "coordinates": [2.44309, 48.771961]}, "properties": {"etat de la localisation": "Hors service", "numparc": 9543, "duree": "", "horodatage": "2021-09-11 21:13:23", "marker-color": "#707070"}}, {"type": "Feature", "geometry": {"type": "Point", "coordinates": [2.443087, 48.772213]}, "properties": {"etat de la localisation": "Hors service", "numparc": 9542, "duree": "", "horodatage": "2021-09-11 21:30:05", "marker-color": "#707070"}}]}