{"type": "FeatureCollection", "features": [{"type": "Feature", "geometry": {"type": "Point", "coordinates": [2.375127, 48.842716]}, "properties": {"numparc": 637, "etat de la localisation": "autre", "ID BDGEO": "263", "horodatage": "2023-04-24 07:13:43", "distance (en metres)": 203.01, "station": "GARE DE LYON", "marker-color": "#818181"}}, {"type": "Feature", "geometry": {"type": "Point", "coordinates": [2.375127, 48.842716]}, "properties": {"numparc": 637, "etat de la localisation": "autre", "ID BDGEO": "263", "horodatage": "2023-04-24 07:22:18", "distance (en metres)": 203.01, "station": "GARE DE LYON", "marker-color": "#818181"}}, {"type": "Feature", "geometry": {"type": "Point", "coordinates": [2.373431, 48.843594]}, "properties": {"numparc": 637, "etat de la localisation": "autre", "ID BDGEO": "263", "horodatage": "2023-04-24 07:28:02", "distance (en metres)": 50.34, "station": "GARE DE LYON", "marker-color": "#818181"}}, {"type": "Feature", "geometry": {"type": "Point", "coordinates": [2.350668, 48.857735]}, "properties": {"numparc": 637, "etat de la localisation": "autre", "ID BDGEO": "146", "horodatage": "2023-04-24 07:40:09", "distance (en metres)": 67.1, "station": "HOTEL DE VILLE", "marker-color": "#818181"}}, {"type": "Feature", "geometry": {"type": "Point", "coordinates": [2.373176, 48.844014]}, "properties": {"station": "GARE DE LYON", "ID BDGEO": "263", "marker-color": "#56B3FF"}}, {"type": "Feature", "geometry": {"type": "Point", "coordinates": [2.34984, 48.857994]}, "properties": {"station": "HOTEL DE VILLE", "ID BDGEO": "146", "marker-color": "#56B3FF"}}]}