{"type": "FeatureCollection", "features": [{"type": "Feature", "geometry": {"type": "Point", "coordinates": [2.377681, 48.850922]}, "properties": {"alarme": "VEHICULE DELOCALISE", "numparc": 1530, "type": "EXPLOITATION", "duree": "00:05:36", "horodatage": "2023-06-11 19:15:36", "statut": "start", "marker-color": "#ff0000"}}, {"type": "Feature", "geometry": {"type": "Point", "coordinates": [2.377931, 48.854183]}, "properties": {"alarme": "VEHICULE DELOCALISE", "numparc": 1542, "type": "EXPLOITATION", "duree": "00:03:43", "horodatage": "2023-06-12 00:18:00", "statut": "start", "marker-color": "#ff0000"}}, {"type": "Feature", "geometry": {"type": "Point", "coordinates": [2.38589, 48.854774]}, "properties": {"alarme": "VEHICULE DELOCALISE", "numparc": 1530, "type": "EXPLOITATION", "duree": "00:05:36", "horodatage": "2023-06-11 19:21:12", "statut": "end", "marker-color": "#2fe184"}}, {"type": "Feature", "geometry": {"type": "Point", "coordinates": [2.37741, 48.853474]}, "properties": {"alarme": "VEHICULE DELOCALISE", "numparc": 1542, "type": "EXPLOITATION", "duree": "00:03:43", "horodatage": "2023-06-12 00:21:43", "statut": "end", "marker-color": "#2fe184"}}]}