{"type": "FeatureCollection", "features": [{"type": "Feature", "geometry": {"type": "Point", "coordinates": [2.583168, 48.843586]}, "properties": {"alarme": "VEHICULE DELOCALISE", "numparc": 5896, "type": "EXPLOITATION", "duree": "00:00:46", "horodatage": "2023-03-09 07:48:55", "statut": "start", "marker-color": "#ff0000"}}, {"type": "Feature", "geometry": {"type": "Point", "coordinates": [2.577333, 48.862625]}, "properties": {"alarme": "DEFAUT LIAISON DATA SAEIV / AIGLE", "numparc": 4995, "type": "TECHNIQUE", "duree": "00:00:09", "horodatage": "2023-03-09 08:27:47", "statut": "start", "marker-color": "#ff0000"}}, {"type": "Feature", "geometry": {"type": "Point", "coordinates": [2.583966, 48.874386]}, "properties": {"alarme": "DEFAUT LIAISON DATA SAEIV / AIGLE", "numparc": 5896, "type": "TECHNIQUE", "duree": "00:00:09", "horodatage": "2023-03-09 15:11:57", "statut": "start", "marker-color": "#ff0000"}}, {"type": "Feature", "geometry": {"type": "Point", "coordinates": [2.658976, 48.842354]}, "properties": {"alarme": "DEFAUT LIAISON DATA SAEIV / AIGLE", "numparc": 5876, "type": "TECHNIQUE", "duree": "00:00:09", "horodatage": "2023-03-09 16:46:28", "statut": "start", "marker-color": "#ff0000"}}, {"type": "Feature", "geometry": {"type": "Point", "coordinates": [2.585626, 48.846836]}, "properties": {"alarme": "DEFAUT LIAISON DATA SAEIV / AIGLE", "numparc": 5896, "type": "TECHNIQUE", "duree": "00:00:06", "horodatage": "2023-03-09 17:35:26", "statut": "start", "marker-color": "#ff0000"}}, {"type": "Feature", "geometry": {"type": "Point", "coordinates": [2.583726, 48.874393]}, "properties": {"alarme": "DEFAUT LIAISON DATA SAEIV / AIGLE", "numparc": 5896, "type": "TECHNIQUE", "duree": "00:00:09", "horodatage": "2023-03-09 17:58:47", "statut": "start", "marker-color": "#ff0000"}}, {"type": "Feature", "geometry": {"type": "Point", "coordinates": [2.659432, 48.84314]}, "properties": {"alarme": "DEFAUT LIAISON DATA SAEIV / AIGLE", "numparc": 5876, "type": "TECHNIQUE", "duree": "00:00:09", "horodatage": "2023-03-09 19:30:45", "statut": "start", "marker-color": "#ff0000"}}, {"type": "Feature", "geometry": {"type": "Point", "coordinates": [2.583017, 48.844742]}, "properties": {"alarme": "VEHICULE DELOCALISE", "numparc": 5896, "type": "EXPLOITATION", "duree": "00:00:46", "horodatage": "2023-03-09 07:49:41", "statut": "end", "marker-color": "#2fe184"}}, {"type": "Feature", "geometry": {"type": "Point", "coordinates": [2.577427, 48.862614]}, "properties": {"alarme": "DEFAUT LIAISON DATA SAEIV / AIGLE", "numparc": 4995, "type": "TECHNIQUE", "duree": "00:00:09", "horodatage": "2023-03-09 08:27:56", "statut": "end", "marker-color": "#2fe184"}}, {"type": "Feature", "geometry": {"type": "Point", "coordinates": [2.583966, 48.874386]}, "properties": {"alarme": "DEFAUT LIAISON DATA SAEIV / AIGLE", "numparc": 5896, "type": "TECHNIQUE", "duree": "00:00:09", "horodatage": "2023-03-09 15:12:06", "statut": "end", "marker-color": "#2fe184"}}, {"type": "Feature", "geometry": {"type": "Point", "coordinates": [2.658976, 48.842354]}, "properties": {"alarme": "DEFAUT LIAISON DATA SAEIV / AIGLE", "numparc": 5876, "type": "TECHNIQUE", "duree": "00:00:09", "horodatage": "2023-03-09 16:46:37", "statut": "end", "marker-color": "#2fe184"}}, {"type": "Feature", "geometry": {"type": "Point", "coordinates": [2.585626, 48.846836]}, "properties": {"alarme": "DEFAUT LIAISON DATA SAEIV / AIGLE", "numparc": 5896, "type": "TECHNIQUE", "duree": "00:00:06", "horodatage": "2023-03-09 17:35:32", "statut": "end", "marker-color": "#2fe184"}}, {"type": "Feature", "geometry": {"type": "Point", "coordinates": [2.583726, 48.874393]}, "properties": {"alarme": "DEFAUT LIAISON DATA SAEIV / AIGLE", "numparc": 5896, "type": "TECHNIQUE", "duree": "00:00:09", "horodatage": "2023-03-09 17:58:56", "statut": "end", "marker-color": "#2fe184"}}, {"type": "Feature", "geometry": {"type": "Point", "coordinates": [2.659482, 48.843079]}, "properties": {"alarme": "DEFAUT LIAISON DATA SAEIV / AIGLE", "numparc": 5876, "type": "TECHNIQUE", "duree": "00:00:09", "horodatage": "2023-03-09 19:30:54", "statut": "end", "marker-color": "#2fe184"}}]}