{"type": "FeatureCollection", "features": [{"type": "Feature", "geometry": {"type": "Point", "coordinates": [2.585545, 48.847595]}, "properties": {"numparc": 5880, "etat de la localisation": "autre", "ID BDGEO": "17", "horodatage": "2021-07-03 05:09:03", "distance (en metres)": 81.9, "station": "BOIS DE GRACE", "marker-color": "#818181"}}, {"type": "Feature", "geometry": {"type": "Point", "coordinates": [2.581944, 48.843742]}, "properties": {"numparc": 5880, "etat de la localisation": "autre", "ID BDGEO": "21", "horodatage": "2021-07-03 05:11:14", "distance (en metres)": 105.62, "station": "NOISY-CHAMPS-RER-DESCARTES", "marker-color": "#818181"}}, {"type": "Feature", "geometry": {"type": "Point", "coordinates": [2.5821, 48.843594]}, "properties": {"numparc": 5880, "etat de la localisation": "Delocalise", "ID BDGEO": "53", "horodatage": "2021-07-03 05:57:13", "distance (en metres)": 93.4, "station": "NOISY-CHAMPS-RER-DESCARTES.", "marker-color": "#FF565E"}}, {"type": "Feature", "geometry": {"type": "Point", "coordinates": [2.582308, 48.843506]}, "properties": {"numparc": 5880, "etat de la localisation": "Delocalise", "ID BDGEO": "53", "horodatage": "2021-07-03 05:57:54", "distance (en metres)": 78.45, "station": "NOISY-CHAMPS-RER-DESCARTES.", "marker-color": "#FF565E"}}, {"type": "Feature", "geometry": {"type": "Point", "coordinates": [2.585545, 48.848255]}, "properties": {"numparc": 5880, "etat de la localisation": "Delocalise", "ID BDGEO": "53", "horodatage": "2021-07-03 06:04:09", "distance (en metres)": 637.85, "station": "NOISY-CHAMPS-RER-DESCARTES.", "marker-color": "#FF565E"}}, {"type": "Feature", "geometry": {"type": "Point", "coordinates": [2.579111, 48.861782]}, "properties": {"numparc": 5880, "etat de la localisation": "Delocalise", "ID BDGEO": "53", "horodatage": "2021-07-03 06:09:01", "distance (en metres)": 2122.16, "station": "NOISY-CHAMPS-RER-DESCARTES.", "marker-color": "#FF565E"}}, {"type": "Feature", "geometry": {"type": "Point", "coordinates": [2.575861, 48.863514]}, "properties": {"numparc": 5880, "etat de la localisation": "Delocalise", "ID BDGEO": "53", "horodatage": "2021-07-03 06:09:53", "distance (en metres)": 2352.04, "station": "NOISY-CHAMPS-RER-DESCARTES.", "marker-color": "#FF565E"}}, {"type": "Feature", "geometry": {"type": "Point", "coordinates": [2.575527, 48.866505]}, "properties": {"numparc": 5880, "etat de la localisation": "Delocalise", "ID BDGEO": "53", "horodatage": "2021-07-03 06:10:52", "distance (en metres)": 2682.67, "station": "NOISY-CHAMPS-RER-DESCARTES.", "marker-color": "#FF565E"}}, {"type": "Feature", "geometry": {"type": "Point", "coordinates": [2.58364, 48.874371]}, "properties": {"numparc": 5880, "etat de la localisation": "Delocalise", "ID BDGEO": "53", "horodatage": "2021-07-03 06:14:25", "distance (en metres)": 3506.73, "station": "NOISY-CHAMPS-RER-DESCARTES.", "marker-color": "#FF565E"}}, {"type": "Feature", "geometry": {"type": "Point", "coordinates": [2.583944, 48.874344]}, "properties": {"numparc": 5880, "etat de la localisation": "Delocalise", "ID BDGEO": "53", "horodatage": "2021-07-03 06:16:37", "distance (en metres)": 3504.25, "station": "NOISY-CHAMPS-RER-DESCARTES.", "marker-color": "#FF565E"}}, {"type": "Feature", "geometry": {"type": "Point", "coordinates": [2.57655, 48.870869]}, "properties": {"numparc": 5880, "etat de la localisation": "Delocalise", "ID BDGEO": "53", "horodatage": "2021-07-03 06:20:13", "distance (en metres)": 3148.54, "station": "NOISY-CHAMPS-RER-DESCARTES.", "marker-color": "#FF565E"}}, {"type": "Feature", "geometry": {"type": "Point", "coordinates": [2.575414, 48.866158]}, "properties": {"numparc": 5880, "etat de la localisation": "Delocalise", "ID BDGEO": "53", "horodatage": "2021-07-03 06:22:04", "distance (en metres)": 2646.48, "station": "NOISY-CHAMPS-RER-DESCARTES.", "marker-color": "#FF565E"}}, {"type": "Feature", "geometry": {"type": "Point", "coordinates": [2.575855, 48.863213]}, "properties": {"numparc": 5880, "etat de la localisation": "Delocalise", "ID BDGEO": "53", "horodatage": "2021-07-03 06:23:58", "distance (en metres)": 2319.44, "station": "NOISY-CHAMPS-RER-DESCARTES.", "marker-color": "#FF565E"}}, {"type": "Feature", "geometry": {"type": "Point", "coordinates": [2.581496, 48.855331]}, "properties": {"numparc": 5880, "etat de la localisation": "Delocalise", "ID BDGEO": "53", "horodatage": "2021-07-03 06:26:09", "distance (en metres)": 1391.48, "station": "NOISY-CHAMPS-RER-DESCARTES.", "marker-color": "#FF565E"}}, {"type": "Feature", "geometry": {"type": "Point", "coordinates": [2.578174, 48.854538]}, "properties": {"numparc": 5880, "etat de la localisation": "Delocalise", "ID BDGEO": "53", "horodatage": "2021-07-03 06:27:05", "distance (en metres)": 1341.54, "station": "NOISY-CHAMPS-RER-DESCARTES.", "marker-color": "#FF565E"}}, {"type": "Feature", "geometry": {"type": "Point", "coordinates": [2.578148, 48.851192]}, "properties": {"numparc": 5880, "etat de la localisation": "Delocalise", "ID BDGEO": "53", "horodatage": "2021-07-03 06:28:12", "distance (en metres)": 985.68, "station": "NOISY-CHAMPS-RER-DESCARTES.", "marker-color": "#FF565E"}}, {"type": "Feature", "geometry": {"type": "Point", "coordinates": [2.585059, 48.845161]}, "properties": {"numparc": 5880, "etat de la localisation": "Delocalise", "ID BDGEO": "53", "horodatage": "2021-07-03 06:30:40", "distance (en metres)": 311.85, "station": "NOISY-CHAMPS-RER-DESCARTES.", "marker-color": "#FF565E"}}, {"type": "Feature", "geometry": {"type": "Point", "coordinates": [2.582282, 48.842735]}, "properties": {"numparc": 5880, "etat de la localisation": "autre", "ID BDGEO": "63", "horodatage": "2021-07-03 06:32:11", "distance (en metres)": 1779.9, "station": "PLACE CHURCHILL", "marker-color": "#818181"}}, {"type": "Feature", "geometry": {"type": "Point", "coordinates": [2.582282, 48.842735]}, "properties": {"numparc": 5880, "etat de la localisation": "autre", "ID BDGEO": "63", "horodatage": "2021-07-03 06:32:43", "distance (en metres)": 1779.9, "station": "PLACE CHURCHILL", "marker-color": "#818181"}}, {"type": "Feature", "geometry": {"type": "Point", "coordinates": [2.58241, 48.842705]}, "properties": {"numparc": 5880, "etat de la localisation": "autre", "ID BDGEO": "63", "horodatage": "2021-07-03 06:44:32", "distance (en metres)": 1783.57, "station": "PLACE CHURCHILL", "marker-color": "#818181"}}, {"type": "Feature", "geometry": {"type": "Point", "coordinates": [2.591727, 48.840591]}, "properties": {"numparc": 5880, "etat de la localisation": "autre", "ID BDGEO": "63", "horodatage": "2021-07-03 06:46:56", "distance (en metres)": 2152.31, "station": "PLACE CHURCHILL", "marker-color": "#818181"}}, {"type": "Feature", "geometry": {"type": "Point", "coordinates": [2.658821, 48.842575]}, "properties": {"numparc": 5888, "etat de la localisation": "autre", "ID BDGEO": "5", "horodatage": "2021-07-03 06:48:50", "distance (en metres)": 89.56, "station": "BUSSY (S)", "marker-color": "#818181"}}, {"type": "Feature", "geometry": {"type": "Point", "coordinates": [2.605564, 48.841434]}, "properties": {"numparc": 5880, "etat de la localisation": "autre", "ID BDGEO": "63", "horodatage": "2021-07-03 06:49:45", "distance (en metres)": 2609.07, "station": "PLACE CHURCHILL", "marker-color": "#818181"}}, {"type": "Feature", "geometry": {"type": "Point", "coordinates": [2.658822, 48.842575]}, "properties": {"numparc": 5888, "etat de la localisation": "autre", "ID BDGEO": "5", "horodatage": "2021-07-03 06:52:43", "distance (en metres)": 89.56, "station": "BUSSY (S)", "marker-color": "#818181"}}, {"type": "Feature", "geometry": {"type": "Point", "coordinates": [2.616114, 48.843781]}, "properties": {"numparc": 5880, "etat de la localisation": "autre", "ID BDGEO": "63", "horodatage": "2021-07-03 06:53:58", "distance (en metres)": 3031.23, "station": "PLACE CHURCHILL", "marker-color": "#818181"}}, {"type": "Feature", "geometry": {"type": "Point", "coordinates": [2.627934, 48.838665]}, "properties": {"numparc": 5880, "etat de la localisation": "autre", "ID BDGEO": "63", "horodatage": "2021-07-03 06:57:50", "distance (en metres)": 4066.55, "station": "PLACE CHURCHILL", "marker-color": "#818181"}}, {"type": "Feature", "geometry": {"type": "Point", "coordinates": [2.631209, 48.841789]}, "properties": {"numparc": 5880, "etat de la localisation": "autre", "ID BDGEO": "63", "horodatage": "2021-07-03 06:59:18", "distance (en metres)": 4097.94, "station": "PLACE CHURCHILL", "marker-color": "#818181"}}, {"type": "Feature", "geometry": {"type": "Point", "coordinates": [2.631209, 48.841789]}, "properties": {"numparc": 5880, "etat de la localisation": "autre", "ID BDGEO": "63", "horodatage": "2021-07-03 07:08:53", "distance (en metres)": 4097.94, "station": "PLACE CHURCHILL", "marker-color": "#818181"}}, {"type": "Feature", "geometry": {"type": "Point", "coordinates": [2.581306, 48.850529]}, "properties": {"numparc": 5888, "etat de la localisation": "autre", "ID BDGEO": "59", "horodatage": "2021-07-03 07:13:02", "distance (en metres)": 46.02, "station": "FLANDRES-DUNKERQUE 1940", "marker-color": "#818181"}}, {"type": "Feature", "geometry": {"type": "Point", "coordinates": [2.582355, 48.843456]}, "properties": {"numparc": 5880, "etat de la localisation": "autre", "ID BDGEO": "63", "horodatage": "2021-07-03 07:22:26", "distance (en metres)": 1699.97, "station": "PLACE CHURCHILL", "marker-color": "#818181"}}, {"type": "Feature", "geometry": {"type": "Point", "coordinates": [2.578488, 48.851151]}, "properties": {"numparc": 5880, "etat de la localisation": "autre", "ID BDGEO": "63", "horodatage": "2021-07-03 07:36:22", "distance (en metres)": 870.94, "station": "PLACE CHURCHILL", "marker-color": "#818181"}}, {"type": "Feature", "geometry": {"type": "Point", "coordinates": [2.579076, 48.854572]}, "properties": {"numparc": 5880, "etat de la localisation": "autre", "ID BDGEO": "63", "horodatage": "2021-07-03 07:37:35", "distance (en metres)": 494.83, "station": "PLACE CHURCHILL", "marker-color": "#818181"}}, {"type": "Feature", "geometry": {"type": "Point", "coordinates": [2.58243, 48.855362]}, "properties": {"numparc": 5880, "etat de la localisation": "autre", "ID BDGEO": "63", "horodatage": "2021-07-03 07:38:30", "distance (en metres)": 381.33, "station": "PLACE CHURCHILL", "marker-color": "#818181"}}, {"type": "Feature", "geometry": {"type": "Point", "coordinates": [2.58337, 48.874386]}, "properties": {"numparc": 5880, "etat de la localisation": "autre", "ID BDGEO": "83", "horodatage": "2021-07-03 07:46:51", "distance (en metres)": 61.17, "station": "CHELLES-GOURNAY-RER.", "marker-color": "#818181"}}, {"type": "Feature", "geometry": {"type": "Point", "coordinates": [2.583948, 48.874329]}, "properties": {"numparc": 5880, "etat de la localisation": "autre", "ID BDGEO": "83", "horodatage": "2021-07-03 07:47:28", "distance (en metres)": 103.83, "station": "CHELLES-GOURNAY-RER.", "marker-color": "#818181"}}, {"type": "Feature", "geometry": {"type": "Point", "coordinates": [2.582054, 48.850456]}, "properties": {"numparc": 5888, "etat de la localisation": "autre", "ID BDGEO": "15", "horodatage": "2021-07-03 07:48:44", "distance (en metres)": 69.35, "station": "FLANDRES-DUNKERQUE 1940", "marker-color": "#818181"}}, {"type": "Feature", "geometry": {"type": "Point", "coordinates": [2.576604, 48.870922]}, "properties": {"numparc": 5880, "etat de la localisation": "autre", "ID BDGEO": "68", "horodatage": "2021-07-03 08:00:20", "distance (en metres)": 51.21, "station": "AVENUE DES MARTYRS", "marker-color": "#818181"}}, {"type": "Feature", "geometry": {"type": "Point", "coordinates": [2.581562, 48.855267]}, "properties": {"numparc": 5880, "etat de la localisation": "autre", "ID BDGEO": "63", "horodatage": "2021-07-03 08:06:10", "distance (en metres)": 385.48, "station": "PLACE CHURCHILL", "marker-color": "#818181"}}, {"type": "Feature", "geometry": {"type": "Point", "coordinates": [2.578124, 48.854561]}, "properties": {"numparc": 5880, "etat de la localisation": "autre", "ID BDGEO": "63", "horodatage": "2021-07-03 08:07:09", "distance (en metres)": 524.67, "station": "PLACE CHURCHILL", "marker-color": "#818181"}}, {"type": "Feature", "geometry": {"type": "Point", "coordinates": [2.582078, 48.850422]}, "properties": {"numparc": 5880, "etat de la localisation": "autre", "ID BDGEO": "63", "horodatage": "2021-07-03 08:08:44", "distance (en metres)": 925.22, "station": "PLACE CHURCHILL", "marker-color": "#818181"}}, {"type": "Feature", "geometry": {"type": "Point", "coordinates": [2.585143, 48.845146]}, "properties": {"numparc": 5880, "etat de la localisation": "autre", "ID BDGEO": "63", "horodatage": "2021-07-03 08:11:37", "distance (en metres)": 1534.5, "station": "PLACE CHURCHILL", "marker-color": "#818181"}}, {"type": "Feature", "geometry": {"type": "Point", "coordinates": [2.582955, 48.844765]}, "properties": {"numparc": 5880, "etat de la localisation": "autre", "ID BDGEO": "63", "horodatage": "2021-07-03 08:12:25", "distance (en metres)": 1556.97, "station": "PLACE CHURCHILL", "marker-color": "#818181"}}, {"type": "Feature", "geometry": {"type": "Point", "coordinates": [2.582462, 48.842716]}, "properties": {"numparc": 5880, "etat de la localisation": "autre", "ID BDGEO": "63", "horodatage": "2021-07-03 08:13:37", "distance (en metres)": 1782.5, "station": "PLACE CHURCHILL", "marker-color": "#818181"}}, {"type": "Feature", "geometry": {"type": "Point", "coordinates": [2.582078, 48.842617]}, "properties": {"numparc": 5880, "etat de la localisation": "autre", "ID BDGEO": "63", "horodatage": "2021-07-03 08:15:18", "distance (en metres)": 1792.58, "station": "PLACE CHURCHILL", "marker-color": "#818181"}}, {"type": "Feature", "geometry": {"type": "Point", "coordinates": [2.582078, 48.842617]}, "properties": {"numparc": 5880, "etat de la localisation": "autre", "ID BDGEO": "63", "horodatage": "2021-07-03 08:29:53", "distance (en metres)": 1792.58, "station": "PLACE CHURCHILL", "marker-color": "#818181"}}, {"type": "Feature", "geometry": {"type": "Point", "coordinates": [2.584074, 48.841537]}, "properties": {"numparc": 5880, "etat de la localisation": "autre", "ID BDGEO": "63", "horodatage": "2021-07-03 08:31:28", "distance (en metres)": 1921.58, "station": "PLACE CHURCHILL", "marker-color": "#818181"}}, {"type": "Feature", "geometry": {"type": "Point", "coordinates": [2.582063, 48.850464]}, "properties": {"numparc": 5870, "etat de la localisation": "autre", "ID BDGEO": "15", "horodatage": "2021-07-03 08:32:56", "distance (en metres)": 69.96, "station": "FLANDRES-DUNKERQUE 1940", "marker-color": "#818181"}}, {"type": "Feature", "geometry": {"type": "Point", "coordinates": [2.591823, 48.840611]}, "properties": {"numparc": 5880, "etat de la localisation": "autre", "ID BDGEO": "63", "horodatage": "2021-07-03 08:33:27", "distance (en metres)": 2152.69, "station": "PLACE CHURCHILL", "marker-color": "#818181"}}, {"type": "Feature", "geometry": {"type": "Point", "coordinates": [2.601935, 48.839725]}, "properties": {"numparc": 5880, "etat de la localisation": "autre", "ID BDGEO": "63", "horodatage": "2021-07-03 08:34:59", "distance (en metres)": 2590.16, "station": "PLACE CHURCHILL", "marker-color": "#818181"}}, {"type": "Feature", "geometry": {"type": "Point", "coordinates": [2.605498, 48.841557]}, "properties": {"numparc": 5880, "etat de la localisation": "autre", "ID BDGEO": "63", "horodatage": "2021-07-03 08:36:29", "distance (en metres)": 2595.74, "station": "PLACE CHURCHILL", "marker-color": "#818181"}}, {"type": "Feature", "geometry": {"type": "Point", "coordinates": [2.616582, 48.843758]}, "properties": {"numparc": 5880, "etat de la localisation": "autre", "ID BDGEO": "63", "horodatage": "2021-07-03 08:41:18", "distance (en metres)": 3061.31, "station": "PLACE CHURCHILL", "marker-color": "#818181"}}, {"type": "Feature", "geometry": {"type": "Point", "coordinates": [2.5915, 48.840488]}, "properties": {"numparc": 5888, "etat de la localisation": "Deviation programmee", "ID BDGEO": "48", "horodatage": "2021-07-03 08:43:30", "distance (en metres)": 305.89, "station": "BOIS DE L'ETANG-UNIVERSITE", "marker-color": "#56FF93"}}, {"type": "Feature", "geometry": {"type": "Point", "coordinates": [2.627906, 48.838818]}, "properties": {"numparc": 5880, "etat de la localisation": "autre", "ID BDGEO": "63", "horodatage": "2021-07-03 08:46:27", "distance (en metres)": 4055.52, "station": "PLACE CHURCHILL", "marker-color": "#818181"}}, {"type": "Feature", "geometry": {"type": "Point", "coordinates": [2.591809, 48.840618]}, "properties": {"numparc": 5870, "etat de la localisation": "Delocalise", "ID BDGEO": "28", "horodatage": "2021-07-03 08:50:12", "distance (en metres)": 278.73, "station": "GALILEE-PASCAL", "marker-color": "#FF565E"}}, {"type": "Feature", "geometry": {"type": "Point", "coordinates": [2.616269, 48.843758]}, "properties": {"numparc": 5880, "etat de la localisation": "autre", "ID BDGEO": "63", "horodatage": "2021-07-03 08:52:02", "distance (en metres)": 3042.12, "station": "PLACE CHURCHILL", "marker-color": "#818181"}}, {"type": "Feature", "geometry": {"type": "Point", "coordinates": [2.605511, 48.841434]}, "properties": {"numparc": 5880, "etat de la localisation": "autre", "ID BDGEO": "63", "horodatage": "2021-07-03 08:58:48", "distance (en metres)": 2606.46, "station": "PLACE CHURCHILL", "marker-color": "#818181"}}, {"type": "Feature", "geometry": {"type": "Point", "coordinates": [2.616574, 48.84375]}, "properties": {"numparc": 5870, "etat de la localisation": "autre", "ID BDGEO": "34", "horodatage": "2021-07-03 08:58:50", "distance (en metres)": 46.88, "station": "NOISIEL RER", "marker-color": "#818181"}}, {"type": "Feature", "geometry": {"type": "Point", "coordinates": [2.593833, 48.840828]}, "properties": {"numparc": 5880, "etat de la localisation": "autre", "ID BDGEO": "63", "horodatage": "2021-07-03 09:01:13", "distance (en metres)": 2186.73, "station": "PLACE CHURCHILL", "marker-color": "#818181"}}, {"type": "Feature", "geometry": {"type": "Point", "coordinates": [2.591437, 48.840561]}, "properties": {"numparc": 5880, "etat de la localisation": "autre", "ID BDGEO": "63", "horodatage": "2021-07-03 09:02:04", "distance (en metres)": 2148.15, "station": "PLACE CHURCHILL", "marker-color": "#818181"}}, {"type": "Feature", "geometry": {"type": "Point", "coordinates": [2.582329, 48.843605]}, "properties": {"numparc": 5880, "etat de la localisation": "autre", "ID BDGEO": "63", "horodatage": "2021-07-03 09:04:42", "distance (en metres)": 1683.34, "station": "PLACE CHURCHILL", "marker-color": "#818181"}}, {"type": "Feature", "geometry": {"type": "Point", "coordinates": [2.582329, 48.843605]}, "properties": {"numparc": 5880, "etat de la localisation": "autre", "ID BDGEO": "63", "horodatage": "2021-07-03 09:04:56", "distance (en metres)": 1683.34, "station": "PLACE CHURCHILL", "marker-color": "#818181"}}, {"type": "Feature", "geometry": {"type": "Point", "coordinates": [2.582329, 48.843605]}, "properties": {"numparc": 5880, "etat de la localisation": "autre", "ID BDGEO": "63", "horodatage": "2021-07-03 09:20:30", "distance (en metres)": 1683.34, "station": "PLACE CHURCHILL", "marker-color": "#818181"}}, {"type": "Feature", "geometry": {"type": "Point", "coordinates": [2.58229, 48.843441]}, "properties": {"numparc": 5880, "etat de la localisation": "autre", "ID BDGEO": "63", "horodatage": "2021-07-03 09:22:01", "distance (en metres)": 1701.46, "station": "PLACE CHURCHILL", "marker-color": "#818181"}}, {"type": "Feature", "geometry": {"type": "Point", "coordinates": [2.583044, 48.844841]}, "properties": {"numparc": 5880, "etat de la localisation": "autre", "ID BDGEO": "63", "horodatage": "2021-07-03 09:23:25", "distance (en metres)": 1549.01, "station": "PLACE CHURCHILL", "marker-color": "#818181"}}, {"type": "Feature", "geometry": {"type": "Point", "coordinates": [2.585284, 48.845173]}, "properties": {"numparc": 5880, "etat de la localisation": "autre", "ID BDGEO": "63", "horodatage": "2021-07-03 09:24:15", "distance (en metres)": 1533.38, "station": "PLACE CHURCHILL", "marker-color": "#818181"}}, {"type": "Feature", "geometry": {"type": "Point", "coordinates": [2.585562, 48.848198]}, "properties": {"numparc": 5880, "etat de la localisation": "autre", "ID BDGEO": "63", "horodatage": "2021-07-03 09:27:00", "distance (en metres)": 1209.05, "station": "PLACE CHURCHILL", "marker-color": "#818181"}}, {"type": "Feature", "geometry": {"type": "Point", "coordinates": [2.584364, 48.850243]}, "properties": {"numparc": 5880, "etat de la localisation": "autre", "ID BDGEO": "63", "horodatage": "2021-07-03 09:28:08", "distance (en metres)": 967.46, "station": "PLACE CHURCHILL", "marker-color": "#818181"}}, {"type": "Feature", "geometry": {"type": "Point", "coordinates": [2.581328, 48.850616]}, "properties": {"numparc": 5880, "etat de la localisation": "autre", "ID BDGEO": "63", "horodatage": "2021-07-03 09:28:50", "distance (en metres)": 902.65, "station": "PLACE CHURCHILL", "marker-color": "#818181"}}, {"type": "Feature", "geometry": {"type": "Point", "coordinates": [2.578507, 48.851192]}, "properties": {"numparc": 5880, "etat de la localisation": "autre", "ID BDGEO": "63", "horodatage": "2021-07-03 09:29:35", "distance (en metres)": 866.17, "station": "PLACE CHURCHILL", "marker-color": "#818181"}}, {"type": "Feature", "geometry": {"type": "Point", "coordinates": [2.582441, 48.855381]}, "properties": {"numparc": 5880, "etat de la localisation": "autre", "ID BDGEO": "63", "horodatage": "2021-07-03 09:31:42", "distance (en metres)": 379.4, "station": "PLACE CHURCHILL", "marker-color": "#818181"}}, {"type": "Feature", "geometry": {"type": "Point", "coordinates": [2.583567, 48.874435]}, "properties": {"numparc": 5880, "etat de la localisation": "autre", "ID BDGEO": "83", "horodatage": "2021-07-03 09:42:42", "distance (en metres)": 74.44, "station": "CHELLES-GOURNAY-RER.", "marker-color": "#818181"}}, {"type": "Feature", "geometry": {"type": "Point", "coordinates": [2.582068, 48.850533]}, "properties": {"numparc": 5888, "etat de la localisation": "autre", "ID BDGEO": "15", "horodatage": "2021-07-03 09:45:32", "distance (en metres)": 70.4, "station": "FLANDRES-DUNKERQUE 1940", "marker-color": "#818181"}}, {"type": "Feature", "geometry": {"type": "Point", "coordinates": [2.581335, 48.850578]}, "properties": {"numparc": 5870, "etat de la localisation": "autre", "ID BDGEO": "59", "horodatage": "2021-07-03 09:48:12", "distance (en metres)": 45.28, "station": "FLANDRES-DUNKERQUE 1940", "marker-color": "#818181"}}, {"type": "Feature", "geometry": {"type": "Point", "coordinates": [2.583952, 48.874393]}, "properties": {"numparc": 5880, "etat de la localisation": "autre", "ID BDGEO": "83", "horodatage": "2021-07-03 09:49:27", "distance (en metres)": 102.95, "station": "CHELLES-GOURNAY-RER.", "marker-color": "#818181"}}, {"type": "Feature", "geometry": {"type": "Point", "coordinates": [2.578547, 48.872284]}, "properties": {"numparc": 5880, "etat de la localisation": "autre", "ID BDGEO": "114", "horodatage": "2021-07-03 09:52:19", "distance (en metres)": 42.63, "station": "PARMENTIER-JULES FERRY", "marker-color": "#818181"}}, {"type": "Feature", "geometry": {"type": "Point", "coordinates": [2.576522, 48.870903]}, "properties": {"numparc": 5880, "etat de la localisation": "autre", "ID BDGEO": "68", "horodatage": "2021-07-03 09:53:15", "distance (en metres)": 45.72, "station": "AVENUE DES MARTYRS", "marker-color": "#818181"}}, {"type": "Feature", "geometry": {"type": "Point", "coordinates": [2.57413, 48.868347]}, "properties": {"numparc": 5880, "etat de la localisation": "autre", "ID BDGEO": "67", "horodatage": "2021-07-03 09:56:40", "distance (en metres)": 70.95, "station": "RUE DU PORT", "marker-color": "#818181"}}, {"type": "Feature", "geometry": {"type": "Point", "coordinates": [2.581535, 48.855244]}, "properties": {"numparc": 5880, "etat de la localisation": "autre", "ID BDGEO": "63", "horodatage": "2021-07-03 10:02:49", "distance (en metres)": 388.0, "station": "PLACE CHURCHILL", "marker-color": "#818181"}}, {"type": "Feature", "geometry": {"type": "Point", "coordinates": [2.578148, 48.854572]}, "properties": {"numparc": 5880, "etat de la localisation": "autre", "ID BDGEO": "63", "horodatage": "2021-07-03 10:03:56", "distance (en metres)": 522.77, "station": "PLACE CHURCHILL", "marker-color": "#818181"}}, {"type": "Feature", "geometry": {"type": "Point", "coordinates": [2.582069, 48.850464]}, "properties": {"numparc": 5880, "etat de la localisation": "autre", "ID BDGEO": "63", "horodatage": "2021-07-03 10:05:32", "distance (en metres)": 920.52, "station": "PLACE CHURCHILL", "marker-color": "#818181"}}, {"type": "Feature", "geometry": {"type": "Point", "coordinates": [2.585418, 48.84824]}, "properties": {"numparc": 5880, "etat de la localisation": "autre", "ID BDGEO": "63", "horodatage": "2021-07-03 10:06:49", "distance (en metres)": 1201.95, "station": "PLACE CHURCHILL", "marker-color": "#818181"}}, {"type": "Feature", "geometry": {"type": "Point", "coordinates": [2.582976, 48.844761]}, "properties": {"numparc": 5880, "etat de la localisation": "autre", "ID BDGEO": "63", "horodatage": "2021-07-03 10:08:42", "distance (en metres)": 1557.52, "station": "PLACE CHURCHILL", "marker-color": "#818181"}}, {"type": "Feature", "geometry": {"type": "Point", "coordinates": [2.614342, 48.847118]}, "properties": {"numparc": 5888, "etat de la localisation": "Deviation programmee", "ID BDGEO": "33", "horodatage": "2021-07-03 10:08:45", "distance (en metres)": 104.21, "station": "COLLEGE LE LUZARD", "marker-color": "#56FF93"}}, {"type": "Feature", "geometry": {"type": "Point", "coordinates": [2.582568, 48.842739]}, "properties": {"numparc": 5880, "etat de la localisation": "autre", "ID BDGEO": "63", "horodatage": "2021-07-03 10:09:51", "distance (en metres)": 1780.28, "station": "PLACE CHURCHILL", "marker-color": "#818181"}}, {"type": "Feature", "geometry": {"type": "Point", "coordinates": [2.582568, 48.842739]}, "properties": {"numparc": 5880, "etat de la localisation": "autre", "ID BDGEO": "63", "horodatage": "2021-07-03 10:10:13", "distance (en metres)": 1780.28, "station": "PLACE CHURCHILL", "marker-color": "#818181"}}, {"type": "Feature", "geometry": {"type": "Point", "coordinates": [2.659493, 48.842068]}, "properties": {"numparc": 4990, "etat de la localisation": "autre", "ID BDGEO": "127", "horodatage": "2021-07-03 10:20:07", "distance (en metres)": 5619.14, "station": "NOISY-CHAMPS-RER-DESCARTES#", "marker-color": "#818181"}}, {"type": "Feature", "geometry": {"type": "Point", "coordinates": [2.659199, 48.842934]}, "properties": {"numparc": 4990, "etat de la localisation": "autre", "ID BDGEO": "127", "horodatage": "2021-07-03 10:21:28", "distance (en metres)": 5595.19, "station": "NOISY-CHAMPS-RER-DESCARTES#", "marker-color": "#818181"}}, {"type": "Feature", "geometry": {"type": "Point", "coordinates": [2.582568, 48.842739]}, "properties": {"numparc": 5880, "etat de la localisation": "autre", "ID BDGEO": "63", "horodatage": "2021-07-03 10:28:07", "distance (en metres)": 1780.28, "station": "PLACE CHURCHILL", "marker-color": "#818181"}}, {"type": "Feature", "geometry": {"type": "Point", "coordinates": [2.582077, 48.850491]}, "properties": {"numparc": 5870, "etat de la localisation": "autre", "ID BDGEO": "15", "horodatage": "2021-07-03 10:28:54", "distance (en metres)": 70.91, "station": "FLANDRES-DUNKERQUE 1940", "marker-color": "#818181"}}, {"type": "Feature", "geometry": {"type": "Point", "coordinates": [2.582428, 48.842651]}, "properties": {"numparc": 5880, "etat de la localisation": "autre", "ID BDGEO": "63", "horodatage": "2021-07-03 10:29:15", "distance (en metres)": 1789.62, "station": "PLACE CHURCHILL", "marker-color": "#818181"}}, {"type": "Feature", "geometry": {"type": "Point", "coordinates": [2.595885, 48.840794]}, "properties": {"numparc": 5880, "etat de la localisation": "autre", "ID BDGEO": "63", "horodatage": "2021-07-03 10:33:05", "distance (en metres)": 2256.32, "station": "PLACE CHURCHILL", "marker-color": "#818181"}}, {"type": "Feature", "geometry": {"type": "Point", "coordinates": [2.605605, 48.841454]}, "properties": {"numparc": 5880, "etat de la localisation": "autre", "ID BDGEO": "63", "horodatage": "2021-07-03 10:35:24", "distance (en metres)": 2609.46, "station": "PLACE CHURCHILL", "marker-color": "#818181"}}, {"type": "Feature", "geometry": {"type": "Point", "coordinates": [2.609841, 48.846912]}, "properties": {"numparc": 5880, "etat de la localisation": "autre", "ID BDGEO": "63", "horodatage": "2021-07-03 10:37:19", "distance (en metres)": 2456.75, "station": "PLACE CHURCHILL", "marker-color": "#818181"}}, {"type": "Feature", "geometry": {"type": "Point", "coordinates": [2.59153, 48.840675]}, "properties": {"numparc": 5888, "etat de la localisation": "Deviation programmee", "ID BDGEO": "47", "horodatage": "2021-07-03 10:38:47", "distance (en metres)": 309.66, "station": "GALILEE-PASCAL", "marker-color": "#56FF93"}}, {"type": "Feature", "geometry": {"type": "Point", "coordinates": [2.616141, 48.843838]}, "properties": {"numparc": 5880, "etat de la localisation": "autre", "ID BDGEO": "63", "horodatage": "2021-07-03 10:40:53", "distance (en metres)": 3029.41, "station": "PLACE CHURCHILL", "marker-color": "#818181"}}, {"type": "Feature", "geometry": {"type": "Point", "coordinates": [2.61622, 48.843716]}, "properties": {"numparc": 5880, "etat de la localisation": "autre", "ID BDGEO": "63", "horodatage": "2021-07-03 10:42:50", "distance (en metres)": 3041.68, "station": "PLACE CHURCHILL", "marker-color": "#818181"}}, {"type": "Feature", "geometry": {"type": "Point", "coordinates": [2.621991, 48.839832]}, "properties": {"numparc": 5880, "etat de la localisation": "autre", "ID BDGEO": "63", "horodatage": "2021-07-03 10:45:32", "distance (en metres)": 3634.1, "station": "PLACE CHURCHILL", "marker-color": "#818181"}}, {"type": "Feature", "geometry": {"type": "Point", "coordinates": [2.628003, 48.838867]}, "properties": {"numparc": 5880, "etat de la localisation": "autre", "ID BDGEO": "63", "horodatage": "2021-07-03 10:46:57", "distance (en metres)": 4058.49, "station": "PLACE CHURCHILL", "marker-color": "#818181"}}, {"type": "Feature", "geometry": {"type": "Point", "coordinates": [2.616245, 48.843761]}, "properties": {"numparc": 5880, "etat de la localisation": "autre", "ID BDGEO": "63", "horodatage": "2021-07-03 10:49:58", "distance (en metres)": 3040.47, "station": "PLACE CHURCHILL", "marker-color": "#818181"}}, {"type": "Feature", "geometry": {"type": "Point", "coordinates": [2.604324, 48.8452]}, "properties": {"numparc": 5880, "etat de la localisation": "autre", "ID BDGEO": "63", "horodatage": "2021-07-03 10:56:39", "distance (en metres)": 2249.39, "station": "PLACE CHURCHILL", "marker-color": "#818181"}}, {"type": "Feature", "geometry": {"type": "Point", "coordinates": [2.605515, 48.841434]}, "properties": {"numparc": 5880, "etat de la localisation": "autre", "ID BDGEO": "63", "horodatage": "2021-07-03 10:57:42", "distance (en metres)": 2606.65, "station": "PLACE CHURCHILL", "marker-color": "#818181"}}, {"type": "Feature", "geometry": {"type": "Point", "coordinates": [2.581318, 48.85054]}, "properties": {"numparc": 5888, "etat de la localisation": "autre", "ID BDGEO": "59", "horodatage": "2021-07-03 10:58:45", "distance (en metres)": 45.4, "station": "FLANDRES-DUNKERQUE 1940", "marker-color": "#818181"}}, {"type": "Feature", "geometry": {"type": "Point", "coordinates": [2.602161, 48.839581]}, "properties": {"numparc": 5880, "etat de la localisation": "autre", "ID BDGEO": "63", "horodatage": "2021-07-03 10:59:11", "distance (en metres)": 2612.79, "station": "PLACE CHURCHILL", "marker-color": "#818181"}}, {"type": "Feature", "geometry": {"type": "Point", "coordinates": [2.582368, 48.843605]}, "properties": {"numparc": 5880, "etat de la localisation": "autre", "ID BDGEO": "63", "horodatage": "2021-07-03 11:03:00", "distance (en metres)": 1683.45, "station": "PLACE CHURCHILL", "marker-color": "#818181"}}, {"type": "Feature", "geometry": {"type": "Point", "coordinates": [2.582364, 48.843449]}, "properties": {"numparc": 5880, "etat de la localisation": "autre", "ID BDGEO": "63", "horodatage": "2021-07-03 11:03:48", "distance (en metres)": 1700.77, "station": "PLACE CHURCHILL", "marker-color": "#818181"}}, {"type": "Feature", "geometry": {"type": "Point", "coordinates": [2.608975, 48.846951]}, "properties": {"numparc": 5870, "etat de la localisation": "Deviation programmee", "ID BDGEO": "42", "horodatage": "2021-07-03 11:16:47", "distance (en metres)": 56.44, "station": "GUY DE MAUPASSANT", "marker-color": "#56FF93"}}, {"type": "Feature", "geometry": {"type": "Point", "coordinates": [2.58309, 48.844822]}, "properties": {"numparc": 5880, "etat de la localisation": "autre", "ID BDGEO": "63", "horodatage": "2021-07-03 11:17:00", "distance (en metres)": 1551.37, "station": "PLACE CHURCHILL", "marker-color": "#818181"}}, {"type": "Feature", "geometry": {"type": "Point", "coordinates": [2.585553, 48.848209]}, "properties": {"numparc": 5880, "etat de la localisation": "autre", "ID BDGEO": "63", "horodatage": "2021-07-03 11:18:50", "distance (en metres)": 1207.7, "station": "PLACE CHURCHILL", "marker-color": "#818181"}}, {"type": "Feature", "geometry": {"type": "Point", "coordinates": [2.584367, 48.85017]}, "properties": {"numparc": 5880, "etat de la localisation": "autre", "ID BDGEO": "63", "horodatage": "2021-07-03 11:19:54", "distance (en metres)": 975.43, "station": "PLACE CHURCHILL", "marker-color": "#818181"}}, {"type": "Feature", "geometry": {"type": "Point", "coordinates": [2.578467, 48.851116]}, "properties": {"numparc": 5880, "etat de la localisation": "autre", "ID BDGEO": "63", "horodatage": "2021-07-03 11:21:07", "distance (en metres)": 875.09, "station": "PLACE CHURCHILL", "marker-color": "#818181"}}, {"type": "Feature", "geometry": {"type": "Point", "coordinates": [2.591485, 48.84071]}, "properties": {"numparc": 5870, "etat de la localisation": "Deviation programmee", "ID BDGEO": "47", "horodatage": "2021-07-03 11:21:38", "distance (en metres)": 312.74, "station": "GALILEE-PASCAL", "marker-color": "#56FF93"}}, {"type": "Feature", "geometry": {"type": "Point", "coordinates": [2.578967, 48.854607]}, "properties": {"numparc": 5880, "etat de la localisation": "autre", "ID BDGEO": "63", "horodatage": "2021-07-03 11:22:32", "distance (en metres)": 494.1, "station": "PLACE CHURCHILL", "marker-color": "#818181"}}, {"type": "Feature", "geometry": {"type": "Point", "coordinates": [2.582418, 48.855354]}, "properties": {"numparc": 5880, "etat de la localisation": "autre", "ID BDGEO": "63", "horodatage": "2021-07-03 11:23:36", "distance (en metres)": 382.04, "station": "PLACE CHURCHILL", "marker-color": "#818181"}}, {"type": "Feature", "geometry": {"type": "Point", "coordinates": [2.583496, 48.874393]}, "properties": {"numparc": 5880, "etat de la localisation": "autre", "ID BDGEO": "21", "horodatage": "2021-07-03 11:35:22", "distance (en metres)": 3513.64, "station": "NOISY-CHAMPS-RER-DESCARTES", "marker-color": "#818181"}}, {"type": "Feature", "geometry": {"type": "Point", "coordinates": [2.583608, 48.874386]}, "properties": {"numparc": 5880, "etat de la localisation": "autre", "ID BDGEO": "21", "horodatage": "2021-07-03 11:37:47", "distance (en metres)": 3513.1, "station": "NOISY-CHAMPS-RER-DESCARTES", "marker-color": "#818181"}}, {"type": "Feature", "geometry": {"type": "Point", "coordinates": [2.583953, 48.874355]}, "properties": {"numparc": 5880, "etat de la localisation": "autre", "ID BDGEO": "21", "horodatage": "2021-07-03 11:39:49", "distance (en metres)": 3510.49, "station": "NOISY-CHAMPS-RER-DESCARTES", "marker-color": "#818181"}}, {"type": "Feature", "geometry": {"type": "Point", "coordinates": [2.582107, 48.850536]}, "properties": {"numparc": 5888, "etat de la localisation": "autre", "ID BDGEO": "15", "horodatage": "2021-07-03 11:42:01", "distance (en metres)": 73.27, "station": "FLANDRES-DUNKERQUE 1940", "marker-color": "#818181"}}, {"type": "Feature", "geometry": {"type": "Point", "coordinates": [2.581287, 48.850563]}, "properties": {"numparc": 5870, "etat de la localisation": "autre", "ID BDGEO": "59", "horodatage": "2021-07-03 11:45:07", "distance (en metres)": 48.2, "station": "FLANDRES-DUNKERQUE 1940", "marker-color": "#818181"}}, {"type": "Feature", "geometry": {"type": "Point", "coordinates": [2.578608, 48.872349]}, "properties": {"numparc": 5880, "etat de la localisation": "autre", "ID BDGEO": "21", "horodatage": "2021-07-03 11:49:24", "distance (en metres)": 3295.48, "station": "NOISY-CHAMPS-RER-DESCARTES", "marker-color": "#818181"}}, {"type": "Feature", "geometry": {"type": "Point", "coordinates": [2.576602, 48.870937]}, "properties": {"numparc": 5880, "etat de la localisation": "autre", "ID BDGEO": "21", "horodatage": "2021-07-03 11:50:24", "distance (en metres)": 3154.63, "station": "NOISY-CHAMPS-RER-DESCARTES", "marker-color": "#818181"}}, {"type": "Feature", "geometry": {"type": "Point", "coordinates": [2.574166, 48.868359]}, "properties": {"numparc": 5880, "etat de la localisation": "autre", "ID BDGEO": "21", "horodatage": "2021-07-03 11:51:53", "distance (en metres)": 2901.37, "station": "NOISY-CHAMPS-RER-DESCARTES", "marker-color": "#818181"}}, {"type": "Feature", "geometry": {"type": "Point", "coordinates": [2.575423, 48.866478]}, "properties": {"numparc": 5880, "etat de la localisation": "autre", "ID BDGEO": "21", "horodatage": "2021-07-03 11:53:11", "distance (en metres)": 2678.36, "station": "NOISY-CHAMPS-RER-DESCARTES", "marker-color": "#818181"}}, {"type": "Feature", "geometry": {"type": "Point", "coordinates": [2.57544, 48.866169]}, "properties": {"numparc": 5880, "etat de la localisation": "autre", "ID BDGEO": "21", "horodatage": "2021-07-03 11:54:13", "distance (en metres)": 2644.37, "station": "NOISY-CHAMPS-RER-DESCARTES", "marker-color": "#818181"}}, {"type": "Feature", "geometry": {"type": "Point", "coordinates": [2.59183, 48.840652]}, "properties": {"numparc": 5888, "etat de la localisation": "Delocalise", "ID BDGEO": "28", "horodatage": "2021-07-03 11:56:19", "distance (en metres)": 276.91, "station": "GALILEE-PASCAL", "marker-color": "#FF565E"}}, {"type": "Feature", "geometry": {"type": "Point", "coordinates": [2.575751, 48.863197]}, "properties": {"numparc": 5880, "etat de la localisation": "autre", "ID BDGEO": "21", "horodatage": "2021-07-03 11:56:24", "distance (en metres)": 2315.8, "station": "NOISY-CHAMPS-RER-DESCARTES", "marker-color": "#818181"}}, {"type": "Feature", "geometry": {"type": "Point", "coordinates": [2.579114, 48.861645]}, "properties": {"numparc": 5880, "etat de la localisation": "autre", "ID BDGEO": "21", "horodatage": "2021-07-03 11:57:28", "distance (en metres)": 2106.86, "station": "NOISY-CHAMPS-RER-DESCARTES", "marker-color": "#818181"}}, {"type": "Feature", "geometry": {"type": "Point", "coordinates": [2.581626, 48.858395]}, "properties": {"numparc": 5880, "etat de la localisation": "autre", "ID BDGEO": "21", "horodatage": "2021-07-03 11:58:37", "distance (en metres)": 1733.92, "station": "NOISY-CHAMPS-RER-DESCARTES", "marker-color": "#818181"}}, {"type": "Feature", "geometry": {"type": "Point", "coordinates": [2.581482, 48.855343]}, "properties": {"numparc": 5880, "etat de la localisation": "autre", "ID BDGEO": "21", "horodatage": "2021-07-03 12:00:03", "distance (en metres)": 1395.03, "station": "NOISY-CHAMPS-RER-DESCARTES", "marker-color": "#818181"}}, {"type": "Feature", "geometry": {"type": "Point", "coordinates": [2.578143, 48.854553]}, "properties": {"numparc": 5880, "etat de la localisation": "autre", "ID BDGEO": "21", "horodatage": "2021-07-03 12:01:37", "distance (en metres)": 1339.34, "station": "NOISY-CHAMPS-RER-DESCARTES", "marker-color": "#818181"}}, {"type": "Feature", "geometry": {"type": "Point", "coordinates": [2.578252, 48.851261]}, "properties": {"numparc": 5880, "etat de la localisation": "autre", "ID BDGEO": "21", "horodatage": "2021-07-03 12:02:50", "distance (en metres)": 983.3, "station": "NOISY-CHAMPS-RER-DESCARTES", "marker-color": "#818181"}}, {"type": "Feature", "geometry": {"type": "Point", "coordinates": [2.582117, 48.850487]}, "properties": {"numparc": 5880, "etat de la localisation": "autre", "ID BDGEO": "21", "horodatage": "2021-07-03 12:04:03", "distance (en metres)": 854.12, "station": "NOISY-CHAMPS-RER-DESCARTES", "marker-color": "#818181"}}, {"type": "Feature", "geometry": {"type": "Point", "coordinates": [2.585328, 48.849884]}, "properties": {"numparc": 5880, "etat de la localisation": "autre", "ID BDGEO": "21", "horodatage": "2021-07-03 12:05:03", "distance (en metres)": 819.9, "station": "NOISY-CHAMPS-RER-DESCARTES", "marker-color": "#818181"}}, {"type": "Feature", "geometry": {"type": "Point", "coordinates": [2.585508, 48.848248]}, "properties": {"numparc": 5880, "etat de la localisation": "autre", "ID BDGEO": "21", "horodatage": "2021-07-03 12:05:59", "distance (en metres)": 652.08, "station": "NOISY-CHAMPS-RER-DESCARTES", "marker-color": "#818181"}}, {"type": "Feature", "geometry": {"type": "Point", "coordinates": [2.585079, 48.845226]}, "properties": {"numparc": 5880, "etat de la localisation": "autre", "ID BDGEO": "21", "horodatage": "2021-07-03 12:07:31", "distance (en metres)": 342.3, "station": "NOISY-CHAMPS-RER-DESCARTES", "marker-color": "#818181"}}, {"type": "Feature", "geometry": {"type": "Point", "coordinates": [2.582949, 48.844799]}, "properties": {"numparc": 5880, "etat de la localisation": "autre", "ID BDGEO": "21", "horodatage": "2021-07-03 12:08:18", "distance (en metres)": 228.51, "station": "NOISY-CHAMPS-RER-DESCARTES", "marker-color": "#818181"}}, {"type": "Feature", "geometry": {"type": "Point", "coordinates": [2.582079, 48.850498]}, "properties": {"numparc": 5870, "etat de la localisation": "autre", "ID BDGEO": "15", "horodatage": "2021-07-03 12:27:59", "distance (en metres)": 71.06, "station": "FLANDRES-DUNKERQUE 1940", "marker-color": "#818181"}}, {"type": "Feature", "geometry": {"type": "Point", "coordinates": [2.582079, 48.850498]}, "properties": {"numparc": 5870, "etat de la localisation": "autre", "ID BDGEO": "15", "horodatage": "2021-07-03 12:28:11", "distance (en metres)": 71.06, "station": "FLANDRES-DUNKERQUE 1940", "marker-color": "#818181"}}, {"type": "Feature", "geometry": {"type": "Point", "coordinates": [2.614305, 48.84713]}, "properties": {"numparc": 5880, "etat de la localisation": "autre", "ID BDGEO": "33", "horodatage": "2021-07-03 12:30:01", "distance (en metres)": 103.8, "station": "COLLEGE LE LUZARD", "marker-color": "#818181"}}, {"type": "Feature", "geometry": {"type": "Point", "coordinates": [2.591781, 48.840649]}, "properties": {"numparc": 5870, "etat de la localisation": "Delocalise", "ID BDGEO": "28", "horodatage": "2021-07-03 12:45:54", "distance (en metres)": 280.51, "station": "GALILEE-PASCAL", "marker-color": "#FF565E"}}, {"type": "Feature", "geometry": {"type": "Point", "coordinates": [2.581265, 48.850594]}, "properties": {"numparc": 5888, "etat de la localisation": "autre", "ID BDGEO": "59", "horodatage": "2021-07-03 12:50:18", "distance (en metres)": 50.7, "station": "FLANDRES-DUNKERQUE 1940", "marker-color": "#818181"}}, {"type": "Feature", "geometry": {"type": "Point", "coordinates": [2.61655, 48.847183]}, "properties": {"numparc": 5880, "etat de la localisation": "Delocalise", "ID BDGEO": "41", "horodatage": "2021-07-03 12:51:08", "distance (en metres)": 238.02, "station": "COLLEGE LE LUZARD", "marker-color": "#FF565E"}}, {"type": "Feature", "geometry": {"type": "Point", "coordinates": [2.609, 48.846943]}, "properties": {"numparc": 5880, "etat de la localisation": "Delocalise", "ID BDGEO": "42", "horodatage": "2021-07-03 12:52:55", "distance (en metres)": 58.08, "station": "GUY DE MAUPASSANT", "marker-color": "#FF565E"}}, {"type": "Feature", "geometry": {"type": "Point", "coordinates": [2.591528, 48.840687]}, "properties": {"numparc": 5880, "etat de la localisation": "autre", "ID BDGEO": "47", "horodatage": "2021-07-03 12:58:38", "distance (en metres)": 309.73, "station": "GALILEE-PASCAL", "marker-color": "#818181"}}, {"type": "Feature", "geometry": {"type": "Point", "coordinates": [2.622883, 48.839661]}, "properties": {"numparc": 5870, "etat de la localisation": "autre", "ID BDGEO": "38", "horodatage": "2021-07-03 12:59:37", "distance (en metres)": 67.16, "station": "LES HAMEAUX", "marker-color": "#818181"}}, {"type": "Feature", "geometry": {"type": "Point", "coordinates": [2.608957, 48.846954]}, "properties": {"numparc": 5870, "etat de la localisation": "Deviation programmee", "ID BDGEO": "42", "horodatage": "2021-07-03 13:11:59", "distance (en metres)": 55.21, "station": "GUY DE MAUPASSANT", "marker-color": "#56FF93"}}, {"type": "Feature", "geometry": {"type": "Point", "coordinates": [2.58209, 48.850529]}, "properties": {"numparc": 5888, "etat de la localisation": "autre", "ID BDGEO": "15", "horodatage": "2021-07-03 13:31:00", "distance (en metres)": 71.97, "station": "FLANDRES-DUNKERQUE 1940", "marker-color": "#818181"}}, {"type": "Feature", "geometry": {"type": "Point", "coordinates": [2.581347, 48.850574]}, "properties": {"numparc": 5870, "etat de la localisation": "autre", "ID BDGEO": "59", "horodatage": "2021-07-03 13:36:19", "distance (en metres)": 44.31, "station": "FLANDRES-DUNKERQUE 1940", "marker-color": "#818181"}}, {"type": "Feature", "geometry": {"type": "Point", "coordinates": [2.591803, 48.840691]}, "properties": {"numparc": 5888, "etat de la localisation": "Delocalise", "ID BDGEO": "47", "horodatage": "2021-07-03 13:49:59", "distance (en metres)": 289.61, "station": "GALILEE-PASCAL", "marker-color": "#FF565E"}}, {"type": "Feature", "geometry": {"type": "Point", "coordinates": [2.582075, 48.850498]}, "properties": {"numparc": 5880, "etat de la localisation": "autre", "ID BDGEO": "15", "horodatage": "2021-07-03 13:54:12", "distance (en metres)": 70.76, "station": "FLANDRES-DUNKERQUE 1940", "marker-color": "#818181"}}, {"type": "Feature", "geometry": {"type": "Point", "coordinates": [2.591671, 48.840679]}, "properties": {"numparc": 5880, "etat de la localisation": "Delocalise", "ID BDGEO": "28", "horodatage": "2021-07-03 14:13:15", "distance (en metres)": 288.33, "station": "GALILEE-PASCAL", "marker-color": "#FF565E"}}, {"type": "Feature", "geometry": {"type": "Point", "coordinates": [2.582057, 48.850533]}, "properties": {"numparc": 5870, "etat de la localisation": "autre", "ID BDGEO": "15", "horodatage": "2021-07-03 14:17:24", "distance (en metres)": 69.59, "station": "FLANDRES-DUNKERQUE 1940", "marker-color": "#818181"}}, {"type": "Feature", "geometry": {"type": "Point", "coordinates": [2.614328, 48.847122]}, "properties": {"numparc": 5880, "etat de la localisation": "autre", "ID BDGEO": "33", "horodatage": "2021-07-03 14:20:06", "distance (en metres)": 103.99, "station": "COLLEGE LE LUZARD", "marker-color": "#818181"}}, {"type": "Feature", "geometry": {"type": "Point", "coordinates": [2.582816, 48.84267]}, "properties": {"numparc": 5870, "etat de la localisation": "autre", "ID BDGEO": "132", "horodatage": "2021-07-03 14:24:03", "distance (en metres)": 47.07, "station": "NOISY-CHAMPS-RER-DESCARTES", "marker-color": "#818181"}}, {"type": "Feature", "geometry": {"type": "Point", "coordinates": [2.591532, 48.840584]}, "properties": {"numparc": 5888, "etat de la localisation": "Deviation programmee", "ID BDGEO": "47", "horodatage": "2021-07-03 14:27:27", "distance (en metres)": 310.26, "station": "GALILEE-PASCAL", "marker-color": "#56FF93"}}, {"type": "Feature", "geometry": {"type": "Point", "coordinates": [2.591844, 48.840637]}, "properties": {"numparc": 5870, "etat de la localisation": "Delocalise", "ID BDGEO": "28", "horodatage": "2021-07-03 14:29:49", "distance (en metres)": 276.01, "station": "GALILEE-PASCAL", "marker-color": "#FF565E"}}, {"type": "Feature", "geometry": {"type": "Point", "coordinates": [2.616218, 48.84708]}, "properties": {"numparc": 5870, "etat de la localisation": "Deviation programmee", "ID BDGEO": "33", "horodatage": "2021-07-03 14:36:07", "distance (en metres)": 213.1, "station": "COLLEGE LE LUZARD", "marker-color": "#56FF93"}}, {"type": "Feature", "geometry": {"type": "Point", "coordinates": [2.59147, 48.840782]}, "properties": {"numparc": 5880, "etat de la localisation": "Delocalise", "ID BDGEO": "47", "horodatage": "2021-07-03 14:50:40", "distance (en metres)": 313.59, "station": "GALILEE-PASCAL", "marker-color": "#FF565E"}}, {"type": "Feature", "geometry": {"type": "Point", "coordinates": [2.609014, 48.846931]}, "properties": {"numparc": 5870, "etat de la localisation": "Deviation programmee", "ID BDGEO": "42", "horodatage": "2021-07-03 15:05:27", "distance (en metres)": 58.9, "station": "GUY DE MAUPASSANT", "marker-color": "#56FF93"}}, {"type": "Feature", "geometry": {"type": "Point", "coordinates": [2.581328, 48.850544]}, "properties": {"numparc": 5880, "etat de la localisation": "autre", "ID BDGEO": "59", "horodatage": "2021-07-03 15:07:33", "distance (en metres)": 44.78, "station": "FLANDRES-DUNKERQUE 1940", "marker-color": "#818181"}}, {"type": "Feature", "geometry": {"type": "Point", "coordinates": [2.582082, 48.850536]}, "properties": {"numparc": 5888, "etat de la localisation": "autre", "ID BDGEO": "15", "horodatage": "2021-07-03 15:27:29", "distance (en metres)": 71.44, "station": "FLANDRES-DUNKERQUE 1940", "marker-color": "#818181"}}, {"type": "Feature", "geometry": {"type": "Point", "coordinates": [2.582748, 48.842712]}, "properties": {"numparc": 5888, "etat de la localisation": "autre", "ID BDGEO": "21", "horodatage": "2021-07-03 15:33:32", "distance (en metres)": 42.26, "station": "NOISY-CHAMPS-RER-DESCARTES", "marker-color": "#818181"}}, {"type": "Feature", "geometry": {"type": "Point", "coordinates": [2.581236, 48.850559]}, "properties": {"numparc": 5870, "etat de la localisation": "autre", "ID BDGEO": "59", "horodatage": "2021-07-03 15:34:25", "distance (en metres)": 51.72, "station": "FLANDRES-DUNKERQUE 1940", "marker-color": "#818181"}}, {"type": "Feature", "geometry": {"type": "Point", "coordinates": [2.591824, 48.840618]}, "properties": {"numparc": 5888, "etat de la localisation": "Deviation programmee", "ID BDGEO": "28", "horodatage": "2021-07-03 15:43:16", "distance (en metres)": 277.64, "station": "GALILEE-PASCAL", "marker-color": "#56FF93"}}, {"type": "Feature", "geometry": {"type": "Point", "coordinates": [2.575491, 48.866524]}, "properties": {"numparc": 5870, "etat de la localisation": "autre", "ID BDGEO": "66", "horodatage": "2021-07-03 15:46:34", "distance (en metres)": 41.3, "station": "PONT DE GOURNAY", "marker-color": "#818181"}}, {"type": "Feature", "geometry": {"type": "Point", "coordinates": [2.582053, 48.850498]}, "properties": {"numparc": 5880, "etat de la localisation": "autre", "ID BDGEO": "15", "horodatage": "2021-07-03 15:55:30", "distance (en metres)": 69.16, "station": "FLANDRES-DUNKERQUE 1940", "marker-color": "#818181"}}, {"type": "Feature", "geometry": {"type": "Point", "coordinates": [2.591775, 48.84066]}, "properties": {"numparc": 5880, "etat de la localisation": "Delocalise", "ID BDGEO": "28", "horodatage": "2021-07-03 16:06:45", "distance (en metres)": 280.86, "station": "GALILEE-PASCAL", "marker-color": "#FF565E"}}, {"type": "Feature", "geometry": {"type": "Point", "coordinates": [2.582086, 48.850555]}, "properties": {"numparc": 5870, "etat de la localisation": "autre", "ID BDGEO": "15", "horodatage": "2021-07-03 16:13:43", "distance (en metres)": 71.9, "station": "FLANDRES-DUNKERQUE 1940", "marker-color": "#818181"}}, {"type": "Feature", "geometry": {"type": "Point", "coordinates": [2.614317, 48.847115]}, "properties": {"numparc": 5880, "etat de la localisation": "autre", "ID BDGEO": "33", "horodatage": "2021-07-03 16:13:56", "distance (en metres)": 102.9, "station": "COLLEGE LE LUZARD", "marker-color": "#818181"}}, {"type": "Feature", "geometry": {"type": "Point", "coordinates": [2.60904, 48.846951]}, "properties": {"numparc": 5888, "etat de la localisation": "Deviation programmee", "ID BDGEO": "42", "horodatage": "2021-07-03 16:16:12", "distance (en metres)": 61.12, "station": "GUY DE MAUPASSANT", "marker-color": "#56FF93"}}, {"type": "Feature", "geometry": {"type": "Point", "coordinates": [2.616592, 48.843773]}, "properties": {"numparc": 5880, "etat de la localisation": "autre", "ID BDGEO": "34", "horodatage": "2021-07-03 16:16:57", "distance (en metres)": 48.44, "station": "NOISIEL RER", "marker-color": "#818181"}}, {"type": "Feature", "geometry": {"type": "Point", "coordinates": [2.591519, 48.840698]}, "properties": {"numparc": 5888, "etat de la localisation": "Deviation programmee", "ID BDGEO": "47", "horodatage": "2021-07-03 16:20:44", "distance (en metres)": 310.32, "station": "GALILEE-PASCAL", "marker-color": "#56FF93"}}, {"type": "Feature", "geometry": {"type": "Point", "coordinates": [2.659709, 48.843204]}, "properties": {"numparc": 4990, "etat de la localisation": "autre", "ID BDGEO": "127", "horodatage": "2021-07-03 16:33:29", "distance (en metres)": 5632.08, "station": "NOISY-CHAMPS-RER-DESCARTES#", "marker-color": "#818181"}}, {"type": "Feature", "geometry": {"type": "Point", "coordinates": [2.591807, 48.840679]}, "properties": {"numparc": 5870, "etat de la localisation": "Deviation programmee", "ID BDGEO": "28", "horodatage": "2021-07-03 16:33:46", "distance (en metres)": 278.39, "station": "GALILEE-PASCAL", "marker-color": "#56FF93"}}, {"type": "Feature", "geometry": {"type": "Point", "coordinates": [2.616256, 48.847164]}, "properties": {"numparc": 5880, "etat de la localisation": "Delocalise", "ID BDGEO": "41", "horodatage": "2021-07-03 16:39:10", "distance (en metres)": 217.32, "station": "COLLEGE LE LUZARD", "marker-color": "#FF565E"}}, {"type": "Feature", "geometry": {"type": "Point", "coordinates": [2.581298, 48.850563]}, "properties": {"numparc": 5888, "etat de la localisation": "autre", "ID BDGEO": "59", "horodatage": "2021-07-03 16:39:16", "distance (en metres)": 47.42, "station": "FLANDRES-DUNKERQUE 1940", "marker-color": "#818181"}}, {"type": "Feature", "geometry": {"type": "Point", "coordinates": [2.591502, 48.840664]}, "properties": {"numparc": 5870, "etat de la localisation": "Deviation programmee", "ID BDGEO": "47", "horodatage": "2021-07-03 17:07:29", "distance (en metres)": 311.78, "station": "GALILEE-PASCAL", "marker-color": "#56FF93"}}, {"type": "Feature", "geometry": {"type": "Point", "coordinates": [2.582027, 48.850487]}, "properties": {"numparc": 5888, "etat de la localisation": "autre", "ID BDGEO": "15", "horodatage": "2021-07-03 17:21:33", "distance (en metres)": 67.26, "station": "FLANDRES-DUNKERQUE 1940", "marker-color": "#818181"}}, {"type": "Feature", "geometry": {"type": "Point", "coordinates": [2.581261, 48.850563]}, "properties": {"numparc": 5870, "etat de la localisation": "autre", "ID BDGEO": "59", "horodatage": "2021-07-03 17:27:23", "distance (en metres)": 50.04, "station": "FLANDRES-DUNKERQUE 1940", "marker-color": "#818181"}}, {"type": "Feature", "geometry": {"type": "Point", "coordinates": [2.591826, 48.840672]}, "properties": {"numparc": 5888, "etat de la localisation": "Delocalise", "ID BDGEO": "28", "horodatage": "2021-07-03 17:44:15", "distance (en metres)": 277.05, "station": "GALILEE-PASCAL", "marker-color": "#FF565E"}}, {"type": "Feature", "geometry": {"type": "Point", "coordinates": [2.582078, 48.850498]}, "properties": {"numparc": 4990, "etat de la localisation": "autre", "ID BDGEO": "15", "horodatage": "2021-07-03 17:47:15", "distance (en metres)": 70.99, "station": "FLANDRES-DUNKERQUE 1940", "marker-color": "#818181"}}, {"type": "Feature", "geometry": {"type": "Point", "coordinates": [2.614346, 48.847107]}, "properties": {"numparc": 5888, "etat de la localisation": "Deviation programmee", "ID BDGEO": "33", "horodatage": "2021-07-03 17:51:11", "distance (en metres)": 103.38, "station": "COLLEGE LE LUZARD", "marker-color": "#56FF93"}}, {"type": "Feature", "geometry": {"type": "Point", "coordinates": [2.616834, 48.847019]}, "properties": {"numparc": 5888, "etat de la localisation": "Deviation programmee", "ID BDGEO": "33", "horodatage": "2021-07-03 17:51:48", "distance (en metres)": 253.28, "station": "COLLEGE LE LUZARD", "marker-color": "#56FF93"}}, {"type": "Feature", "geometry": {"type": "Point", "coordinates": [2.616533, 48.84391]}, "properties": {"numparc": 5888, "etat de la localisation": "autre", "ID BDGEO": "34", "horodatage": "2021-07-03 17:53:40", "distance (en metres)": 48.58, "station": "NOISIEL RER", "marker-color": "#818181"}}, {"type": "Feature", "geometry": {"type": "Point", "coordinates": [2.583028, 48.874973]}, "properties": {"numparc": 5870, "etat de la localisation": "autre", "ID BDGEO": "69", "horodatage": "2021-07-03 17:54:54", "distance (en metres)": 81.24, "station": "CHELLES-GOURNAY-RER", "marker-color": "#818181"}}, {"type": "Feature", "geometry": {"type": "Point", "coordinates": [2.591808, 48.840626]}, "properties": {"numparc": 4990, "etat de la localisation": "Delocalise", "ID BDGEO": "28", "horodatage": "2021-07-03 18:03:37", "distance (en metres)": 278.73, "station": "GALILEE-PASCAL", "marker-color": "#FF565E"}}, {"type": "Feature", "geometry": {"type": "Point", "coordinates": [2.616217, 48.847198]}, "properties": {"numparc": 5888, "etat de la localisation": "Deviation programmee", "ID BDGEO": "41", "horodatage": "2021-07-03 18:10:48", "distance (en metres)": 216.24, "station": "COLLEGE LE LUZARD", "marker-color": "#56FF93"}}, {"type": "Feature", "geometry": {"type": "Point", "coordinates": [2.582064, 48.850491]}, "properties": {"numparc": 5870, "etat de la localisation": "autre", "ID BDGEO": "15", "horodatage": "2021-07-03 18:11:03", "distance (en metres)": 69.96, "station": "FLANDRES-DUNKERQUE 1940", "marker-color": "#818181"}}, {"type": "Feature", "geometry": {"type": "Point", "coordinates": [2.60897, 48.846951]}, "properties": {"numparc": 5888, "etat de la localisation": "Deviation programmee", "ID BDGEO": "42", "horodatage": "2021-07-03 18:12:46", "distance (en metres)": 56.08, "station": "GUY DE MAUPASSANT", "marker-color": "#56FF93"}}, {"type": "Feature", "geometry": {"type": "Point", "coordinates": [2.584501, 48.845139]}, "properties": {"numparc": 5870, "etat de la localisation": "autre", "ID BDGEO": "18", "horodatage": "2021-07-03 18:15:12", "distance (en metres)": 55.81, "station": "LYCEE RENE DESCARTES", "marker-color": "#818181"}}, {"type": "Feature", "geometry": {"type": "Point", "coordinates": [2.591455, 48.840702]}, "properties": {"numparc": 5888, "etat de la localisation": "Deviation programmee", "ID BDGEO": "47", "horodatage": "2021-07-03 18:18:44", "distance (en metres)": 314.98, "station": "GALILEE-PASCAL", "marker-color": "#56FF93"}}, {"type": "Feature", "geometry": {"type": "Point", "coordinates": [2.591848, 48.840645]}, "properties": {"numparc": 5870, "etat de la localisation": "Deviation programmee", "ID BDGEO": "28", "horodatage": "2021-07-03 18:23:16", "distance (en metres)": 275.65, "station": "GALILEE-PASCAL", "marker-color": "#56FF93"}}, {"type": "Feature", "geometry": {"type": "Point", "coordinates": [2.614339, 48.847134]}, "properties": {"numparc": 5870, "etat de la localisation": "Deviation programmee", "ID BDGEO": "33", "horodatage": "2021-07-03 18:32:54", "distance (en metres)": 105.55, "station": "COLLEGE LE LUZARD", "marker-color": "#56FF93"}}, {"type": "Feature", "geometry": {"type": "Point", "coordinates": [2.581228, 48.850563]}, "properties": {"numparc": 5888, "etat de la localisation": "autre", "ID BDGEO": "59", "horodatage": "2021-07-03 18:33:46", "distance (en metres)": 52.39, "station": "FLANDRES-DUNKERQUE 1940", "marker-color": "#818181"}}, {"type": "Feature", "geometry": {"type": "Point", "coordinates": [2.591507, 48.84066]}, "properties": {"numparc": 4990, "etat de la localisation": "Deviation programmee", "ID BDGEO": "47", "horodatage": "2021-07-03 18:40:21", "distance (en metres)": 311.44, "station": "GALILEE-PASCAL", "marker-color": "#56FF93"}}, {"type": "Feature", "geometry": {"type": "Point", "coordinates": [2.620182, 48.845234]}, "properties": {"numparc": 5870, "etat de la localisation": "Deviation programmee", "ID BDGEO": "40", "horodatage": "2021-07-03 18:55:16", "distance (en metres)": 343.86, "station": "NOISIEL RER", "marker-color": "#56FF93"}}, {"type": "Feature", "geometry": {"type": "Point", "coordinates": [2.581293, 48.850605]}, "properties": {"numparc": 4990, "etat de la localisation": "autre", "ID BDGEO": "59", "horodatage": "2021-07-03 18:56:28", "distance (en metres)": 49.15, "station": "FLANDRES-DUNKERQUE 1940", "marker-color": "#818181"}}, {"type": "Feature", "geometry": {"type": "Point", "coordinates": [2.616235, 48.847168]}, "properties": {"numparc": 5870, "etat de la localisation": "Deviation programmee", "ID BDGEO": "41", "horodatage": "2021-07-03 18:57:18", "distance (en metres)": 216.09, "station": "COLLEGE LE LUZARD", "marker-color": "#56FF93"}}, {"type": "Feature", "geometry": {"type": "Point", "coordinates": [2.582074, 48.850475]}, "properties": {"numparc": 5888, "etat de la localisation": "autre", "ID BDGEO": "15", "horodatage": "2021-07-03 19:17:41", "distance (en metres)": 70.72, "station": "FLANDRES-DUNKERQUE 1940", "marker-color": "#818181"}}, {"type": "Feature", "geometry": {"type": "Point", "coordinates": [2.581213, 48.850574]}, "properties": {"numparc": 5870, "etat de la localisation": "autre", "ID BDGEO": "59", "horodatage": "2021-07-03 19:23:24", "distance (en metres)": 53.74, "station": "FLANDRES-DUNKERQUE 1940", "marker-color": "#818181"}}, {"type": "Feature", "geometry": {"type": "Point", "coordinates": [2.591827, 48.840664]}, "properties": {"numparc": 5888, "etat de la localisation": "Delocalise", "ID BDGEO": "28", "horodatage": "2021-07-03 19:37:35", "distance (en metres)": 277.03, "station": "GALILEE-PASCAL", "marker-color": "#FF565E"}}, {"type": "Feature", "geometry": {"type": "Point", "coordinates": [2.616727, 48.843754]}, "properties": {"numparc": 5888, "etat de la localisation": "Deviation programmee", "ID BDGEO": "34", "horodatage": "2021-07-03 19:44:54", "distance (en metres)": 58.08, "station": "NOISIEL RER", "marker-color": "#56FF93"}}, {"type": "Feature", "geometry": {"type": "Point", "coordinates": [2.591813, 48.840683]}, "properties": {"numparc": 4990, "etat de la localisation": "Delocalise", "ID BDGEO": "28", "horodatage": "2021-07-03 19:52:07", "distance (en metres)": 277.93, "station": "GALILEE-PASCAL", "marker-color": "#FF565E"}}, {"type": "Feature", "geometry": {"type": "Point", "coordinates": [2.58202, 48.850464]}, "properties": {"numparc": 5870, "etat de la localisation": "autre", "ID BDGEO": "15", "horodatage": "2021-07-03 20:16:16", "distance (en metres)": 66.81, "station": "FLANDRES-DUNKERQUE 1940", "marker-color": "#818181"}}, {"type": "Feature", "geometry": {"type": "Point", "coordinates": [2.616318, 48.84721]}, "properties": {"numparc": 4990, "etat de la localisation": "Deviation programmee", "ID BDGEO": "41", "horodatage": "2021-07-03 20:22:43", "distance (en metres)": 223.52, "station": "COLLEGE LE LUZARD", "marker-color": "#56FF93"}}, {"type": "Feature", "geometry": {"type": "Point", "coordinates": [2.59182, 48.840652]}, "properties": {"numparc": 5870, "etat de la localisation": "Deviation programmee", "ID BDGEO": "28", "horodatage": "2021-07-03 20:25:38", "distance (en metres)": 277.63, "station": "GALILEE-PASCAL", "marker-color": "#56FF93"}}, {"type": "Feature", "geometry": {"type": "Point", "coordinates": [2.581243, 48.850605]}, "properties": {"numparc": 5870, "etat de la localisation": "autre", "ID BDGEO": "59", "horodatage": "2021-07-03 21:12:29", "distance (en metres)": 52.61, "station": "FLANDRES-DUNKERQUE 1940", "marker-color": "#818181"}}, {"type": "Feature", "geometry": {"type": "Point", "coordinates": [2.591769, 48.840633]}, "properties": {"numparc": 4990, "etat de la localisation": "Delocalise", "ID BDGEO": "28", "horodatage": "2021-07-03 21:22:08", "distance (en metres)": 281.51, "station": "GALILEE-PASCAL", "marker-color": "#FF565E"}}, {"type": "Feature", "geometry": {"type": "Point", "coordinates": [2.582052, 48.850533]}, "properties": {"numparc": 5870, "etat de la localisation": "autre", "ID BDGEO": "15", "horodatage": "2021-07-03 21:44:46", "distance (en metres)": 69.23, "station": "FLANDRES-DUNKERQUE 1940", "marker-color": "#818181"}}, {"type": "Feature", "geometry": {"type": "Point", "coordinates": [2.585415, 48.848326]}, "properties": {"station": "BOIS DE GRACE", "ID BDGEO": "17", "marker-color": "#56B3FF"}}, {"type": "Feature", "geometry": {"type": "Point", "coordinates": [2.582188, 48.842806]}, "properties": {"station": "NOISY-CHAMPS-RER-DESCARTES", "ID BDGEO": "21", "marker-color": "#56B3FF"}}, {"type": "Feature", "geometry": {"type": "Point", "coordinates": [2.582665, 48.842841]}, "properties": {"station": "NOISY-CHAMPS-RER-DESCARTES.", "ID BDGEO": "53", "marker-color": "#56B3FF"}}, {"type": "Feature", "geometry": {"type": "Point", "coordinates": [2.581474, 48.858733]}, "properties": {"station": "PLACE CHURCHILL", "ID BDGEO": "63", "marker-color": "#56B3FF"}}, {"type": "Feature", "geometry": {"type": "Point", "coordinates": [2.658789, 48.84177]}, "properties": {"station": "BUSSY (S)", "ID BDGEO": "5", "marker-color": "#56B3FF"}}, {"type": "Feature", "geometry": {"type": "Point", "coordinates": [2.581925, 48.850455]}, "properties": {"station": "FLANDRES-DUNKERQUE 1940", "ID BDGEO": "59", "marker-color": "#56B3FF"}}, {"type": "Feature", "geometry": {"type": "Point", "coordinates": [2.582556, 48.874513]}, "properties": {"station": "CHELLES-GOURNAY-RER.", "ID BDGEO": "83", "marker-color": "#56B3FF"}}, {"type": "Feature", "geometry": {"type": "Point", "coordinates": [2.581108, 48.850492]}, "properties": {"station": "FLANDRES-DUNKERQUE 1940", "ID BDGEO": "15", "marker-color": "#56B3FF"}}, {"type": "Feature", "geometry": {"type": "Point", "coordinates": [2.576134, 48.87058]}, "properties": {"station": "AVENUE DES MARTYRS", "ID BDGEO": "68", "marker-color": "#56B3FF"}}, {"type": "Feature", "geometry": {"type": "Point", "coordinates": [2.592853, 48.837885]}, "properties": {"station": "BOIS DE L'ETANG-UNIVERSITE", "ID BDGEO": "48", "marker-color": "#56B3FF"}}, {"type": "Feature", "geometry": {"type": "Point", "coordinates": [2.595604, 48.840827]}, "properties": {"station": "GALILEE-PASCAL", "ID BDGEO": "28", "marker-color": "#56B3FF"}}, {"type": "Feature", "geometry": {"type": "Point", "coordinates": [2.615935, 48.84372]}, "properties": {"station": "NOISIEL RER", "ID BDGEO": "34", "marker-color": "#56B3FF"}}, {"type": "Feature", "geometry": {"type": "Point", "coordinates": [2.57895, 48.872561]}, "properties": {"station": "PARMENTIER-JULES FERRY", "ID BDGEO": "114", "marker-color": "#56B3FF"}}, {"type": "Feature", "geometry": {"type": "Point", "coordinates": [2.573852, 48.868958]}, "properties": {"station": "RUE DU PORT", "ID BDGEO": "67", "marker-color": "#56B3FF"}}, {"type": "Feature", "geometry": {"type": "Point", "coordinates": [2.613525, 48.84635]}, "properties": {"station": "COLLEGE LE LUZARD", "ID BDGEO": "33", "marker-color": "#56B3FF"}}, {"type": "Feature", "geometry": {"type": "Point", "coordinates": [2.582751, 48.843757]}, "properties": {"station": "NOISY-CHAMPS-RER-DESCARTES#", "ID BDGEO": "127", "marker-color": "#56B3FF"}}, {"type": "Feature", "geometry": {"type": "Point", "coordinates": [2.595754, 48.840836]}, "properties": {"station": "GALILEE-PASCAL", "ID BDGEO": "47", "marker-color": "#56B3FF"}}, {"type": "Feature", "geometry": {"type": "Point", "coordinates": [2.608217, 48.846857]}, "properties": {"station": "GUY DE MAUPASSANT", "ID BDGEO": "42", "marker-color": "#56B3FF"}}, {"type": "Feature", "geometry": {"type": "Point", "coordinates": [2.613525, 48.846395]}, "properties": {"station": "COLLEGE LE LUZARD", "ID BDGEO": "41", "marker-color": "#56B3FF"}}, {"type": "Feature", "geometry": {"type": "Point", "coordinates": [2.622069, 48.83994]}, "properties": {"station": "LES HAMEAUX", "ID BDGEO": "38", "marker-color": "#56B3FF"}}, {"type": "Feature", "geometry": {"type": "Point", "coordinates": [2.582174, 48.842644]}, "properties": {"station": "NOISY-CHAMPS-RER-DESCARTES", "ID BDGEO": "132", "marker-color": "#56B3FF"}}, {"type": "Feature", "geometry": {"type": "Point", "coordinates": [2.575324, 48.866169]}, "properties": {"station": "PONT DE GOURNAY", "ID BDGEO": "66", "marker-color": "#56B3FF"}}, {"type": "Feature", "geometry": {"type": "Point", "coordinates": [2.583755, 48.87442]}, "properties": {"station": "CHELLES-GOURNAY-RER", "ID BDGEO": "69", "marker-color": "#56B3FF"}}, {"type": "Feature", "geometry": {"type": "Point", "coordinates": [2.585263, 48.845154]}, "properties": {"station": "LYCEE RENE DESCARTES", "ID BDGEO": "18", "marker-color": "#56B3FF"}}, {"type": "Feature", "geometry": {"type": "Point", "coordinates": [2.616085, 48.84372]}, "properties": {"station": "NOISIEL RER", "ID BDGEO": "40", "marker-color": "#56B3FF"}}]}