{"type": "FeatureCollection", "features": [{"type": "Feature", "geometry": {"type": "Point", "coordinates": [2.371708, 48.814426]}, "properties": {"etat de la localisation": "Mission inconnue", "numparc": 5702, "duree": "", "horodatage": "2021-07-22 12:31:46", "marker-color": "#FF9F56"}}, {"type": "Feature", "geometry": {"type": "Point", "coordinates": [2.256401, 48.838089]}, "properties": {"etat de la localisation": "Delocalise", "numparc": 5702, "duree": "00:00:44", "horodatage": "2021-07-22 12:55:26", "marker-color": "#FF565E"}}, {"type": "Feature", "geometry": {"type": "Point", "coordinates": [2.381365, 48.827438]}, "properties": {"etat de la localisation": "Mission inconnue", "numparc": 5702, "duree": "", "horodatage": "2021-07-22 19:00:32", "marker-color": "#FF9F56"}}, {"type": "Feature", "geometry": {"type": "Point", "coordinates": [2.278016, 48.845646]}, "properties": {"etat de la localisation": "Mission suivante non connue", "numparc": 5702, "duree": "", "horodatage": "2021-07-22 19:45:16", "marker-color": "#7156FF"}}, {"type": "Feature", "geometry": {"type": "Point", "coordinates": [2.27404, 48.847397]}, "properties": {"etat de la localisation": "Mission inconnue", "numparc": 5702, "duree": "", "horodatage": "2021-07-22 19:52:33", "marker-color": "#FF9F56"}}, {"type": "Feature", "geometry": {"type": "Point", "coordinates": [2.277803, 48.845684]}, "properties": {"etat de la localisation": "Mission inconnue", "numparc": 5702, "duree": "", "horodatage": "2021-07-22 19:55:10", "marker-color": "#FF9F56"}}, {"type": "Feature", "geometry": {"type": "Point", "coordinates": [2.311255, 48.832794]}, "properties": {"etat de la localisation": "Mission inconnue", "numparc": 5702, "duree": "", "horodatage": "2021-07-22 20:14:40", "marker-color": "#FF9F56"}}, {"type": "Feature", "geometry": {"type": "Point", "coordinates": [2.381629, 48.826633]}, "properties": {"etat de la localisation": "Mission suivante non connue", "numparc": 5702, "duree": "", "horodatage": "2021-07-22 20:42:14", "marker-color": "#7156FF"}}, {"type": "Feature", "geometry": {"type": "Point", "coordinates": [2.381533, 48.827106]}, "properties": {"etat de la localisation": "Mission inconnue", "numparc": 5702, "duree": "", "horodatage": "2021-07-22 20:44:59", "marker-color": "#FF9F56"}}, {"type": "Feature", "geometry": {"type": "Point", "coordinates": [2.382009, 48.827156]}, "properties": {"etat de la localisation": "Hors service", "numparc": 5702, "duree": "", "horodatage": "2021-07-22 20:54:12", "marker-color": "#707070"}}, {"type": "Feature", "geometry": {"type": "Point", "coordinates": [2.381964, 48.827122]}, "properties": {"etat de la localisation": "Mission inconnue", "numparc": 5702, "duree": "", "horodatage": "2021-07-22 20:58:10", "marker-color": "#FF9F56"}}, {"type": "Feature", "geometry": {"type": "Point", "coordinates": [2.256334, 48.837788]}, "properties": {"etat de la localisation": "Mission suivante non connue", "numparc": 5702, "duree": "", "horodatage": "2021-07-22 21:49:44", "marker-color": "#7156FF"}}, {"type": "Feature", "geometry": {"type": "Point", "coordinates": [2.256334, 48.837788]}, "properties": {"etat de la localisation": "Mission inconnue", "numparc": 5702, "duree": "", "horodatage": "2021-07-22 22:00:43", "marker-color": "#FF9F56"}}, {"type": "Feature", "geometry": {"type": "Point", "coordinates": [2.296808, 48.837063]}, "properties": {"etat de la localisation": "Mission inconnue", "numparc": 5702, "duree": "", "horodatage": "2021-07-22 22:19:42", "marker-color": "#FF9F56"}}, {"type": "Feature", "geometry": {"type": "Point", "coordinates": [2.38121, 48.826389]}, "properties": {"etat de la localisation": "Mission suivante non connue", "numparc": 5702, "duree": "", "horodatage": "2021-07-22 22:52:40", "marker-color": "#7156FF"}}, {"type": "Feature", "geometry": {"type": "Point", "coordinates": [2.381466, 48.827202]}, "properties": {"etat de la localisation": "Mission inconnue", "numparc": 5702, "duree": "", "horodatage": "2021-07-22 22:54:38", "marker-color": "#FF9F56"}}, {"type": "Feature", "geometry": {"type": "Point", "coordinates": [2.256356, 48.837791]}, "properties": {"etat de la localisation": "Mission suivante non connue", "numparc": 5702, "duree": "", "horodatage": "2021-07-22 23:51:39", "marker-color": "#7156FF"}}, {"type": "Feature", "geometry": {"type": "Point", "coordinates": [2.256356, 48.837791]}, "properties": {"etat de la localisation": "Mission inconnue", "numparc": 5702, "duree": "", "horodatage": "2021-07-23 00:06:53", "marker-color": "#FF9F56"}}, {"type": "Feature", "geometry": {"type": "Point", "coordinates": [2.381772, 48.826828]}, "properties": {"etat de la localisation": "Mission suivante non connue", "numparc": 5702, "duree": "", "horodatage": "2021-07-23 00:51:38", "marker-color": "#7156FF"}}, {"type": "Feature", "geometry": {"type": "Point", "coordinates": [2.371963, 48.814213]}, "properties": {"etat de la localisation": "Mission inconnue", "numparc": 5702, "duree": "", "horodatage": "2021-07-23 01:11:08", "marker-color": "#FF9F56"}}, {"type": "Feature", "geometry": {"type": "Point", "coordinates": [2.37213, 48.815029]}, "properties": {"etat de la localisation": "Hors service", "numparc": 5702, "duree": "", "horodatage": "2021-07-23 01:14:14", "marker-color": "#707070"}}]}