{"type": "FeatureCollection", "features": [{"type": "Feature", "geometry": {"type": "Point", "coordinates": [2.346613, 48.895187]}, "properties": {"etat de la localisation": "Mission inconnue", "numparc": 434, "duree": "", "horodatage": "2022-09-28 08:10:37", "marker-color": "#FF9F56"}}, {"type": "Feature", "geometry": {"type": "Point", "coordinates": [2.348229, 48.897427]}, "properties": {"etat de la localisation": "Hors service", "numparc": 434, "duree": "", "horodatage": "2022-09-28 14:53:45", "marker-color": "#707070"}}]}