{"type": "FeatureCollection", "features": [{"type": "Feature", "geometry": {"type": "Point", "coordinates": [2.318181, 48.800381]}, "properties": {"alarme": "VEHICULE DELOCALISE", "numparc": 4869, "type": "EXPLOITATION", "duree": "00:04:01", "horodatage": "2022-06-18 05:10:42", "statut": "start", "marker-color": "#ff0000"}}, {"type": "Feature", "geometry": {"type": "Point", "coordinates": [2.315479, 48.779694]}, "properties": {"alarme": "DEFAUT LIAISON DATA SAEIV / AIGLE", "numparc": 4859, "type": "TECHNIQUE", "duree": "00:00:51", "horodatage": "2022-06-18 13:35:11", "statut": "start", "marker-color": "#ff0000"}}, {"type": "Feature", "geometry": {"type": "Point", "coordinates": [2.306243, 48.756573]}, "properties": {"alarme": "DEFAUT LIAISON DATA SAEIV / AIGLE", "numparc": 4850, "type": "TECHNIQUE", "duree": "00:00:41", "horodatage": "2022-06-18 16:05:34", "statut": "start", "marker-color": "#ff0000"}}, {"type": "Feature", "geometry": {"type": "Point", "coordinates": [2.315341, 48.779457]}, "properties": {"alarme": "DEFAUT LIAISON DATA SAEIV / AIGLE", "numparc": 5825, "type": "TECHNIQUE", "duree": "00:01:13", "horodatage": "2022-06-18 17:10:00", "statut": "start", "marker-color": "#ff0000"}}, {"type": "Feature", "geometry": {"type": "Point", "coordinates": [2.315355, 48.783356]}, "properties": {"alarme": "DEFAUT LIAISON DATA SAEIV / AIGLE", "numparc": 5825, "type": "TECHNIQUE", "duree": "00:00:27", "horodatage": "2022-06-18 18:10:43", "statut": "start", "marker-color": "#ff0000"}}, {"type": "Feature", "geometry": {"type": "Point", "coordinates": [2.325765, 48.814419]}, "properties": {"alarme": "VEHICULE DELOCALISE", "numparc": 5802, "type": "EXPLOITATION", "duree": "00:01:08", "horodatage": "2022-06-18 18:28:45", "statut": "start", "marker-color": "#ff0000"}}, {"type": "Feature", "geometry": {"type": "Point", "coordinates": [2.324419, 48.802578]}, "properties": {"alarme": "VEHICULE DELOCALISE", "numparc": 4859, "type": "EXPLOITATION", "duree": "00:01:32", "horodatage": "2022-06-19 00:24:20", "statut": "start", "marker-color": "#ff0000"}}, {"type": "Feature", "geometry": {"type": "Point", "coordinates": [2.320824, 48.793655]}, "properties": {"alarme": "VEHICULE DELOCALISE", "numparc": 4869, "type": "EXPLOITATION", "duree": "00:04:01", "horodatage": "2022-06-18 05:14:43", "statut": "end", "marker-color": "#2fe184"}}, {"type": "Feature", "geometry": {"type": "Point", "coordinates": [2.316833, 48.782898]}, "properties": {"alarme": "DEFAUT LIAISON DATA SAEIV / AIGLE", "numparc": 4859, "type": "TECHNIQUE", "duree": "00:00:51", "horodatage": "2022-06-18 13:36:02", "statut": "end", "marker-color": "#2fe184"}}, {"type": "Feature", "geometry": {"type": "Point", "coordinates": [2.306943, 48.758236]}, "properties": {"alarme": "DEFAUT LIAISON DATA SAEIV / AIGLE", "numparc": 4850, "type": "TECHNIQUE", "duree": "00:00:41", "horodatage": "2022-06-18 16:06:15", "statut": "end", "marker-color": "#2fe184"}}, {"type": "Feature", "geometry": {"type": "Point", "coordinates": [2.316356, 48.781921]}, "properties": {"alarme": "DEFAUT LIAISON DATA SAEIV / AIGLE", "numparc": 5825, "type": "TECHNIQUE", "duree": "00:01:13", "horodatage": "2022-06-18 17:11:13", "statut": "end", "marker-color": "#2fe184"}}, {"type": "Feature", "geometry": {"type": "Point", "coordinates": [2.314971, 48.782719]}, "properties": {"alarme": "DEFAUT LIAISON DATA SAEIV / AIGLE", "numparc": 5825, "type": "TECHNIQUE", "duree": "00:00:27", "horodatage": "2022-06-18 18:11:10", "statut": "end", "marker-color": "#2fe184"}}, {"type": "Feature", "geometry": {"type": "Point", "coordinates": [2.325527, 48.818058]}, "properties": {"alarme": "VEHICULE DELOCALISE", "numparc": 5802, "type": "EXPLOITATION", "duree": "00:01:08", "horodatage": "2022-06-18 18:29:53", "statut": "end", "marker-color": "#2fe184"}}, {"type": "Feature", "geometry": {"type": "Point", "coordinates": [2.326757, 48.811024]}, "properties": {"alarme": "VEHICULE DELOCALISE", "numparc": 4859, "type": "EXPLOITATION", "duree": "00:01:32", "horodatage": "2022-06-19 00:25:52", "statut": "end", "marker-color": "#2fe184"}}]}