{"type": "FeatureCollection", "features": [{"type": "Feature", "geometry": {"type": "Point", "coordinates": [2.659824, 48.841946]}, "properties": {"etat de la localisation": "Mission inconnue", "numparc": 6896, "duree": "", "horodatage": "2021-07-09 07:58:18", "marker-color": "#FF9F56"}}, {"type": "Feature", "geometry": {"type": "Point", "coordinates": [2.659824, 48.841946]}, "properties": {"etat de la localisation": "Hors service", "numparc": 6896, "duree": "", "horodatage": "2021-07-09 08:01:34", "marker-color": "#707070"}}]}