{"type": "FeatureCollection", "features": [{"type": "Feature", "geometry": {"type": "Point", "coordinates": [2.387138, 48.754589]}, "properties": {"etat de la localisation": "Delocalise", "numparc": 7097, "duree": "00:15:19", "horodatage": "2023-04-05 10:36:35", "marker-color": "#FF565E"}}, {"type": "Feature", "geometry": {"type": "Point", "coordinates": [2.363956, 48.607391]}, "properties": {"etat de la localisation": "Hors service", "numparc": 1308, "duree": "", "horodatage": "2023-04-05 11:46:32", "marker-color": "#707070"}}, {"type": "Feature", "geometry": {"type": "Point", "coordinates": [2.36395, 48.607418]}, "properties": {"etat de la localisation": "Mission inconnue", "numparc": 1308, "duree": "", "horodatage": "2023-04-05 12:12:31", "marker-color": "#FF9F56"}}, {"type": "Feature", "geometry": {"type": "Point", "coordinates": [2.36395, 48.607418]}, "properties": {"etat de la localisation": "Mission inconnue", "numparc": 1308, "duree": "", "horodatage": "2023-04-05 12:15:36", "marker-color": "#FF9F56"}}, {"type": "Feature", "geometry": {"type": "Point", "coordinates": [2.388175, 48.753883]}, "properties": {"etat de la localisation": "Mission inconnue", "numparc": 1308, "duree": "", "horodatage": "2023-04-05 14:45:52", "marker-color": "#FF9F56"}}, {"type": "Feature", "geometry": {"type": "Point", "coordinates": [2.388175, 48.753883]}, "properties": {"etat de la localisation": "Hors service", "numparc": 1308, "duree": "", "horodatage": "2023-04-05 14:46:36", "marker-color": "#707070"}}, {"type": "Feature", "geometry": {"type": "Point", "coordinates": [2.387712, 48.754047]}, "properties": {"etat de la localisation": "Hors service", "numparc": 7097, "duree": "", "horodatage": "2023-04-06 00:16:21", "marker-color": "#707070"}}, {"type": "Feature", "geometry": {"type": "Point", "coordinates": [2.387181, 48.754684]}, "properties": {"etat de la localisation": "Hors service", "numparc": 1306, "duree": "", "horodatage": "2023-04-06 00:24:06", "marker-color": "#707070"}}]}