{"type": "FeatureCollection", "features": [{"type": "Feature", "geometry": {"type": "Point", "coordinates": [2.468457, 48.875626]}, "properties": {"alarme": "VEHICULE DELOCALISE", "numparc": 1522, "type": "EXPLOITATION", "duree": "00:05:52", "horodatage": "2022-08-19 05:03:16", "statut": "start", "marker-color": "#ff0000"}}, {"type": "Feature", "geometry": {"type": "Point", "coordinates": [2.443146, 48.862446]}, "properties": {"alarme": "VEHICULE DELOCALISE", "numparc": 1522, "type": "EXPLOITATION", "duree": "00:03:28", "horodatage": "2022-08-19 05:18:35", "statut": "start", "marker-color": "#ff0000"}}, {"type": "Feature", "geometry": {"type": "Point", "coordinates": [2.468357, 48.87566]}, "properties": {"alarme": "VEHICULE DELOCALISE", "numparc": 1573, "type": "EXPLOITATION", "duree": "00:06:53", "horodatage": "2022-08-19 05:24:03", "statut": "start", "marker-color": "#ff0000"}}, {"type": "Feature", "geometry": {"type": "Point", "coordinates": [2.483295, 48.880646]}, "properties": {"alarme": "VEHICULE DELOCALISE", "numparc": 1522, "type": "EXPLOITATION", "duree": "00:08:50", "horodatage": "2022-08-19 05:33:54", "statut": "start", "marker-color": "#ff0000"}}, {"type": "Feature", "geometry": {"type": "Point", "coordinates": [2.475178, 48.8792]}, "properties": {"alarme": "VEHICULE DELOCALISE", "numparc": 1573, "type": "EXPLOITATION", "duree": "00:02:54", "horodatage": "2022-08-19 06:34:34", "statut": "start", "marker-color": "#ff0000"}}, {"type": "Feature", "geometry": {"type": "Point", "coordinates": [2.475125, 48.879234]}, "properties": {"alarme": "VEHICULE DELOCALISE", "numparc": 4930, "type": "EXPLOITATION", "duree": "00:01:35", "horodatage": "2022-08-19 06:52:53", "statut": "start", "marker-color": "#ff0000"}}, {"type": "Feature", "geometry": {"type": "Point", "coordinates": [2.484468, 48.879314]}, "properties": {"alarme": "VEHICULE DELOCALISE", "numparc": 1573, "type": "EXPLOITATION", "duree": "00:02:19", "horodatage": "2022-08-19 06:58:46", "statut": "start", "marker-color": "#ff0000"}}, {"type": "Feature", "geometry": {"type": "Point", "coordinates": [2.47386, 48.880325]}, "properties": {"alarme": "VEHICULE DELOCALISE", "numparc": 1573, "type": "EXPLOITATION", "duree": "00:09:46", "horodatage": "2022-08-19 07:06:13", "statut": "start", "marker-color": "#ff0000"}}, {"type": "Feature", "geometry": {"type": "Point", "coordinates": [2.474067, 48.880402]}, "properties": {"alarme": "VEHICULE DELOCALISE", "numparc": 4930, "type": "EXPLOITATION", "duree": "00:11:46", "horodatage": "2022-08-19 07:19:56", "statut": "start", "marker-color": "#ff0000"}}, {"type": "Feature", "geometry": {"type": "Point", "coordinates": [2.47504, 48.87923]}, "properties": {"alarme": "VEHICULE DELOCALISE", "numparc": 1522, "type": "EXPLOITATION", "duree": "00:02:50", "horodatage": "2022-08-19 07:26:43", "statut": "start", "marker-color": "#ff0000"}}, {"type": "Feature", "geometry": {"type": "Point", "coordinates": [2.475095, 48.879238]}, "properties": {"alarme": "VEHICULE DELOCALISE", "numparc": 1573, "type": "EXPLOITATION", "duree": "00:03:52", "horodatage": "2022-08-19 08:48:18", "statut": "start", "marker-color": "#ff0000"}}, {"type": "Feature", "geometry": {"type": "Point", "coordinates": [2.475086, 48.87925]}, "properties": {"alarme": "VEHICULE DELOCALISE", "numparc": 4930, "type": "EXPLOITATION", "duree": "00:01:44", "horodatage": "2022-08-19 08:55:56", "statut": "start", "marker-color": "#ff0000"}}, {"type": "Feature", "geometry": {"type": "Point", "coordinates": [2.475093, 48.879208]}, "properties": {"alarme": "VEHICULE DELOCALISE", "numparc": 1522, "type": "EXPLOITATION", "duree": "00:01:46", "horodatage": "2022-08-19 09:48:55", "statut": "start", "marker-color": "#ff0000"}}, {"type": "Feature", "geometry": {"type": "Point", "coordinates": [2.475113, 48.879234]}, "properties": {"alarme": "VEHICULE DELOCALISE", "numparc": 1573, "type": "EXPLOITATION", "duree": "00:02:08", "horodatage": "2022-08-19 11:10:49", "statut": "start", "marker-color": "#ff0000"}}, {"type": "Feature", "geometry": {"type": "Point", "coordinates": [2.475185, 48.879192]}, "properties": {"alarme": "VEHICULE DELOCALISE", "numparc": 4930, "type": "EXPLOITATION", "duree": "00:02:08", "horodatage": "2022-08-19 11:25:15", "statut": "start", "marker-color": "#ff0000"}}, {"type": "Feature", "geometry": {"type": "Point", "coordinates": [2.484458, 48.879311]}, "properties": {"alarme": "VEHICULE DELOCALISE", "numparc": 1573, "type": "EXPLOITATION", "duree": "00:01:09", "horodatage": "2022-08-19 11:40:28", "statut": "start", "marker-color": "#ff0000"}}, {"type": "Feature", "geometry": {"type": "Point", "coordinates": [2.473866, 48.880341]}, "properties": {"alarme": "VEHICULE DELOCALISE", "numparc": 1573, "type": "EXPLOITATION", "duree": "00:02:15", "horodatage": "2022-08-19 11:47:07", "statut": "start", "marker-color": "#ff0000"}}, {"type": "Feature", "geometry": {"type": "Point", "coordinates": [2.475106, 48.8792]}, "properties": {"alarme": "VEHICULE DELOCALISE", "numparc": 1556, "type": "EXPLOITATION", "duree": "00:02:02", "horodatage": "2022-08-19 11:56:59", "statut": "start", "marker-color": "#ff0000"}}, {"type": "Feature", "geometry": {"type": "Point", "coordinates": [2.475147, 48.879196]}, "properties": {"alarme": "VEHICULE DELOCALISE", "numparc": 1594, "type": "EXPLOITATION", "duree": "00:02:07", "horodatage": "2022-08-19 13:18:59", "statut": "start", "marker-color": "#ff0000"}}, {"type": "Feature", "geometry": {"type": "Point", "coordinates": [2.484445, 48.879368]}, "properties": {"alarme": "VEHICULE DELOCALISE", "numparc": 1594, "type": "EXPLOITATION", "duree": "00:01:50", "horodatage": "2022-08-19 13:54:50", "statut": "start", "marker-color": "#ff0000"}}, {"type": "Feature", "geometry": {"type": "Point", "coordinates": [2.475089, 48.87923]}, "properties": {"alarme": "VEHICULE DELOCALISE", "numparc": 1556, "type": "EXPLOITATION", "duree": "00:02:21", "horodatage": "2022-08-19 14:23:21", "statut": "start", "marker-color": "#ff0000"}}, {"type": "Feature", "geometry": {"type": "Point", "coordinates": [2.475136, 48.879234]}, "properties": {"alarme": "VEHICULE DELOCALISE", "numparc": 1594, "type": "EXPLOITATION", "duree": "00:01:52", "horodatage": "2022-08-19 15:51:10", "statut": "start", "marker-color": "#ff0000"}}, {"type": "Feature", "geometry": {"type": "Point", "coordinates": [2.473872, 48.880295]}, "properties": {"alarme": "VEHICULE DELOCALISE", "numparc": 1594, "type": "EXPLOITATION", "duree": "00:09:35", "horodatage": "2022-08-19 16:26:47", "statut": "start", "marker-color": "#ff0000"}}, {"type": "Feature", "geometry": {"type": "Point", "coordinates": [2.475183, 48.879173]}, "properties": {"alarme": "VEHICULE DELOCALISE", "numparc": 1556, "type": "EXPLOITATION", "duree": "00:04:26", "horodatage": "2022-08-19 17:04:03", "statut": "start", "marker-color": "#ff0000"}}, {"type": "Feature", "geometry": {"type": "Point", "coordinates": [2.458314, 48.867729]}, "properties": {"alarme": "VEHICULE DELOCALISE", "numparc": 1522, "type": "EXPLOITATION", "duree": "00:11:30", "horodatage": "2022-08-19 17:09:35", "statut": "start", "marker-color": "#ff0000"}}, {"type": "Feature", "geometry": {"type": "Point", "coordinates": [2.483635, 48.880226]}, "properties": {"alarme": "VEHICULE DELOCALISE", "numparc": 1522, "type": "EXPLOITATION", "duree": "00:06:47", "horodatage": "2022-08-19 17:26:53", "statut": "start", "marker-color": "#ff0000"}}, {"type": "Feature", "geometry": {"type": "Point", "coordinates": [2.475045, 48.879253]}, "properties": {"alarme": "VEHICULE DELOCALISE", "numparc": 1594, "type": "EXPLOITATION", "duree": "00:02:25", "horodatage": "2022-08-19 18:32:26", "statut": "start", "marker-color": "#ff0000"}}, {"type": "Feature", "geometry": {"type": "Point", "coordinates": [2.445298, 48.862038]}, "properties": {"alarme": "VEHICULE DELOCALISE", "numparc": 1522, "type": "EXPLOITATION", "duree": "00:01:01", "horodatage": "2022-08-19 18:44:39", "statut": "start", "marker-color": "#ff0000"}}, {"type": "Feature", "geometry": {"type": "Point", "coordinates": [2.459451, 48.868164]}, "properties": {"alarme": "VEHICULE DELOCALISE", "numparc": 1522, "type": "EXPLOITATION", "duree": "00:25:26", "horodatage": "2022-08-19 18:48:33", "statut": "start", "marker-color": "#ff0000"}}, {"type": "Feature", "geometry": {"type": "Point", "coordinates": [2.484753, 48.879013]}, "properties": {"alarme": "VEHICULE DELOCALISE", "numparc": 1594, "type": "EXPLOITATION", "duree": "00:01:24", "horodatage": "2022-08-19 19:06:06", "statut": "start", "marker-color": "#ff0000"}}, {"type": "Feature", "geometry": {"type": "Point", "coordinates": [2.473907, 48.880272]}, "properties": {"alarme": "VEHICULE DELOCALISE", "numparc": 1594, "type": "EXPLOITATION", "duree": "00:07:19", "horodatage": "2022-08-19 19:12:56", "statut": "start", "marker-color": "#ff0000"}}, {"type": "Feature", "geometry": {"type": "Point", "coordinates": [2.475153, 48.879253]}, "properties": {"alarme": "VEHICULE DELOCALISE", "numparc": 4930, "type": "EXPLOITATION", "duree": "00:10:46", "horodatage": "2022-08-19 19:26:38", "statut": "start", "marker-color": "#ff0000"}}, {"type": "Feature", "geometry": {"type": "Point", "coordinates": [2.475082, 48.879242]}, "properties": {"alarme": "VEHICULE DELOCALISE", "numparc": 1556, "type": "EXPLOITATION", "duree": "00:01:51", "horodatage": "2022-08-19 19:45:02", "statut": "start", "marker-color": "#ff0000"}}, {"type": "Feature", "geometry": {"type": "Point", "coordinates": [2.475168, 48.879185]}, "properties": {"alarme": "VEHICULE DELOCALISE", "numparc": 1530, "type": "EXPLOITATION", "duree": "00:02:32", "horodatage": "2022-08-19 20:05:46", "statut": "start", "marker-color": "#ff0000"}}, {"type": "Feature", "geometry": {"type": "Point", "coordinates": [2.474975, 48.879284]}, "properties": {"alarme": "VEHICULE DELOCALISE", "numparc": 1594, "type": "EXPLOITATION", "duree": "00:01:25", "horodatage": "2022-08-19 20:55:02", "statut": "start", "marker-color": "#ff0000"}}, {"type": "Feature", "geometry": {"type": "Point", "coordinates": [2.452286, 48.864258]}, "properties": {"alarme": "VEHICULE DELOCALISE", "numparc": 1594, "type": "EXPLOITATION", "duree": "00:00:22", "horodatage": "2022-08-19 21:44:05", "statut": "start", "marker-color": "#ff0000"}}, {"type": "Feature", "geometry": {"type": "Point", "coordinates": [2.448231, 48.862724]}, "properties": {"alarme": "VEHICULE DELOCALISE", "numparc": 1594, "type": "EXPLOITATION", "duree": "00:08:37", "horodatage": "2022-08-19 21:45:10", "statut": "start", "marker-color": "#ff0000"}}, {"type": "Feature", "geometry": {"type": "Point", "coordinates": [2.475155, 48.879215]}, "properties": {"alarme": "VEHICULE DELOCALISE", "numparc": 4930, "type": "EXPLOITATION", "duree": "00:04:54", "horodatage": "2022-08-19 21:48:27", "statut": "start", "marker-color": "#ff0000"}}, {"type": "Feature", "geometry": {"type": "Point", "coordinates": [2.425389, 48.859211]}, "properties": {"alarme": "VEHICULE DELOCALISE", "numparc": 1594, "type": "EXPLOITATION", "duree": "00:00:47", "horodatage": "2022-08-19 21:54:47", "statut": "start", "marker-color": "#ff0000"}}, {"type": "Feature", "geometry": {"type": "Point", "coordinates": [2.418762, 48.860832]}, "properties": {"alarme": "VEHICULE DELOCALISE", "numparc": 1594, "type": "EXPLOITATION", "duree": "00:04:52", "horodatage": "2022-08-19 21:56:51", "statut": "start", "marker-color": "#ff0000"}}, {"type": "Feature", "geometry": {"type": "Point", "coordinates": [2.417012, 48.867603]}, "properties": {"alarme": "VEHICULE DELOCALISE", "numparc": 1594, "type": "EXPLOITATION", "duree": "00:00:48", "horodatage": "2022-08-19 22:02:43", "statut": "start", "marker-color": "#ff0000"}}, {"type": "Feature", "geometry": {"type": "Point", "coordinates": [2.475194, 48.879139]}, "properties": {"alarme": "VEHICULE DELOCALISE", "numparc": 1556, "type": "EXPLOITATION", "duree": "00:01:48", "horodatage": "2022-08-19 22:12:47", "statut": "start", "marker-color": "#ff0000"}}, {"type": "Feature", "geometry": {"type": "Point", "coordinates": [2.475142, 48.879154]}, "properties": {"alarme": "VEHICULE DELOCALISE", "numparc": 1530, "type": "EXPLOITATION", "duree": "00:53:47", "horodatage": "2022-08-19 22:29:15", "statut": "start", "marker-color": "#ff0000"}}, {"type": "Feature", "geometry": {"type": "Point", "coordinates": [2.475109, 48.879204]}, "properties": {"alarme": "VEHICULE DELOCALISE", "numparc": 1594, "type": "EXPLOITATION", "duree": "00:01:45", "horodatage": "2022-08-19 23:02:31", "statut": "start", "marker-color": "#ff0000"}}, {"type": "Feature", "geometry": {"type": "Point", "coordinates": [2.430596, 48.858616]}, "properties": {"alarme": "VEHICULE DELOCALISE", "numparc": 1530, "type": "EXPLOITATION", "duree": "00:00:33", "horodatage": "2022-08-19 23:23:31", "statut": "start", "marker-color": "#ff0000"}}, {"type": "Feature", "geometry": {"type": "Point", "coordinates": [2.425443, 48.859261]}, "properties": {"alarme": "VEHICULE DELOCALISE", "numparc": 1530, "type": "EXPLOITATION", "duree": "00:00:49", "horodatage": "2022-08-19 23:24:31", "statut": "start", "marker-color": "#ff0000"}}, {"type": "Feature", "geometry": {"type": "Point", "coordinates": [2.418758, 48.860897]}, "properties": {"alarme": "VEHICULE DELOCALISE", "numparc": 1530, "type": "EXPLOITATION", "duree": "00:03:55", "horodatage": "2022-08-19 23:25:42", "statut": "start", "marker-color": "#ff0000"}}, {"type": "Feature", "geometry": {"type": "Point", "coordinates": [2.475008, 48.879349]}, "properties": {"alarme": "VEHICULE DELOCALISE", "numparc": 1513, "type": "EXPLOITATION", "duree": "00:03:04", "horodatage": "2022-08-19 23:28:38", "statut": "start", "marker-color": "#ff0000"}}, {"type": "Feature", "geometry": {"type": "Point", "coordinates": [2.484751, 48.878967]}, "properties": {"alarme": "VEHICULE DELOCALISE", "numparc": 1594, "type": "EXPLOITATION", "duree": "00:00:53", "horodatage": "2022-08-19 23:30:24", "statut": "start", "marker-color": "#ff0000"}}, {"type": "Feature", "geometry": {"type": "Point", "coordinates": [2.416863, 48.867645]}, "properties": {"alarme": "VEHICULE DELOCALISE", "numparc": 1530, "type": "EXPLOITATION", "duree": "00:02:38", "horodatage": "2022-08-19 23:30:35", "statut": "start", "marker-color": "#ff0000"}}, {"type": "Feature", "geometry": {"type": "Point", "coordinates": [2.408241, 48.864594]}, "properties": {"alarme": "VEHICULE DELOCALISE", "numparc": 1530, "type": "EXPLOITATION", "duree": "00:00:41", "horodatage": "2022-08-19 23:33:47", "statut": "start", "marker-color": "#ff0000"}}, {"type": "Feature", "geometry": {"type": "Point", "coordinates": [2.473922, 48.880264]}, "properties": {"alarme": "VEHICULE DELOCALISE", "numparc": 1594, "type": "EXPLOITATION", "duree": "00:06:28", "horodatage": "2022-08-19 23:35:02", "statut": "start", "marker-color": "#ff0000"}}, {"type": "Feature", "geometry": {"type": "Point", "coordinates": [2.475133, 48.879234]}, "properties": {"alarme": "VEHICULE DELOCALISE", "numparc": 4930, "type": "EXPLOITATION", "duree": "00:02:12", "horodatage": "2022-08-20 00:00:19", "statut": "start", "marker-color": "#ff0000"}}, {"type": "Feature", "geometry": {"type": "Point", "coordinates": [2.475199, 48.879166]}, "properties": {"alarme": "VEHICULE DELOCALISE", "numparc": 1530, "type": "EXPLOITATION", "duree": "00:02:21", "horodatage": "2022-08-20 00:31:37", "statut": "start", "marker-color": "#ff0000"}}, {"type": "Feature", "geometry": {"type": "Point", "coordinates": [2.427296, 48.878807]}, "properties": {"alarme": "DEFAUT LIAISON DATA SAEIV / AIGLE", "numparc": 1513, "type": "TECHNIQUE", "duree": "00:01:46", "horodatage": "2022-08-20 00:52:30", "statut": "start", "marker-color": "#ff0000"}}, {"type": "Feature", "geometry": {"type": "Point", "coordinates": [2.475085, 48.879215]}, "properties": {"alarme": "VEHICULE DELOCALISE", "numparc": 1594, "type": "EXPLOITATION", "duree": "00:04:54", "horodatage": "2022-08-20 00:56:59", "statut": "start", "marker-color": "#ff0000"}}, {"type": "Feature", "geometry": {"type": "Point", "coordinates": [2.456744, 48.867207]}, "properties": {"alarme": "VEHICULE DELOCALISE", "numparc": 1522, "type": "EXPLOITATION", "duree": "00:05:52", "horodatage": "2022-08-19 05:09:08", "statut": "end", "marker-color": "#2fe184"}}, {"type": "Feature", "geometry": {"type": "Point", "coordinates": [2.455288, 48.866421]}, "properties": {"alarme": "VEHICULE DELOCALISE", "numparc": 1522, "type": "EXPLOITATION", "duree": "00:03:28", "horodatage": "2022-08-19 05:22:03", "statut": "end", "marker-color": "#2fe184"}}, {"type": "Feature", "geometry": {"type": "Point", "coordinates": [2.456762, 48.86721]}, "properties": {"alarme": "VEHICULE DELOCALISE", "numparc": 1573, "type": "EXPLOITATION", "duree": "00:06:53", "horodatage": "2022-08-19 05:30:56", "statut": "end", "marker-color": "#2fe184"}}, {"type": "Feature", "geometry": {"type": "Point", "coordinates": [2.482142, 48.882118]}, "properties": {"alarme": "VEHICULE DELOCALISE", "numparc": 1522, "type": "EXPLOITATION", "duree": "00:08:50", "horodatage": "2022-08-19 05:42:44", "statut": "end", "marker-color": "#2fe184"}}, {"type": "Feature", "geometry": {"type": "Point", "coordinates": [2.47958, 48.877396]}, "properties": {"alarme": "VEHICULE DELOCALISE", "numparc": 1573, "type": "EXPLOITATION", "duree": "00:02:54", "horodatage": "2022-08-19 06:37:28", "statut": "end", "marker-color": "#2fe184"}}, {"type": "Feature", "geometry": {"type": "Point", "coordinates": [2.475566, 48.877754]}, "properties": {"alarme": "VEHICULE DELOCALISE", "numparc": 4930, "type": "EXPLOITATION", "duree": "00:01:35", "horodatage": "2022-08-19 06:54:28", "statut": "end", "marker-color": "#2fe184"}}, {"type": "Feature", "geometry": {"type": "Point", "coordinates": [2.484788, 48.877487]}, "properties": {"alarme": "VEHICULE DELOCALISE", "numparc": 1573, "type": "EXPLOITATION", "duree": "00:02:19", "horodatage": "2022-08-19 07:01:05", "statut": "end", "marker-color": "#2fe184"}}, {"type": "Feature", "geometry": {"type": "Point", "coordinates": [2.45676, 48.867241]}, "properties": {"alarme": "VEHICULE DELOCALISE", "numparc": 1573, "type": "EXPLOITATION", "duree": "00:09:46", "horodatage": "2022-08-19 07:15:59", "statut": "end", "marker-color": "#2fe184"}}, {"type": "Feature", "geometry": {"type": "Point", "coordinates": [2.440926, 48.861679]}, "properties": {"alarme": "VEHICULE DELOCALISE", "numparc": 4930, "type": "EXPLOITATION", "duree": "00:11:46", "horodatage": "2022-08-19 07:31:42", "statut": "end", "marker-color": "#2fe184"}}, {"type": "Feature", "geometry": {"type": "Point", "coordinates": [2.479543, 48.877403]}, "properties": {"alarme": "VEHICULE DELOCALISE", "numparc": 1522, "type": "EXPLOITATION", "duree": "00:02:50", "horodatage": "2022-08-19 07:29:33", "statut": "end", "marker-color": "#2fe184"}}, {"type": "Feature", "geometry": {"type": "Point", "coordinates": [2.479631, 48.877403]}, "properties": {"alarme": "VEHICULE DELOCALISE", "numparc": 1573, "type": "EXPLOITATION", "duree": "00:03:52", "horodatage": "2022-08-19 08:52:10", "statut": "end", "marker-color": "#2fe184"}}, {"type": "Feature", "geometry": {"type": "Point", "coordinates": [2.475545, 48.877686]}, "properties": {"alarme": "VEHICULE DELOCALISE", "numparc": 4930, "type": "EXPLOITATION", "duree": "00:01:44", "horodatage": "2022-08-19 08:57:40", "statut": "end", "marker-color": "#2fe184"}}, {"type": "Feature", "geometry": {"type": "Point", "coordinates": [2.475599, 48.877815]}, "properties": {"alarme": "VEHICULE DELOCALISE", "numparc": 1522, "type": "EXPLOITATION", "duree": "00:01:46", "horodatage": "2022-08-19 09:50:41", "statut": "end", "marker-color": "#2fe184"}}, {"type": "Feature", "geometry": {"type": "Point", "coordinates": [2.475575, 48.877899]}, "properties": {"alarme": "VEHICULE DELOCALISE", "numparc": 1573, "type": "EXPLOITATION", "duree": "00:02:08", "horodatage": "2022-08-19 11:12:57", "statut": "end", "marker-color": "#2fe184"}}, {"type": "Feature", "geometry": {"type": "Point", "coordinates": [2.475571, 48.877792]}, "properties": {"alarme": "VEHICULE DELOCALISE", "numparc": 4930, "type": "EXPLOITATION", "duree": "00:02:08", "horodatage": "2022-08-19 11:27:23", "statut": "end", "marker-color": "#2fe184"}}, {"type": "Feature", "geometry": {"type": "Point", "coordinates": [2.484854, 48.877468]}, "properties": {"alarme": "VEHICULE DELOCALISE", "numparc": 1573, "type": "EXPLOITATION", "duree": "00:01:09", "horodatage": "2022-08-19 11:41:37", "statut": "end", "marker-color": "#2fe184"}}, {"type": "Feature", "geometry": {"type": "Point", "coordinates": [2.479573, 48.873219]}, "properties": {"alarme": "VEHICULE DELOCALISE", "numparc": 1573, "type": "EXPLOITATION", "duree": "00:02:15", "horodatage": "2022-08-19 11:49:22", "statut": "end", "marker-color": "#2fe184"}}, {"type": "Feature", "geometry": {"type": "Point", "coordinates": [2.475604, 48.877819]}, "properties": {"alarme": "VEHICULE DELOCALISE", "numparc": 1556, "type": "EXPLOITATION", "duree": "00:02:02", "horodatage": "2022-08-19 11:59:01", "statut": "end", "marker-color": "#2fe184"}}, {"type": "Feature", "geometry": {"type": "Point", "coordinates": [2.4756, 48.877811]}, "properties": {"alarme": "VEHICULE DELOCALISE", "numparc": 1594, "type": "EXPLOITATION", "duree": "00:02:07", "horodatage": "2022-08-19 13:21:06", "statut": "end", "marker-color": "#2fe184"}}, {"type": "Feature", "geometry": {"type": "Point", "coordinates": [2.484773, 48.877483]}, "properties": {"alarme": "VEHICULE DELOCALISE", "numparc": 1594, "type": "EXPLOITATION", "duree": "00:01:50", "horodatage": "2022-08-19 13:56:40", "statut": "end", "marker-color": "#2fe184"}}, {"type": "Feature", "geometry": {"type": "Point", "coordinates": [2.475631, 48.877819]}, "properties": {"alarme": "VEHICULE DELOCALISE", "numparc": 1556, "type": "EXPLOITATION", "duree": "00:02:21", "horodatage": "2022-08-19 14:25:42", "statut": "end", "marker-color": "#2fe184"}}, {"type": "Feature", "geometry": {"type": "Point", "coordinates": [2.475606, 48.87785]}, "properties": {"alarme": "VEHICULE DELOCALISE", "numparc": 1594, "type": "EXPLOITATION", "duree": "00:01:52", "horodatage": "2022-08-19 15:53:02", "statut": "end", "marker-color": "#2fe184"}}, {"type": "Feature", "geometry": {"type": "Point", "coordinates": [2.45282, 48.864601]}, "properties": {"alarme": "VEHICULE DELOCALISE", "numparc": 1594, "type": "EXPLOITATION", "duree": "00:09:35", "horodatage": "2022-08-19 16:36:22", "statut": "end", "marker-color": "#2fe184"}}, {"type": "Feature", "geometry": {"type": "Point", "coordinates": [2.479226, 48.87738]}, "properties": {"alarme": "VEHICULE DELOCALISE", "numparc": 1556, "type": "EXPLOITATION", "duree": "00:04:26", "horodatage": "2022-08-19 17:08:29", "statut": "end", "marker-color": "#2fe184"}}, {"type": "Feature", "geometry": {"type": "Point", "coordinates": [2.475579, 48.877785]}, "properties": {"alarme": "VEHICULE DELOCALISE", "numparc": 1522, "type": "EXPLOITATION", "duree": "00:11:30", "horodatage": "2022-08-19 17:21:05", "statut": "end", "marker-color": "#2fe184"}}, {"type": "Feature", "geometry": {"type": "Point", "coordinates": [2.482131, 48.882347]}, "properties": {"alarme": "VEHICULE DELOCALISE", "numparc": 1522, "type": "EXPLOITATION", "duree": "00:06:47", "horodatage": "2022-08-19 17:33:40", "statut": "end", "marker-color": "#2fe184"}}, {"type": "Feature", "geometry": {"type": "Point", "coordinates": [2.4756, 48.877808]}, "properties": {"alarme": "VEHICULE DELOCALISE", "numparc": 1594, "type": "EXPLOITATION", "duree": "00:02:25", "horodatage": "2022-08-19 18:34:51", "statut": "end", "marker-color": "#2fe184"}}, {"type": "Feature", "geometry": {"type": "Point", "coordinates": [2.450184, 48.863636]}, "properties": {"alarme": "VEHICULE DELOCALISE", "numparc": 1522, "type": "EXPLOITATION", "duree": "00:01:01", "horodatage": "2022-08-19 18:45:40", "statut": "end", "marker-color": "#2fe184"}}, {"type": "Feature", "geometry": {"type": "Point", "coordinates": [2.427764, 48.878532]}, "properties": {"alarme": "VEHICULE DELOCALISE", "numparc": 1522, "type": "EXPLOITATION", "duree": "00:25:26", "horodatage": "2022-08-19 19:13:59", "statut": "end", "marker-color": "#2fe184"}}, {"type": "Feature", "geometry": {"type": "Point", "coordinates": [2.484751, 48.87746]}, "properties": {"alarme": "VEHICULE DELOCALISE", "numparc": 1594, "type": "EXPLOITATION", "duree": "00:01:24", "horodatage": "2022-08-19 19:07:30", "statut": "end", "marker-color": "#2fe184"}}, {"type": "Feature", "geometry": {"type": "Point", "coordinates": [2.456748, 48.867207]}, "properties": {"alarme": "VEHICULE DELOCALISE", "numparc": 1594, "type": "EXPLOITATION", "duree": "00:07:19", "horodatage": "2022-08-19 19:20:15", "statut": "end", "marker-color": "#2fe184"}}, {"type": "Feature", "geometry": {"type": "Point", "coordinates": [2.482081, 48.882416]}, "properties": {"alarme": "VEHICULE DELOCALISE", "numparc": 4930, "type": "EXPLOITATION", "duree": "00:10:46", "horodatage": "2022-08-19 19:37:24", "statut": "end", "marker-color": "#2fe184"}}, {"type": "Feature", "geometry": {"type": "Point", "coordinates": [2.475566, 48.877644]}, "properties": {"alarme": "VEHICULE DELOCALISE", "numparc": 1556, "type": "EXPLOITATION", "duree": "00:01:51", "horodatage": "2022-08-19 19:46:53", "statut": "end", "marker-color": "#2fe184"}}, {"type": "Feature", "geometry": {"type": "Point", "coordinates": [2.475604, 48.877731]}, "properties": {"alarme": "VEHICULE DELOCALISE", "numparc": 1530, "type": "EXPLOITATION", "duree": "00:02:32", "horodatage": "2022-08-19 20:08:18", "statut": "end", "marker-color": "#2fe184"}}, {"type": "Feature", "geometry": {"type": "Point", "coordinates": [2.475589, 48.877815]}, "properties": {"alarme": "VEHICULE DELOCALISE", "numparc": 1594, "type": "EXPLOITATION", "duree": "00:01:25", "horodatage": "2022-08-19 20:56:27", "statut": "end", "marker-color": "#2fe184"}}, {"type": "Feature", "geometry": {"type": "Point", "coordinates": [2.44986, 48.86356]}, "properties": {"alarme": "VEHICULE DELOCALISE", "numparc": 1594, "type": "EXPLOITATION", "duree": "00:00:22", "horodatage": "2022-08-19 21:44:27", "statut": "end", "marker-color": "#2fe184"}}, {"type": "Feature", "geometry": {"type": "Point", "coordinates": [2.427886, 48.858669]}, "properties": {"alarme": "VEHICULE DELOCALISE", "numparc": 1594, "type": "EXPLOITATION", "duree": "00:08:37", "horodatage": "2022-08-19 21:53:47", "statut": "end", "marker-color": "#2fe184"}}, {"type": "Feature", "geometry": {"type": "Point", "coordinates": [2.482271, 48.882217]}, "properties": {"alarme": "VEHICULE DELOCALISE", "numparc": 4930, "type": "EXPLOITATION", "duree": "00:04:54", "horodatage": "2022-08-19 21:53:21", "statut": "end", "marker-color": "#2fe184"}}, {"type": "Feature", "geometry": {"type": "Point", "coordinates": [2.420712, 48.860371]}, "properties": {"alarme": "VEHICULE DELOCALISE", "numparc": 1594, "type": "EXPLOITATION", "duree": "00:00:47", "horodatage": "2022-08-19 21:55:34", "statut": "end", "marker-color": "#2fe184"}}, {"type": "Feature", "geometry": {"type": "Point", "coordinates": [2.418118, 48.866974]}, "properties": {"alarme": "VEHICULE DELOCALISE", "numparc": 1594, "type": "EXPLOITATION", "duree": "00:04:52", "horodatage": "2022-08-19 22:01:43", "statut": "end", "marker-color": "#2fe184"}}, {"type": "Feature", "geometry": {"type": "Point", "coordinates": [2.415308, 48.868351]}, "properties": {"alarme": "VEHICULE DELOCALISE", "numparc": 1594, "type": "EXPLOITATION", "duree": "00:00:48", "horodatage": "2022-08-19 22:03:31", "statut": "end", "marker-color": "#2fe184"}}, {"type": "Feature", "geometry": {"type": "Point", "coordinates": [2.475602, 48.877804]}, "properties": {"alarme": "VEHICULE DELOCALISE", "numparc": 1556, "type": "EXPLOITATION", "duree": "00:01:48", "horodatage": "2022-08-19 22:14:35", "statut": "end", "marker-color": "#2fe184"}}, {"type": "Feature", "geometry": {"type": "Point", "coordinates": [2.431968, 48.858543]}, "properties": {"alarme": "VEHICULE DELOCALISE", "numparc": 1530, "type": "EXPLOITATION", "duree": "00:53:47", "horodatage": "2022-08-19 23:23:02", "statut": "end", "marker-color": "#2fe184"}}, {"type": "Feature", "geometry": {"type": "Point", "coordinates": [2.475623, 48.87785]}, "properties": {"alarme": "VEHICULE DELOCALISE", "numparc": 1594, "type": "EXPLOITATION", "duree": "00:01:45", "horodatage": "2022-08-19 23:04:16", "statut": "end", "marker-color": "#2fe184"}}, {"type": "Feature", "geometry": {"type": "Point", "coordinates": [2.427873, 48.858711]}, "properties": {"alarme": "VEHICULE DELOCALISE", "numparc": 1530, "type": "EXPLOITATION", "duree": "00:00:33", "horodatage": "2022-08-19 23:24:04", "statut": "end", "marker-color": "#2fe184"}}, {"type": "Feature", "geometry": {"type": "Point", "coordinates": [2.420736, 48.860413]}, "properties": {"alarme": "VEHICULE DELOCALISE", "numparc": 1530, "type": "EXPLOITATION", "duree": "00:00:49", "horodatage": "2022-08-19 23:25:20", "statut": "end", "marker-color": "#2fe184"}}, {"type": "Feature", "geometry": {"type": "Point", "coordinates": [2.418065, 48.866871]}, "properties": {"alarme": "VEHICULE DELOCALISE", "numparc": 1530, "type": "EXPLOITATION", "duree": "00:03:55", "horodatage": "2022-08-19 23:29:37", "statut": "end", "marker-color": "#2fe184"}}, {"type": "Feature", "geometry": {"type": "Point", "coordinates": [2.483658, 48.877419]}, "properties": {"alarme": "VEHICULE DELOCALISE", "numparc": 1513, "type": "EXPLOITATION", "duree": "00:03:04", "horodatage": "2022-08-19 23:31:42", "statut": "end", "marker-color": "#2fe184"}}, {"type": "Feature", "geometry": {"type": "Point", "coordinates": [2.484765, 48.87746]}, "properties": {"alarme": "VEHICULE DELOCALISE", "numparc": 1594, "type": "EXPLOITATION", "duree": "00:00:53", "horodatage": "2022-08-19 23:31:17", "statut": "end", "marker-color": "#2fe184"}}, {"type": "Feature", "geometry": {"type": "Point", "coordinates": [2.409559, 48.86483]}, "properties": {"alarme": "VEHICULE DELOCALISE", "numparc": 1530, "type": "EXPLOITATION", "duree": "00:02:38", "horodatage": "2022-08-19 23:33:13", "statut": "end", "marker-color": "#2fe184"}}, {"type": "Feature", "geometry": {"type": "Point", "coordinates": [2.405041, 48.864693]}, "properties": {"alarme": "VEHICULE DELOCALISE", "numparc": 1530, "type": "EXPLOITATION", "duree": "00:00:41", "horodatage": "2022-08-19 23:34:28", "statut": "end", "marker-color": "#2fe184"}}, {"type": "Feature", "geometry": {"type": "Point", "coordinates": [2.456751, 48.867214]}, "properties": {"alarme": "VEHICULE DELOCALISE", "numparc": 1594, "type": "EXPLOITATION", "duree": "00:06:28", "horodatage": "2022-08-19 23:41:30", "statut": "end", "marker-color": "#2fe184"}}, {"type": "Feature", "geometry": {"type": "Point", "coordinates": [2.479594, 48.877369]}, "properties": {"alarme": "VEHICULE DELOCALISE", "numparc": 4930, "type": "EXPLOITATION", "duree": "00:02:12", "horodatage": "2022-08-20 00:02:31", "statut": "end", "marker-color": "#2fe184"}}, {"type": "Feature", "geometry": {"type": "Point", "coordinates": [2.479548, 48.877388]}, "properties": {"alarme": "VEHICULE DELOCALISE", "numparc": 1530, "type": "EXPLOITATION", "duree": "00:02:21", "horodatage": "2022-08-20 00:33:58", "statut": "end", "marker-color": "#2fe184"}}, {"type": "Feature", "geometry": {"type": "Point", "coordinates": [2.427654, 48.879166]}, "properties": {"alarme": "DEFAUT LIAISON DATA SAEIV / AIGLE", "numparc": 1513, "type": "TECHNIQUE", "duree": "00:01:46", "horodatage": "2022-08-20 00:54:16", "statut": "end", "marker-color": "#2fe184"}}, {"type": "Feature", "geometry": {"type": "Point", "coordinates": [2.481671, 48.882839]}, "properties": {"alarme": "VEHICULE DELOCALISE", "numparc": 1594, "type": "EXPLOITATION", "duree": "00:04:54", "horodatage": "2022-08-20 01:01:53", "statut": "end", "marker-color": "#2fe184"}}]}