{"type": "FeatureCollection", "features": [{"type": "Feature", "geometry": {"type": "Point", "coordinates": [2.295574, 48.76078]}, "properties": {"etat de la localisation": "Delocalise", "numparc": 5824, "duree": "00:01:02", "horodatage": "2021-07-24 12:03:11", "marker-color": "#FF565E"}}, {"type": "Feature", "geometry": {"type": "Point", "coordinates": [2.248922, 48.769939]}, "properties": {"etat de la localisation": "Deviation programmee", "numparc": 5824, "duree": "", "horodatage": "2021-07-24 12:28:09", "marker-color": "#56FF93"}}, {"type": "Feature", "geometry": {"type": "Point", "coordinates": [2.218505, 48.785202]}, "properties": {"etat de la localisation": "Deviation programmee", "numparc": 5824, "duree": "", "horodatage": "2021-07-24 12:45:04", "marker-color": "#56FF93"}}, {"type": "Feature", "geometry": {"type": "Point", "coordinates": [2.219303, 48.784832]}, "properties": {"etat de la localisation": "Deviation programmee", "numparc": 5833, "duree": "", "horodatage": "2021-07-24 12:47:33", "marker-color": "#56FF93"}}, {"type": "Feature", "geometry": {"type": "Point", "coordinates": [2.306423, 48.763168]}, "properties": {"etat de la localisation": "Delocalise", "numparc": 5833, "duree": "00:14:05", "horodatage": "2021-07-24 13:14:28", "marker-color": "#FF565E"}}, {"type": "Feature", "geometry": {"type": "Point", "coordinates": [2.295815, 48.760822]}, "properties": {"etat de la localisation": "Delocalise", "numparc": 5827, "duree": "00:00:59", "horodatage": "2021-07-24 13:20:24", "marker-color": "#FF565E"}}, {"type": "Feature", "geometry": {"type": "Point", "coordinates": [2.29774, 48.72102]}, "properties": {"etat de la localisation": "Hors service", "numparc": 5833, "duree": "", "horodatage": "2021-07-24 13:28:33", "marker-color": "#707070"}}, {"type": "Feature", "geometry": {"type": "Point", "coordinates": [2.248286, 48.770939]}, "properties": {"etat de la localisation": "Delocalise", "numparc": 5824, "duree": "00:05:21", "horodatage": "2021-07-24 13:42:41", "marker-color": "#FF565E"}}, {"type": "Feature", "geometry": {"type": "Point", "coordinates": [2.248984, 48.769928]}, "properties": {"etat de la localisation": "Deviation programmee", "numparc": 5827, "duree": "", "horodatage": "2021-07-24 13:43:48", "marker-color": "#56FF93"}}, {"type": "Feature", "geometry": {"type": "Point", "coordinates": [2.219422, 48.78487]}, "properties": {"etat de la localisation": "Deviation programmee", "numparc": 5827, "duree": "", "horodatage": "2021-07-24 13:56:59", "marker-color": "#56FF93"}}, {"type": "Feature", "geometry": {"type": "Point", "coordinates": [2.248958, 48.769924]}, "properties": {"etat de la localisation": "Deviation programmee", "numparc": 5824, "duree": "", "horodatage": "2021-07-24 14:32:03", "marker-color": "#56FF93"}}, {"type": "Feature", "geometry": {"type": "Point", "coordinates": [2.248936, 48.769939]}, "properties": {"etat de la localisation": "Deviation programmee", "numparc": 5827, "duree": "", "horodatage": "2021-07-24 14:48:36", "marker-color": "#56FF93"}}, {"type": "Feature", "geometry": {"type": "Point", "coordinates": [2.2194, 48.784863]}, "properties": {"etat de la localisation": "Deviation programmee", "numparc": 5824, "duree": "", "horodatage": "2021-07-24 14:57:32", "marker-color": "#56FF93"}}, {"type": "Feature", "geometry": {"type": "Point", "coordinates": [2.219425, 48.784847]}, "properties": {"etat de la localisation": "Deviation programmee", "numparc": 5827, "duree": "", "horodatage": "2021-07-24 15:12:39", "marker-color": "#56FF93"}}, {"type": "Feature", "geometry": {"type": "Point", "coordinates": [2.248913, 48.769939]}, "properties": {"etat de la localisation": "Deviation programmee", "numparc": 5824, "duree": "", "horodatage": "2021-07-24 15:43:00", "marker-color": "#56FF93"}}, {"type": "Feature", "geometry": {"type": "Point", "coordinates": [2.219391, 48.784855]}, "properties": {"etat de la localisation": "Deviation programmee", "numparc": 5824, "duree": "", "horodatage": "2021-07-24 16:01:38", "marker-color": "#56FF93"}}, {"type": "Feature", "geometry": {"type": "Point", "coordinates": [2.248874, 48.769936]}, "properties": {"etat de la localisation": "Deviation programmee", "numparc": 5827, "duree": "", "horodatage": "2021-07-24 16:02:56", "marker-color": "#56FF93"}}, {"type": "Feature", "geometry": {"type": "Point", "coordinates": [2.219482, 48.784882]}, "properties": {"etat de la localisation": "Deviation programmee", "numparc": 5827, "duree": "", "horodatage": "2021-07-24 16:25:23", "marker-color": "#56FF93"}}, {"type": "Feature", "geometry": {"type": "Point", "coordinates": [2.248952, 48.769928]}, "properties": {"etat de la localisation": "Deviation programmee", "numparc": 5824, "duree": "", "horodatage": "2021-07-24 16:50:54", "marker-color": "#56FF93"}}, {"type": "Feature", "geometry": {"type": "Point", "coordinates": [2.219422, 48.784866]}, "properties": {"etat de la localisation": "Deviation programmee", "numparc": 5824, "duree": "", "horodatage": "2021-07-24 17:11:14", "marker-color": "#56FF93"}}, {"type": "Feature", "geometry": {"type": "Point", "coordinates": [2.248953, 48.76992]}, "properties": {"etat de la localisation": "Deviation programmee", "numparc": 5827, "duree": "", "horodatage": "2021-07-24 17:11:46", "marker-color": "#56FF93"}}, {"type": "Feature", "geometry": {"type": "Point", "coordinates": [2.299042, 48.721504]}, "properties": {"etat de la localisation": "Hors service", "numparc": 5824, "duree": "", "horodatage": "2021-07-24 17:41:45", "marker-color": "#707070"}}, {"type": "Feature", "geometry": {"type": "Point", "coordinates": [2.219448, 48.784885]}, "properties": {"etat de la localisation": "Deviation programmee", "numparc": 5827, "duree": "", "horodatage": "2021-07-24 17:42:57", "marker-color": "#56FF93"}}, {"type": "Feature", "geometry": {"type": "Point", "coordinates": [2.297297, 48.72171]}, "properties": {"etat de la localisation": "Mission inconnue", "numparc": 5824, "duree": "", "horodatage": "2021-07-24 18:30:43", "marker-color": "#FF9F56"}}, {"type": "Feature", "geometry": {"type": "Point", "coordinates": [2.248932, 48.769932]}, "properties": {"etat de la localisation": "Deviation programmee", "numparc": 5827, "duree": "", "horodatage": "2021-07-24 18:42:48", "marker-color": "#56FF93"}}, {"type": "Feature", "geometry": {"type": "Point", "coordinates": [2.21938, 48.784863]}, "properties": {"etat de la localisation": "Deviation programmee", "numparc": 5827, "duree": "", "horodatage": "2021-07-24 19:03:06", "marker-color": "#56FF93"}}, {"type": "Feature", "geometry": {"type": "Point", "coordinates": [2.248931, 48.769947]}, "properties": {"etat de la localisation": "Deviation programmee", "numparc": 5824, "duree": "", "horodatage": "2021-07-24 19:13:53", "marker-color": "#56FF93"}}, {"type": "Feature", "geometry": {"type": "Point", "coordinates": [2.248934, 48.769924]}, "properties": {"etat de la localisation": "Deviation programmee", "numparc": 5822, "duree": "", "horodatage": "2021-07-24 19:14:33", "marker-color": "#56FF93"}}, {"type": "Feature", "geometry": {"type": "Point", "coordinates": [2.219761, 48.785133]}, "properties": {"etat de la localisation": "Deviation programmee", "numparc": 5824, "duree": "", "horodatage": "2021-07-24 19:26:55", "marker-color": "#56FF93"}}, {"type": "Feature", "geometry": {"type": "Point", "coordinates": [2.295549, 48.760773]}, "properties": {"etat de la localisation": "Delocalise", "numparc": 5826, "duree": "00:00:57", "horodatage": "2021-07-24 19:35:14", "marker-color": "#FF565E"}}, {"type": "Feature", "geometry": {"type": "Point", "coordinates": [2.299046, 48.721554]}, "properties": {"etat de la localisation": "Hors service", "numparc": 5827, "duree": "", "horodatage": "2021-07-24 19:41:01", "marker-color": "#707070"}}, {"type": "Feature", "geometry": {"type": "Point", "coordinates": [2.219347, 48.78484]}, "properties": {"etat de la localisation": "Deviation programmee", "numparc": 5822, "duree": "", "horodatage": "2021-07-24 19:41:24", "marker-color": "#56FF93"}}, {"type": "Feature", "geometry": {"type": "Point", "coordinates": [2.298038, 48.721558]}, "properties": {"etat de la localisation": "Hors service", "numparc": 5827, "duree": "", "horodatage": "2021-07-24 19:44:51", "marker-color": "#707070"}}, {"type": "Feature", "geometry": {"type": "Point", "coordinates": [2.248898, 48.769928]}, "properties": {"etat de la localisation": "Deviation programmee", "numparc": 5826, "duree": "", "horodatage": "2021-07-24 19:53:45", "marker-color": "#56FF93"}}, {"type": "Feature", "geometry": {"type": "Point", "coordinates": [2.248924, 48.76992]}, "properties": {"etat de la localisation": "Deviation programmee", "numparc": 5824, "duree": "", "horodatage": "2021-07-24 20:20:27", "marker-color": "#56FF93"}}, {"type": "Feature", "geometry": {"type": "Point", "coordinates": [2.219377, 48.784859]}, "properties": {"etat de la localisation": "Deviation programmee", "numparc": 5826, "duree": "", "horodatage": "2021-07-24 20:23:35", "marker-color": "#56FF93"}}, {"type": "Feature", "geometry": {"type": "Point", "coordinates": [2.248938, 48.769917]}, "properties": {"etat de la localisation": "Deviation programmee", "numparc": 5822, "duree": "", "horodatage": "2021-07-24 20:29:21", "marker-color": "#56FF93"}}, {"type": "Feature", "geometry": {"type": "Point", "coordinates": [2.219774, 48.785152]}, "properties": {"etat de la localisation": "Deviation programmee", "numparc": 5824, "duree": "", "horodatage": "2021-07-24 20:42:22", "marker-color": "#56FF93"}}, {"type": "Feature", "geometry": {"type": "Point", "coordinates": [2.21906, 48.785423]}, "properties": {"etat de la localisation": "Hors service", "numparc": 5822, "duree": "", "horodatage": "2021-07-24 20:44:17", "marker-color": "#707070"}}, {"type": "Feature", "geometry": {"type": "Point", "coordinates": [2.21921, 48.784828]}, "properties": {"etat de la localisation": "Deviation programmee", "numparc": 5822, "duree": "", "horodatage": "2021-07-24 20:54:51", "marker-color": "#56FF93"}}, {"type": "Feature", "geometry": {"type": "Point", "coordinates": [2.248934, 48.769932]}, "properties": {"etat de la localisation": "Deviation programmee", "numparc": 5826, "duree": "", "horodatage": "2021-07-24 21:17:05", "marker-color": "#56FF93"}}, {"type": "Feature", "geometry": {"type": "Point", "coordinates": [2.248954, 48.769924]}, "properties": {"etat de la localisation": "Deviation programmee", "numparc": 5824, "duree": "", "horodatage": "2021-07-24 21:32:04", "marker-color": "#56FF93"}}, {"type": "Feature", "geometry": {"type": "Point", "coordinates": [2.21934, 48.784851]}, "properties": {"etat de la localisation": "Deviation programmee", "numparc": 5826, "duree": "", "horodatage": "2021-07-24 21:38:14", "marker-color": "#56FF93"}}, {"type": "Feature", "geometry": {"type": "Point", "coordinates": [2.2489, 48.769939]}, "properties": {"etat de la localisation": "Deviation programmee", "numparc": 5822, "duree": "", "horodatage": "2021-07-24 21:48:27", "marker-color": "#56FF93"}}, {"type": "Feature", "geometry": {"type": "Point", "coordinates": [2.219774, 48.785164]}, "properties": {"etat de la localisation": "Deviation programmee", "numparc": 5824, "duree": "", "horodatage": "2021-07-24 21:57:34", "marker-color": "#56FF93"}}, {"type": "Feature", "geometry": {"type": "Point", "coordinates": [2.219282, 48.78484]}, "properties": {"etat de la localisation": "Deviation programmee", "numparc": 5822, "duree": "", "horodatage": "2021-07-24 22:08:38", "marker-color": "#56FF93"}}, {"type": "Feature", "geometry": {"type": "Point", "coordinates": [2.248914, 48.769936]}, "properties": {"etat de la localisation": "Deviation programmee", "numparc": 5826, "duree": "", "horodatage": "2021-07-24 22:29:10", "marker-color": "#56FF93"}}, {"type": "Feature", "geometry": {"type": "Point", "coordinates": [2.24886, 48.76997]}, "properties": {"etat de la localisation": "Deviation programmee", "numparc": 5824, "duree": "", "horodatage": "2021-07-24 22:48:22", "marker-color": "#56FF93"}}, {"type": "Feature", "geometry": {"type": "Point", "coordinates": [2.219361, 48.784843]}, "properties": {"etat de la localisation": "Deviation programmee", "numparc": 5826, "duree": "", "horodatage": "2021-07-24 22:53:59", "marker-color": "#56FF93"}}, {"type": "Feature", "geometry": {"type": "Point", "coordinates": [2.248903, 48.769936]}, "properties": {"etat de la localisation": "Deviation programmee", "numparc": 5822, "duree": "", "horodatage": "2021-07-24 23:03:20", "marker-color": "#56FF93"}}, {"type": "Feature", "geometry": {"type": "Point", "coordinates": [2.219847, 48.785053]}, "properties": {"etat de la localisation": "Deviation programmee", "numparc": 5824, "duree": "", "horodatage": "2021-07-24 23:12:20", "marker-color": "#56FF93"}}, {"type": "Feature", "geometry": {"type": "Point", "coordinates": [2.219373, 48.784855]}, "properties": {"etat de la localisation": "Deviation programmee", "numparc": 5822, "duree": "", "horodatage": "2021-07-24 23:26:04", "marker-color": "#56FF93"}}, {"type": "Feature", "geometry": {"type": "Point", "coordinates": [2.248908, 48.769932]}, "properties": {"etat de la localisation": "Deviation programmee", "numparc": 5826, "duree": "", "horodatage": "2021-07-24 23:38:14", "marker-color": "#56FF93"}}, {"type": "Feature", "geometry": {"type": "Point", "coordinates": [2.248932, 48.769928]}, "properties": {"etat de la localisation": "Deviation programmee", "numparc": 5824, "duree": "", "horodatage": "2021-07-24 23:55:07", "marker-color": "#56FF93"}}, {"type": "Feature", "geometry": {"type": "Point", "coordinates": [2.21947, 48.78487]}, "properties": {"etat de la localisation": "Deviation programmee", "numparc": 5826, "duree": "", "horodatage": "2021-07-24 23:56:55", "marker-color": "#56FF93"}}, {"type": "Feature", "geometry": {"type": "Point", "coordinates": [2.29395, 48.760777]}, "properties": {"etat de la localisation": "Hors service", "numparc": 5822, "duree": "", "horodatage": "2021-07-25 00:05:42", "marker-color": "#707070"}}, {"type": "Feature", "geometry": {"type": "Point", "coordinates": [2.219697, 48.785145]}, "properties": {"etat de la localisation": "Deviation programmee", "numparc": 5824, "duree": "", "horodatage": "2021-07-25 00:13:05", "marker-color": "#56FF93"}}, {"type": "Feature", "geometry": {"type": "Point", "coordinates": [2.248936, 48.769936]}, "properties": {"etat de la localisation": "Deviation programmee", "numparc": 5826, "duree": "", "horodatage": "2021-07-25 00:36:19", "marker-color": "#56FF93"}}, {"type": "Feature", "geometry": {"type": "Point", "coordinates": [2.299165, 48.722015]}, "properties": {"etat de la localisation": "Hors service", "numparc": 5824, "duree": "", "horodatage": "2021-07-25 00:44:00", "marker-color": "#707070"}}, {"type": "Feature", "geometry": {"type": "Point", "coordinates": [2.219344, 48.78484]}, "properties": {"etat de la localisation": "Deviation programmee", "numparc": 5826, "duree": "", "horodatage": "2021-07-25 00:51:04", "marker-color": "#56FF93"}}, {"type": "Feature", "geometry": {"type": "Point", "coordinates": [2.299019, 48.721542]}, "properties": {"etat de la localisation": "Hors service", "numparc": 5822, "duree": "", "horodatage": "2021-07-25 01:18:10", "marker-color": "#707070"}}, {"type": "Feature", "geometry": {"type": "Point", "coordinates": [2.298023, 48.721565]}, "properties": {"etat de la localisation": "Hors service", "numparc": 5822, "duree": "", "horodatage": "2021-07-25 01:20:02", "marker-color": "#707070"}}, {"type": "Feature", "geometry": {"type": "Point", "coordinates": [2.299067, 48.721569]}, "properties": {"etat de la localisation": "Hors service", "numparc": 5826, "duree": "", "horodatage": "2021-07-25 01:46:43", "marker-color": "#707070"}}]}