{"type": "FeatureCollection", "features": [{"type": "Feature", "geometry": {"type": "Point", "coordinates": [2.329549, 48.822624]}, "properties": {"etat de la localisation": "Mission inconnue", "numparc": 1404, "duree": "", "horodatage": "2023-01-04 07:34:21", "marker-color": "#FF9F56"}}, {"type": "Feature", "geometry": {"type": "Point", "coordinates": [2.329549, 48.822624]}, "properties": {"etat de la localisation": "Mission inconnue", "numparc": 1404, "duree": "", "horodatage": "2023-01-04 07:35:30", "marker-color": "#FF9F56"}}, {"type": "Feature", "geometry": {"type": "Point", "coordinates": [2.329549, 48.822624]}, "properties": {"etat de la localisation": "Hors service", "numparc": 1404, "duree": "", "horodatage": "2023-01-04 07:35:32", "marker-color": "#707070"}}, {"type": "Feature", "geometry": {"type": "Point", "coordinates": [2.343733, 48.846722]}, "properties": {"etat de la localisation": "Mission suivante non connue", "numparc": 1466, "duree": "", "horodatage": "2023-01-04 07:39:48", "marker-color": "#7156FF"}}, {"type": "Feature", "geometry": {"type": "Point", "coordinates": [2.34423, 48.84668]}, "properties": {"etat de la localisation": "Mission suivante non connue", "numparc": 1466, "duree": "", "horodatage": "2023-01-04 08:02:50", "marker-color": "#7156FF"}}, {"type": "Feature", "geometry": {"type": "Point", "coordinates": [2.300069, 48.892963]}, "properties": {"etat de la localisation": "Mission suivante non connue", "numparc": 1464, "duree": "", "horodatage": "2023-01-04 08:42:30", "marker-color": "#7156FF"}}, {"type": "Feature", "geometry": {"type": "Point", "coordinates": [2.300204, 48.892838]}, "properties": {"etat de la localisation": "Mission suivante non connue", "numparc": 1464, "duree": "", "horodatage": "2023-01-04 08:43:52", "marker-color": "#7156FF"}}, {"type": "Feature", "geometry": {"type": "Point", "coordinates": [2.300204, 48.892838]}, "properties": {"etat de la localisation": "Mission suivante non connue", "numparc": 1464, "duree": "", "horodatage": "2023-01-04 08:45:06", "marker-color": "#7156FF"}}, {"type": "Feature", "geometry": {"type": "Point", "coordinates": [2.300204, 48.892838]}, "properties": {"etat de la localisation": "Mission suivante non connue", "numparc": 1464, "duree": "", "horodatage": "2023-01-04 08:46:34", "marker-color": "#7156FF"}}, {"type": "Feature", "geometry": {"type": "Point", "coordinates": [2.343704, 48.846684]}, "properties": {"etat de la localisation": "Mission suivante non connue", "numparc": 1464, "duree": "", "horodatage": "2023-01-04 09:45:51", "marker-color": "#7156FF"}}, {"type": "Feature", "geometry": {"type": "Point", "coordinates": [2.343704, 48.846684]}, "properties": {"etat de la localisation": "Mission suivante non connue", "numparc": 1464, "duree": "", "horodatage": "2023-01-04 09:46:01", "marker-color": "#7156FF"}}, {"type": "Feature", "geometry": {"type": "Point", "coordinates": [2.343713, 48.84671]}, "properties": {"etat de la localisation": "Mission suivante non connue", "numparc": 1466, "duree": "", "horodatage": "2023-01-04 09:53:35", "marker-color": "#7156FF"}}, {"type": "Feature", "geometry": {"type": "Point", "coordinates": [2.343777, 48.846695]}, "properties": {"etat de la localisation": "Mission suivante non connue", "numparc": 1466, "duree": "", "horodatage": "2023-01-04 09:54:20", "marker-color": "#7156FF"}}, {"type": "Feature", "geometry": {"type": "Point", "coordinates": [2.346902, 48.845737]}, "properties": {"etat de la localisation": "Hors service", "numparc": 1464, "duree": "", "horodatage": "2023-01-04 11:51:42", "marker-color": "#707070"}}, {"type": "Feature", "geometry": {"type": "Point", "coordinates": [2.30009, 48.892929]}, "properties": {"etat de la localisation": "Mission suivante non connue", "numparc": 1464, "duree": "", "horodatage": "2023-01-04 13:03:20", "marker-color": "#7156FF"}}, {"type": "Feature", "geometry": {"type": "Point", "coordinates": [2.346654, 48.84581]}, "properties": {"etat de la localisation": "Hors service", "numparc": 1464, "duree": "", "horodatage": "2023-01-04 14:02:25", "marker-color": "#707070"}}, {"type": "Feature", "geometry": {"type": "Point", "coordinates": [2.327451, 48.823742]}, "properties": {"etat de la localisation": "Mission inconnue", "numparc": 1465, "duree": "", "horodatage": "2023-01-04 14:21:11", "marker-color": "#FF9F56"}}, {"type": "Feature", "geometry": {"type": "Point", "coordinates": [2.343675, 48.846714]}, "properties": {"etat de la localisation": "Mission suivante non connue", "numparc": 1464, "duree": "", "horodatage": "2023-01-04 15:56:10", "marker-color": "#7156FF"}}, {"type": "Feature", "geometry": {"type": "Point", "coordinates": [2.347034, 48.845917]}, "properties": {"etat de la localisation": "Hors service", "numparc": 1466, "duree": "", "horodatage": "2023-01-04 16:31:38", "marker-color": "#707070"}}, {"type": "Feature", "geometry": {"type": "Point", "coordinates": [2.300141, 48.89291]}, "properties": {"etat de la localisation": "Mission suivante non connue", "numparc": 1465, "duree": "", "horodatage": "2023-01-04 18:02:34", "marker-color": "#7156FF"}}, {"type": "Feature", "geometry": {"type": "Point", "coordinates": [2.346898, 48.84581]}, "properties": {"etat de la localisation": "Mission inconnue", "numparc": 1463, "duree": "", "horodatage": "2023-01-04 18:18:47", "marker-color": "#FF9F56"}}, {"type": "Feature", "geometry": {"type": "Point", "coordinates": [2.343676, 48.846748]}, "properties": {"etat de la localisation": "Mission suivante non connue", "numparc": 1466, "duree": "", "horodatage": "2023-01-04 18:41:43", "marker-color": "#7156FF"}}, {"type": "Feature", "geometry": {"type": "Point", "coordinates": [2.328562, 48.822979]}, "properties": {"etat de la localisation": "Hors service", "numparc": 1464, "duree": "", "horodatage": "2023-01-04 18:41:49", "marker-color": "#707070"}}, {"type": "Feature", "geometry": {"type": "Point", "coordinates": [2.346731, 48.845695]}, "properties": {"etat de la localisation": "Hors service", "numparc": 1465, "duree": "", "horodatage": "2023-01-04 19:14:17", "marker-color": "#707070"}}, {"type": "Feature", "geometry": {"type": "Point", "coordinates": [2.295249, 48.885216]}, "properties": {"etat de la localisation": "Delocalise", "numparc": 1445, "duree": "00:03:22", "horodatage": "2023-01-04 19:31:19", "marker-color": "#FF565E"}}, {"type": "Feature", "geometry": {"type": "Point", "coordinates": [2.329226, 48.822788]}, "properties": {"etat de la localisation": "Hors service", "numparc": 1469, "duree": "", "horodatage": "2023-01-04 19:55:28", "marker-color": "#707070"}}, {"type": "Feature", "geometry": {"type": "Point", "coordinates": [2.339331, 48.848854]}, "properties": {"etat de la localisation": "Mission suivante non connue", "numparc": 1454, "duree": "", "horodatage": "2023-01-04 21:01:52", "marker-color": "#7156FF"}}, {"type": "Feature", "geometry": {"type": "Point", "coordinates": [2.329526, 48.823112]}, "properties": {"etat de la localisation": "Hors service", "numparc": 1454, "duree": "", "horodatage": "2023-01-04 21:24:58", "marker-color": "#707070"}}, {"type": "Feature", "geometry": {"type": "Point", "coordinates": [2.329364, 48.8228]}, "properties": {"etat de la localisation": "Hors service", "numparc": 1389, "duree": "", "horodatage": "2023-01-04 21:49:07", "marker-color": "#707070"}}, {"type": "Feature", "geometry": {"type": "Point", "coordinates": [2.329536, 48.822773]}, "properties": {"etat de la localisation": "Hors service", "numparc": 1463, "duree": "", "horodatage": "2023-01-04 21:55:23", "marker-color": "#707070"}}, {"type": "Feature", "geometry": {"type": "Point", "coordinates": [2.346978, 48.845909]}, "properties": {"etat de la localisation": "Hors service", "numparc": 1466, "duree": "", "horodatage": "2023-01-04 22:48:19", "marker-color": "#707070"}}, {"type": "Feature", "geometry": {"type": "Point", "coordinates": [2.346976, 48.845905]}, "properties": {"etat de la localisation": "Mission inconnue", "numparc": 1466, "duree": "", "horodatage": "2023-01-04 23:07:10", "marker-color": "#FF9F56"}}, {"type": "Feature", "geometry": {"type": "Point", "coordinates": [2.32794, 48.823471]}, "properties": {"etat de la localisation": "Hors service", "numparc": 1465, "duree": "", "horodatage": "2023-01-04 23:25:40", "marker-color": "#707070"}}, {"type": "Feature", "geometry": {"type": "Point", "coordinates": [2.340016, 48.846046]}, "properties": {"etat de la localisation": "Delocalise", "numparc": 1460, "duree": "00:00:38", "horodatage": "2023-01-04 23:34:40", "marker-color": "#FF565E"}}, {"type": "Feature", "geometry": {"type": "Point", "coordinates": [2.328372, 48.823479]}, "properties": {"etat de la localisation": "Hors service", "numparc": 1460, "duree": "", "horodatage": "2023-01-04 23:47:16", "marker-color": "#707070"}}, {"type": "Feature", "geometry": {"type": "Point", "coordinates": [2.329645, 48.822926]}, "properties": {"etat de la localisation": "Hors service", "numparc": 1445, "duree": "", "horodatage": "2023-01-05 00:42:49", "marker-color": "#707070"}}, {"type": "Feature", "geometry": {"type": "Point", "coordinates": [2.337758, 48.841896]}, "properties": {"etat de la localisation": "Delocalise", "numparc": 1466, "duree": "00:00:30", "horodatage": "2023-01-05 00:56:03", "marker-color": "#FF565E"}}, {"type": "Feature", "geometry": {"type": "Point", "coordinates": [2.328677, 48.822903]}, "properties": {"etat de la localisation": "Hors service", "numparc": 1466, "duree": "", "horodatage": "2023-01-05 01:21:05", "marker-color": "#707070"}}]}