{"type": "FeatureCollection", "features": [{"type": "Feature", "geometry": {"type": "Point", "coordinates": [2.40818, 48.849548]}, "properties": {"etat de la localisation": "Delocalise", "numparc": 629, "duree": "00:01:44", "horodatage": "2021-08-19 06:14:04", "marker-color": "#FF565E"}}, {"type": "Feature", "geometry": {"type": "Point", "coordinates": [2.407444, 48.850067]}, "properties": {"etat de la localisation": "Hors service", "numparc": 629, "duree": "", "horodatage": "2021-08-19 06:15:48", "marker-color": "#707070"}}, {"type": "Feature", "geometry": {"type": "Point", "coordinates": [2.295547, 48.854637]}, "properties": {"etat de la localisation": "Delocalise", "numparc": 634, "duree": "00:00:43", "horodatage": "2021-08-19 06:48:59", "marker-color": "#FF565E"}}, {"type": "Feature", "geometry": {"type": "Point", "coordinates": [2.407105, 48.848953]}, "properties": {"etat de la localisation": "Delocalise", "numparc": 631, "duree": "00:06:13", "horodatage": "2021-08-19 06:57:13", "marker-color": "#FF565E"}}, {"type": "Feature", "geometry": {"type": "Point", "coordinates": [2.295588, 48.854637]}, "properties": {"etat de la localisation": "Delocalise", "numparc": 630, "duree": "00:00:45", "horodatage": "2021-08-19 07:03:05", "marker-color": "#FF565E"}}, {"type": "Feature", "geometry": {"type": "Point", "coordinates": [2.295557, 48.854572]}, "properties": {"etat de la localisation": "Delocalise", "numparc": 629, "duree": "00:00:27", "horodatage": "2021-08-19 07:19:18", "marker-color": "#FF565E"}}, {"type": "Feature", "geometry": {"type": "Point", "coordinates": [2.295582, 48.854565]}, "properties": {"etat de la localisation": "Delocalise", "numparc": 626, "duree": "00:06:10", "horodatage": "2021-08-19 07:25:09", "marker-color": "#FF565E"}}, {"type": "Feature", "geometry": {"type": "Point", "coordinates": [2.407876, 48.849232]}, "properties": {"etat de la localisation": "Delocalise", "numparc": 632, "duree": "00:09:25", "horodatage": "2021-08-19 07:25:20", "marker-color": "#FF565E"}}, {"type": "Feature", "geometry": {"type": "Point", "coordinates": [2.407441, 48.850124]}, "properties": {"etat de la localisation": "Hors service", "numparc": 632, "duree": "", "horodatage": "2021-08-19 07:34:45", "marker-color": "#707070"}}, {"type": "Feature", "geometry": {"type": "Point", "coordinates": [2.400198, 48.865112]}, "properties": {"etat de la localisation": "Hors service", "numparc": 630, "duree": "", "horodatage": "2021-08-19 07:58:34", "marker-color": "#707070"}}, {"type": "Feature", "geometry": {"type": "Point", "coordinates": [2.295551, 48.854607]}, "properties": {"etat de la localisation": "Delocalise", "numparc": 628, "duree": "00:00:26", "horodatage": "2021-08-19 07:58:59", "marker-color": "#FF565E"}}, {"type": "Feature", "geometry": {"type": "Point", "coordinates": [2.399545, 48.86496]}, "properties": {"etat de la localisation": "Hors service", "numparc": 630, "duree": "", "horodatage": "2021-08-19 08:01:34", "marker-color": "#707070"}}, {"type": "Feature", "geometry": {"type": "Point", "coordinates": [2.295636, 48.854691]}, "properties": {"etat de la localisation": "Delocalise", "numparc": 631, "duree": "00:00:57", "horodatage": "2021-08-19 08:23:25", "marker-color": "#FF565E"}}, {"type": "Feature", "geometry": {"type": "Point", "coordinates": [2.364315, 48.854477]}, "properties": {"etat de la localisation": "Delocalise", "numparc": 629, "duree": "00:01:48", "horodatage": "2021-08-19 08:34:03", "marker-color": "#FF565E"}}, {"type": "Feature", "geometry": {"type": "Point", "coordinates": [2.295609, 48.854507]}, "properties": {"etat de la localisation": "Delocalise", "numparc": 634, "duree": "00:00:23", "horodatage": "2021-08-19 08:38:40", "marker-color": "#FF565E"}}, {"type": "Feature", "geometry": {"type": "Point", "coordinates": [2.296725, 48.855083]}, "properties": {"etat de la localisation": "Delocalise", "numparc": 632, "duree": "00:01:09", "horodatage": "2021-08-19 08:51:15", "marker-color": "#FF565E"}}, {"type": "Feature", "geometry": {"type": "Point", "coordinates": [2.295589, 48.854595]}, "properties": {"etat de la localisation": "Delocalise", "numparc": 630, "duree": "00:00:26", "horodatage": "2021-08-19 08:59:41", "marker-color": "#FF565E"}}, {"type": "Feature", "geometry": {"type": "Point", "coordinates": [2.295755, 48.85471]}, "properties": {"etat de la localisation": "Delocalise", "numparc": 629, "duree": "00:16:24", "horodatage": "2021-08-19 09:07:41", "marker-color": "#FF565E"}}, {"type": "Feature", "geometry": {"type": "Point", "coordinates": [2.296376, 48.855141]}, "properties": {"etat de la localisation": "Delocalise", "numparc": 626, "duree": "00:00:13", "horodatage": "2021-08-19 09:42:14", "marker-color": "#FF565E"}}, {"type": "Feature", "geometry": {"type": "Point", "coordinates": [2.295574, 48.85458]}, "properties": {"etat de la localisation": "Delocalise", "numparc": 628, "duree": "00:00:28", "horodatage": "2021-08-19 09:54:26", "marker-color": "#FF565E"}}, {"type": "Feature", "geometry": {"type": "Point", "coordinates": [2.400091, 48.865265]}, "properties": {"etat de la localisation": "Hors service", "numparc": 630, "duree": "", "horodatage": "2021-08-19 10:01:01", "marker-color": "#707070"}}, {"type": "Feature", "geometry": {"type": "Point", "coordinates": [2.399213, 48.865723]}, "properties": {"etat de la localisation": "Mission suivante non connue", "numparc": 629, "duree": "", "horodatage": "2021-08-19 10:11:30", "marker-color": "#7156FF"}}, {"type": "Feature", "geometry": {"type": "Point", "coordinates": [2.29558, 48.854717]}, "properties": {"etat de la localisation": "Delocalise", "numparc": 631, "duree": "00:00:52", "horodatage": "2021-08-19 10:35:17", "marker-color": "#FF565E"}}, {"type": "Feature", "geometry": {"type": "Point", "coordinates": [2.296604, 48.855099]}, "properties": {"etat de la localisation": "Delocalise", "numparc": 634, "duree": "00:00:10", "horodatage": "2021-08-19 10:52:14", "marker-color": "#FF565E"}}, {"type": "Feature", "geometry": {"type": "Point", "coordinates": [2.305135, 48.858822]}, "properties": {"etat de la localisation": "Delocalise", "numparc": 634, "duree": "00:00:35", "horodatage": "2021-08-19 10:56:10", "marker-color": "#FF565E"}}, {"type": "Feature", "geometry": {"type": "Point", "coordinates": [2.296626, 48.855171]}, "properties": {"etat de la localisation": "Delocalise", "numparc": 632, "duree": "00:01:06", "horodatage": "2021-08-19 11:02:10", "marker-color": "#FF565E"}}, {"type": "Feature", "geometry": {"type": "Point", "coordinates": [2.296502, 48.854866]}, "properties": {"etat de la localisation": "Delocalise", "numparc": 630, "duree": "00:00:13", "horodatage": "2021-08-19 11:15:32", "marker-color": "#FF565E"}}, {"type": "Feature", "geometry": {"type": "Point", "coordinates": [2.295516, 48.854584]}, "properties": {"etat de la localisation": "Delocalise", "numparc": 629, "duree": "00:00:50", "horodatage": "2021-08-19 11:28:56", "marker-color": "#FF565E"}}, {"type": "Feature", "geometry": {"type": "Point", "coordinates": [2.296664, 48.855114]}, "properties": {"etat de la localisation": "Delocalise", "numparc": 626, "duree": "00:00:09", "horodatage": "2021-08-19 11:52:59", "marker-color": "#FF565E"}}, {"type": "Feature", "geometry": {"type": "Point", "coordinates": [2.295738, 48.85471]}, "properties": {"etat de la localisation": "Delocalise", "numparc": 628, "duree": "00:14:21", "horodatage": "2021-08-19 11:54:08", "marker-color": "#FF565E"}}, {"type": "Feature", "geometry": {"type": "Point", "coordinates": [2.360618, 48.855419]}, "properties": {"etat de la localisation": "Delocalise", "numparc": 634, "duree": "00:00:44", "horodatage": "2021-08-19 12:11:59", "marker-color": "#FF565E"}}, {"type": "Feature", "geometry": {"type": "Point", "coordinates": [2.295745, 48.854702]}, "properties": {"etat de la localisation": "Delocalise", "numparc": 631, "duree": "00:11:32", "horodatage": "2021-08-19 12:37:40", "marker-color": "#FF565E"}}, {"type": "Feature", "geometry": {"type": "Point", "coordinates": [2.398936, 48.865795]}, "properties": {"etat de la localisation": "Mission suivante non connue", "numparc": 626, "duree": "", "horodatage": "2021-08-19 12:40:09", "marker-color": "#7156FF"}}, {"type": "Feature", "geometry": {"type": "Point", "coordinates": [2.364249, 48.854427]}, "properties": {"etat de la localisation": "Delocalise", "numparc": 629, "duree": "00:00:32", "horodatage": "2021-08-19 12:50:30", "marker-color": "#FF565E"}}, {"type": "Feature", "geometry": {"type": "Point", "coordinates": [2.297019, 48.855286]}, "properties": {"etat de la localisation": "Delocalise", "numparc": 634, "duree": "00:00:48", "horodatage": "2021-08-19 13:08:23", "marker-color": "#FF565E"}}, {"type": "Feature", "geometry": {"type": "Point", "coordinates": [2.295592, 48.85458]}, "properties": {"etat de la localisation": "Delocalise", "numparc": 632, "duree": "00:00:50", "horodatage": "2021-08-19 13:11:36", "marker-color": "#FF565E"}}, {"type": "Feature", "geometry": {"type": "Point", "coordinates": [2.295551, 48.854637]}, "properties": {"etat de la localisation": "Delocalise", "numparc": 630, "duree": "00:01:01", "horodatage": "2021-08-19 13:25:41", "marker-color": "#FF565E"}}, {"type": "Feature", "geometry": {"type": "Point", "coordinates": [2.295569, 48.85466]}, "properties": {"etat de la localisation": "Delocalise", "numparc": 629, "duree": "00:00:54", "horodatage": "2021-08-19 13:38:28", "marker-color": "#FF565E"}}, {"type": "Feature", "geometry": {"type": "Point", "coordinates": [2.393436, 48.864117]}, "properties": {"etat de la localisation": "Delocalise", "numparc": 634, "duree": "00:00:48", "horodatage": "2021-08-19 13:55:22", "marker-color": "#FF565E"}}, {"type": "Feature", "geometry": {"type": "Point", "coordinates": [2.2956, 48.85466]}, "properties": {"etat de la localisation": "Delocalise", "numparc": 626, "duree": "00:00:56", "horodatage": "2021-08-19 14:07:35", "marker-color": "#FF565E"}}, {"type": "Feature", "geometry": {"type": "Point", "coordinates": [2.29676, 48.855034]}, "properties": {"etat de la localisation": "Delocalise", "numparc": 633, "duree": "00:01:17", "horodatage": "2021-08-19 14:19:14", "marker-color": "#FF565E"}}, {"type": "Feature", "geometry": {"type": "Point", "coordinates": [2.39349, 48.864197]}, "properties": {"etat de la localisation": "Delocalise", "numparc": 630, "duree": "00:00:34", "horodatage": "2021-08-19 14:20:16", "marker-color": "#FF565E"}}, {"type": "Feature", "geometry": {"type": "Point", "coordinates": [2.393538, 48.864113]}, "properties": {"etat de la localisation": "Delocalise", "numparc": 629, "duree": "00:00:42", "horodatage": "2021-08-19 14:22:13", "marker-color": "#FF565E"}}, {"type": "Feature", "geometry": {"type": "Point", "coordinates": [2.296664, 48.854927]}, "properties": {"etat de la localisation": "Delocalise", "numparc": 628, "duree": "00:00:16", "horodatage": "2021-08-19 14:30:24", "marker-color": "#FF565E"}}, {"type": "Feature", "geometry": {"type": "Point", "coordinates": [2.29563, 48.854679]}, "properties": {"etat de la localisation": "Delocalise", "numparc": 635, "duree": "00:00:50", "horodatage": "2021-08-19 14:53:05", "marker-color": "#FF565E"}}, {"type": "Feature", "geometry": {"type": "Point", "coordinates": [2.296789, 48.855103]}, "properties": {"etat de la localisation": "Delocalise", "numparc": 631, "duree": "00:01:12", "horodatage": "2021-08-19 15:09:22", "marker-color": "#FF565E"}}, {"type": "Feature", "geometry": {"type": "Point", "coordinates": [2.350547, 48.856113]}, "properties": {"etat de la localisation": "Deviation programmee", "numparc": 635, "duree": "", "horodatage": "2021-08-19 15:11:58", "marker-color": "#56FF93"}}, {"type": "Feature", "geometry": {"type": "Point", "coordinates": [2.406652, 48.850552]}, "properties": {"etat de la localisation": "Delocalise", "numparc": 623, "duree": "00:00:53", "horodatage": "2021-08-19 15:15:27", "marker-color": "#FF565E"}}, {"type": "Feature", "geometry": {"type": "Point", "coordinates": [2.406415, 48.849918]}, "properties": {"etat de la localisation": "Hors service", "numparc": 623, "duree": "", "horodatage": "2021-08-19 15:16:20", "marker-color": "#707070"}}, {"type": "Feature", "geometry": {"type": "Point", "coordinates": [2.29673, 48.855118]}, "properties": {"etat de la localisation": "Delocalise", "numparc": 634, "duree": "00:00:11", "horodatage": "2021-08-19 15:19:26", "marker-color": "#FF565E"}}, {"type": "Feature", "geometry": {"type": "Point", "coordinates": [2.295553, 48.854595]}, "properties": {"etat de la localisation": "Delocalise", "numparc": 632, "duree": "00:00:50", "horodatage": "2021-08-19 15:29:17", "marker-color": "#FF565E"}}, {"type": "Feature", "geometry": {"type": "Point", "coordinates": [2.350531, 48.856106]}, "properties": {"etat de la localisation": "Deviation programmee", "numparc": 631, "duree": "", "horodatage": "2021-08-19 15:30:34", "marker-color": "#56FF93"}}, {"type": "Feature", "geometry": {"type": "Point", "coordinates": [2.363399, 48.851334]}, "properties": {"etat de la localisation": "Delocalise", "numparc": 631, "duree": "00:04:13", "horodatage": "2021-08-19 15:35:27", "marker-color": "#FF565E"}}, {"type": "Feature", "geometry": {"type": "Point", "coordinates": [2.350538, 48.856098]}, "properties": {"etat de la localisation": "Deviation programmee", "numparc": 634, "duree": "", "horodatage": "2021-08-19 15:41:43", "marker-color": "#56FF93"}}, {"type": "Feature", "geometry": {"type": "Point", "coordinates": [2.400019, 48.865192]}, "properties": {"etat de la localisation": "Hors service", "numparc": 628, "duree": "", "horodatage": "2021-08-19 15:42:18", "marker-color": "#707070"}}, {"type": "Feature", "geometry": {"type": "Point", "coordinates": [2.296537, 48.855083]}, "properties": {"etat de la localisation": "Delocalise", "numparc": 638, "duree": "00:00:13", "horodatage": "2021-08-19 15:43:56", "marker-color": "#FF565E"}}, {"type": "Feature", "geometry": {"type": "Point", "coordinates": [2.295612, 48.854698]}, "properties": {"etat de la localisation": "Delocalise", "numparc": 629, "duree": "00:00:58", "horodatage": "2021-08-19 15:51:22", "marker-color": "#FF565E"}}, {"type": "Feature", "geometry": {"type": "Point", "coordinates": [2.398998, 48.865566]}, "properties": {"etat de la localisation": "Mission suivante non connue", "numparc": 631, "duree": "", "horodatage": "2021-08-19 15:56:23", "marker-color": "#7156FF"}}, {"type": "Feature", "geometry": {"type": "Point", "coordinates": [2.399138, 48.865795]}, "properties": {"etat de la localisation": "Mission suivante non connue", "numparc": 631, "duree": "", "horodatage": "2021-08-19 15:57:17", "marker-color": "#7156FF"}}, {"type": "Feature", "geometry": {"type": "Point", "coordinates": [2.295569, 48.854607]}, "properties": {"etat de la localisation": "Delocalise", "numparc": 630, "duree": "00:00:53", "horodatage": "2021-08-19 15:59:38", "marker-color": "#FF565E"}}, {"type": "Feature", "geometry": {"type": "Point", "coordinates": [2.295568, 48.854607]}, "properties": {"etat de la localisation": "Delocalise", "numparc": 626, "duree": "00:00:45", "horodatage": "2021-08-19 16:26:32", "marker-color": "#FF565E"}}, {"type": "Feature", "geometry": {"type": "Point", "coordinates": [2.295641, 48.854652]}, "properties": {"etat de la localisation": "Delocalise", "numparc": 623, "duree": "00:00:30", "horodatage": "2021-08-19 16:39:14", "marker-color": "#FF565E"}}, {"type": "Feature", "geometry": {"type": "Point", "coordinates": [2.295646, 48.854668]}, "properties": {"etat de la localisation": "Delocalise", "numparc": 628, "duree": "00:00:50", "horodatage": "2021-08-19 17:02:36", "marker-color": "#FF565E"}}, {"type": "Feature", "geometry": {"type": "Point", "coordinates": [2.295584, 48.854664]}, "properties": {"etat de la localisation": "Delocalise", "numparc": 631, "duree": "00:02:10", "horodatage": "2021-08-19 17:16:47", "marker-color": "#FF565E"}}, {"type": "Feature", "geometry": {"type": "Point", "coordinates": [2.295654, 48.854485]}, "properties": {"etat de la localisation": "Delocalise", "numparc": 634, "duree": "00:00:48", "horodatage": "2021-08-19 17:36:28", "marker-color": "#FF565E"}}, {"type": "Feature", "geometry": {"type": "Point", "coordinates": [2.406531, 48.849304]}, "properties": {"etat de la localisation": "Hors service", "numparc": 623, "duree": "", "horodatage": "2021-08-19 17:39:02", "marker-color": "#707070"}}, {"type": "Feature", "geometry": {"type": "Point", "coordinates": [2.296596, 48.855042]}, "properties": {"etat de la localisation": "Delocalise", "numparc": 632, "duree": "00:00:16", "horodatage": "2021-08-19 17:51:04", "marker-color": "#FF565E"}}, {"type": "Feature", "geometry": {"type": "Point", "coordinates": [2.296698, 48.855049]}, "properties": {"etat de la localisation": "Delocalise", "numparc": 638, "duree": "00:00:12", "horodatage": "2021-08-19 18:02:43", "marker-color": "#FF565E"}}, {"type": "Feature", "geometry": {"type": "Point", "coordinates": [2.295634, 48.854671]}, "properties": {"etat de la localisation": "Delocalise", "numparc": 629, "duree": "00:00:48", "horodatage": "2021-08-19 18:10:24", "marker-color": "#FF565E"}}, {"type": "Feature", "geometry": {"type": "Point", "coordinates": [2.295616, 48.854698]}, "properties": {"etat de la localisation": "Delocalise", "numparc": 633, "duree": "00:00:56", "horodatage": "2021-08-19 18:20:50", "marker-color": "#FF565E"}}, {"type": "Feature", "geometry": {"type": "Point", "coordinates": [2.295581, 48.854656]}, "properties": {"etat de la localisation": "Delocalise", "numparc": 630, "duree": "00:00:49", "horodatage": "2021-08-19 18:32:31", "marker-color": "#FF565E"}}, {"type": "Feature", "geometry": {"type": "Point", "coordinates": [2.406513, 48.84903]}, "properties": {"etat de la localisation": "Hors service", "numparc": 634, "duree": "", "horodatage": "2021-08-19 18:37:00", "marker-color": "#707070"}}, {"type": "Feature", "geometry": {"type": "Point", "coordinates": [2.325736, 48.855801]}, "properties": {"etat de la localisation": "Delocalise", "numparc": 635, "duree": "00:04:21", "horodatage": "2021-08-19 18:38:30", "marker-color": "#FF565E"}}, {"type": "Feature", "geometry": {"type": "Point", "coordinates": [2.295602, 48.854637]}, "properties": {"etat de la localisation": "Delocalise", "numparc": 626, "duree": "00:00:53", "horodatage": "2021-08-19 18:53:28", "marker-color": "#FF565E"}}, {"type": "Feature", "geometry": {"type": "Point", "coordinates": [2.350323, 48.856159]}, "properties": {"etat de la localisation": "Mission suivante non connue", "numparc": 630, "duree": "", "horodatage": "2021-08-19 19:00:30", "marker-color": "#7156FF"}}, {"type": "Feature", "geometry": {"type": "Point", "coordinates": [2.350323, 48.856159]}, "properties": {"etat de la localisation": "Mission inconnue", "numparc": 630, "duree": "", "horodatage": "2021-08-19 19:00:57", "marker-color": "#FF9F56"}}, {"type": "Feature", "geometry": {"type": "Point", "coordinates": [2.393478, 48.863922]}, "properties": {"etat de la localisation": "Delocalise", "numparc": 633, "duree": "00:00:29", "horodatage": "2021-08-19 19:05:02", "marker-color": "#FF565E"}}, {"type": "Feature", "geometry": {"type": "Point", "coordinates": [2.305133, 48.858967]}, "properties": {"etat de la localisation": "Delocalise", "numparc": 635, "duree": "00:00:44", "horodatage": "2021-08-19 19:13:20", "marker-color": "#FF565E"}}, {"type": "Feature", "geometry": {"type": "Point", "coordinates": [2.400017, 48.865223]}, "properties": {"etat de la localisation": "Hors service", "numparc": 629, "duree": "", "horodatage": "2021-08-19 19:14:07", "marker-color": "#707070"}}, {"type": "Feature", "geometry": {"type": "Point", "coordinates": [2.296532, 48.855007]}, "properties": {"etat de la localisation": "Delocalise", "numparc": 628, "duree": "00:00:12", "horodatage": "2021-08-19 19:19:42", "marker-color": "#FF565E"}}, {"type": "Feature", "geometry": {"type": "Point", "coordinates": [2.350311, 48.856144]}, "properties": {"etat de la localisation": "Mission suivante non connue", "numparc": 626, "duree": "", "horodatage": "2021-08-19 19:19:52", "marker-color": "#7156FF"}}, {"type": "Feature", "geometry": {"type": "Point", "coordinates": [2.350311, 48.856144]}, "properties": {"etat de la localisation": "Mission inconnue", "numparc": 626, "duree": "", "horodatage": "2021-08-19 19:20:26", "marker-color": "#FF9F56"}}, {"type": "Feature", "geometry": {"type": "Point", "coordinates": [2.400018, 48.865223]}, "properties": {"etat de la localisation": "Hors service", "numparc": 629, "duree": "", "horodatage": "2021-08-19 19:35:15", "marker-color": "#707070"}}, {"type": "Feature", "geometry": {"type": "Point", "coordinates": [2.407558, 48.849323]}, "properties": {"etat de la localisation": "Hors service", "numparc": 626, "duree": "", "horodatage": "2021-08-19 19:37:29", "marker-color": "#707070"}}, {"type": "Feature", "geometry": {"type": "Point", "coordinates": [2.407549, 48.849323]}, "properties": {"etat de la localisation": "Hors service", "numparc": 630, "duree": "", "horodatage": "2021-08-19 19:42:17", "marker-color": "#707070"}}, {"type": "Feature", "geometry": {"type": "Point", "coordinates": [2.295615, 48.854679]}, "properties": {"etat de la localisation": "Delocalise", "numparc": 631, "duree": "00:00:51", "horodatage": "2021-08-19 19:42:32", "marker-color": "#FF565E"}}, {"type": "Feature", "geometry": {"type": "Point", "coordinates": [2.295568, 48.854557]}, "properties": {"etat de la localisation": "Delocalise", "numparc": 632, "duree": "00:00:49", "horodatage": "2021-08-19 19:58:50", "marker-color": "#FF565E"}}, {"type": "Feature", "geometry": {"type": "Point", "coordinates": [2.296456, 48.854958]}, "properties": {"etat de la localisation": "Delocalise", "numparc": 638, "duree": "00:00:16", "horodatage": "2021-08-19 20:12:09", "marker-color": "#FF565E"}}, {"type": "Feature", "geometry": {"type": "Point", "coordinates": [2.406557, 48.849049]}, "properties": {"etat de la localisation": "Hors service", "numparc": 628, "duree": "", "horodatage": "2021-08-19 20:14:13", "marker-color": "#707070"}}, {"type": "Feature", "geometry": {"type": "Point", "coordinates": [2.295589, 48.854599]}, "properties": {"etat de la localisation": "Delocalise", "numparc": 633, "duree": "00:00:47", "horodatage": "2021-08-19 20:27:57", "marker-color": "#FF565E"}}, {"type": "Feature", "geometry": {"type": "Point", "coordinates": [2.40655, 48.849049]}, "properties": {"etat de la localisation": "Hors service", "numparc": 631, "duree": "", "horodatage": "2021-08-19 20:34:10", "marker-color": "#707070"}}, {"type": "Feature", "geometry": {"type": "Point", "coordinates": [2.295639, 48.854591]}, "properties": {"etat de la localisation": "Delocalise", "numparc": 629, "duree": "00:01:48", "horodatage": "2021-08-19 20:47:47", "marker-color": "#FF565E"}}, {"type": "Feature", "geometry": {"type": "Point", "coordinates": [2.400008, 48.865307]}, "properties": {"etat de la localisation": "Mission inconnue", "numparc": 638, "duree": "", "horodatage": "2021-08-19 20:59:56", "marker-color": "#FF9F56"}}, {"type": "Feature", "geometry": {"type": "Point", "coordinates": [2.295561, 48.854687]}, "properties": {"etat de la localisation": "Delocalise", "numparc": 635, "duree": "00:00:36", "horodatage": "2021-08-19 21:12:09", "marker-color": "#FF565E"}}, {"type": "Feature", "geometry": {"type": "Point", "coordinates": [2.364298, 48.854416]}, "properties": {"etat de la localisation": "Delocalise", "numparc": 638, "duree": "00:00:35", "horodatage": "2021-08-19 21:33:43", "marker-color": "#FF565E"}}, {"type": "Feature", "geometry": {"type": "Point", "coordinates": [2.4065, 48.849174]}, "properties": {"etat de la localisation": "Hors service", "numparc": 629, "duree": "", "horodatage": "2021-08-19 21:34:18", "marker-color": "#707070"}}, {"type": "Feature", "geometry": {"type": "Point", "coordinates": [2.296566, 48.855148]}, "properties": {"etat de la localisation": "Delocalise", "numparc": 632, "duree": "00:00:08", "horodatage": "2021-08-19 21:54:16", "marker-color": "#FF565E"}}, {"type": "Feature", "geometry": {"type": "Point", "coordinates": [2.295597, 48.854656]}, "properties": {"etat de la localisation": "Delocalise", "numparc": 633, "duree": "00:00:37", "horodatage": "2021-08-19 22:31:14", "marker-color": "#FF565E"}}, {"type": "Feature", "geometry": {"type": "Point", "coordinates": [2.407351, 48.849365]}, "properties": {"etat de la localisation": "Hors service", "numparc": 632, "duree": "", "horodatage": "2021-08-19 22:49:53", "marker-color": "#707070"}}, {"type": "Feature", "geometry": {"type": "Point", "coordinates": [2.406557, 48.849052]}, "properties": {"etat de la localisation": "Hors service", "numparc": 638, "duree": "", "horodatage": "2021-08-19 23:00:06", "marker-color": "#707070"}}, {"type": "Feature", "geometry": {"type": "Point", "coordinates": [2.393569, 48.864002]}, "properties": {"etat de la localisation": "Delocalise", "numparc": 633, "duree": "00:00:28", "horodatage": "2021-08-19 23:10:26", "marker-color": "#FF565E"}}, {"type": "Feature", "geometry": {"type": "Point", "coordinates": [2.406545, 48.849064]}, "properties": {"etat de la localisation": "Hors service", "numparc": 633, "duree": "", "horodatage": "2021-08-19 23:18:12", "marker-color": "#707070"}}, {"type": "Feature", "geometry": {"type": "Point", "coordinates": [2.407292, 48.849525]}, "properties": {"etat de la localisation": "Hors service", "numparc": 635, "duree": "", "horodatage": "2021-08-19 23:33:18", "marker-color": "#707070"}}, {"type": "Feature", "geometry": {"type": "Point", "coordinates": [2.407078, 48.849636]}, "properties": {"etat de la localisation": "Mission inconnue", "numparc": 633, "duree": "", "horodatage": "2021-08-20 00:15:22", "marker-color": "#FF9F56"}}, {"type": "Feature", "geometry": {"type": "Point", "coordinates": [2.407078, 48.849636]}, "properties": {"etat de la localisation": "Hors service", "numparc": 633, "duree": "", "horodatage": "2021-08-20 00:19:56", "marker-color": "#707070"}}]}