{"type": "FeatureCollection", "features": [{"type": "Feature", "geometry": {"type": "Point", "coordinates": [2.579578, 48.850269]}, "properties": {"alarme": "VEHICULE DELOCALISE", "numparc": 5864, "type": "EXPLOITATION", "duree": "00:02:28", "horodatage": "2023-03-15 08:09:48", "statut": "start", "marker-color": "#ff0000"}}, {"type": "Feature", "geometry": {"type": "Point", "coordinates": [2.582036, 48.858849]}, "properties": {"alarme": "DEFAUT LIAISON DATA SAEIV / AIGLE", "numparc": 5893, "type": "TECHNIQUE", "duree": "00:00:05", "horodatage": "2023-03-15 08:37:09", "statut": "start", "marker-color": "#ff0000"}}, {"type": "Feature", "geometry": {"type": "Point", "coordinates": [2.583944, 48.874393]}, "properties": {"alarme": "DEFAUT LIAISON DATA SAEIV / AIGLE", "numparc": 5894, "type": "TECHNIQUE", "duree": "00:00:09", "horodatage": "2023-03-15 08:54:16", "statut": "start", "marker-color": "#ff0000"}}, {"type": "Feature", "geometry": {"type": "Point", "coordinates": [2.582388, 48.856926]}, "properties": {"alarme": "VEHICULE DELOCALISE", "numparc": 5886, "type": "EXPLOITATION", "duree": "00:00:39", "horodatage": "2023-03-15 12:11:34", "statut": "start", "marker-color": "#ff0000"}}, {"type": "Feature", "geometry": {"type": "Point", "coordinates": [2.601117, 48.840824]}, "properties": {"alarme": "VEHICULE DELOCALISE", "numparc": 4984, "type": "EXPLOITATION", "duree": "00:07:12", "horodatage": "2023-03-15 13:48:45", "statut": "start", "marker-color": "#ff0000"}}, {"type": "Feature", "geometry": {"type": "Point", "coordinates": [2.581885, 48.843529]}, "properties": {"alarme": "VEHICULE DELOCALISE", "numparc": 5897, "type": "EXPLOITATION", "duree": "00:00:46", "horodatage": "2023-03-15 18:41:57", "statut": "start", "marker-color": "#ff0000"}}, {"type": "Feature", "geometry": {"type": "Point", "coordinates": [2.585122, 48.845207]}, "properties": {"alarme": "VEHICULE DELOCALISE", "numparc": 5864, "type": "EXPLOITATION", "duree": "00:02:28", "horodatage": "2023-03-15 08:12:16", "statut": "end", "marker-color": "#2fe184"}}, {"type": "Feature", "geometry": {"type": "Point", "coordinates": [2.582036, 48.858849]}, "properties": {"alarme": "DEFAUT LIAISON DATA SAEIV / AIGLE", "numparc": 5893, "type": "TECHNIQUE", "duree": "00:00:05", "horodatage": "2023-03-15 08:37:14", "statut": "end", "marker-color": "#2fe184"}}, {"type": "Feature", "geometry": {"type": "Point", "coordinates": [2.583944, 48.874393]}, "properties": {"alarme": "DEFAUT LIAISON DATA SAEIV / AIGLE", "numparc": 5894, "type": "TECHNIQUE", "duree": "00:00:09", "horodatage": "2023-03-15 08:54:25", "statut": "end", "marker-color": "#2fe184"}}, {"type": "Feature", "geometry": {"type": "Point", "coordinates": [2.582324, 48.85537]}, "properties": {"alarme": "VEHICULE DELOCALISE", "numparc": 5886, "type": "EXPLOITATION", "duree": "00:00:39", "horodatage": "2023-03-15 12:12:13", "statut": "end", "marker-color": "#2fe184"}}, {"type": "Feature", "geometry": {"type": "Point", "coordinates": [2.59301, 48.838043]}, "properties": {"alarme": "VEHICULE DELOCALISE", "numparc": 4984, "type": "EXPLOITATION", "duree": "00:07:12", "horodatage": "2023-03-15 13:55:57", "statut": "end", "marker-color": "#2fe184"}}, {"type": "Feature", "geometry": {"type": "Point", "coordinates": [2.582431, 48.843464]}, "properties": {"alarme": "VEHICULE DELOCALISE", "numparc": 5897, "type": "EXPLOITATION", "duree": "00:00:46", "horodatage": "2023-03-15 18:42:43", "statut": "end", "marker-color": "#2fe184"}}]}