{"type": "FeatureCollection", "features": [{"type": "Feature", "geometry": {"type": "Point", "coordinates": [2.173798, 48.945389]}, "properties": {"etat de la localisation": "Mission suivante non connue", "numparc": 8962, "duree": "", "horodatage": "2022-12-07 05:06:33", "marker-color": "#7156FF"}}, {"type": "Feature", "geometry": {"type": "Point", "coordinates": [2.188749, 48.902302]}, "properties": {"etat de la localisation": "Mission inconnue", "numparc": 8981, "duree": "", "horodatage": "2022-12-07 06:07:27", "marker-color": "#FF9F56"}}, {"type": "Feature", "geometry": {"type": "Point", "coordinates": [2.217434, 48.923336]}, "properties": {"etat de la localisation": "Mission suivante non connue", "numparc": 8981, "duree": "", "horodatage": "2022-12-07 06:24:12", "marker-color": "#7156FF"}}, {"type": "Feature", "geometry": {"type": "Point", "coordinates": [2.217434, 48.923336]}, "properties": {"etat de la localisation": "Hors service", "numparc": 8981, "duree": "", "horodatage": "2022-12-07 06:25:26", "marker-color": "#707070"}}, {"type": "Feature", "geometry": {"type": "Point", "coordinates": [2.217434, 48.923336]}, "properties": {"etat de la localisation": "Mission inconnue", "numparc": 8981, "duree": "", "horodatage": "2022-12-07 06:27:21", "marker-color": "#FF9F56"}}, {"type": "Feature", "geometry": {"type": "Point", "coordinates": [2.189386, 48.902622]}, "properties": {"etat de la localisation": "Mission inconnue", "numparc": 8977, "duree": "", "horodatage": "2022-12-07 06:40:18", "marker-color": "#FF9F56"}}, {"type": "Feature", "geometry": {"type": "Point", "coordinates": [2.157752, 48.937973]}, "properties": {"etat de la localisation": "Mission suivante non connue", "numparc": 8962, "duree": "", "horodatage": "2022-12-07 06:45:51", "marker-color": "#7156FF"}}, {"type": "Feature", "geometry": {"type": "Point", "coordinates": [2.157756, 48.937943]}, "properties": {"etat de la localisation": "Mission suivante non connue", "numparc": 8968, "duree": "", "horodatage": "2022-12-07 06:48:38", "marker-color": "#7156FF"}}, {"type": "Feature", "geometry": {"type": "Point", "coordinates": [2.157614, 48.93803]}, "properties": {"etat de la localisation": "Mission suivante non connue", "numparc": 8976, "duree": "", "horodatage": "2022-12-07 07:07:43", "marker-color": "#7156FF"}}, {"type": "Feature", "geometry": {"type": "Point", "coordinates": [2.257017, 48.946911]}, "properties": {"etat de la localisation": "Mission suivante non connue", "numparc": 8962, "duree": "", "horodatage": "2022-12-07 07:48:53", "marker-color": "#7156FF"}}, {"type": "Feature", "geometry": {"type": "Point", "coordinates": [2.258049, 48.945915]}, "properties": {"etat de la localisation": "Mission inconnue", "numparc": 8962, "duree": "", "horodatage": "2022-12-07 07:50:53", "marker-color": "#FF9F56"}}, {"type": "Feature", "geometry": {"type": "Point", "coordinates": [2.256921, 48.947071]}, "properties": {"etat de la localisation": "Mission suivante non connue", "numparc": 8968, "duree": "", "horodatage": "2022-12-07 07:57:55", "marker-color": "#7156FF"}}, {"type": "Feature", "geometry": {"type": "Point", "coordinates": [2.158738, 48.937313]}, "properties": {"etat de la localisation": "Hors service", "numparc": 8971, "duree": "", "horodatage": "2022-12-07 08:20:16", "marker-color": "#707070"}}, {"type": "Feature", "geometry": {"type": "Point", "coordinates": [2.157903, 48.93787]}, "properties": {"etat de la localisation": "Mission suivante non connue", "numparc": 8962, "duree": "", "horodatage": "2022-12-07 09:02:20", "marker-color": "#7156FF"}}, {"type": "Feature", "geometry": {"type": "Point", "coordinates": [2.157632, 48.938007]}, "properties": {"etat de la localisation": "Mission suivante non connue", "numparc": 8968, "duree": "", "horodatage": "2022-12-07 09:23:02", "marker-color": "#7156FF"}}, {"type": "Feature", "geometry": {"type": "Point", "coordinates": [2.244601, 48.941502]}, "properties": {"etat de la localisation": "Deviation programmee", "numparc": 8941, "duree": "", "horodatage": "2022-12-07 09:24:43", "marker-color": "#56FF93"}}, {"type": "Feature", "geometry": {"type": "Point", "coordinates": [2.234989, 48.931206]}, "properties": {"etat de la localisation": "Delocalise", "numparc": 8981, "duree": "00:05:19", "horodatage": "2022-12-07 09:45:16", "marker-color": "#FF565E"}}, {"type": "Feature", "geometry": {"type": "Point", "coordinates": [2.228296, 48.930634]}, "properties": {"etat de la localisation": "Deviation programmee", "numparc": 8960, "duree": "", "horodatage": "2022-12-07 09:47:35", "marker-color": "#56FF93"}}, {"type": "Feature", "geometry": {"type": "Point", "coordinates": [2.158641, 48.9375]}, "properties": {"etat de la localisation": "Hors service", "numparc": 8976, "duree": "", "horodatage": "2022-12-07 09:54:17", "marker-color": "#707070"}}, {"type": "Feature", "geometry": {"type": "Point", "coordinates": [2.25795, 48.946026]}, "properties": {"etat de la localisation": "Hors service", "numparc": 8941, "duree": "", "horodatage": "2022-12-07 09:54:20", "marker-color": "#707070"}}, {"type": "Feature", "geometry": {"type": "Point", "coordinates": [2.228376, 48.930672]}, "properties": {"etat de la localisation": "Deviation programmee", "numparc": 8976, "duree": "", "horodatage": "2022-12-07 10:32:29", "marker-color": "#56FF93"}}, {"type": "Feature", "geometry": {"type": "Point", "coordinates": [2.256869, 48.947132]}, "properties": {"etat de la localisation": "Mission suivante non connue", "numparc": 8968, "duree": "", "horodatage": "2022-12-07 10:35:43", "marker-color": "#7156FF"}}, {"type": "Feature", "geometry": {"type": "Point", "coordinates": [2.257057, 48.946941]}, "properties": {"etat de la localisation": "Mission suivante non connue", "numparc": 8976, "duree": "", "horodatage": "2022-12-07 10:48:27", "marker-color": "#7156FF"}}, {"type": "Feature", "geometry": {"type": "Point", "coordinates": [2.256924, 48.947083]}, "properties": {"etat de la localisation": "Mission suivante non connue", "numparc": 8974, "duree": "", "horodatage": "2022-12-07 10:48:31", "marker-color": "#7156FF"}}, {"type": "Feature", "geometry": {"type": "Point", "coordinates": [2.157713, 48.938061]}, "properties": {"etat de la localisation": "Hors service", "numparc": 8979, "duree": "", "horodatage": "2022-12-07 10:54:22", "marker-color": "#707070"}}, {"type": "Feature", "geometry": {"type": "Point", "coordinates": [2.189342, 48.902596]}, "properties": {"etat de la localisation": "Hors service", "numparc": 8962, "duree": "", "horodatage": "2022-12-07 11:04:11", "marker-color": "#707070"}}, {"type": "Feature", "geometry": {"type": "Point", "coordinates": [2.157872, 48.937866]}, "properties": {"etat de la localisation": "Mission suivante non connue", "numparc": 8968, "duree": "", "horodatage": "2022-12-07 11:46:08", "marker-color": "#7156FF"}}, {"type": "Feature", "geometry": {"type": "Point", "coordinates": [2.158781, 48.937302]}, "properties": {"etat de la localisation": "Hors service", "numparc": 8966, "duree": "", "horodatage": "2022-12-07 12:28:47", "marker-color": "#707070"}}, {"type": "Feature", "geometry": {"type": "Point", "coordinates": [2.21769, 48.923393]}, "properties": {"etat de la localisation": "Mission suivante non connue", "numparc": 8968, "duree": "", "horodatage": "2022-12-07 12:45:45", "marker-color": "#7156FF"}}, {"type": "Feature", "geometry": {"type": "Point", "coordinates": [2.21769, 48.92347]}, "properties": {"etat de la localisation": "Mission suivante non connue", "numparc": 8974, "duree": "", "horodatage": "2022-12-07 12:50:39", "marker-color": "#7156FF"}}, {"type": "Feature", "geometry": {"type": "Point", "coordinates": [2.217771, 48.923016]}, "properties": {"etat de la localisation": "Mission suivante non connue", "numparc": 8974, "duree": "", "horodatage": "2022-12-07 12:51:27", "marker-color": "#7156FF"}}, {"type": "Feature", "geometry": {"type": "Point", "coordinates": [2.217499, 48.923004]}, "properties": {"etat de la localisation": "Mission inconnue", "numparc": 8974, "duree": "", "horodatage": "2022-12-07 12:56:04", "marker-color": "#FF9F56"}}, {"type": "Feature", "geometry": {"type": "Point", "coordinates": [2.188724, 48.902725]}, "properties": {"etat de la localisation": "Hors service", "numparc": 8968, "duree": "", "horodatage": "2022-12-07 13:07:28", "marker-color": "#707070"}}, {"type": "Feature", "geometry": {"type": "Point", "coordinates": [2.189341, 48.902596]}, "properties": {"etat de la localisation": "Mission inconnue", "numparc": 8962, "duree": "", "horodatage": "2022-12-07 14:33:55", "marker-color": "#FF9F56"}}, {"type": "Feature", "geometry": {"type": "Point", "coordinates": [2.189824, 48.902596]}, "properties": {"etat de la localisation": "Hors service", "numparc": 8966, "duree": "", "horodatage": "2022-12-07 15:27:37", "marker-color": "#707070"}}, {"type": "Feature", "geometry": {"type": "Point", "coordinates": [2.157664, 48.938019]}, "properties": {"etat de la localisation": "Mission suivante non connue", "numparc": 8976, "duree": "", "horodatage": "2022-12-07 16:56:09", "marker-color": "#7156FF"}}, {"type": "Feature", "geometry": {"type": "Point", "coordinates": [2.188873, 48.902767]}, "properties": {"etat de la localisation": "Hors service", "numparc": 8946, "duree": "", "horodatage": "2022-12-07 17:56:34", "marker-color": "#707070"}}, {"type": "Feature", "geometry": {"type": "Point", "coordinates": [2.256821, 48.94717]}, "properties": {"etat de la localisation": "Mission suivante non connue", "numparc": 8962, "duree": "", "horodatage": "2022-12-07 17:57:38", "marker-color": "#7156FF"}}, {"type": "Feature", "geometry": {"type": "Point", "coordinates": [2.188891, 48.902596]}, "properties": {"etat de la localisation": "Hors service", "numparc": 8950, "duree": "", "horodatage": "2022-12-07 18:47:27", "marker-color": "#707070"}}, {"type": "Feature", "geometry": {"type": "Point", "coordinates": [2.188707, 48.902695]}, "properties": {"etat de la localisation": "Hors service", "numparc": 8970, "duree": "", "horodatage": "2022-12-07 19:11:45", "marker-color": "#707070"}}, {"type": "Feature", "geometry": {"type": "Point", "coordinates": [2.188739, 48.90266]}, "properties": {"etat de la localisation": "Hors service", "numparc": 8974, "duree": "", "horodatage": "2022-12-07 19:15:03", "marker-color": "#707070"}}, {"type": "Feature", "geometry": {"type": "Point", "coordinates": [2.188872, 48.902561]}, "properties": {"etat de la localisation": "Hors service", "numparc": 8935, "duree": "", "horodatage": "2022-12-07 19:28:28", "marker-color": "#707070"}}, {"type": "Feature", "geometry": {"type": "Point", "coordinates": [2.188873, 48.902626]}, "properties": {"etat de la localisation": "Hors service", "numparc": 8960, "duree": "", "horodatage": "2022-12-07 19:47:19", "marker-color": "#707070"}}, {"type": "Feature", "geometry": {"type": "Point", "coordinates": [2.189022, 48.902367]}, "properties": {"etat de la localisation": "Hors service", "numparc": 8976, "duree": "", "horodatage": "2022-12-07 19:53:45", "marker-color": "#707070"}}, {"type": "Feature", "geometry": {"type": "Point", "coordinates": [2.189157, 48.90229]}, "properties": {"etat de la localisation": "Hors service", "numparc": 8981, "duree": "", "horodatage": "2022-12-07 20:05:46", "marker-color": "#707070"}}, {"type": "Feature", "geometry": {"type": "Point", "coordinates": [2.189041, 48.902431]}, "properties": {"etat de la localisation": "Hors service", "numparc": 8961, "duree": "", "horodatage": "2022-12-07 20:09:51", "marker-color": "#707070"}}, {"type": "Feature", "geometry": {"type": "Point", "coordinates": [2.189147, 48.902431]}, "properties": {"etat de la localisation": "Hors service", "numparc": 8977, "duree": "", "horodatage": "2022-12-07 20:24:54", "marker-color": "#707070"}}, {"type": "Feature", "geometry": {"type": "Point", "coordinates": [2.157906, 48.937828]}, "properties": {"etat de la localisation": "Mission suivante non connue", "numparc": 8962, "duree": "", "horodatage": "2022-12-07 21:05:44", "marker-color": "#7156FF"}}, {"type": "Feature", "geometry": {"type": "Point", "coordinates": [2.189591, 48.902489]}, "properties": {"etat de la localisation": "Hors service", "numparc": 8982, "duree": "", "horodatage": "2022-12-07 21:18:48", "marker-color": "#707070"}}, {"type": "Feature", "geometry": {"type": "Point", "coordinates": [2.203413, 48.941479]}, "properties": {"etat de la localisation": "Delocalise", "numparc": 8939, "duree": "00:00:46", "horodatage": "2022-12-07 21:24:26", "marker-color": "#FF565E"}}, {"type": "Feature", "geometry": {"type": "Point", "coordinates": [2.189428, 48.902645]}, "properties": {"etat de la localisation": "Hors service", "numparc": 8962, "duree": "", "horodatage": "2022-12-07 21:31:51", "marker-color": "#707070"}}, {"type": "Feature", "geometry": {"type": "Point", "coordinates": [2.258155, 48.945869]}, "properties": {"etat de la localisation": "Mission inconnue", "numparc": 8939, "duree": "", "horodatage": "2022-12-07 21:49:58", "marker-color": "#FF9F56"}}, {"type": "Feature", "geometry": {"type": "Point", "coordinates": [2.189267, 48.902767]}, "properties": {"etat de la localisation": "Hors service", "numparc": 8941, "duree": "", "horodatage": "2022-12-07 21:50:41", "marker-color": "#707070"}}, {"type": "Feature", "geometry": {"type": "Point", "coordinates": [2.258277, 48.94569]}, "properties": {"etat de la localisation": "Mission inconnue", "numparc": 8939, "duree": "", "horodatage": "2022-12-07 21:52:11", "marker-color": "#FF9F56"}}, {"type": "Feature", "geometry": {"type": "Point", "coordinates": [2.257715, 48.945755]}, "properties": {"etat de la localisation": "Hors service", "numparc": 8964, "duree": "", "horodatage": "2022-12-07 23:44:22", "marker-color": "#707070"}}, {"type": "Feature", "geometry": {"type": "Point", "coordinates": [2.254721, 48.944729]}, "properties": {"etat de la localisation": "Delocalise", "numparc": 8972, "duree": "00:18:17", "horodatage": "2022-12-08 00:50:18", "marker-color": "#FF565E"}}, {"type": "Feature", "geometry": {"type": "Point", "coordinates": [2.189646, 48.902496]}, "properties": {"etat de la localisation": "Hors service", "numparc": 8972, "duree": "", "horodatage": "2022-12-08 01:08:35", "marker-color": "#707070"}}, {"type": "Feature", "geometry": {"type": "Point", "coordinates": [2.15876, 48.937325]}, "properties": {"etat de la localisation": "Mission inconnue", "numparc": 8939, "duree": "", "horodatage": "2022-12-08 01:12:49", "marker-color": "#FF9F56"}}, {"type": "Feature", "geometry": {"type": "Point", "coordinates": [2.189466, 48.902626]}, "properties": {"etat de la localisation": "Hors service", "numparc": 8969, "duree": "", "horodatage": "2022-12-08 01:38:46", "marker-color": "#707070"}}, {"type": "Feature", "geometry": {"type": "Point", "coordinates": [2.189843, 48.902599]}, "properties": {"etat de la localisation": "Hors service", "numparc": 8964, "duree": "", "horodatage": "2022-12-08 01:40:15", "marker-color": "#707070"}}, {"type": "Feature", "geometry": {"type": "Point", "coordinates": [2.18968, 48.902523]}, "properties": {"etat de la localisation": "Hors service", "numparc": 8950, "duree": "", "horodatage": "2022-12-08 01:46:43", "marker-color": "#707070"}}, {"type": "Feature", "geometry": {"type": "Point", "coordinates": [2.189524, 48.902653]}, "properties": {"etat de la localisation": "Hors service", "numparc": 8939, "duree": "", "horodatage": "2022-12-08 01:48:04", "marker-color": "#707070"}}, {"type": "Feature", "geometry": {"type": "Point", "coordinates": [2.18939, 48.902802]}, "properties": {"etat de la localisation": "Hors service", "numparc": 8973, "duree": "", "horodatage": "2022-12-08 01:48:37", "marker-color": "#707070"}}, {"type": "Feature", "geometry": {"type": "Point", "coordinates": [2.189334, 48.902809]}, "properties": {"etat de la localisation": "Hors service", "numparc": 8959, "duree": "", "horodatage": "2022-12-08 02:01:31", "marker-color": "#707070"}}]}