{"type": "FeatureCollection", "features": [{"type": "Feature", "geometry": {"type": "Point", "coordinates": [2.44943, 48.907406]}, "properties": {"etat de la localisation": "Delocalise", "numparc": 4934, "duree": "00:00:37", "horodatage": "2022-01-12 05:58:32", "marker-color": "#FF565E"}}, {"type": "Feature", "geometry": {"type": "Point", "coordinates": [2.445668, 48.906757]}, "properties": {"etat de la localisation": "Deviation programmee", "numparc": 4934, "duree": "", "horodatage": "2022-01-12 06:01:12", "marker-color": "#56FF93"}}, {"type": "Feature", "geometry": {"type": "Point", "coordinates": [2.441832, 48.89933]}, "properties": {"etat de la localisation": "Deviation programmee", "numparc": 4934, "duree": "", "horodatage": "2022-01-12 07:34:58", "marker-color": "#56FF93"}}, {"type": "Feature", "geometry": {"type": "Point", "coordinates": [2.445747, 48.906734]}, "properties": {"etat de la localisation": "Deviation programmee", "numparc": 4934, "duree": "", "horodatage": "2022-01-12 08:19:29", "marker-color": "#56FF93"}}, {"type": "Feature", "geometry": {"type": "Point", "coordinates": [2.441854, 48.899307]}, "properties": {"etat de la localisation": "Deviation programmee", "numparc": 4934, "duree": "", "horodatage": "2022-01-12 10:08:53", "marker-color": "#56FF93"}}, {"type": "Feature", "geometry": {"type": "Point", "coordinates": [2.445703, 48.906754]}, "properties": {"etat de la localisation": "Deviation programmee", "numparc": 4934, "duree": "", "horodatage": "2022-01-12 10:30:42", "marker-color": "#56FF93"}}, {"type": "Feature", "geometry": {"type": "Point", "coordinates": [2.452534, 48.890377]}, "properties": {"etat de la localisation": "Mission suivante non connue", "numparc": 4934, "duree": "", "horodatage": "2022-01-12 12:12:21", "marker-color": "#7156FF"}}, {"type": "Feature", "geometry": {"type": "Point", "coordinates": [2.452533, 48.890377]}, "properties": {"etat de la localisation": "Mission inconnue", "numparc": 4934, "duree": "", "horodatage": "2022-01-12 12:12:54", "marker-color": "#FF9F56"}}, {"type": "Feature", "geometry": {"type": "Point", "coordinates": [2.427616, 48.878754]}, "properties": {"etat de la localisation": "Hors service", "numparc": 4934, "duree": "", "horodatage": "2022-01-12 12:33:59", "marker-color": "#707070"}}]}