{"type": "FeatureCollection", "features": [{"type": "Feature", "geometry": {"type": "Point", "coordinates": [2.297165, 48.721508]}, "properties": {"numparc": 4875, "etat de la localisation": "autre", "ID BDGEO": "118", "horodatage": "2021-08-23 05:18:32", "distance (en metres)": 66.1, "station": "CENTRE BUS DE MASSY-SORTIE", "marker-color": "#818181"}}, {"type": "Feature", "geometry": {"type": "Point", "coordinates": [2.297425, 48.721058]}, "properties": {"numparc": 4875, "etat de la localisation": "autre", "ID BDGEO": "17", "horodatage": "2021-08-23 05:22:48", "distance (en metres)": 2900.33, "station": "VALLEE DE LA BIEVRE", "marker-color": "#818181"}}, {"type": "Feature", "geometry": {"type": "Point", "coordinates": [2.297425, 48.721058]}, "properties": {"numparc": 4875, "etat de la localisation": "autre", "ID BDGEO": "17", "horodatage": "2021-08-23 05:23:17", "distance (en metres)": 2900.33, "station": "VALLEE DE LA BIEVRE", "marker-color": "#818181"}}, {"type": "Feature", "geometry": {"type": "Point", "coordinates": [2.268569, 48.737362]}, "properties": {"numparc": 4875, "etat de la localisation": "autre", "ID BDGEO": "17", "horodatage": "2021-08-23 05:35:56", "distance (en metres)": 114.52, "station": "VALLEE DE LA BIEVRE", "marker-color": "#818181"}}, {"type": "Feature", "geometry": {"type": "Point", "coordinates": [2.297288, 48.721298]}, "properties": {"numparc": 4878, "etat de la localisation": "autre", "ID BDGEO": "118", "horodatage": "2021-08-23 05:52:33", "distance (en metres)": 89.22, "station": "CENTRE BUS DE MASSY-SORTIE", "marker-color": "#818181"}}, {"type": "Feature", "geometry": {"type": "Point", "coordinates": [2.297564, 48.721653]}, "properties": {"numparc": 4881, "etat de la localisation": "autre", "ID BDGEO": "45", "horodatage": "2021-08-23 06:54:10", "distance (en metres)": 2834.4, "station": "VALLEE DE LA BIEVRE", "marker-color": "#818181"}}, {"type": "Feature", "geometry": {"type": "Point", "coordinates": [2.297564, 48.721653]}, "properties": {"numparc": 4881, "etat de la localisation": "autre", "ID BDGEO": "45", "horodatage": "2021-08-23 06:55:00", "distance (en metres)": 2834.4, "station": "VALLEE DE LA BIEVRE", "marker-color": "#818181"}}, {"type": "Feature", "geometry": {"type": "Point", "coordinates": [2.297564, 48.721653]}, "properties": {"numparc": 4881, "etat de la localisation": "autre", "ID BDGEO": "45", "horodatage": "2021-08-23 06:56:05", "distance (en metres)": 2834.4, "station": "VALLEE DE LA BIEVRE", "marker-color": "#818181"}}, {"type": "Feature", "geometry": {"type": "Point", "coordinates": [2.277279, 48.758083]}, "properties": {"numparc": 4875, "etat de la localisation": "Deviation programmee", "ID BDGEO": "25", "horodatage": "2021-08-23 08:01:30", "distance (en metres)": 72.44, "station": "LES GODETS", "marker-color": "#56FF93"}}, {"type": "Feature", "geometry": {"type": "Point", "coordinates": [2.277364, 48.758324]}, "properties": {"numparc": 4877, "etat de la localisation": "Deviation programmee", "ID BDGEO": "36", "horodatage": "2021-08-23 08:16:56", "distance (en metres)": 68.35, "station": "LES GODETS", "marker-color": "#56FF93"}}, {"type": "Feature", "geometry": {"type": "Point", "coordinates": [2.295375, 48.756077]}, "properties": {"numparc": 4881, "etat de la localisation": "Deviation programmee", "ID BDGEO": "32", "horodatage": "2021-08-23 08:19:12", "distance (en metres)": 169.53, "station": "THEATRE-MAIRIE", "marker-color": "#56FF93"}}, {"type": "Feature", "geometry": {"type": "Point", "coordinates": [2.277347, 48.758293]}, "properties": {"numparc": 4875, "etat de la localisation": "Deviation programmee", "ID BDGEO": "36", "horodatage": "2021-08-23 08:31:52", "distance (en metres)": 65.06, "station": "LES GODETS", "marker-color": "#56FF93"}}, {"type": "Feature", "geometry": {"type": "Point", "coordinates": [2.277255, 48.758129]}, "properties": {"numparc": 4881, "etat de la localisation": "Deviation programmee", "ID BDGEO": "36", "horodatage": "2021-08-23 08:44:07", "distance (en metres)": 48.59, "station": "LES GODETS", "marker-color": "#56FF93"}}, {"type": "Feature", "geometry": {"type": "Point", "coordinates": [2.301457, 48.755573]}, "properties": {"numparc": 4873, "etat de la localisation": "autre", "ID BDGEO": "82", "horodatage": "2021-08-23 08:48:46", "distance (en metres)": 47.86, "station": "ANTONY RER", "marker-color": "#818181"}}, {"type": "Feature", "geometry": {"type": "Point", "coordinates": [2.295384, 48.75602]}, "properties": {"numparc": 4878, "etat de la localisation": "Deviation programmee", "ID BDGEO": "30", "horodatage": "2021-08-23 09:00:30", "distance (en metres)": 110.98, "station": "THEATRE-MAIRIE", "marker-color": "#56FF93"}}, {"type": "Feature", "geometry": {"type": "Point", "coordinates": [2.256612, 48.725788]}, "properties": {"numparc": 4881, "etat de la localisation": "autre", "ID BDGEO": "10", "horodatage": "2021-08-23 09:05:33", "distance (en metres)": 58.78, "station": "MASSY-PALAISEAU RER", "marker-color": "#818181"}}, {"type": "Feature", "geometry": {"type": "Point", "coordinates": [2.277284, 48.758102]}, "properties": {"numparc": 4877, "etat de la localisation": "Deviation programmee", "ID BDGEO": "25", "horodatage": "2021-08-23 09:11:23", "distance (en metres)": 73.87, "station": "LES GODETS", "marker-color": "#56FF93"}}, {"type": "Feature", "geometry": {"type": "Point", "coordinates": [2.296639, 48.721535]}, "properties": {"numparc": 4874, "etat de la localisation": "autre", "ID BDGEO": "17", "horodatage": "2021-08-23 09:24:32", "distance (en metres)": 2822.02, "station": "VALLEE DE LA BIEVRE", "marker-color": "#818181"}}, {"type": "Feature", "geometry": {"type": "Point", "coordinates": [2.277319, 48.758289]}, "properties": {"numparc": 4878, "etat de la localisation": "Deviation programmee", "ID BDGEO": "36", "horodatage": "2021-08-23 09:29:41", "distance (en metres)": 64.9, "station": "LES GODETS", "marker-color": "#56FF93"}}, {"type": "Feature", "geometry": {"type": "Point", "coordinates": [2.30112, 48.755554]}, "properties": {"numparc": 4877, "etat de la localisation": "autre", "ID BDGEO": "82", "horodatage": "2021-08-23 09:29:46", "distance (en metres)": 45.2, "station": "ANTONY RER", "marker-color": "#818181"}}, {"type": "Feature", "geometry": {"type": "Point", "coordinates": [2.301454, 48.755505]}, "properties": {"numparc": 4877, "etat de la localisation": "autre", "ID BDGEO": "82", "horodatage": "2021-08-23 09:30:40", "distance (en metres)": 40.59, "station": "ANTONY RER", "marker-color": "#818181"}}, {"type": "Feature", "geometry": {"type": "Point", "coordinates": [2.277014, 48.757729]}, "properties": {"numparc": 4881, "etat de la localisation": "Deviation programmee", "ID BDGEO": "25", "horodatage": "2021-08-23 09:35:34", "distance (en metres)": 67.28, "station": "LES GODETS", "marker-color": "#56FF93"}}, {"type": "Feature", "geometry": {"type": "Point", "coordinates": [2.277491, 48.758568]}, "properties": {"numparc": 4881, "etat de la localisation": "Deviation programmee", "ID BDGEO": "25", "horodatage": "2021-08-23 09:36:07", "distance (en metres)": 114.19, "station": "LES GODETS", "marker-color": "#56FF93"}}, {"type": "Feature", "geometry": {"type": "Point", "coordinates": [2.290851, 48.761009]}, "properties": {"numparc": 4881, "etat de la localisation": "Deviation programmee", "ID BDGEO": "27", "horodatage": "2021-08-23 09:41:16", "distance (en metres)": 687.73, "station": "JULIEN PERIN", "marker-color": "#56FF93"}}, {"type": "Feature", "geometry": {"type": "Point", "coordinates": [2.27733, 48.758297]}, "properties": {"numparc": 4877, "etat de la localisation": "Deviation programmee", "ID BDGEO": "36", "horodatage": "2021-08-23 09:46:57", "distance (en metres)": 65.66, "station": "LES GODETS", "marker-color": "#56FF93"}}, {"type": "Feature", "geometry": {"type": "Point", "coordinates": [2.282584, 48.762337]}, "properties": {"numparc": 4881, "etat de la localisation": "Deviation programmee", "ID BDGEO": "36", "horodatage": "2021-08-23 10:02:42", "distance (en metres)": 637.08, "station": "LES GODETS", "marker-color": "#56FF93"}}, {"type": "Feature", "geometry": {"type": "Point", "coordinates": [2.277274, 48.758163]}, "properties": {"numparc": 4881, "etat de la localisation": "Deviation programmee", "ID BDGEO": "36", "horodatage": "2021-08-23 10:05:30", "distance (en metres)": 51.84, "station": "LES GODETS", "marker-color": "#56FF93"}}, {"type": "Feature", "geometry": {"type": "Point", "coordinates": [2.277296, 48.758232]}, "properties": {"numparc": 4873, "etat de la localisation": "Deviation programmee", "ID BDGEO": "36", "horodatage": "2021-08-23 10:26:26", "distance (en metres)": 58.95, "station": "LES GODETS", "marker-color": "#56FF93"}}, {"type": "Feature", "geometry": {"type": "Point", "coordinates": [2.298523, 48.721657]}, "properties": {"numparc": 4874, "etat de la localisation": "autre", "ID BDGEO": "118", "horodatage": "2021-08-23 10:28:05", "distance (en metres)": 105.76, "station": "CENTRE BUS DE MASSY-SORTIE", "marker-color": "#818181"}}, {"type": "Feature", "geometry": {"type": "Point", "coordinates": [2.301432, 48.755505]}, "properties": {"numparc": 4878, "etat de la localisation": "autre", "ID BDGEO": "82", "horodatage": "2021-08-23 10:41:40", "distance (en metres)": 40.09, "station": "ANTONY RER", "marker-color": "#818181"}}, {"type": "Feature", "geometry": {"type": "Point", "coordinates": [2.298272, 48.721863]}, "properties": {"numparc": 4881, "etat de la localisation": "autre", "ID BDGEO": "118", "horodatage": "2021-08-23 10:42:45", "distance (en metres)": 79.66, "station": "CENTRE BUS DE MASSY-SORTIE", "marker-color": "#818181"}}, {"type": "Feature", "geometry": {"type": "Point", "coordinates": [2.296721, 48.721745]}, "properties": {"numparc": 4881, "etat de la localisation": "autre", "ID BDGEO": "118", "horodatage": "2021-08-23 10:45:27", "distance (en metres)": 55.21, "station": "CENTRE BUS DE MASSY-SORTIE", "marker-color": "#818181"}}, {"type": "Feature", "geometry": {"type": "Point", "coordinates": [2.25688, 48.725842]}, "properties": {"numparc": 4873, "etat de la localisation": "autre", "ID BDGEO": "10", "horodatage": "2021-08-23 10:47:45", "distance (en metres)": 41.1, "station": "MASSY-PALAISEAU RER", "marker-color": "#818181"}}, {"type": "Feature", "geometry": {"type": "Point", "coordinates": [2.277287, 48.758099]}, "properties": {"numparc": 4877, "etat de la localisation": "Deviation programmee", "ID BDGEO": "25", "horodatage": "2021-08-23 10:55:19", "distance (en metres)": 73.47, "station": "LES GODETS", "marker-color": "#56FF93"}}, {"type": "Feature", "geometry": {"type": "Point", "coordinates": [2.295338, 48.756084]}, "properties": {"numparc": 4877, "etat de la localisation": "Deviation programmee", "ID BDGEO": "30", "horodatage": "2021-08-23 11:01:30", "distance (en metres)": 117.39, "station": "THEATRE-MAIRIE", "marker-color": "#56FF93"}}, {"type": "Feature", "geometry": {"type": "Point", "coordinates": [2.298523, 48.721657]}, "properties": {"numparc": 4874, "etat de la localisation": "autre", "ID BDGEO": "45", "horodatage": "2021-08-23 11:05:49", "distance (en metres)": 2888.84, "station": "VALLEE DE LA BIEVRE", "marker-color": "#818181"}}, {"type": "Feature", "geometry": {"type": "Point", "coordinates": [2.296618, 48.721527]}, "properties": {"numparc": 4874, "etat de la localisation": "autre", "ID BDGEO": "118", "horodatage": "2021-08-23 11:10:49", "distance (en metres)": 78.67, "station": "CENTRE BUS DE MASSY-SORTIE", "marker-color": "#818181"}}, {"type": "Feature", "geometry": {"type": "Point", "coordinates": [2.277351, 48.758259]}, "properties": {"numparc": 4878, "etat de la localisation": "Deviation programmee", "ID BDGEO": "36", "horodatage": "2021-08-23 11:12:00", "distance (en metres)": 61.27, "station": "LES GODETS", "marker-color": "#56FF93"}}, {"type": "Feature", "geometry": {"type": "Point", "coordinates": [2.297398, 48.7215]}, "properties": {"numparc": 4882, "etat de la localisation": "autre", "ID BDGEO": "118", "horodatage": "2021-08-23 11:57:41", "distance (en metres)": 67.62, "station": "CENTRE BUS DE MASSY-SORTIE", "marker-color": "#818181"}}, {"type": "Feature", "geometry": {"type": "Point", "coordinates": [2.297398, 48.7215]}, "properties": {"numparc": 4882, "etat de la localisation": "autre", "ID BDGEO": "118", "horodatage": "2021-08-23 11:58:01", "distance (en metres)": 67.62, "station": "CENTRE BUS DE MASSY-SORTIE", "marker-color": "#818181"}}, {"type": "Feature", "geometry": {"type": "Point", "coordinates": [2.27731, 48.75816]}, "properties": {"numparc": 4878, "etat de la localisation": "Deviation programmee", "ID BDGEO": "25", "horodatage": "2021-08-23 12:01:41", "distance (en metres)": 77.98, "station": "LES GODETS", "marker-color": "#56FF93"}}, {"type": "Feature", "geometry": {"type": "Point", "coordinates": [2.297398, 48.7215]}, "properties": {"numparc": 4882, "etat de la localisation": "autre", "ID BDGEO": "118", "horodatage": "2021-08-23 12:05:12", "distance (en metres)": 67.62, "station": "CENTRE BUS DE MASSY-SORTIE", "marker-color": "#818181"}}, {"type": "Feature", "geometry": {"type": "Point", "coordinates": [2.297518, 48.721195]}, "properties": {"numparc": 4882, "etat de la localisation": "autre", "ID BDGEO": "118", "horodatage": "2021-08-23 12:10:40", "distance (en metres)": 102.57, "station": "CENTRE BUS DE MASSY-SORTIE", "marker-color": "#818181"}}, {"type": "Feature", "geometry": {"type": "Point", "coordinates": [2.277342, 48.758289]}, "properties": {"numparc": 4878, "etat de la localisation": "Deviation programmee", "ID BDGEO": "36", "horodatage": "2021-08-23 12:25:09", "distance (en metres)": 64.67, "station": "LES GODETS", "marker-color": "#56FF93"}}, {"type": "Feature", "geometry": {"type": "Point", "coordinates": [2.277313, 48.758289]}, "properties": {"numparc": 4873, "etat de la localisation": "Deviation programmee", "ID BDGEO": "36", "horodatage": "2021-08-23 12:44:53", "distance (en metres)": 64.97, "station": "LES GODETS", "marker-color": "#56FF93"}}, {"type": "Feature", "geometry": {"type": "Point", "coordinates": [2.277346, 48.758301]}, "properties": {"numparc": 4882, "etat de la localisation": "autre", "ID BDGEO": "25", "horodatage": "2021-08-23 13:12:02", "distance (en metres)": 90.2, "station": "LES GODETS", "marker-color": "#818181"}}, {"type": "Feature", "geometry": {"type": "Point", "coordinates": [2.269067, 48.745892]}, "properties": {"numparc": 4882, "etat de la localisation": "autre", "ID BDGEO": "107", "horodatage": "2021-08-23 13:17:05", "distance (en metres)": 104.35, "station": "PARON", "marker-color": "#818181"}}, {"type": "Feature", "geometry": {"type": "Point", "coordinates": [2.26629, 48.744545]}, "properties": {"numparc": 4882, "etat de la localisation": "autre", "ID BDGEO": "20", "horodatage": "2021-08-23 13:17:59", "distance (en metres)": 59.98, "station": "FOCH-LECLERC", "marker-color": "#818181"}}, {"type": "Feature", "geometry": {"type": "Point", "coordinates": [2.277498, 48.758595]}, "properties": {"numparc": 4878, "etat de la localisation": "Deviation programmee", "ID BDGEO": "25", "horodatage": "2021-08-23 13:21:22", "distance (en metres)": 116.95, "station": "LES GODETS", "marker-color": "#56FF93"}}, {"type": "Feature", "geometry": {"type": "Point", "coordinates": [2.267723, 48.737778]}, "properties": {"numparc": 4882, "etat de la localisation": "autre", "ID BDGEO": "17", "horodatage": "2021-08-23 13:23:37", "distance (en metres)": 41.69, "station": "VALLEE DE LA BIEVRE", "marker-color": "#818181"}}, {"type": "Feature", "geometry": {"type": "Point", "coordinates": [2.262743, 48.736534]}, "properties": {"numparc": 4882, "etat de la localisation": "autre", "ID BDGEO": "16", "horodatage": "2021-08-23 13:25:39", "distance (en metres)": 55.37, "station": "EMILE ZOLA", "marker-color": "#818181"}}, {"type": "Feature", "geometry": {"type": "Point", "coordinates": [2.295378, 48.756058]}, "properties": {"numparc": 4878, "etat de la localisation": "Deviation programmee", "ID BDGEO": "30", "horodatage": "2021-08-23 13:28:29", "distance (en metres)": 115.04, "station": "THEATRE-MAIRIE", "marker-color": "#56FF93"}}, {"type": "Feature", "geometry": {"type": "Point", "coordinates": [2.277534, 48.75861]}, "properties": {"numparc": 4873, "etat de la localisation": "Deviation programmee", "ID BDGEO": "25", "horodatage": "2021-08-23 13:36:46", "distance (en metres)": 117.94, "station": "LES GODETS", "marker-color": "#56FF93"}}, {"type": "Feature", "geometry": {"type": "Point", "coordinates": [2.295375, 48.756073]}, "properties": {"numparc": 4873, "etat de la localisation": "Deviation programmee", "ID BDGEO": "30", "horodatage": "2021-08-23 13:42:58", "distance (en metres)": 116.64, "station": "THEATRE-MAIRIE", "marker-color": "#56FF93"}}, {"type": "Feature", "geometry": {"type": "Point", "coordinates": [2.277322, 48.758247]}, "properties": {"numparc": 4878, "etat de la localisation": "Deviation programmee", "ID BDGEO": "36", "horodatage": "2021-08-23 13:49:06", "distance (en metres)": 60.25, "station": "LES GODETS", "marker-color": "#56FF93"}}, {"type": "Feature", "geometry": {"type": "Point", "coordinates": [2.297414, 48.721664]}, "properties": {"numparc": 4883, "etat de la localisation": "autre", "ID BDGEO": "118", "horodatage": "2021-08-23 13:59:12", "distance (en metres)": 50.0, "station": "CENTRE BUS DE MASSY-SORTIE", "marker-color": "#818181"}}, {"type": "Feature", "geometry": {"type": "Point", "coordinates": [2.297132, 48.721222]}, "properties": {"numparc": 4883, "etat de la localisation": "autre", "ID BDGEO": "17", "horodatage": "2021-08-23 14:04:03", "distance (en metres)": 2872.14, "station": "VALLEE DE LA BIEVRE", "marker-color": "#818181"}}, {"type": "Feature", "geometry": {"type": "Point", "coordinates": [2.290922, 48.759007]}, "properties": {"numparc": 4873, "etat de la localisation": "Deviation programmee", "ID BDGEO": "34", "horodatage": "2021-08-23 14:06:15", "distance (en metres)": 515.68, "station": "JULIEN PERIN", "marker-color": "#56FF93"}}, {"type": "Feature", "geometry": {"type": "Point", "coordinates": [2.290922, 48.759007]}, "properties": {"numparc": 4873, "etat de la localisation": "Deviation programmee", "ID BDGEO": "34", "horodatage": "2021-08-23 14:06:29", "distance (en metres)": 515.68, "station": "JULIEN PERIN", "marker-color": "#56FF93"}}, {"type": "Feature", "geometry": {"type": "Point", "coordinates": [2.277334, 48.758301]}, "properties": {"numparc": 4873, "etat de la localisation": "Deviation programmee", "ID BDGEO": "36", "horodatage": "2021-08-23 14:12:23", "distance (en metres)": 66.06, "station": "LES GODETS", "marker-color": "#56FF93"}}, {"type": "Feature", "geometry": {"type": "Point", "coordinates": [2.27749, 48.758591]}, "properties": {"numparc": 4878, "etat de la localisation": "Deviation programmee", "ID BDGEO": "36", "horodatage": "2021-08-23 14:40:03", "distance (en metres)": 97.76, "station": "LES GODETS", "marker-color": "#56FF93"}}, {"type": "Feature", "geometry": {"type": "Point", "coordinates": [2.295403, 48.755985]}, "properties": {"numparc": 4878, "etat de la localisation": "Deviation programmee", "ID BDGEO": "32", "horodatage": "2021-08-23 14:47:11", "distance (en metres)": 160.4, "station": "THEATRE-MAIRIE", "marker-color": "#56FF93"}}, {"type": "Feature", "geometry": {"type": "Point", "coordinates": [2.29798, 48.72187]}, "properties": {"numparc": 4873, "etat de la localisation": "autre", "ID BDGEO": "118", "horodatage": "2021-08-23 14:48:31", "distance (en metres)": 59.53, "station": "CENTRE BUS DE MASSY-SORTIE", "marker-color": "#818181"}}, {"type": "Feature", "geometry": {"type": "Point", "coordinates": [2.277324, 48.758278]}, "properties": {"numparc": 4878, "etat de la localisation": "Deviation programmee", "ID BDGEO": "36", "horodatage": "2021-08-23 15:05:46", "distance (en metres)": 63.64, "station": "LES GODETS", "marker-color": "#56FF93"}}, {"type": "Feature", "geometry": {"type": "Point", "coordinates": [2.277324, 48.758278]}, "properties": {"numparc": 4878, "etat de la localisation": "Deviation programmee", "ID BDGEO": "36", "horodatage": "2021-08-23 15:05:54", "distance (en metres)": 63.64, "station": "LES GODETS", "marker-color": "#56FF93"}}, {"type": "Feature", "geometry": {"type": "Point", "coordinates": [2.277496, 48.758595]}, "properties": {"numparc": 4882, "etat de la localisation": "Deviation programmee", "ID BDGEO": "36", "horodatage": "2021-08-23 15:11:20", "distance (en metres)": 98.21, "station": "LES GODETS", "marker-color": "#56FF93"}}, {"type": "Feature", "geometry": {"type": "Point", "coordinates": [2.29697, 48.721527]}, "properties": {"numparc": 4873, "etat de la localisation": "autre", "ID BDGEO": "118", "horodatage": "2021-08-23 15:30:52", "distance (en metres)": 66.88, "station": "CENTRE BUS DE MASSY-SORTIE", "marker-color": "#818181"}}, {"type": "Feature", "geometry": {"type": "Point", "coordinates": [2.277327, 48.758289]}, "properties": {"numparc": 4882, "etat de la localisation": "Deviation programmee", "ID BDGEO": "36", "horodatage": "2021-08-23 15:33:11", "distance (en metres)": 64.81, "station": "LES GODETS", "marker-color": "#56FF93"}}, {"type": "Feature", "geometry": {"type": "Point", "coordinates": [2.29687, 48.721539]}, "properties": {"numparc": 4881, "etat de la localisation": "autre", "ID BDGEO": "118", "horodatage": "2021-08-23 15:39:43", "distance (en metres)": 68.24, "station": "CENTRE BUS DE MASSY-SORTIE", "marker-color": "#818181"}}, {"type": "Feature", "geometry": {"type": "Point", "coordinates": [2.296868, 48.721535]}, "properties": {"numparc": 4881, "etat de la localisation": "autre", "ID BDGEO": "118", "horodatage": "2021-08-23 15:40:50", "distance (en metres)": 68.71, "station": "CENTRE BUS DE MASSY-SORTIE", "marker-color": "#818181"}}, {"type": "Feature", "geometry": {"type": "Point", "coordinates": [2.263311, 48.736946]}, "properties": {"numparc": 4878, "etat de la localisation": "Delocalise", "ID BDGEO": "46", "horodatage": "2021-08-23 15:43:29", "distance (en metres)": 67.89, "station": "EMILE ZOLA", "marker-color": "#FF565E"}}, {"type": "Feature", "geometry": {"type": "Point", "coordinates": [2.296706, 48.72155]}, "properties": {"numparc": 4881, "etat de la localisation": "autre", "ID BDGEO": "45", "horodatage": "2021-08-23 15:43:33", "distance (en metres)": 2793.46, "station": "VALLEE DE LA BIEVRE", "marker-color": "#818181"}}, {"type": "Feature", "geometry": {"type": "Point", "coordinates": [2.263477, 48.742744]}, "properties": {"numparc": 4878, "etat de la localisation": "autre", "ID BDGEO": "94", "horodatage": "2021-08-23 15:47:55", "distance (en metres)": 46.35, "station": "GRANDS CHENES", "marker-color": "#818181"}}, {"type": "Feature", "geometry": {"type": "Point", "coordinates": [2.263477, 48.742744]}, "properties": {"numparc": 4878, "etat de la localisation": "autre", "ID BDGEO": "94", "horodatage": "2021-08-23 15:48:05", "distance (en metres)": 46.35, "station": "GRANDS CHENES", "marker-color": "#818181"}}, {"type": "Feature", "geometry": {"type": "Point", "coordinates": [2.277522, 48.758621]}, "properties": {"numparc": 4883, "etat de la localisation": "Deviation programmee", "ID BDGEO": "25", "horodatage": "2021-08-23 15:59:55", "distance (en metres)": 119.33, "station": "LES GODETS", "marker-color": "#56FF93"}}, {"type": "Feature", "geometry": {"type": "Point", "coordinates": [2.301522, 48.755676]}, "properties": {"numparc": 4883, "etat de la localisation": "autre", "ID BDGEO": "82", "horodatage": "2021-08-23 16:10:35", "distance (en metres)": 60.2, "station": "ANTONY RER", "marker-color": "#818181"}}, {"type": "Feature", "geometry": {"type": "Point", "coordinates": [2.301522, 48.755676]}, "properties": {"numparc": 4883, "etat de la localisation": "autre", "ID BDGEO": "82", "horodatage": "2021-08-23 16:13:11", "distance (en metres)": 60.2, "station": "ANTONY RER", "marker-color": "#818181"}}, {"type": "Feature", "geometry": {"type": "Point", "coordinates": [2.277339, 48.758266]}, "properties": {"numparc": 4873, "etat de la localisation": "Deviation programmee", "ID BDGEO": "36", "horodatage": "2021-08-23 16:13:16", "distance (en metres)": 62.16, "station": "LES GODETS", "marker-color": "#56FF93"}}, {"type": "Feature", "geometry": {"type": "Point", "coordinates": [2.277296, 48.758179]}, "properties": {"numparc": 4881, "etat de la localisation": "Deviation programmee", "ID BDGEO": "36", "horodatage": "2021-08-23 16:22:38", "distance (en metres)": 53.18, "station": "LES GODETS", "marker-color": "#56FF93"}}, {"type": "Feature", "geometry": {"type": "Point", "coordinates": [2.301167, 48.755653]}, "properties": {"numparc": 4882, "etat de la localisation": "autre", "ID BDGEO": "82", "horodatage": "2021-08-23 16:24:07", "distance (en metres)": 55.35, "station": "ANTONY RER", "marker-color": "#818181"}}, {"type": "Feature", "geometry": {"type": "Point", "coordinates": [2.277315, 48.758236]}, "properties": {"numparc": 4883, "etat de la localisation": "autre", "ID BDGEO": "36", "horodatage": "2021-08-23 16:41:23", "distance (en metres)": 59.13, "station": "LES GODETS", "marker-color": "#818181"}}, {"type": "Feature", "geometry": {"type": "Point", "coordinates": [2.30106, 48.755505]}, "properties": {"numparc": 4878, "etat de la localisation": "autre", "ID BDGEO": "82", "horodatage": "2021-08-23 16:49:36", "distance (en metres)": 41.4, "station": "ANTONY RER", "marker-color": "#818181"}}, {"type": "Feature", "geometry": {"type": "Point", "coordinates": [2.277333, 48.758259]}, "properties": {"numparc": 4882, "etat de la localisation": "Delocalise", "ID BDGEO": "36", "horodatage": "2021-08-23 16:56:12", "distance (en metres)": 61.45, "station": "LES GODETS", "marker-color": "#FF565E"}}, {"type": "Feature", "geometry": {"type": "Point", "coordinates": [2.27752, 48.758621]}, "properties": {"numparc": 4873, "etat de la localisation": "Deviation programmee", "ID BDGEO": "25", "horodatage": "2021-08-23 17:01:38", "distance (en metres)": 119.36, "station": "LES GODETS", "marker-color": "#56FF93"}}, {"type": "Feature", "geometry": {"type": "Point", "coordinates": [2.295332, 48.756035]}, "properties": {"numparc": 4873, "etat de la localisation": "Deviation programmee", "ID BDGEO": "30", "horodatage": "2021-08-23 17:08:59", "distance (en metres)": 111.94, "station": "THEATRE-MAIRIE", "marker-color": "#56FF93"}}, {"type": "Feature", "geometry": {"type": "Point", "coordinates": [2.277289, 48.75816]}, "properties": {"numparc": 4878, "etat de la localisation": "Deviation programmee", "ID BDGEO": "36", "horodatage": "2021-08-23 17:13:21", "distance (en metres)": 51.24, "station": "LES GODETS", "marker-color": "#56FF93"}}, {"type": "Feature", "geometry": {"type": "Point", "coordinates": [2.256874, 48.725807]}, "properties": {"numparc": 4882, "etat de la localisation": "autre", "ID BDGEO": "10", "horodatage": "2021-08-23 17:17:01", "distance (en metres)": 44.56, "station": "MASSY-PALAISEAU RER", "marker-color": "#818181"}}, {"type": "Feature", "geometry": {"type": "Point", "coordinates": [2.277317, 48.758301]}, "properties": {"numparc": 4873, "etat de la localisation": "Deviation programmee", "ID BDGEO": "36", "horodatage": "2021-08-23 17:28:24", "distance (en metres)": 66.24, "station": "LES GODETS", "marker-color": "#56FF93"}}, {"type": "Feature", "geometry": {"type": "Point", "coordinates": [2.277548, 48.758617]}, "properties": {"numparc": 4883, "etat de la localisation": "Deviation programmee", "ID BDGEO": "25", "horodatage": "2021-08-23 17:34:05", "distance (en metres)": 118.46, "station": "LES GODETS", "marker-color": "#56FF93"}}, {"type": "Feature", "geometry": {"type": "Point", "coordinates": [2.277548, 48.758617]}, "properties": {"numparc": 4883, "etat de la localisation": "Deviation programmee", "ID BDGEO": "25", "horodatage": "2021-08-23 17:34:10", "distance (en metres)": 118.46, "station": "LES GODETS", "marker-color": "#56FF93"}}, {"type": "Feature", "geometry": {"type": "Point", "coordinates": [2.277548, 48.758617]}, "properties": {"numparc": 4883, "etat de la localisation": "Deviation programmee", "ID BDGEO": "25", "horodatage": "2021-08-23 17:34:13", "distance (en metres)": 118.46, "station": "LES GODETS", "marker-color": "#56FF93"}}, {"type": "Feature", "geometry": {"type": "Point", "coordinates": [2.277314, 48.758327]}, "properties": {"numparc": 4881, "etat de la localisation": "Deviation programmee", "ID BDGEO": "36", "horodatage": "2021-08-23 17:37:55", "distance (en metres)": 69.13, "station": "LES GODETS", "marker-color": "#56FF93"}}, {"type": "Feature", "geometry": {"type": "Point", "coordinates": [2.301459, 48.755527]}, "properties": {"numparc": 4883, "etat de la localisation": "autre", "ID BDGEO": "82", "horodatage": "2021-08-23 17:46:02", "distance (en metres)": 43.02, "station": "ANTONY RER", "marker-color": "#818181"}}, {"type": "Feature", "geometry": {"type": "Point", "coordinates": [2.277328, 48.75832]}, "properties": {"numparc": 4883, "etat de la localisation": "Deviation programmee", "ID BDGEO": "36", "horodatage": "2021-08-23 18:02:41", "distance (en metres)": 68.22, "station": "LES GODETS", "marker-color": "#56FF93"}}, {"type": "Feature", "geometry": {"type": "Point", "coordinates": [2.27734, 48.758339]}, "properties": {"numparc": 4882, "etat de la localisation": "Delocalise", "ID BDGEO": "36", "horodatage": "2021-08-23 18:09:01", "distance (en metres)": 70.2, "station": "LES GODETS", "marker-color": "#FF565E"}}, {"type": "Feature", "geometry": {"type": "Point", "coordinates": [2.29731, 48.721321]}, "properties": {"numparc": 4888, "etat de la localisation": "autre", "ID BDGEO": "118", "horodatage": "2021-08-23 18:20:55", "distance (en metres)": 86.74, "station": "CENTRE BUS DE MASSY-SORTIE", "marker-color": "#818181"}}, {"type": "Feature", "geometry": {"type": "Point", "coordinates": [2.29731, 48.721321]}, "properties": {"numparc": 4888, "etat de la localisation": "autre", "ID BDGEO": "118", "horodatage": "2021-08-23 18:27:22", "distance (en metres)": 86.74, "station": "CENTRE BUS DE MASSY-SORTIE", "marker-color": "#818181"}}, {"type": "Feature", "geometry": {"type": "Point", "coordinates": [2.298496, 48.722012]}, "properties": {"numparc": 4887, "etat de la localisation": "autre", "ID BDGEO": "17", "horodatage": "2021-08-23 18:31:52", "distance (en metres)": 2893.26, "station": "VALLEE DE LA BIEVRE", "marker-color": "#818181"}}, {"type": "Feature", "geometry": {"type": "Point", "coordinates": [2.29668, 48.755043]}, "properties": {"numparc": 4873, "etat de la localisation": "Delocalise", "ID BDGEO": "30", "horodatage": "2021-08-23 18:35:24", "distance (en metres)": 116.73, "station": "THEATRE-MAIRIE", "marker-color": "#FF565E"}}, {"type": "Feature", "geometry": {"type": "Point", "coordinates": [2.29668, 48.755043]}, "properties": {"numparc": 4873, "etat de la localisation": "Delocalise", "ID BDGEO": "30", "horodatage": "2021-08-23 18:35:31", "distance (en metres)": 116.73, "station": "THEATRE-MAIRIE", "marker-color": "#FF565E"}}, {"type": "Feature", "geometry": {"type": "Point", "coordinates": [2.29163, 48.754406]}, "properties": {"numparc": 4873, "etat de la localisation": "Delocalise", "ID BDGEO": "114", "horodatage": "2021-08-23 18:37:31", "distance (en metres)": 50.02, "station": "FRANCOIS MOLE", "marker-color": "#FF565E"}}, {"type": "Feature", "geometry": {"type": "Point", "coordinates": [2.286156, 48.755611]}, "properties": {"numparc": 4873, "etat de la localisation": "Delocalise", "ID BDGEO": "27", "horodatage": "2021-08-23 18:39:08", "distance (en metres)": 97.72, "station": "JULIEN PERIN", "marker-color": "#FF565E"}}, {"type": "Feature", "geometry": {"type": "Point", "coordinates": [2.281202, 48.756699]}, "properties": {"numparc": 4873, "etat de la localisation": "Delocalise", "ID BDGEO": "112", "horodatage": "2021-08-23 18:40:42", "distance (en metres)": 52.1, "station": "MARCEL MAILLARD", "marker-color": "#FF565E"}}, {"type": "Feature", "geometry": {"type": "Point", "coordinates": [2.27745, 48.757782]}, "properties": {"numparc": 4873, "etat de la localisation": "Delocalise", "ID BDGEO": "25", "horodatage": "2021-08-23 18:41:51", "distance (en metres)": 40.22, "station": "LES GODETS", "marker-color": "#FF565E"}}, {"type": "Feature", "geometry": {"type": "Point", "coordinates": [2.275736, 48.756149]}, "properties": {"numparc": 4873, "etat de la localisation": "Delocalise", "ID BDGEO": "110", "horodatage": "2021-08-23 18:43:33", "distance (en metres)": 104.06, "station": "RUE DES GRILLONS", "marker-color": "#FF565E"}}, {"type": "Feature", "geometry": {"type": "Point", "coordinates": [2.298024, 48.721542]}, "properties": {"numparc": 4882, "etat de la localisation": "autre", "ID BDGEO": "17", "horodatage": "2021-08-23 18:45:54", "distance (en metres)": 2899.14, "station": "VALLEE DE LA BIEVRE", "marker-color": "#818181"}}, {"type": "Feature", "geometry": {"type": "Point", "coordinates": [2.298045, 48.721535]}, "properties": {"numparc": 4881, "etat de la localisation": "autre", "ID BDGEO": "118", "horodatage": "2021-08-23 18:49:39", "distance (en metres)": 85.86, "station": "CENTRE BUS DE MASSY-SORTIE", "marker-color": "#818181"}}, {"type": "Feature", "geometry": {"type": "Point", "coordinates": [2.299182, 48.722702]}, "properties": {"numparc": 4882, "etat de la localisation": "autre", "ID BDGEO": "17", "horodatage": "2021-08-23 18:50:07", "distance (en metres)": 2886.66, "station": "VALLEE DE LA BIEVRE", "marker-color": "#818181"}}, {"type": "Feature", "geometry": {"type": "Point", "coordinates": [2.298294, 48.722115]}, "properties": {"numparc": 4881, "etat de la localisation": "autre", "ID BDGEO": "118", "horodatage": "2021-08-23 18:53:28", "distance (en metres)": 76.8, "station": "CENTRE BUS DE MASSY-SORTIE", "marker-color": "#818181"}}, {"type": "Feature", "geometry": {"type": "Point", "coordinates": [2.301051, 48.755493]}, "properties": {"numparc": 4883, "etat de la localisation": "autre", "ID BDGEO": "82", "horodatage": "2021-08-23 18:59:07", "distance (en metres)": 40.42, "station": "ANTONY RER", "marker-color": "#818181"}}, {"type": "Feature", "geometry": {"type": "Point", "coordinates": [2.291582, 48.754429]}, "properties": {"numparc": 4883, "etat de la localisation": "Delocalise", "ID BDGEO": "114", "horodatage": "2021-08-23 19:13:51", "distance (en metres)": 54.2, "station": "FRANCOIS MOLE", "marker-color": "#FF565E"}}, {"type": "Feature", "geometry": {"type": "Point", "coordinates": [2.281258, 48.756706]}, "properties": {"numparc": 4883, "etat de la localisation": "Delocalise", "ID BDGEO": "112", "horodatage": "2021-08-23 19:16:05", "distance (en metres)": 48.77, "station": "MARCEL MAILLARD", "marker-color": "#FF565E"}}, {"type": "Feature", "geometry": {"type": "Point", "coordinates": [2.29157, 48.754414]}, "properties": {"numparc": 4887, "etat de la localisation": "autre", "ID BDGEO": "114", "horodatage": "2021-08-23 19:29:00", "distance (en metres)": 54.47, "station": "FRANCOIS MOLE", "marker-color": "#818181"}}, {"type": "Feature", "geometry": {"type": "Point", "coordinates": [2.286195, 48.7556]}, "properties": {"numparc": 4887, "etat de la localisation": "autre", "ID BDGEO": "27", "horodatage": "2021-08-23 19:30:29", "distance (en metres)": 94.61, "station": "JULIEN PERIN", "marker-color": "#818181"}}, {"type": "Feature", "geometry": {"type": "Point", "coordinates": [2.281232, 48.756699]}, "properties": {"numparc": 4887, "etat de la localisation": "autre", "ID BDGEO": "112", "horodatage": "2021-08-23 19:31:47", "distance (en metres)": 50.12, "station": "MARCEL MAILLARD", "marker-color": "#818181"}}, {"type": "Feature", "geometry": {"type": "Point", "coordinates": [2.30108, 48.755497]}, "properties": {"numparc": 4873, "etat de la localisation": "autre", "ID BDGEO": "82", "horodatage": "2021-08-23 19:33:04", "distance (en metres)": 40.03, "station": "ANTONY RER", "marker-color": "#818181"}}, {"type": "Feature", "geometry": {"type": "Point", "coordinates": [2.301414, 48.755127]}, "properties": {"numparc": 4878, "etat de la localisation": "autre", "ID BDGEO": "124", "horodatage": "2021-08-23 19:38:13", "distance (en metres)": 48.86, "station": "ANTONY RER#", "marker-color": "#818181"}}, {"type": "Feature", "geometry": {"type": "Point", "coordinates": [2.269054, 48.745865]}, "properties": {"numparc": 4887, "etat de la localisation": "autre", "ID BDGEO": "107", "horodatage": "2021-08-23 19:38:27", "distance (en metres)": 107.23, "station": "PARON", "marker-color": "#818181"}}, {"type": "Feature", "geometry": {"type": "Point", "coordinates": [2.26473, 48.746071]}, "properties": {"numparc": 4887, "etat de la localisation": "autre", "ID BDGEO": "20", "horodatage": "2021-08-23 19:39:52", "distance (en metres)": 249.0, "station": "FOCH-LECLERC", "marker-color": "#818181"}}, {"type": "Feature", "geometry": {"type": "Point", "coordinates": [2.301404, 48.755554]}, "properties": {"numparc": 4873, "etat de la localisation": "autre", "ID BDGEO": "31", "horodatage": "2021-08-23 19:44:46", "distance (en metres)": 45.92, "station": "ANTONY RER.", "marker-color": "#818181"}}, {"type": "Feature", "geometry": {"type": "Point", "coordinates": [2.262694, 48.736534]}, "properties": {"numparc": 4887, "etat de la localisation": "autre", "ID BDGEO": "16", "horodatage": "2021-08-23 19:45:49", "distance (en metres)": 57.6, "station": "EMILE ZOLA", "marker-color": "#818181"}}, {"type": "Feature", "geometry": {"type": "Point", "coordinates": [2.298333, 48.721706]}, "properties": {"numparc": 4878, "etat de la localisation": "autre", "ID BDGEO": "118", "horodatage": "2021-08-23 19:54:08", "distance (en metres)": 90.9, "station": "CENTRE BUS DE MASSY-SORTIE", "marker-color": "#818181"}}, {"type": "Feature", "geometry": {"type": "Point", "coordinates": [2.297344, 48.721092]}, "properties": {"numparc": 4878, "etat de la localisation": "autre", "ID BDGEO": "118", "horodatage": "2021-08-23 19:58:07", "distance (en metres)": 112.3, "station": "CENTRE BUS DE MASSY-SORTIE", "marker-color": "#818181"}}, {"type": "Feature", "geometry": {"type": "Point", "coordinates": [2.293182, 48.754391]}, "properties": {"numparc": 4887, "etat de la localisation": "autre", "ID BDGEO": "114", "horodatage": "2021-08-23 20:20:08", "distance (en metres)": 68.14, "station": "FRANCOIS MOLE", "marker-color": "#818181"}}, {"type": "Feature", "geometry": {"type": "Point", "coordinates": [2.301463, 48.755447]}, "properties": {"numparc": 4887, "etat de la localisation": "autre", "ID BDGEO": "31", "horodatage": "2021-08-23 20:34:44", "distance (en metres)": 43.86, "station": "ANTONY RER.", "marker-color": "#818181"}}, {"type": "Feature", "geometry": {"type": "Point", "coordinates": [2.298012, 48.721527]}, "properties": {"numparc": 4873, "etat de la localisation": "autre", "ID BDGEO": "118", "horodatage": "2021-08-23 20:34:57", "distance (en metres)": 84.89, "station": "CENTRE BUS DE MASSY-SORTIE", "marker-color": "#818181"}}, {"type": "Feature", "geometry": {"type": "Point", "coordinates": [2.301463, 48.755447]}, "properties": {"numparc": 4887, "etat de la localisation": "autre", "ID BDGEO": "31", "horodatage": "2021-08-23 20:34:58", "distance (en metres)": 43.86, "station": "ANTONY RER.", "marker-color": "#818181"}}, {"type": "Feature", "geometry": {"type": "Point", "coordinates": [2.29862, 48.722637]}, "properties": {"numparc": 4873, "etat de la localisation": "autre", "ID BDGEO": "118", "horodatage": "2021-08-23 20:39:21", "distance (en metres)": 117.07, "station": "CENTRE BUS DE MASSY-SORTIE", "marker-color": "#818181"}}, {"type": "Feature", "geometry": {"type": "Point", "coordinates": [2.28123, 48.756672]}, "properties": {"numparc": 4887, "etat de la localisation": "autre", "ID BDGEO": "112", "horodatage": "2021-08-23 20:41:25", "distance (en metres)": 49.01, "station": "MARCEL MAILLARD", "marker-color": "#818181"}}, {"type": "Feature", "geometry": {"type": "Point", "coordinates": [2.277434, 48.757771]}, "properties": {"numparc": 4887, "etat de la localisation": "autre", "ID BDGEO": "25", "horodatage": "2021-08-23 20:42:24", "distance (en metres)": 40.53, "station": "LES GODETS", "marker-color": "#818181"}}, {"type": "Feature", "geometry": {"type": "Point", "coordinates": [2.269076, 48.74588]}, "properties": {"numparc": 4887, "etat de la localisation": "autre", "ID BDGEO": "107", "horodatage": "2021-08-23 20:48:12", "distance (en metres)": 104.91, "station": "PARON", "marker-color": "#818181"}}, {"type": "Feature", "geometry": {"type": "Point", "coordinates": [2.266249, 48.744511]}, "properties": {"numparc": 4887, "etat de la localisation": "autre", "ID BDGEO": "20", "horodatage": "2021-08-23 20:49:06", "distance (en metres)": 62.55, "station": "FOCH-LECLERC", "marker-color": "#818181"}}, {"type": "Feature", "geometry": {"type": "Point", "coordinates": [2.264855, 48.746143]}, "properties": {"numparc": 4887, "etat de la localisation": "autre", "ID BDGEO": "20", "horodatage": "2021-08-23 20:49:53", "distance (en metres)": 248.63, "station": "FOCH-LECLERC", "marker-color": "#818181"}}, {"type": "Feature", "geometry": {"type": "Point", "coordinates": [2.262799, 48.736561]}, "properties": {"numparc": 4887, "etat de la localisation": "autre", "ID BDGEO": "16", "horodatage": "2021-08-23 20:55:19", "distance (en metres)": 50.52, "station": "EMILE ZOLA", "marker-color": "#818181"}}, {"type": "Feature", "geometry": {"type": "Point", "coordinates": [2.253203, 48.7286]}, "properties": {"numparc": 4887, "etat de la localisation": "autre", "ID BDGEO": "11", "horodatage": "2021-08-23 21:01:20", "distance (en metres)": 74.22, "station": "LES RUELLES", "marker-color": "#818181"}}, {"type": "Feature", "geometry": {"type": "Point", "coordinates": [2.30142, 48.755451]}, "properties": {"numparc": 4887, "etat de la localisation": "autre", "ID BDGEO": "31", "horodatage": "2021-08-23 21:36:31", "distance (en metres)": 41.11, "station": "ANTONY RER.", "marker-color": "#818181"}}, {"type": "Feature", "geometry": {"type": "Point", "coordinates": [2.29165, 48.754391]}, "properties": {"numparc": 4887, "etat de la localisation": "autre", "ID BDGEO": "114", "horodatage": "2021-08-23 21:41:22", "distance (en metres)": 48.1, "station": "FRANCOIS MOLE", "marker-color": "#818181"}}, {"type": "Feature", "geometry": {"type": "Point", "coordinates": [2.277404, 48.757782]}, "properties": {"numparc": 4887, "etat de la localisation": "autre", "ID BDGEO": "25", "horodatage": "2021-08-23 21:44:21", "distance (en metres)": 43.04, "station": "LES GODETS", "marker-color": "#818181"}}, {"type": "Feature", "geometry": {"type": "Point", "coordinates": [2.265325, 48.741131]}, "properties": {"numparc": 4887, "etat de la localisation": "autre", "ID BDGEO": "18", "horodatage": "2021-08-23 21:52:55", "distance (en metres)": 48.78, "station": "CARNOT", "marker-color": "#818181"}}, {"type": "Feature", "geometry": {"type": "Point", "coordinates": [2.265325, 48.741131]}, "properties": {"numparc": 4887, "etat de la localisation": "autre", "ID BDGEO": "18", "horodatage": "2021-08-23 21:53:08", "distance (en metres)": 48.78, "station": "CARNOT", "marker-color": "#818181"}}, {"type": "Feature", "geometry": {"type": "Point", "coordinates": [2.267742, 48.737755]}, "properties": {"numparc": 4887, "etat de la localisation": "autre", "ID BDGEO": "17", "horodatage": "2021-08-23 21:54:28", "distance (en metres)": 44.56, "station": "VALLEE DE LA BIEVRE", "marker-color": "#818181"}}, {"type": "Feature", "geometry": {"type": "Point", "coordinates": [2.26278, 48.736553]}, "properties": {"numparc": 4887, "etat de la localisation": "autre", "ID BDGEO": "16", "horodatage": "2021-08-23 21:55:43", "distance (en metres)": 52.06, "station": "EMILE ZOLA", "marker-color": "#818181"}}, {"type": "Feature", "geometry": {"type": "Point", "coordinates": [2.301425, 48.755497]}, "properties": {"numparc": 4887, "etat de la localisation": "autre", "ID BDGEO": "31", "horodatage": "2021-08-23 22:22:16", "distance (en metres)": 43.72, "station": "ANTONY RER.", "marker-color": "#818181"}}, {"type": "Feature", "geometry": {"type": "Point", "coordinates": [2.269102, 48.745907]}, "properties": {"numparc": 4887, "etat de la localisation": "autre", "ID BDGEO": "107", "horodatage": "2021-08-23 22:46:00", "distance (en metres)": 101.4, "station": "PARON", "marker-color": "#818181"}}, {"type": "Feature", "geometry": {"type": "Point", "coordinates": [2.264814, 48.746117]}, "properties": {"numparc": 4887, "etat de la localisation": "autre", "ID BDGEO": "20", "horodatage": "2021-08-23 22:47:19", "distance (en metres)": 248.49, "station": "FOCH-LECLERC", "marker-color": "#818181"}}, {"type": "Feature", "geometry": {"type": "Point", "coordinates": [2.262662, 48.736629]}, "properties": {"numparc": 4887, "etat de la localisation": "autre", "ID BDGEO": "16", "horodatage": "2021-08-23 22:52:20", "distance (en metres)": 51.69, "station": "EMILE ZOLA", "marker-color": "#818181"}}, {"type": "Feature", "geometry": {"type": "Point", "coordinates": [2.301489, 48.755466]}, "properties": {"numparc": 4887, "etat de la localisation": "autre", "ID BDGEO": "31", "horodatage": "2021-08-23 23:19:19", "distance (en metres)": 46.42, "station": "ANTONY RER.", "marker-color": "#818181"}}, {"type": "Feature", "geometry": {"type": "Point", "coordinates": [2.27743, 48.75779]}, "properties": {"numparc": 4887, "etat de la localisation": "autre", "ID BDGEO": "25", "horodatage": "2021-08-23 23:43:54", "distance (en metres)": 41.93, "station": "LES GODETS", "marker-color": "#818181"}}, {"type": "Feature", "geometry": {"type": "Point", "coordinates": [2.298585, 48.721958]}, "properties": {"numparc": 4874, "etat de la localisation": "autre", "ID BDGEO": "118", "horodatage": "2021-08-23 23:45:51", "distance (en metres)": 99.39, "station": "CENTRE BUS DE MASSY-SORTIE", "marker-color": "#818181"}}, {"type": "Feature", "geometry": {"type": "Point", "coordinates": [2.298619, 48.721973]}, "properties": {"numparc": 4874, "etat de la localisation": "autre", "ID BDGEO": "118", "horodatage": "2021-08-23 23:46:23", "distance (en metres)": 101.62, "station": "CENTRE BUS DE MASSY-SORTIE", "marker-color": "#818181"}}, {"type": "Feature", "geometry": {"type": "Point", "coordinates": [2.269114, 48.745903]}, "properties": {"numparc": 4887, "etat de la localisation": "autre", "ID BDGEO": "107", "horodatage": "2021-08-23 23:50:08", "distance (en metres)": 101.15, "station": "PARON", "marker-color": "#818181"}}, {"type": "Feature", "geometry": {"type": "Point", "coordinates": [2.298671, 48.721912]}, "properties": {"numparc": 4874, "etat de la localisation": "autre", "ID BDGEO": "118", "horodatage": "2021-08-23 23:55:56", "distance (en metres)": 106.51, "station": "CENTRE BUS DE MASSY-SORTIE", "marker-color": "#818181"}}, {"type": "Feature", "geometry": {"type": "Point", "coordinates": [2.262705, 48.736584]}, "properties": {"numparc": 4887, "etat de la localisation": "autre", "ID BDGEO": "16", "horodatage": "2021-08-23 23:56:32", "distance (en metres)": 52.89, "station": "EMILE ZOLA", "marker-color": "#818181"}}, {"type": "Feature", "geometry": {"type": "Point", "coordinates": [2.29664, 48.721539]}, "properties": {"numparc": 4874, "etat de la localisation": "autre", "ID BDGEO": "118", "horodatage": "2021-08-24 00:20:20", "distance (en metres)": 76.65, "station": "CENTRE BUS DE MASSY-SORTIE", "marker-color": "#818181"}}, {"type": "Feature", "geometry": {"type": "Point", "coordinates": [2.30169, 48.755711]}, "properties": {"numparc": 4888, "etat de la localisation": "autre", "ID BDGEO": "124", "horodatage": "2021-08-24 00:53:40", "distance (en metres)": 59.66, "station": "ANTONY RER#", "marker-color": "#818181"}}, {"type": "Feature", "geometry": {"type": "Point", "coordinates": [2.253144, 48.72858]}, "properties": {"numparc": 4887, "etat de la localisation": "autre", "ID BDGEO": "11", "horodatage": "2021-08-24 01:00:16", "distance (en metres)": 79.04, "station": "LES RUELLES", "marker-color": "#818181"}}, {"type": "Feature", "geometry": {"type": "Point", "coordinates": [2.297999, 48.721546]}, "properties": {"numparc": 4888, "etat de la localisation": "autre", "ID BDGEO": "118", "horodatage": "2021-08-24 01:01:45", "distance (en metres)": 82.68, "station": "CENTRE BUS DE MASSY-SORTIE", "marker-color": "#818181"}}, {"type": "Feature", "geometry": {"type": "Point", "coordinates": [2.297981, 48.721836]}, "properties": {"numparc": 4888, "etat de la localisation": "autre", "ID BDGEO": "118", "horodatage": "2021-08-24 01:04:06", "distance (en metres)": 61.31, "station": "CENTRE BUS DE MASSY-SORTIE", "marker-color": "#818181"}}, {"type": "Feature", "geometry": {"type": "Point", "coordinates": [2.297928, 48.721554]}, "properties": {"numparc": 4887, "etat de la localisation": "autre", "ID BDGEO": "17", "horodatage": "2021-08-24 01:10:59", "distance (en metres)": 2892.86, "station": "VALLEE DE LA BIEVRE", "marker-color": "#818181"}}, {"type": "Feature", "geometry": {"type": "Point", "coordinates": [2.297247, 48.7221]}, "properties": {"station": "CENTRE BUS DE MASSY-SORTIE", "ID BDGEO": "118", "marker-color": "#56B3FF"}}, {"type": "Feature", "geometry": {"type": "Point", "coordinates": [2.267529, 48.73813]}, "properties": {"station": "VALLEE DE LA BIEVRE", "ID BDGEO": "17", "marker-color": "#56B3FF"}}, {"type": "Feature", "geometry": {"type": "Point", "coordinates": [2.267693, 48.737825]}, "properties": {"station": "VALLEE DE LA BIEVRE", "ID BDGEO": "45", "marker-color": "#56B3FF"}}, {"type": "Feature", "geometry": {"type": "Point", "coordinates": [2.277903, 48.757578]}, "properties": {"station": "LES GODETS", "ID BDGEO": "25", "marker-color": "#56B3FF"}}, {"type": "Feature", "geometry": {"type": "Point", "coordinates": [2.277454, 48.757712]}, "properties": {"station": "LES GODETS", "ID BDGEO": "36", "marker-color": "#56B3FF"}}, {"type": "Feature", "geometry": {"type": "Point", "coordinates": [2.296841, 48.754898]}, "properties": {"station": "THEATRE-MAIRIE", "ID BDGEO": "32", "marker-color": "#56B3FF"}}, {"type": "Feature", "geometry": {"type": "Point", "coordinates": [2.301273, 48.75516]}, "properties": {"station": "ANTONY RER", "ID BDGEO": "82", "marker-color": "#56B3FF"}}, {"type": "Feature", "geometry": {"type": "Point", "coordinates": [2.295088, 48.755041]}, "properties": {"station": "THEATRE-MAIRIE", "ID BDGEO": "30", "marker-color": "#56B3FF"}}, {"type": "Feature", "geometry": {"type": "Point", "coordinates": [2.257206, 48.726142]}, "properties": {"station": "MASSY-PALAISEAU RER", "ID BDGEO": "10", "marker-color": "#56B3FF"}}, {"type": "Feature", "geometry": {"type": "Point", "coordinates": [2.28738, 48.755263]}, "properties": {"station": "JULIEN PERIN", "ID BDGEO": "27", "marker-color": "#56B3FF"}}, {"type": "Feature", "geometry": {"type": "Point", "coordinates": [2.270019, 48.74659]}, "properties": {"station": "PARON", "ID BDGEO": "107", "marker-color": "#56B3FF"}}, {"type": "Feature", "geometry": {"type": "Point", "coordinates": [2.267099, 48.744467]}, "properties": {"station": "FOCH-LECLERC", "ID BDGEO": "20", "marker-color": "#56B3FF"}}, {"type": "Feature", "geometry": {"type": "Point", "coordinates": [2.263196, 48.736932]}, "properties": {"station": "EMILE ZOLA", "ID BDGEO": "16", "marker-color": "#56B3FF"}}, {"type": "Feature", "geometry": {"type": "Point", "coordinates": [2.286279, 48.755523]}, "properties": {"station": "JULIEN PERIN", "ID BDGEO": "34", "marker-color": "#56B3FF"}}, {"type": "Feature", "geometry": {"type": "Point", "coordinates": [2.262612, 48.736545]}, "properties": {"station": "EMILE ZOLA", "ID BDGEO": "46", "marker-color": "#56B3FF"}}, {"type": "Feature", "geometry": {"type": "Point", "coordinates": [2.262848, 48.742703]}, "properties": {"station": "GRANDS CHENES", "ID BDGEO": "94", "marker-color": "#56B3FF"}}, {"type": "Feature", "geometry": {"type": "Point", "coordinates": [2.292275, 48.754258]}, "properties": {"station": "FRANCOIS MOLE", "ID BDGEO": "114", "marker-color": "#56B3FF"}}, {"type": "Feature", "geometry": {"type": "Point", "coordinates": [2.281846, 48.756501]}, "properties": {"station": "MARCEL MAILLARD", "ID BDGEO": "112", "marker-color": "#56B3FF"}}, {"type": "Feature", "geometry": {"type": "Point", "coordinates": [2.276476, 48.756948]}, "properties": {"station": "RUE DES GRILLONS", "ID BDGEO": "110", "marker-color": "#56B3FF"}}, {"type": "Feature", "geometry": {"type": "Point", "coordinates": [2.300973, 48.755457]}, "properties": {"station": "ANTONY RER#", "ID BDGEO": "124", "marker-color": "#56B3FF"}}, {"type": "Feature", "geometry": {"type": "Point", "coordinates": [2.300906, 48.755304]}, "properties": {"station": "ANTONY RER.", "ID BDGEO": "31", "marker-color": "#56B3FF"}}, {"type": "Feature", "geometry": {"type": "Point", "coordinates": [2.254159, 48.728819]}, "properties": {"station": "LES RUELLES", "ID BDGEO": "11", "marker-color": "#56B3FF"}}, {"type": "Feature", "geometry": {"type": "Point", "coordinates": [2.264848, 48.741437]}, "properties": {"station": "CARNOT", "ID BDGEO": "18", "marker-color": "#56B3FF"}}]}