{"type": "FeatureCollection", "features": [{"type": "Feature", "geometry": {"type": "Point", "coordinates": [2.298315, 48.722572]}, "properties": {"etat de la localisation": "Delocalise", "numparc": 5828, "duree": "00:03:33", "horodatage": "2023-03-15 06:38:07", "marker-color": "#FF565E"}}, {"type": "Feature", "geometry": {"type": "Point", "coordinates": [2.297539, 48.721497]}, "properties": {"etat de la localisation": "Hors service", "numparc": 5832, "duree": "", "horodatage": "2023-03-15 06:43:01", "marker-color": "#707070"}}, {"type": "Feature", "geometry": {"type": "Point", "coordinates": [2.304254, 48.762768]}, "properties": {"etat de la localisation": "Deviation programmee", "numparc": 5828, "duree": "", "horodatage": "2023-03-15 08:18:18", "marker-color": "#56FF93"}}, {"type": "Feature", "geometry": {"type": "Point", "coordinates": [2.298096, 48.722435]}, "properties": {"etat de la localisation": "Mission inconnue", "numparc": 5829, "duree": "", "horodatage": "2023-03-15 10:59:52", "marker-color": "#FF9F56"}}, {"type": "Feature", "geometry": {"type": "Point", "coordinates": [2.298092, 48.722431]}, "properties": {"etat de la localisation": "Mission inconnue", "numparc": 5829, "duree": "", "horodatage": "2023-03-15 11:04:58", "marker-color": "#FF9F56"}}, {"type": "Feature", "geometry": {"type": "Point", "coordinates": [2.298092, 48.722431]}, "properties": {"etat de la localisation": "Mission inconnue", "numparc": 5829, "duree": "", "horodatage": "2023-03-15 11:05:26", "marker-color": "#FF9F56"}}, {"type": "Feature", "geometry": {"type": "Point", "coordinates": [2.298092, 48.722431]}, "properties": {"etat de la localisation": "Mission inconnue", "numparc": 5829, "duree": "", "horodatage": "2023-03-15 11:05:55", "marker-color": "#FF9F56"}}, {"type": "Feature", "geometry": {"type": "Point", "coordinates": [2.298092, 48.722431]}, "properties": {"etat de la localisation": "Hors service", "numparc": 5829, "duree": "", "horodatage": "2023-03-15 11:06:51", "marker-color": "#707070"}}, {"type": "Feature", "geometry": {"type": "Point", "coordinates": [2.298212, 48.722057]}, "properties": {"etat de la localisation": "Hors service", "numparc": 5824, "duree": "", "horodatage": "2023-03-15 11:11:33", "marker-color": "#707070"}}, {"type": "Feature", "geometry": {"type": "Point", "coordinates": [2.219053, 48.785419]}, "properties": {"etat de la localisation": "Mission suivante non connue", "numparc": 5825, "duree": "", "horodatage": "2023-03-15 11:30:29", "marker-color": "#7156FF"}}, {"type": "Feature", "geometry": {"type": "Point", "coordinates": [2.298137, 48.722511]}, "properties": {"etat de la localisation": "Mission inconnue", "numparc": 5836, "duree": "", "horodatage": "2023-03-15 11:34:01", "marker-color": "#FF9F56"}}, {"type": "Feature", "geometry": {"type": "Point", "coordinates": [2.297711, 48.72147]}, "properties": {"etat de la localisation": "Mission inconnue", "numparc": 5822, "duree": "", "horodatage": "2023-03-15 12:04:39", "marker-color": "#FF9F56"}}, {"type": "Feature", "geometry": {"type": "Point", "coordinates": [2.296591, 48.721333]}, "properties": {"etat de la localisation": "Delocalise", "numparc": 5823, "duree": "00:04:14", "horodatage": "2023-03-15 12:12:32", "marker-color": "#FF565E"}}, {"type": "Feature", "geometry": {"type": "Point", "coordinates": [2.297431, 48.721226]}, "properties": {"etat de la localisation": "Hors service", "numparc": 5823, "duree": "", "horodatage": "2023-03-15 12:16:46", "marker-color": "#707070"}}, {"type": "Feature", "geometry": {"type": "Point", "coordinates": [2.296636, 48.721352]}, "properties": {"etat de la localisation": "Mission inconnue", "numparc": 5826, "duree": "", "horodatage": "2023-03-15 12:27:07", "marker-color": "#FF9F56"}}, {"type": "Feature", "geometry": {"type": "Point", "coordinates": [2.298379, 48.722603]}, "properties": {"etat de la localisation": "Hors service", "numparc": 5825, "duree": "", "horodatage": "2023-03-15 12:34:41", "marker-color": "#707070"}}, {"type": "Feature", "geometry": {"type": "Point", "coordinates": [2.30315, 48.762611]}, "properties": {"etat de la localisation": "Deviation programmee", "numparc": 5829, "duree": "", "horodatage": "2023-03-15 13:01:24", "marker-color": "#56FF93"}}, {"type": "Feature", "geometry": {"type": "Point", "coordinates": [2.297716, 48.721672]}, "properties": {"etat de la localisation": "Mission inconnue", "numparc": 5824, "duree": "", "horodatage": "2023-03-15 13:06:49", "marker-color": "#FF9F56"}}, {"type": "Feature", "geometry": {"type": "Point", "coordinates": [2.219057, 48.785263]}, "properties": {"etat de la localisation": "Mission suivante non connue", "numparc": 5822, "duree": "", "horodatage": "2023-03-15 13:12:00", "marker-color": "#7156FF"}}, {"type": "Feature", "geometry": {"type": "Point", "coordinates": [2.298379, 48.722603]}, "properties": {"etat de la localisation": "Mission inconnue", "numparc": 5825, "duree": "", "horodatage": "2023-03-15 13:29:02", "marker-color": "#FF9F56"}}, {"type": "Feature", "geometry": {"type": "Point", "coordinates": [2.219061, 48.785275]}, "properties": {"etat de la localisation": "Mission suivante non connue", "numparc": 5829, "duree": "", "horodatage": "2023-03-15 13:34:09", "marker-color": "#7156FF"}}, {"type": "Feature", "geometry": {"type": "Point", "coordinates": [2.29706, 48.721169]}, "properties": {"etat de la localisation": "Mission inconnue", "numparc": 5825, "duree": "", "horodatage": "2023-03-15 13:40:56", "marker-color": "#FF9F56"}}, {"type": "Feature", "geometry": {"type": "Point", "coordinates": [2.291862, 48.761112]}, "properties": {"etat de la localisation": "Deviation programmee", "numparc": 5826, "duree": "", "horodatage": "2023-03-15 13:49:56", "marker-color": "#56FF93"}}, {"type": "Feature", "geometry": {"type": "Point", "coordinates": [2.291978, 48.761139]}, "properties": {"etat de la localisation": "Deviation programmee", "numparc": 5829, "duree": "", "horodatage": "2023-03-15 14:03:41", "marker-color": "#56FF93"}}, {"type": "Feature", "geometry": {"type": "Point", "coordinates": [2.219051, 48.785267]}, "properties": {"etat de la localisation": "Mission suivante non connue", "numparc": 5824, "duree": "", "horodatage": "2023-03-15 14:04:46", "marker-color": "#7156FF"}}, {"type": "Feature", "geometry": {"type": "Point", "coordinates": [2.219088, 48.785522]}, "properties": {"etat de la localisation": "Mission inconnue", "numparc": 5825, "duree": "", "horodatage": "2023-03-15 14:07:28", "marker-color": "#FF9F56"}}, {"type": "Feature", "geometry": {"type": "Point", "coordinates": [2.291945, 48.76112]}, "properties": {"etat de la localisation": "Deviation programmee", "numparc": 5824, "duree": "", "horodatage": "2023-03-15 14:29:24", "marker-color": "#56FF93"}}, {"type": "Feature", "geometry": {"type": "Point", "coordinates": [2.219059, 48.785374]}, "properties": {"etat de la localisation": "Mission suivante non connue", "numparc": 5823, "duree": "", "horodatage": "2023-03-15 14:29:30", "marker-color": "#7156FF"}}, {"type": "Feature", "geometry": {"type": "Point", "coordinates": [2.302424, 48.762257]}, "properties": {"etat de la localisation": "Mission suivante non connue", "numparc": 5825, "duree": "", "horodatage": "2023-03-15 14:49:16", "marker-color": "#7156FF"}}, {"type": "Feature", "geometry": {"type": "Point", "coordinates": [2.291924, 48.761143]}, "properties": {"etat de la localisation": "Deviation programmee", "numparc": 5823, "duree": "", "horodatage": "2023-03-15 15:01:58", "marker-color": "#56FF93"}}, {"type": "Feature", "geometry": {"type": "Point", "coordinates": [2.303101, 48.762558]}, "properties": {"etat de la localisation": "Deviation programmee", "numparc": 5835, "duree": "", "horodatage": "2023-03-15 15:16:56", "marker-color": "#56FF93"}}, {"type": "Feature", "geometry": {"type": "Point", "coordinates": [2.219029, 48.785267]}, "properties": {"etat de la localisation": "Mission suivante non connue", "numparc": 5825, "duree": "", "horodatage": "2023-03-15 15:31:01", "marker-color": "#7156FF"}}, {"type": "Feature", "geometry": {"type": "Point", "coordinates": [2.29814, 48.722538]}, "properties": {"etat de la localisation": "Delocalise", "numparc": 5832, "duree": "00:02:53", "horodatage": "2023-03-15 16:06:11", "marker-color": "#FF565E"}}, {"type": "Feature", "geometry": {"type": "Point", "coordinates": [2.219067, 48.785393]}, "properties": {"etat de la localisation": "Mission suivante non connue", "numparc": 5825, "duree": "", "horodatage": "2023-03-15 16:52:46", "marker-color": "#7156FF"}}, {"type": "Feature", "geometry": {"type": "Point", "coordinates": [2.291939, 48.761234]}, "properties": {"etat de la localisation": "Deviation programmee", "numparc": 5833, "duree": "", "horodatage": "2023-03-15 16:56:51", "marker-color": "#56FF93"}}, {"type": "Feature", "geometry": {"type": "Point", "coordinates": [2.291945, 48.761169]}, "properties": {"etat de la localisation": "Deviation programmee", "numparc": 5824, "duree": "", "horodatage": "2023-03-15 17:07:30", "marker-color": "#56FF93"}}, {"type": "Feature", "geometry": {"type": "Point", "coordinates": [2.297922, 48.722473]}, "properties": {"etat de la localisation": "Delocalise", "numparc": 5850, "duree": "00:00:37", "horodatage": "2023-03-15 17:37:25", "marker-color": "#FF565E"}}, {"type": "Feature", "geometry": {"type": "Point", "coordinates": [2.303021, 48.762459]}, "properties": {"etat de la localisation": "Mission suivante non connue", "numparc": 5825, "duree": "", "horodatage": "2023-03-15 17:44:28", "marker-color": "#7156FF"}}, {"type": "Feature", "geometry": {"type": "Point", "coordinates": [2.29152, 48.763054]}, "properties": {"etat de la localisation": "Delocalise", "numparc": 5825, "duree": "00:04:55", "horodatage": "2023-03-15 17:58:24", "marker-color": "#FF565E"}}, {"type": "Feature", "geometry": {"type": "Point", "coordinates": [2.297764, 48.721313]}, "properties": {"etat de la localisation": "Delocalise", "numparc": 4864, "duree": "00:09:35", "horodatage": "2023-03-15 18:13:02", "marker-color": "#FF565E"}}, {"type": "Feature", "geometry": {"type": "Point", "coordinates": [2.298235, 48.722553]}, "properties": {"etat de la localisation": "Hors service", "numparc": 5826, "duree": "", "horodatage": "2023-03-15 18:23:24", "marker-color": "#707070"}}, {"type": "Feature", "geometry": {"type": "Point", "coordinates": [2.219042, 48.78524]}, "properties": {"etat de la localisation": "Mission suivante non connue", "numparc": 5825, "duree": "", "horodatage": "2023-03-15 18:27:47", "marker-color": "#7156FF"}}, {"type": "Feature", "geometry": {"type": "Point", "coordinates": [2.304254, 48.762779]}, "properties": {"etat de la localisation": "Deviation programmee", "numparc": 5833, "duree": "", "horodatage": "2023-03-15 18:28:35", "marker-color": "#56FF93"}}, {"type": "Feature", "geometry": {"type": "Point", "coordinates": [2.29832, 48.722595]}, "properties": {"etat de la localisation": "Mission inconnue", "numparc": 5823, "duree": "", "horodatage": "2023-03-15 18:28:51", "marker-color": "#FF9F56"}}, {"type": "Feature", "geometry": {"type": "Point", "coordinates": [2.298295, 48.721699]}, "properties": {"etat de la localisation": "Mission inconnue", "numparc": 5823, "duree": "", "horodatage": "2023-03-15 18:33:46", "marker-color": "#FF9F56"}}, {"type": "Feature", "geometry": {"type": "Point", "coordinates": [2.298295, 48.721699]}, "properties": {"etat de la localisation": "Mission inconnue", "numparc": 5823, "duree": "", "horodatage": "2023-03-15 18:34:00", "marker-color": "#FF9F56"}}, {"type": "Feature", "geometry": {"type": "Point", "coordinates": [2.297757, 48.721294]}, "properties": {"etat de la localisation": "Hors service", "numparc": 5823, "duree": "", "horodatage": "2023-03-15 18:34:43", "marker-color": "#707070"}}, {"type": "Feature", "geometry": {"type": "Point", "coordinates": [2.297757, 48.721294]}, "properties": {"etat de la localisation": "Delocalise", "numparc": 5823, "duree": "00:06:01", "horodatage": "2023-03-15 18:35:24", "marker-color": "#FF565E"}}, {"type": "Feature", "geometry": {"type": "Point", "coordinates": [2.291947, 48.761162]}, "properties": {"etat de la localisation": "Deviation programmee", "numparc": 5824, "duree": "", "horodatage": "2023-03-15 18:42:25", "marker-color": "#56FF93"}}, {"type": "Feature", "geometry": {"type": "Point", "coordinates": [2.309663, 48.763634]}, "properties": {"etat de la localisation": "Mission inconnue", "numparc": 4864, "duree": "", "horodatage": "2023-03-15 18:49:47", "marker-color": "#FF9F56"}}, {"type": "Feature", "geometry": {"type": "Point", "coordinates": [2.219172, 48.785549]}, "properties": {"etat de la localisation": "Mission suivante non connue", "numparc": 5833, "duree": "", "horodatage": "2023-03-15 18:58:49", "marker-color": "#7156FF"}}, {"type": "Feature", "geometry": {"type": "Point", "coordinates": [2.297944, 48.722507]}, "properties": {"etat de la localisation": "Hors service", "numparc": 5822, "duree": "", "horodatage": "2023-03-15 19:00:24", "marker-color": "#707070"}}, {"type": "Feature", "geometry": {"type": "Point", "coordinates": [2.221398, 48.785896]}, "properties": {"etat de la localisation": "Mission inconnue", "numparc": 5823, "duree": "", "horodatage": "2023-03-15 19:17:47", "marker-color": "#FF9F56"}}, {"type": "Feature", "geometry": {"type": "Point", "coordinates": [2.291852, 48.761135]}, "properties": {"etat de la localisation": "Deviation programmee", "numparc": 5829, "duree": "", "horodatage": "2023-03-15 19:36:22", "marker-color": "#56FF93"}}, {"type": "Feature", "geometry": {"type": "Point", "coordinates": [2.298106, 48.722534]}, "properties": {"etat de la localisation": "Mission inconnue", "numparc": 5828, "duree": "", "horodatage": "2023-03-15 19:41:30", "marker-color": "#FF9F56"}}, {"type": "Feature", "geometry": {"type": "Point", "coordinates": [2.304077, 48.762665]}, "properties": {"etat de la localisation": "Mission suivante non connue", "numparc": 5835, "duree": "", "horodatage": "2023-03-15 19:45:42", "marker-color": "#7156FF"}}, {"type": "Feature", "geometry": {"type": "Point", "coordinates": [2.219044, 48.785263]}, "properties": {"etat de la localisation": "Mission suivante non connue", "numparc": 5825, "duree": "", "horodatage": "2023-03-15 19:47:37", "marker-color": "#7156FF"}}, {"type": "Feature", "geometry": {"type": "Point", "coordinates": [2.297656, 48.721668]}, "properties": {"etat de la localisation": "Hors service", "numparc": 5829, "duree": "", "horodatage": "2023-03-15 19:48:28", "marker-color": "#707070"}}, {"type": "Feature", "geometry": {"type": "Point", "coordinates": [2.291975, 48.761154]}, "properties": {"etat de la localisation": "Deviation programmee", "numparc": 5833, "duree": "", "horodatage": "2023-03-15 19:48:55", "marker-color": "#56FF93"}}, {"type": "Feature", "geometry": {"type": "Point", "coordinates": [2.249517, 48.769424]}, "properties": {"etat de la localisation": "Delocalise", "numparc": 5823, "duree": "00:01:18", "horodatage": "2023-03-15 19:52:29", "marker-color": "#FF565E"}}, {"type": "Feature", "geometry": {"type": "Point", "coordinates": [2.298071, 48.722397]}, "properties": {"etat de la localisation": "Hors service", "numparc": 5828, "duree": "", "horodatage": "2023-03-15 19:56:35", "marker-color": "#707070"}}, {"type": "Feature", "geometry": {"type": "Point", "coordinates": [2.297646, 48.721485]}, "properties": {"etat de la localisation": "Hors service", "numparc": 5833, "duree": "", "horodatage": "2023-03-15 20:01:12", "marker-color": "#707070"}}, {"type": "Feature", "geometry": {"type": "Point", "coordinates": [2.297284, 48.721527]}, "properties": {"etat de la localisation": "Hors service", "numparc": 5824, "duree": "", "horodatage": "2023-03-15 20:19:03", "marker-color": "#707070"}}, {"type": "Feature", "geometry": {"type": "Point", "coordinates": [2.302518, 48.762299]}, "properties": {"etat de la localisation": "Mission suivante non connue", "numparc": 5825, "duree": "", "horodatage": "2023-03-15 20:22:53", "marker-color": "#7156FF"}}, {"type": "Feature", "geometry": {"type": "Point", "coordinates": [2.219149, 48.785557]}, "properties": {"etat de la localisation": "Mission suivante non connue", "numparc": 5835, "duree": "", "horodatage": "2023-03-15 20:25:45", "marker-color": "#7156FF"}}, {"type": "Feature", "geometry": {"type": "Point", "coordinates": [2.297218, 48.72168]}, "properties": {"etat de la localisation": "Hors service", "numparc": 5825, "duree": "", "horodatage": "2023-03-15 20:37:27", "marker-color": "#707070"}}, {"type": "Feature", "geometry": {"type": "Point", "coordinates": [2.219182, 48.78553]}, "properties": {"etat de la localisation": "Mission suivante non connue", "numparc": 5832, "duree": "", "horodatage": "2023-03-15 20:48:59", "marker-color": "#7156FF"}}, {"type": "Feature", "geometry": {"type": "Point", "coordinates": [2.304077, 48.762684]}, "properties": {"etat de la localisation": "Mission suivante non connue", "numparc": 5835, "duree": "", "horodatage": "2023-03-15 20:52:42", "marker-color": "#7156FF"}}, {"type": "Feature", "geometry": {"type": "Point", "coordinates": [2.291521, 48.763069]}, "properties": {"etat de la localisation": "Delocalise", "numparc": 5835, "duree": "00:04:25", "horodatage": "2023-03-15 21:05:04", "marker-color": "#FF565E"}}, {"type": "Feature", "geometry": {"type": "Point", "coordinates": [2.29194, 48.761169]}, "properties": {"etat de la localisation": "Deviation programmee", "numparc": 4864, "duree": "", "horodatage": "2023-03-15 21:08:16", "marker-color": "#56FF93"}}, {"type": "Feature", "geometry": {"type": "Point", "coordinates": [2.296605, 48.721428]}, "properties": {"etat de la localisation": "Hors service", "numparc": 5832, "duree": "", "horodatage": "2023-03-15 21:10:39", "marker-color": "#707070"}}, {"type": "Feature", "geometry": {"type": "Point", "coordinates": [2.219611, 48.785656]}, "properties": {"etat de la localisation": "Mission suivante non connue", "numparc": 5835, "duree": "", "horodatage": "2023-03-15 21:28:00", "marker-color": "#7156FF"}}, {"type": "Feature", "geometry": {"type": "Point", "coordinates": [2.219055, 48.785275]}, "properties": {"etat de la localisation": "Mission suivante non connue", "numparc": 5835, "duree": "", "horodatage": "2023-03-15 21:39:54", "marker-color": "#7156FF"}}, {"type": "Feature", "geometry": {"type": "Point", "coordinates": [2.291917, 48.761158]}, "properties": {"etat de la localisation": "Deviation programmee", "numparc": 5835, "duree": "", "horodatage": "2023-03-15 22:01:54", "marker-color": "#56FF93"}}, {"type": "Feature", "geometry": {"type": "Point", "coordinates": [2.304251, 48.762768]}, "properties": {"etat de la localisation": "Deviation programmee", "numparc": 5835, "duree": "", "horodatage": "2023-03-15 23:54:23", "marker-color": "#56FF93"}}, {"type": "Feature", "geometry": {"type": "Point", "coordinates": [2.296955, 48.721867]}, "properties": {"etat de la localisation": "Hors service", "numparc": 5850, "duree": "", "horodatage": "2023-03-16 00:21:24", "marker-color": "#707070"}}, {"type": "Feature", "geometry": {"type": "Point", "coordinates": [2.297314, 48.722172]}, "properties": {"etat de la localisation": "Hors service", "numparc": 5842, "duree": "", "horodatage": "2023-03-16 00:28:30", "marker-color": "#707070"}}, {"type": "Feature", "geometry": {"type": "Point", "coordinates": [2.297123, 48.72205]}, "properties": {"etat de la localisation": "Hors service", "numparc": 4864, "duree": "", "horodatage": "2023-03-16 00:43:26", "marker-color": "#707070"}}, {"type": "Feature", "geometry": {"type": "Point", "coordinates": [2.291859, 48.761166]}, "properties": {"etat de la localisation": "Deviation programmee", "numparc": 5835, "duree": "", "horodatage": "2023-03-16 00:43:39", "marker-color": "#56FF93"}}, {"type": "Feature", "geometry": {"type": "Point", "coordinates": [2.29185, 48.761162]}, "properties": {"etat de la localisation": "Deviation programmee", "numparc": 5823, "duree": "", "horodatage": "2023-03-16 01:02:18", "marker-color": "#56FF93"}}, {"type": "Feature", "geometry": {"type": "Point", "coordinates": [2.297123, 48.721527]}, "properties": {"etat de la localisation": "Hors service", "numparc": 5835, "duree": "", "horodatage": "2023-03-16 01:29:33", "marker-color": "#707070"}}, {"type": "Feature", "geometry": {"type": "Point", "coordinates": [2.29687, 48.721512]}, "properties": {"etat de la localisation": "Hors service", "numparc": 5823, "duree": "", "horodatage": "2023-03-16 01:54:23", "marker-color": "#707070"}}]}