{"type": "FeatureCollection", "features": [{"type": "Feature", "geometry": {"type": "Point", "coordinates": [2.340827, 48.916271]}, "properties": {"numparc": 1480, "etat de la localisation": "autre", "ID BDGEO": "24", "horodatage": "2021-10-05 05:24:43", "distance (en metres)": 86.97, "station": "CENTRE DE BUS PLEYEL-SORTIE", "marker-color": "#818181"}}, {"type": "Feature", "geometry": {"type": "Point", "coordinates": [2.340906, 48.916279]}, "properties": {"numparc": 1481, "etat de la localisation": "autre", "ID BDGEO": "24", "horodatage": "2021-10-05 05:26:50", "distance (en metres)": 81.98, "station": "CENTRE DE BUS PLEYEL-SORTIE", "marker-color": "#818181"}}, {"type": "Feature", "geometry": {"type": "Point", "coordinates": [2.340827, 48.916271]}, "properties": {"numparc": 1480, "etat de la localisation": "autre", "ID BDGEO": "24", "horodatage": "2021-10-05 05:30:28", "distance (en metres)": 86.97, "station": "CENTRE DE BUS PLEYEL-SORTIE", "marker-color": "#818181"}}, {"type": "Feature", "geometry": {"type": "Point", "coordinates": [2.340831, 48.916271]}, "properties": {"numparc": 1480, "etat de la localisation": "autre", "ID BDGEO": "24", "horodatage": "2021-10-05 05:32:56", "distance (en metres)": 86.69, "station": "CENTRE DE BUS PLEYEL-SORTIE", "marker-color": "#818181"}}, {"type": "Feature", "geometry": {"type": "Point", "coordinates": [2.341085, 48.916397]}, "properties": {"numparc": 1486, "etat de la localisation": "autre", "ID BDGEO": "24", "horodatage": "2021-10-05 05:34:11", "distance (en metres)": 77.31, "station": "CENTRE DE BUS PLEYEL-SORTIE", "marker-color": "#818181"}}, {"type": "Feature", "geometry": {"type": "Point", "coordinates": [2.340906, 48.916279]}, "properties": {"numparc": 1481, "etat de la localisation": "autre", "ID BDGEO": "24", "horodatage": "2021-10-05 05:36:23", "distance (en metres)": 81.98, "station": "CENTRE DE BUS PLEYEL-SORTIE", "marker-color": "#818181"}}, {"type": "Feature", "geometry": {"type": "Point", "coordinates": [2.341028, 48.916656]}, "properties": {"numparc": 1481, "etat de la localisation": "autre", "ID BDGEO": "902", "horodatage": "2021-10-05 05:41:03", "distance (en metres)": 1997.22, "station": "SAINT-OUEN RER", "marker-color": "#818181"}}, {"type": "Feature", "geometry": {"type": "Point", "coordinates": [2.302649, 48.898499]}, "properties": {"numparc": 1481, "etat de la localisation": "autre", "ID BDGEO": "1045", "horodatage": "2021-10-05 06:04:31", "distance (en metres)": 45.05, "station": "CHANCE-MILLY", "marker-color": "#818181"}}, {"type": "Feature", "geometry": {"type": "Point", "coordinates": [2.29832, 48.896671]}, "properties": {"numparc": 1481, "etat de la localisation": "autre", "ID BDGEO": "1044", "horodatage": "2021-10-05 06:05:36", "distance (en metres)": 46.53, "station": "GARE DE CLICHY-LEVALLOIS", "marker-color": "#818181"}}, {"type": "Feature", "geometry": {"type": "Point", "coordinates": [2.280104, 48.889889]}, "properties": {"numparc": 1481, "etat de la localisation": "autre", "ID BDGEO": "110", "horodatage": "2021-10-05 06:15:14", "distance (en metres)": 41.04, "station": "VOLTAIRE-VILLIERS", "marker-color": "#818181"}}, {"type": "Feature", "geometry": {"type": "Point", "coordinates": [2.243883, 48.892044]}, "properties": {"numparc": 1486, "etat de la localisation": "autre", "ID BDGEO": "909", "horodatage": "2021-10-05 06:26:24", "distance (en metres)": 69.16, "station": "GAMBETTA", "marker-color": "#818181"}}, {"type": "Feature", "geometry": {"type": "Point", "coordinates": [2.238349, 48.891327]}, "properties": {"numparc": 1486, "etat de la localisation": "autre", "ID BDGEO": "3", "horodatage": "2021-10-05 06:28:57", "distance (en metres)": 241.45, "station": "LA DEFENSE", "marker-color": "#818181"}}, {"type": "Feature", "geometry": {"type": "Point", "coordinates": [2.243968, 48.892086]}, "properties": {"numparc": 1481, "etat de la localisation": "autre", "ID BDGEO": "909", "horodatage": "2021-10-05 06:31:02", "distance (en metres)": 76.54, "station": "GAMBETTA", "marker-color": "#818181"}}, {"type": "Feature", "geometry": {"type": "Point", "coordinates": [2.240309, 48.887798]}, "properties": {"numparc": 1486, "etat de la localisation": "autre", "ID BDGEO": "9", "horodatage": "2021-10-05 06:37:29", "distance (en metres)": 42.64, "station": "BOIELDIEU", "marker-color": "#818181"}}, {"type": "Feature", "geometry": {"type": "Point", "coordinates": [2.287998, 48.89362]}, "properties": {"numparc": 1486, "etat de la localisation": "autre", "ID BDGEO": "41", "horodatage": "2021-10-05 06:56:45", "distance (en metres)": 43.59, "station": "MAIRIE DE LEVALLOIS", "marker-color": "#818181"}}, {"type": "Feature", "geometry": {"type": "Point", "coordinates": [2.288036, 48.893562]}, "properties": {"numparc": 1481, "etat de la localisation": "autre", "ID BDGEO": "41", "horodatage": "2021-10-05 07:06:30", "distance (en metres)": 42.56, "station": "MAIRIE DE LEVALLOIS", "marker-color": "#818181"}}, {"type": "Feature", "geometry": {"type": "Point", "coordinates": [2.302756, 48.898628]}, "properties": {"numparc": 1481, "etat de la localisation": "autre", "ID BDGEO": "1045", "horodatage": "2021-10-05 07:40:45", "distance (en metres)": 59.62, "station": "CHANCE-MILLY", "marker-color": "#818181"}}, {"type": "Feature", "geometry": {"type": "Point", "coordinates": [2.298237, 48.89666]}, "properties": {"numparc": 1481, "etat de la localisation": "autre", "ID BDGEO": "1044", "horodatage": "2021-10-05 07:42:07", "distance (en metres)": 40.58, "station": "GARE DE CLICHY-LEVALLOIS", "marker-color": "#818181"}}, {"type": "Feature", "geometry": {"type": "Point", "coordinates": [2.340833, 48.916271]}, "properties": {"numparc": 1480, "etat de la localisation": "autre", "ID BDGEO": "24", "horodatage": "2021-10-05 07:45:29", "distance (en metres)": 86.56, "station": "CENTRE DE BUS PLEYEL-SORTIE", "marker-color": "#818181"}}, {"type": "Feature", "geometry": {"type": "Point", "coordinates": [2.340959, 48.916531]}, "properties": {"numparc": 1480, "etat de la localisation": "autre", "ID BDGEO": "902", "horodatage": "2021-10-05 07:50:04", "distance (en metres)": 1984.17, "station": "SAINT-OUEN RER", "marker-color": "#818181"}}, {"type": "Feature", "geometry": {"type": "Point", "coordinates": [2.28604, 48.891441]}, "properties": {"numparc": 1481, "etat de la localisation": "autre", "ID BDGEO": "109", "horodatage": "2021-10-05 07:51:37", "distance (en metres)": 49.63, "station": "ANATOLE FRANCE-METRO", "marker-color": "#818181"}}, {"type": "Feature", "geometry": {"type": "Point", "coordinates": [2.274296, 48.885815]}, "properties": {"numparc": 1486, "etat de la localisation": "autre", "ID BDGEO": "37", "horodatage": "2021-10-05 08:00:35", "distance (en metres)": 43.23, "station": "LYCEE PASTEUR", "marker-color": "#818181"}}, {"type": "Feature", "geometry": {"type": "Point", "coordinates": [2.27439, 48.885769]}, "properties": {"numparc": 1481, "etat de la localisation": "autre", "ID BDGEO": "37", "horodatage": "2021-10-05 08:01:54", "distance (en metres)": 40.46, "station": "LYCEE PASTEUR", "marker-color": "#818181"}}, {"type": "Feature", "geometry": {"type": "Point", "coordinates": [2.269247, 48.884384]}, "properties": {"numparc": 1481, "etat de la localisation": "autre", "ID BDGEO": "117", "horodatage": "2021-10-05 08:10:15", "distance (en metres)": 129.93, "station": "SAINTE FOY", "marker-color": "#818181"}}, {"type": "Feature", "geometry": {"type": "Point", "coordinates": [2.252014, 48.888008]}, "properties": {"numparc": 1486, "etat de la localisation": "autre", "ID BDGEO": "911", "horodatage": "2021-10-05 08:18:32", "distance (en metres)": 42.49, "station": "PONT DE NEUILLY-RIVE GAUCHE", "marker-color": "#818181"}}, {"type": "Feature", "geometry": {"type": "Point", "coordinates": [2.302568, 48.898521]}, "properties": {"numparc": 1480, "etat de la localisation": "autre", "ID BDGEO": "1045", "horodatage": "2021-10-05 08:21:08", "distance (en metres)": 41.48, "station": "CHANCE-MILLY", "marker-color": "#818181"}}, {"type": "Feature", "geometry": {"type": "Point", "coordinates": [2.250623, 48.88921]}, "properties": {"numparc": 1481, "etat de la localisation": "autre", "ID BDGEO": "908", "horodatage": "2021-10-05 08:21:38", "distance (en metres)": 82.96, "station": "ALSACE", "marker-color": "#818181"}}, {"type": "Feature", "geometry": {"type": "Point", "coordinates": [2.298192, 48.896709]}, "properties": {"numparc": 1480, "etat de la localisation": "autre", "ID BDGEO": "1044", "horodatage": "2021-10-05 08:22:33", "distance (en metres)": 40.92, "station": "GARE DE CLICHY-LEVALLOIS", "marker-color": "#818181"}}, {"type": "Feature", "geometry": {"type": "Point", "coordinates": [2.244032, 48.892239]}, "properties": {"numparc": 1486, "etat de la localisation": "autre", "ID BDGEO": "909", "horodatage": "2021-10-05 08:23:36", "distance (en metres)": 87.77, "station": "GAMBETTA", "marker-color": "#818181"}}, {"type": "Feature", "geometry": {"type": "Point", "coordinates": [2.244184, 48.891987]}, "properties": {"numparc": 1481, "etat de la localisation": "autre", "ID BDGEO": "909", "horodatage": "2021-10-05 08:24:28", "distance (en metres)": 89.16, "station": "GAMBETTA", "marker-color": "#818181"}}, {"type": "Feature", "geometry": {"type": "Point", "coordinates": [2.238564, 48.891552]}, "properties": {"numparc": 1486, "etat de la localisation": "autre", "ID BDGEO": "3", "horodatage": "2021-10-05 08:26:46", "distance (en metres)": 246.59, "station": "LA DEFENSE", "marker-color": "#818181"}}, {"type": "Feature", "geometry": {"type": "Point", "coordinates": [2.240978, 48.890385]}, "properties": {"numparc": 1486, "etat de la localisation": "autre", "ID BDGEO": "3", "horodatage": "2021-10-05 08:29:19", "distance (en metres)": 46.4, "station": "LA DEFENSE", "marker-color": "#818181"}}, {"type": "Feature", "geometry": {"type": "Point", "coordinates": [2.280106, 48.889881]}, "properties": {"numparc": 1480, "etat de la localisation": "autre", "ID BDGEO": "110", "horodatage": "2021-10-05 08:35:33", "distance (en metres)": 41.66, "station": "VOLTAIRE-VILLIERS", "marker-color": "#818181"}}, {"type": "Feature", "geometry": {"type": "Point", "coordinates": [2.241583, 48.889885]}, "properties": {"numparc": 1481, "etat de la localisation": "autre", "ID BDGEO": "3", "horodatage": "2021-10-05 08:42:04", "distance (en metres)": 48.95, "station": "LA DEFENSE", "marker-color": "#818181"}}, {"type": "Feature", "geometry": {"type": "Point", "coordinates": [2.243724, 48.891724]}, "properties": {"numparc": 1480, "etat de la localisation": "autre", "ID BDGEO": "3", "horodatage": "2021-10-05 09:01:57", "distance (en metres)": 282.72, "station": "LA DEFENSE", "marker-color": "#818181"}}, {"type": "Feature", "geometry": {"type": "Point", "coordinates": [2.2388, 48.890572]}, "properties": {"numparc": 1480, "etat de la localisation": "Delocalise", "ID BDGEO": "3", "horodatage": "2021-10-05 09:03:56", "distance (en metres)": 169.26, "station": "LA DEFENSE", "marker-color": "#FF565E"}}, {"type": "Feature", "geometry": {"type": "Point", "coordinates": [2.273886, 48.884907]}, "properties": {"numparc": 1481, "etat de la localisation": "autre", "ID BDGEO": "115", "horodatage": "2021-10-05 09:06:13", "distance (en metres)": 89.79, "station": "LYCEE PASTEUR", "marker-color": "#818181"}}, {"type": "Feature", "geometry": {"type": "Point", "coordinates": [2.241553, 48.889767]}, "properties": {"numparc": 1480, "etat de la localisation": "Delocalise", "ID BDGEO": "3", "horodatage": "2021-10-05 09:23:45", "distance (en metres)": 51.07, "station": "LA DEFENSE", "marker-color": "#FF565E"}}, {"type": "Feature", "geometry": {"type": "Point", "coordinates": [2.240733, 48.887566]}, "properties": {"numparc": 1480, "etat de la localisation": "Delocalise", "ID BDGEO": "9", "horodatage": "2021-10-05 09:25:51", "distance (en metres)": 65.54, "station": "BOIELDIEU", "marker-color": "#FF565E"}}, {"type": "Feature", "geometry": {"type": "Point", "coordinates": [2.28806, 48.893604]}, "properties": {"numparc": 1480, "etat de la localisation": "autre", "ID BDGEO": "41", "horodatage": "2021-10-05 09:54:28", "distance (en metres)": 46.39, "station": "MAIRIE DE LEVALLOIS", "marker-color": "#818181"}}, {"type": "Feature", "geometry": {"type": "Point", "coordinates": [2.302589, 48.898552]}, "properties": {"numparc": 1486, "etat de la localisation": "autre", "ID BDGEO": "1045", "horodatage": "2021-10-05 10:03:22", "distance (en metres)": 44.78, "station": "CHANCE-MILLY", "marker-color": "#818181"}}, {"type": "Feature", "geometry": {"type": "Point", "coordinates": [2.302696, 48.898544]}, "properties": {"numparc": 1481, "etat de la localisation": "autre", "ID BDGEO": "1045", "horodatage": "2021-10-05 10:03:36", "distance (en metres)": 50.63, "station": "CHANCE-MILLY", "marker-color": "#818181"}}, {"type": "Feature", "geometry": {"type": "Point", "coordinates": [2.298233, 48.896709]}, "properties": {"numparc": 1486, "etat de la localisation": "autre", "ID BDGEO": "1044", "horodatage": "2021-10-05 10:04:50", "distance (en metres)": 43.31, "station": "GARE DE CLICHY-LEVALLOIS", "marker-color": "#818181"}}, {"type": "Feature", "geometry": {"type": "Point", "coordinates": [2.298567, 48.896809]}, "properties": {"numparc": 1481, "etat de la localisation": "autre", "ID BDGEO": "1044", "horodatage": "2021-10-05 10:04:56", "distance (en metres)": 69.76, "station": "GARE DE CLICHY-LEVALLOIS", "marker-color": "#818181"}}, {"type": "Feature", "geometry": {"type": "Point", "coordinates": [2.285984, 48.891392]}, "properties": {"numparc": 1486, "etat de la localisation": "autre", "ID BDGEO": "109", "horodatage": "2021-10-05 10:12:21", "distance (en metres)": 43.21, "station": "ANATOLE FRANCE-METRO", "marker-color": "#818181"}}, {"type": "Feature", "geometry": {"type": "Point", "coordinates": [2.280026, 48.889874]}, "properties": {"numparc": 1481, "etat de la localisation": "autre", "ID BDGEO": "39", "horodatage": "2021-10-05 10:16:34", "distance (en metres)": 50.16, "station": "VOLTAIRE-VILLIERS", "marker-color": "#818181"}}, {"type": "Feature", "geometry": {"type": "Point", "coordinates": [2.341172, 48.9165]}, "properties": {"numparc": 1480, "etat de la localisation": "autre", "ID BDGEO": "24", "horodatage": "2021-10-05 10:23:15", "distance (en metres)": 80.14, "station": "CENTRE DE BUS PLEYEL-SORTIE", "marker-color": "#818181"}}, {"type": "Feature", "geometry": {"type": "Point", "coordinates": [2.341047, 48.916412]}, "properties": {"numparc": 1480, "etat de la localisation": "autre", "ID BDGEO": "24", "horodatage": "2021-10-05 10:27:02", "distance (en metres)": 80.55, "station": "CENTRE DE BUS PLEYEL-SORTIE", "marker-color": "#818181"}}, {"type": "Feature", "geometry": {"type": "Point", "coordinates": [2.243977, 48.892265]}, "properties": {"numparc": 1486, "etat de la localisation": "autre", "ID BDGEO": "909", "horodatage": "2021-10-05 10:40:03", "distance (en metres)": 85.81, "station": "GAMBETTA", "marker-color": "#818181"}}, {"type": "Feature", "geometry": {"type": "Point", "coordinates": [2.240422, 48.890881]}, "properties": {"numparc": 1486, "etat de la localisation": "autre", "ID BDGEO": "3", "horodatage": "2021-10-05 10:46:44", "distance (en metres)": 107.87, "station": "LA DEFENSE", "marker-color": "#818181"}}, {"type": "Feature", "geometry": {"type": "Point", "coordinates": [2.240422, 48.890881]}, "properties": {"numparc": 1486, "etat de la localisation": "autre", "ID BDGEO": "3", "horodatage": "2021-10-05 10:53:22", "distance (en metres)": 107.87, "station": "LA DEFENSE", "marker-color": "#818181"}}, {"type": "Feature", "geometry": {"type": "Point", "coordinates": [2.340843, 48.915798]}, "properties": {"numparc": 1481, "etat de la localisation": "autre", "ID BDGEO": "24", "horodatage": "2021-10-05 11:11:26", "distance (en metres)": 82.1, "station": "CENTRE DE BUS PLEYEL-SORTIE", "marker-color": "#818181"}}, {"type": "Feature", "geometry": {"type": "Point", "coordinates": [2.340911, 48.915874]}, "properties": {"numparc": 1481, "etat de la localisation": "autre", "ID BDGEO": "24", "horodatage": "2021-10-05 11:17:44", "distance (en metres)": 75.52, "station": "CENTRE DE BUS PLEYEL-SORTIE", "marker-color": "#818181"}}, {"type": "Feature", "geometry": {"type": "Point", "coordinates": [2.288083, 48.893616]}, "properties": {"numparc": 1486, "etat de la localisation": "autre", "ID BDGEO": "41", "horodatage": "2021-10-05 11:24:47", "distance (en metres)": 48.5, "station": "MAIRIE DE LEVALLOIS", "marker-color": "#818181"}}, {"type": "Feature", "geometry": {"type": "Point", "coordinates": [2.295943, 48.894688]}, "properties": {"numparc": 1486, "etat de la localisation": "autre", "ID BDGEO": "106", "horodatage": "2021-10-05 11:29:45", "distance (en metres)": 94.24, "station": "TREZEL", "marker-color": "#818181"}}, {"type": "Feature", "geometry": {"type": "Point", "coordinates": [2.241624, 48.890232]}, "properties": {"numparc": 1486, "etat de la localisation": "autre", "ID BDGEO": "3", "horodatage": "2021-10-05 12:08:59", "distance (en metres)": 58.85, "station": "LA DEFENSE", "marker-color": "#818181"}}, {"type": "Feature", "geometry": {"type": "Point", "coordinates": [2.241624, 48.890232]}, "properties": {"numparc": 1486, "etat de la localisation": "autre", "ID BDGEO": "3", "horodatage": "2021-10-05 12:09:03", "distance (en metres)": 58.85, "station": "LA DEFENSE", "marker-color": "#818181"}}, {"type": "Feature", "geometry": {"type": "Point", "coordinates": [2.241624, 48.890232]}, "properties": {"numparc": 1486, "etat de la localisation": "autre", "ID BDGEO": "3", "horodatage": "2021-10-05 12:09:14", "distance (en metres)": 58.85, "station": "LA DEFENSE", "marker-color": "#818181"}}, {"type": "Feature", "geometry": {"type": "Point", "coordinates": [2.341043, 48.916409]}, "properties": {"numparc": 1480, "etat de la localisation": "autre", "ID BDGEO": "24", "horodatage": "2021-10-05 12:36:35", "distance (en metres)": 80.53, "station": "CENTRE DE BUS PLEYEL-SORTIE", "marker-color": "#818181"}}, {"type": "Feature", "geometry": {"type": "Point", "coordinates": [2.320401, 48.905148]}, "properties": {"numparc": 1480, "etat de la localisation": "autre", "ID BDGEO": "902", "horodatage": "2021-10-05 12:55:57", "distance (en metres)": 50.08, "station": "SAINT-OUEN RER", "marker-color": "#818181"}}, {"type": "Feature", "geometry": {"type": "Point", "coordinates": [2.320401, 48.905148]}, "properties": {"numparc": 1480, "etat de la localisation": "autre", "ID BDGEO": "902", "horodatage": "2021-10-05 12:55:59", "distance (en metres)": 50.08, "station": "SAINT-OUEN RER", "marker-color": "#818181"}}, {"type": "Feature", "geometry": {"type": "Point", "coordinates": [2.302593, 48.898525]}, "properties": {"numparc": 1486, "etat de la localisation": "autre", "ID BDGEO": "1045", "horodatage": "2021-10-05 13:23:14", "distance (en metres)": 43.21, "station": "CHANCE-MILLY", "marker-color": "#818181"}}, {"type": "Feature", "geometry": {"type": "Point", "coordinates": [2.280067, 48.889843]}, "properties": {"numparc": 1486, "etat de la localisation": "autre", "ID BDGEO": "110", "horodatage": "2021-10-05 13:36:28", "distance (en metres)": 42.16, "station": "VOLTAIRE-VILLIERS", "marker-color": "#818181"}}, {"type": "Feature", "geometry": {"type": "Point", "coordinates": [2.302526, 48.898617]}, "properties": {"numparc": 1480, "etat de la localisation": "autre", "ID BDGEO": "1045", "horodatage": "2021-10-05 13:38:58", "distance (en metres)": 46.55, "station": "CHANCE-MILLY", "marker-color": "#818181"}}, {"type": "Feature", "geometry": {"type": "Point", "coordinates": [2.298141, 48.896755]}, "properties": {"numparc": 1480, "etat de la localisation": "autre", "ID BDGEO": "1044", "horodatage": "2021-10-05 13:40:18", "distance (en metres)": 41.64, "station": "GARE DE CLICHY-LEVALLOIS", "marker-color": "#818181"}}, {"type": "Feature", "geometry": {"type": "Point", "coordinates": [2.243875, 48.892097]}, "properties": {"numparc": 1486, "etat de la localisation": "autre", "ID BDGEO": "909", "horodatage": "2021-10-05 13:55:53", "distance (en metres)": 70.63, "station": "GAMBETTA", "marker-color": "#818181"}}, {"type": "Feature", "geometry": {"type": "Point", "coordinates": [2.274381, 48.885834]}, "properties": {"numparc": 1480, "etat de la localisation": "autre", "ID BDGEO": "37", "horodatage": "2021-10-05 13:58:01", "distance (en metres)": 46.94, "station": "LYCEE PASTEUR", "marker-color": "#818181"}}, {"type": "Feature", "geometry": {"type": "Point", "coordinates": [2.249322, 48.890285]}, "properties": {"numparc": 1480, "etat de la localisation": "autre", "ID BDGEO": "908", "horodatage": "2021-10-05 14:11:29", "distance (en metres)": 69.87, "station": "ALSACE", "marker-color": "#818181"}}, {"type": "Feature", "geometry": {"type": "Point", "coordinates": [2.243586, 48.891968]}, "properties": {"numparc": 1480, "etat de la localisation": "autre", "ID BDGEO": "909", "horodatage": "2021-10-05 14:13:30", "distance (en metres)": 45.94, "station": "GAMBETTA", "marker-color": "#818181"}}, {"type": "Feature", "geometry": {"type": "Point", "coordinates": [2.238426, 48.890923]}, "properties": {"numparc": 1480, "etat de la localisation": "autre", "ID BDGEO": "989", "horodatage": "2021-10-05 14:15:35", "distance (en metres)": 47.95, "station": "LA DEFENSE.", "marker-color": "#818181"}}, {"type": "Feature", "geometry": {"type": "Point", "coordinates": [2.340959, 48.915901]}, "properties": {"numparc": 1483, "etat de la localisation": "autre", "ID BDGEO": "24", "horodatage": "2021-10-05 14:28:00", "distance (en metres)": 71.62, "station": "CENTRE DE BUS PLEYEL-SORTIE", "marker-color": "#818181"}}, {"type": "Feature", "geometry": {"type": "Point", "coordinates": [2.340959, 48.915901]}, "properties": {"numparc": 1483, "etat de la localisation": "autre", "ID BDGEO": "24", "horodatage": "2021-10-05 14:34:36", "distance (en metres)": 71.62, "station": "CENTRE DE BUS PLEYEL-SORTIE", "marker-color": "#818181"}}, {"type": "Feature", "geometry": {"type": "Point", "coordinates": [2.340955, 48.915901]}, "properties": {"numparc": 1483, "etat de la localisation": "autre", "ID BDGEO": "24", "horodatage": "2021-10-05 14:38:36", "distance (en metres)": 71.91, "station": "CENTRE DE BUS PLEYEL-SORTIE", "marker-color": "#818181"}}, {"type": "Feature", "geometry": {"type": "Point", "coordinates": [2.340916, 48.915844]}, "properties": {"numparc": 1481, "etat de la localisation": "autre", "ID BDGEO": "24", "horodatage": "2021-10-05 14:48:10", "distance (en metres)": 75.76, "station": "CENTRE DE BUS PLEYEL-SORTIE", "marker-color": "#818181"}}, {"type": "Feature", "geometry": {"type": "Point", "coordinates": [2.340901, 48.916302]}, "properties": {"numparc": 1481, "etat de la localisation": "autre", "ID BDGEO": "902", "horodatage": "2021-10-05 14:51:50", "distance (en metres)": 1964.21, "station": "SAINT-OUEN RER", "marker-color": "#818181"}}, {"type": "Feature", "geometry": {"type": "Point", "coordinates": [2.339964, 48.916954]}, "properties": {"numparc": 1481, "etat de la localisation": "autre", "ID BDGEO": "902", "horodatage": "2021-10-05 14:54:31", "distance (en metres)": 1962.6, "station": "SAINT-OUEN RER", "marker-color": "#818181"}}, {"type": "Feature", "geometry": {"type": "Point", "coordinates": [2.287922, 48.893673]}, "properties": {"numparc": 1480, "etat de la localisation": "autre", "ID BDGEO": "41", "horodatage": "2021-10-05 14:56:07", "distance (en metres)": 43.43, "station": "MAIRIE DE LEVALLOIS", "marker-color": "#818181"}}, {"type": "Feature", "geometry": {"type": "Point", "coordinates": [2.287951, 48.893677]}, "properties": {"numparc": 1480, "etat de la localisation": "autre", "ID BDGEO": "41", "horodatage": "2021-10-05 14:56:41", "distance (en metres)": 45.2, "station": "MAIRIE DE LEVALLOIS", "marker-color": "#818181"}}, {"type": "Feature", "geometry": {"type": "Point", "coordinates": [2.333787, 48.912018]}, "properties": {"numparc": 1481, "etat de la localisation": "autre", "ID BDGEO": "902", "horodatage": "2021-10-05 14:57:49", "distance (en metres)": 1259.5, "station": "SAINT-OUEN RER", "marker-color": "#818181"}}, {"type": "Feature", "geometry": {"type": "Point", "coordinates": [2.302736, 48.898388]}, "properties": {"numparc": 1481, "etat de la localisation": "autre", "ID BDGEO": "1045", "horodatage": "2021-10-05 15:18:20", "distance (en metres)": 46.58, "station": "CHANCE-MILLY", "marker-color": "#818181"}}, {"type": "Feature", "geometry": {"type": "Point", "coordinates": [2.320625, 48.904324]}, "properties": {"numparc": 1480, "etat de la localisation": "autre", "ID BDGEO": "902", "horodatage": "2021-10-05 15:27:44", "distance (en metres)": 43.92, "station": "SAINT-OUEN RER", "marker-color": "#818181"}}, {"type": "Feature", "geometry": {"type": "Point", "coordinates": [2.302603, 48.898552]}, "properties": {"numparc": 1486, "etat de la localisation": "autre", "ID BDGEO": "1045", "horodatage": "2021-10-05 15:34:08", "distance (en metres)": 45.59, "station": "CHANCE-MILLY", "marker-color": "#818181"}}, {"type": "Feature", "geometry": {"type": "Point", "coordinates": [2.298195, 48.896694]}, "properties": {"numparc": 1486, "etat de la localisation": "autre", "ID BDGEO": "1044", "horodatage": "2021-10-05 15:35:50", "distance (en metres)": 40.06, "station": "GARE DE CLICHY-LEVALLOIS", "marker-color": "#818181"}}, {"type": "Feature", "geometry": {"type": "Point", "coordinates": [2.295662, 48.895584]}, "properties": {"numparc": 1486, "etat de la localisation": "autre", "ID BDGEO": "106", "horodatage": "2021-10-05 15:38:12", "distance (en metres)": 55.66, "station": "TREZEL", "marker-color": "#818181"}}, {"type": "Feature", "geometry": {"type": "Point", "coordinates": [2.302609, 48.898521]}, "properties": {"numparc": 1480, "etat de la localisation": "autre", "ID BDGEO": "1045", "horodatage": "2021-10-05 15:42:50", "distance (en metres)": 43.92, "station": "CHANCE-MILLY", "marker-color": "#818181"}}, {"type": "Feature", "geometry": {"type": "Point", "coordinates": [2.298236, 48.89669]}, "properties": {"numparc": 1480, "etat de la localisation": "autre", "ID BDGEO": "1044", "horodatage": "2021-10-05 15:44:01", "distance (en metres)": 42.28, "station": "GARE DE CLICHY-LEVALLOIS", "marker-color": "#818181"}}, {"type": "Feature", "geometry": {"type": "Point", "coordinates": [2.274361, 48.885773]}, "properties": {"numparc": 1481, "etat de la localisation": "autre", "ID BDGEO": "37", "horodatage": "2021-10-05 15:45:23", "distance (en metres)": 40.06, "station": "LYCEE PASTEUR", "marker-color": "#818181"}}, {"type": "Feature", "geometry": {"type": "Point", "coordinates": [2.244006, 48.892128]}, "properties": {"numparc": 1481, "etat de la localisation": "autre", "ID BDGEO": "909", "horodatage": "2021-10-05 16:00:27", "distance (en metres)": 80.78, "station": "GAMBETTA", "marker-color": "#818181"}}, {"type": "Feature", "geometry": {"type": "Point", "coordinates": [2.241313, 48.890228]}, "properties": {"numparc": 1481, "etat de la localisation": "autre", "ID BDGEO": "3", "horodatage": "2021-10-05 16:05:34", "distance (en metres)": 40.42, "station": "LA DEFENSE", "marker-color": "#818181"}}, {"type": "Feature", "geometry": {"type": "Point", "coordinates": [2.244045, 48.892197]}, "properties": {"numparc": 1486, "etat de la localisation": "autre", "ID BDGEO": "909", "horodatage": "2021-10-05 16:11:22", "distance (en metres)": 86.48, "station": "GAMBETTA", "marker-color": "#818181"}}, {"type": "Feature", "geometry": {"type": "Point", "coordinates": [2.340955, 48.915901]}, "properties": {"numparc": 1483, "etat de la localisation": "autre", "ID BDGEO": "24", "horodatage": "2021-10-05 16:13:16", "distance (en metres)": 71.91, "station": "CENTRE DE BUS PLEYEL-SORTIE", "marker-color": "#818181"}}, {"type": "Feature", "geometry": {"type": "Point", "coordinates": [2.241313, 48.890228]}, "properties": {"numparc": 1481, "etat de la localisation": "autre", "ID BDGEO": "3", "horodatage": "2021-10-05 16:17:30", "distance (en metres)": 40.42, "station": "LA DEFENSE", "marker-color": "#818181"}}, {"type": "Feature", "geometry": {"type": "Point", "coordinates": [2.241546, 48.890095]}, "properties": {"numparc": 1481, "etat de la localisation": "autre", "ID BDGEO": "3", "horodatage": "2021-10-05 16:18:36", "distance (en metres)": 47.45, "station": "LA DEFENSE", "marker-color": "#818181"}}, {"type": "Feature", "geometry": {"type": "Point", "coordinates": [2.241576, 48.890083]}, "properties": {"numparc": 1481, "etat de la localisation": "autre", "ID BDGEO": "3", "horodatage": "2021-10-05 16:19:35", "distance (en metres)": 49.21, "station": "LA DEFENSE", "marker-color": "#818181"}}, {"type": "Feature", "geometry": {"type": "Point", "coordinates": [2.240686, 48.891098]}, "properties": {"numparc": 1480, "etat de la localisation": "autre", "ID BDGEO": "3", "horodatage": "2021-10-05 16:19:49", "distance (en metres)": 126.78, "station": "LA DEFENSE", "marker-color": "#818181"}}, {"type": "Feature", "geometry": {"type": "Point", "coordinates": [2.340955, 48.915901]}, "properties": {"numparc": 1483, "etat de la localisation": "autre", "ID BDGEO": "24", "horodatage": "2021-10-05 16:21:02", "distance (en metres)": 71.91, "station": "CENTRE DE BUS PLEYEL-SORTIE", "marker-color": "#818181"}}, {"type": "Feature", "geometry": {"type": "Point", "coordinates": [2.340955, 48.915901]}, "properties": {"numparc": 1483, "etat de la localisation": "autre", "ID BDGEO": "24", "horodatage": "2021-10-05 16:24:27", "distance (en metres)": 71.91, "station": "CENTRE DE BUS PLEYEL-SORTIE", "marker-color": "#818181"}}, {"type": "Feature", "geometry": {"type": "Point", "coordinates": [2.340955, 48.915901]}, "properties": {"numparc": 1483, "etat de la localisation": "autre", "ID BDGEO": "24", "horodatage": "2021-10-05 16:27:15", "distance (en metres)": 71.91, "station": "CENTRE DE BUS PLEYEL-SORTIE", "marker-color": "#818181"}}, {"type": "Feature", "geometry": {"type": "Point", "coordinates": [2.340955, 48.915901]}, "properties": {"numparc": 1483, "etat de la localisation": "autre", "ID BDGEO": "24", "horodatage": "2021-10-05 16:27:35", "distance (en metres)": 71.91, "station": "CENTRE DE BUS PLEYEL-SORTIE", "marker-color": "#818181"}}, {"type": "Feature", "geometry": {"type": "Point", "coordinates": [2.240686, 48.891098]}, "properties": {"numparc": 1480, "etat de la localisation": "autre", "ID BDGEO": "3", "horodatage": "2021-10-05 16:30:52", "distance (en metres)": 126.78, "station": "LA DEFENSE", "marker-color": "#818181"}}, {"type": "Feature", "geometry": {"type": "Point", "coordinates": [2.240619, 48.88776]}, "properties": {"numparc": 1480, "etat de la localisation": "autre", "ID BDGEO": "9", "horodatage": "2021-10-05 16:36:37", "distance (en metres)": 42.89, "station": "BOIELDIEU", "marker-color": "#818181"}}, {"type": "Feature", "geometry": {"type": "Point", "coordinates": [2.340955, 48.915901]}, "properties": {"numparc": 1483, "etat de la localisation": "autre", "ID BDGEO": "24", "horodatage": "2021-10-05 16:41:13", "distance (en metres)": 71.91, "station": "CENTRE DE BUS PLEYEL-SORTIE", "marker-color": "#818181"}}, {"type": "Feature", "geometry": {"type": "Point", "coordinates": [2.287971, 48.893597]}, "properties": {"numparc": 1481, "etat de la localisation": "autre", "ID BDGEO": "41", "horodatage": "2021-10-05 16:49:38", "distance (en metres)": 40.5, "station": "MAIRIE DE LEVALLOIS", "marker-color": "#818181"}}, {"type": "Feature", "geometry": {"type": "Point", "coordinates": [2.273515, 48.883717]}, "properties": {"numparc": 1480, "etat de la localisation": "autre", "ID BDGEO": "36", "horodatage": "2021-10-05 16:52:52", "distance (en metres)": 110.27, "station": "EGLISE ST. PIERRE", "marker-color": "#818181"}}, {"type": "Feature", "geometry": {"type": "Point", "coordinates": [2.318852, 48.903885]}, "properties": {"numparc": 1486, "etat de la localisation": "autre", "ID BDGEO": "954", "horodatage": "2021-10-05 17:15:53", "distance (en metres)": 86.1, "station": "VICTOR HUGO-SANZILLON", "marker-color": "#818181"}}, {"type": "Feature", "geometry": {"type": "Point", "coordinates": [2.320735, 48.904346]}, "properties": {"numparc": 1481, "etat de la localisation": "autre", "ID BDGEO": "902", "horodatage": "2021-10-05 17:25:10", "distance (en metres)": 42.38, "station": "SAINT-OUEN RER", "marker-color": "#818181"}}, {"type": "Feature", "geometry": {"type": "Point", "coordinates": [2.302672, 48.898468]}, "properties": {"numparc": 1481, "etat de la localisation": "autre", "ID BDGEO": "1045", "horodatage": "2021-10-05 17:42:21", "distance (en metres)": 44.98, "station": "CHANCE-MILLY", "marker-color": "#818181"}}, {"type": "Feature", "geometry": {"type": "Point", "coordinates": [2.304348, 48.902405]}, "properties": {"numparc": 1486, "etat de la localisation": "autre", "ID BDGEO": "926", "horodatage": "2021-10-05 17:43:02", "distance (en metres)": 43.87, "station": "MAIRIE DE CLICHY", "marker-color": "#818181"}}, {"type": "Feature", "geometry": {"type": "Point", "coordinates": [2.298291, 48.896629]}, "properties": {"numparc": 1481, "etat de la localisation": "autre", "ID BDGEO": "1044", "horodatage": "2021-10-05 17:44:16", "distance (en metres)": 42.63, "station": "GARE DE CLICHY-LEVALLOIS", "marker-color": "#818181"}}, {"type": "Feature", "geometry": {"type": "Point", "coordinates": [2.302651, 48.898483]}, "properties": {"numparc": 1486, "etat de la localisation": "autre", "ID BDGEO": "1045", "horodatage": "2021-10-05 17:47:11", "distance (en metres)": 44.35, "station": "CHANCE-MILLY", "marker-color": "#818181"}}, {"type": "Feature", "geometry": {"type": "Point", "coordinates": [2.298237, 48.896656]}, "properties": {"numparc": 1486, "etat de la localisation": "autre", "ID BDGEO": "1044", "horodatage": "2021-10-05 17:48:44", "distance (en metres)": 40.38, "station": "GARE DE CLICHY-LEVALLOIS", "marker-color": "#818181"}}, {"type": "Feature", "geometry": {"type": "Point", "coordinates": [2.296692, 48.896023]}, "properties": {"numparc": 1486, "etat de la localisation": "autre", "ID BDGEO": "1044", "horodatage": "2021-10-05 17:52:01", "distance (en metres)": 92.82, "station": "GARE DE CLICHY-LEVALLOIS", "marker-color": "#818181"}}, {"type": "Feature", "geometry": {"type": "Point", "coordinates": [2.304205, 48.899094]}, "properties": {"numparc": 1480, "etat de la localisation": "autre", "ID BDGEO": "1045", "horodatage": "2021-10-05 17:54:53", "distance (en metres)": 176.63, "station": "CHANCE-MILLY", "marker-color": "#818181"}}, {"type": "Feature", "geometry": {"type": "Point", "coordinates": [2.302773, 48.898449]}, "properties": {"numparc": 1480, "etat de la localisation": "autre", "ID BDGEO": "1045", "horodatage": "2021-10-05 17:56:26", "distance (en metres)": 51.04, "station": "CHANCE-MILLY", "marker-color": "#818181"}}, {"type": "Feature", "geometry": {"type": "Point", "coordinates": [2.280054, 48.889847]}, "properties": {"numparc": 1481, "etat de la localisation": "autre", "ID BDGEO": "110", "horodatage": "2021-10-05 17:56:33", "distance (en metres)": 41.19, "station": "VOLTAIRE-VILLIERS", "marker-color": "#818181"}}, {"type": "Feature", "geometry": {"type": "Point", "coordinates": [2.298723, 48.896778]}, "properties": {"numparc": 1480, "etat de la localisation": "autre", "ID BDGEO": "1044", "horodatage": "2021-10-05 17:57:55", "distance (en metres)": 78.22, "station": "GARE DE CLICHY-LEVALLOIS", "marker-color": "#818181"}}, {"type": "Feature", "geometry": {"type": "Point", "coordinates": [2.298335, 48.896622]}, "properties": {"numparc": 1480, "etat de la localisation": "autre", "ID BDGEO": "1044", "horodatage": "2021-10-05 17:58:27", "distance (en metres)": 45.32, "station": "GARE DE CLICHY-LEVALLOIS", "marker-color": "#818181"}}, {"type": "Feature", "geometry": {"type": "Point", "coordinates": [2.280035, 48.889847]}, "properties": {"numparc": 1486, "etat de la localisation": "autre", "ID BDGEO": "110", "horodatage": "2021-10-05 18:00:10", "distance (en metres)": 40.19, "station": "VOLTAIRE-VILLIERS", "marker-color": "#818181"}}, {"type": "Feature", "geometry": {"type": "Point", "coordinates": [2.280035, 48.889847]}, "properties": {"numparc": 1486, "etat de la localisation": "autre", "ID BDGEO": "110", "horodatage": "2021-10-05 18:00:16", "distance (en metres)": 40.19, "station": "VOLTAIRE-VILLIERS", "marker-color": "#818181"}}, {"type": "Feature", "geometry": {"type": "Point", "coordinates": [2.274401, 48.885803]}, "properties": {"numparc": 1481, "etat de la localisation": "autre", "ID BDGEO": "37", "horodatage": "2021-10-05 18:05:22", "distance (en metres)": 44.28, "station": "LYCEE PASTEUR", "marker-color": "#818181"}}, {"type": "Feature", "geometry": {"type": "Point", "coordinates": [2.280125, 48.889828]}, "properties": {"numparc": 1480, "etat de la localisation": "autre", "ID BDGEO": "110", "horodatage": "2021-10-05 18:08:25", "distance (en metres)": 46.44, "station": "VOLTAIRE-VILLIERS", "marker-color": "#818181"}}, {"type": "Feature", "geometry": {"type": "Point", "coordinates": [2.243842, 48.89201]}, "properties": {"numparc": 1481, "etat de la localisation": "autre", "ID BDGEO": "909", "horodatage": "2021-10-05 18:18:32", "distance (en metres)": 65.22, "station": "GAMBETTA", "marker-color": "#818181"}}, {"type": "Feature", "geometry": {"type": "Point", "coordinates": [2.243907, 48.892162]}, "properties": {"numparc": 1486, "etat de la localisation": "autre", "ID BDGEO": "909", "horodatage": "2021-10-05 18:20:44", "distance (en metres)": 75.74, "station": "GAMBETTA", "marker-color": "#818181"}}, {"type": "Feature", "geometry": {"type": "Point", "coordinates": [2.2437, 48.891907]}, "properties": {"numparc": 1480, "etat de la localisation": "autre", "ID BDGEO": "909", "horodatage": "2021-10-05 18:30:58", "distance (en metres)": 52.9, "station": "GAMBETTA", "marker-color": "#818181"}}, {"type": "Feature", "geometry": {"type": "Point", "coordinates": [2.239115, 48.890751]}, "properties": {"numparc": 1480, "etat de la localisation": "autre", "ID BDGEO": "989", "horodatage": "2021-10-05 18:33:24", "distance (en metres)": 44.74, "station": "LA DEFENSE.", "marker-color": "#818181"}}, {"type": "Feature", "geometry": {"type": "Point", "coordinates": [2.240798, 48.89098]}, "properties": {"numparc": 1480, "etat de la localisation": "autre", "ID BDGEO": "3", "horodatage": "2021-10-05 18:35:34", "distance (en metres)": 112.8, "station": "LA DEFENSE", "marker-color": "#818181"}}, {"type": "Feature", "geometry": {"type": "Point", "coordinates": [2.240798, 48.89098]}, "properties": {"numparc": 1480, "etat de la localisation": "autre", "ID BDGEO": "3", "horodatage": "2021-10-05 18:40:19", "distance (en metres)": 112.8, "station": "LA DEFENSE", "marker-color": "#818181"}}, {"type": "Feature", "geometry": {"type": "Point", "coordinates": [2.241775, 48.889717]}, "properties": {"numparc": 1480, "etat de la localisation": "autre", "ID BDGEO": "3", "horodatage": "2021-10-05 18:47:09", "distance (en metres)": 68.1, "station": "LA DEFENSE", "marker-color": "#818181"}}, {"type": "Feature", "geometry": {"type": "Point", "coordinates": [2.340899, 48.917351]}, "properties": {"numparc": 1486, "etat de la localisation": "autre", "ID BDGEO": "24", "horodatage": "2021-10-05 19:09:04", "distance (en metres)": 170.05, "station": "CENTRE DE BUS PLEYEL-SORTIE", "marker-color": "#818181"}}, {"type": "Feature", "geometry": {"type": "Point", "coordinates": [2.341295, 48.916504]}, "properties": {"numparc": 1486, "etat de la localisation": "autre", "ID BDGEO": "24", "horodatage": "2021-10-05 19:10:23", "distance (en metres)": 74.53, "station": "CENTRE DE BUS PLEYEL-SORTIE", "marker-color": "#818181"}}, {"type": "Feature", "geometry": {"type": "Point", "coordinates": [2.288194, 48.893574]}, "properties": {"numparc": 1481, "etat de la localisation": "autre", "ID BDGEO": "41", "horodatage": "2021-10-05 19:22:02", "distance (en metres)": 53.55, "station": "MAIRIE DE LEVALLOIS", "marker-color": "#818181"}}, {"type": "Feature", "geometry": {"type": "Point", "coordinates": [2.288051, 48.893509]}, "properties": {"numparc": 1480, "etat de la localisation": "autre", "ID BDGEO": "41", "horodatage": "2021-10-05 19:22:03", "distance (en metres)": 41.19, "station": "MAIRIE DE LEVALLOIS", "marker-color": "#818181"}}, {"type": "Feature", "geometry": {"type": "Point", "coordinates": [2.320676, 48.904221]}, "properties": {"numparc": 1481, "etat de la localisation": "autre", "ID BDGEO": "902", "horodatage": "2021-10-05 19:56:42", "distance (en metres)": 55.58, "station": "SAINT-OUEN RER", "marker-color": "#818181"}}, {"type": "Feature", "geometry": {"type": "Point", "coordinates": [2.302573, 48.898506]}, "properties": {"numparc": 1481, "etat de la localisation": "autre", "ID BDGEO": "1045", "horodatage": "2021-10-05 20:17:44", "distance (en metres)": 40.79, "station": "CHANCE-MILLY", "marker-color": "#818181"}}, {"type": "Feature", "geometry": {"type": "Point", "coordinates": [2.274407, 48.885864]}, "properties": {"numparc": 1481, "etat de la localisation": "autre", "ID BDGEO": "37", "horodatage": "2021-10-05 20:37:47", "distance (en metres)": 50.78, "station": "LYCEE PASTEUR", "marker-color": "#818181"}}, {"type": "Feature", "geometry": {"type": "Point", "coordinates": [2.243873, 48.89209]}, "properties": {"numparc": 1481, "etat de la localisation": "autre", "ID BDGEO": "909", "horodatage": "2021-10-05 20:50:12", "distance (en metres)": 70.17, "station": "GAMBETTA", "marker-color": "#818181"}}, {"type": "Feature", "geometry": {"type": "Point", "coordinates": [2.241612, 48.889938]}, "properties": {"numparc": 1480, "etat de la localisation": "autre", "ID BDGEO": "3", "horodatage": "2021-10-05 20:58:35", "distance (en metres)": 50.28, "station": "LA DEFENSE", "marker-color": "#818181"}}, {"type": "Feature", "geometry": {"type": "Point", "coordinates": [2.241612, 48.889938]}, "properties": {"numparc": 1480, "etat de la localisation": "autre", "ID BDGEO": "3", "horodatage": "2021-10-05 20:58:39", "distance (en metres)": 50.28, "station": "LA DEFENSE", "marker-color": "#818181"}}, {"type": "Feature", "geometry": {"type": "Point", "coordinates": [2.341332, 48.916565]}, "properties": {"numparc": 1481, "etat de la localisation": "autre", "ID BDGEO": "24", "horodatage": "2021-10-05 21:19:44", "distance (en metres)": 78.4, "station": "CENTRE DE BUS PLEYEL-SORTIE", "marker-color": "#818181"}}, {"type": "Feature", "geometry": {"type": "Point", "coordinates": [2.288081, 48.893597]}, "properties": {"numparc": 1480, "etat de la localisation": "autre", "ID BDGEO": "41", "horodatage": "2021-10-05 21:20:25", "distance (en metres)": 47.28, "station": "MAIRIE DE LEVALLOIS", "marker-color": "#818181"}}, {"type": "Feature", "geometry": {"type": "Point", "coordinates": [2.317181, 48.903584]}, "properties": {"numparc": 1480, "etat de la localisation": "autre", "ID BDGEO": "52", "horodatage": "2021-10-05 21:38:29", "distance (en metres)": 65.46, "station": "GEORGES BOISSEAU", "marker-color": "#818181"}}, {"type": "Feature", "geometry": {"type": "Point", "coordinates": [2.341113, 48.917233]}, "properties": {"numparc": 1480, "etat de la localisation": "autre", "ID BDGEO": "24", "horodatage": "2021-10-05 21:47:17", "distance (en metres)": 151.54, "station": "CENTRE DE BUS PLEYEL-SORTIE", "marker-color": "#818181"}}, {"type": "Feature", "geometry": {"type": "Point", "coordinates": [2.341238, 48.916569]}, "properties": {"numparc": 1480, "etat de la localisation": "autre", "ID BDGEO": "24", "horodatage": "2021-10-05 21:50:37", "distance (en metres)": 82.78, "station": "CENTRE DE BUS PLEYEL-SORTIE", "marker-color": "#818181"}}, {"type": "Feature", "geometry": {"type": "Point", "coordinates": [2.341238, 48.916569]}, "properties": {"numparc": 1480, "etat de la localisation": "autre", "ID BDGEO": "24", "horodatage": "2021-10-05 21:51:48", "distance (en metres)": 82.78, "station": "CENTRE DE BUS PLEYEL-SORTIE", "marker-color": "#818181"}}, {"type": "Feature", "geometry": {"type": "Point", "coordinates": [2.341932, 48.91598]}, "properties": {"station": "CENTRE DE BUS PLEYEL-SORTIE", "ID BDGEO": "24", "marker-color": "#56B3FF"}}, {"type": "Feature", "geometry": {"type": "Point", "coordinates": [2.320609, 48.904718]}, "properties": {"station": "SAINT-OUEN RER", "ID BDGEO": "902", "marker-color": "#56B3FF"}}, {"type": "Feature", "geometry": {"type": "Point", "coordinates": [2.302114, 48.898298]}, "properties": {"station": "CHANCE-MILLY", "ID BDGEO": "1045", "marker-color": "#56B3FF"}}, {"type": "Feature", "geometry": {"type": "Point", "coordinates": [2.297753, 48.896481]}, "properties": {"station": "GARE DE CLICHY-LEVALLOIS", "ID BDGEO": "1044", "marker-color": "#56B3FF"}}, {"type": "Feature", "geometry": {"type": "Point", "coordinates": [2.279645, 48.890102]}, "properties": {"station": "VOLTAIRE-VILLIERS", "ID BDGEO": "110", "marker-color": "#56B3FF"}}, {"type": "Feature", "geometry": {"type": "Point", "coordinates": [2.24298, 48.891858]}, "properties": {"station": "GAMBETTA", "ID BDGEO": "909", "marker-color": "#56B3FF"}}, {"type": "Feature", "geometry": {"type": "Point", "coordinates": [2.240926, 48.889969]}, "properties": {"station": "LA DEFENSE", "ID BDGEO": "3", "marker-color": "#56B3FF"}}, {"type": "Feature", "geometry": {"type": "Point", "coordinates": [2.240561, 48.888144]}, "properties": {"station": "BOIELDIEU", "ID BDGEO": "9", "marker-color": "#56B3FF"}}, {"type": "Feature", "geometry": {"type": "Point", "coordinates": [2.28752, 48.893385]}, "properties": {"station": "MAIRIE DE LEVALLOIS", "ID BDGEO": "41", "marker-color": "#56B3FF"}}, {"type": "Feature", "geometry": {"type": "Point", "coordinates": [2.285477, 48.891192]}, "properties": {"station": "ANATOLE FRANCE-METRO", "ID BDGEO": "109", "marker-color": "#56B3FF"}}, {"type": "Feature", "geometry": {"type": "Point", "coordinates": [2.274172, 48.885434]}, "properties": {"station": "LYCEE PASTEUR", "ID BDGEO": "37", "marker-color": "#56B3FF"}}, {"type": "Feature", "geometry": {"type": "Point", "coordinates": [2.267577, 48.884784]}, "properties": {"station": "SAINTE FOY", "ID BDGEO": "117", "marker-color": "#56B3FF"}}, {"type": "Feature", "geometry": {"type": "Point", "coordinates": [2.252173, 48.887641]}, "properties": {"station": "PONT DE NEUILLY-RIVE GAUCHE", "ID BDGEO": "911", "marker-color": "#56B3FF"}}, {"type": "Feature", "geometry": {"type": "Point", "coordinates": [2.249921, 48.889796]}, "properties": {"station": "ALSACE", "ID BDGEO": "908", "marker-color": "#56B3FF"}}, {"type": "Feature", "geometry": {"type": "Point", "coordinates": [2.274295, 48.885668]}, "properties": {"station": "LYCEE PASTEUR", "ID BDGEO": "115", "marker-color": "#56B3FF"}}, {"type": "Feature", "geometry": {"type": "Point", "coordinates": [2.279904, 48.890317]}, "properties": {"station": "VOLTAIRE-VILLIERS", "ID BDGEO": "39", "marker-color": "#56B3FF"}}, {"type": "Feature", "geometry": {"type": "Point", "coordinates": [2.295042, 48.895294]}, "properties": {"station": "TREZEL", "ID BDGEO": "106", "marker-color": "#56B3FF"}}, {"type": "Feature", "geometry": {"type": "Point", "coordinates": [2.238988, 48.891145]}, "properties": {"station": "LA DEFENSE.", "ID BDGEO": "989", "marker-color": "#56B3FF"}}, {"type": "Feature", "geometry": {"type": "Point", "coordinates": [2.272007, 48.883744]}, "properties": {"station": "EGLISE ST. PIERRE", "ID BDGEO": "36", "marker-color": "#56B3FF"}}, {"type": "Feature", "geometry": {"type": "Point", "coordinates": [2.320023, 48.903802]}, "properties": {"station": "VICTOR HUGO-SANZILLON", "ID BDGEO": "954", "marker-color": "#56B3FF"}}, {"type": "Feature", "geometry": {"type": "Point", "coordinates": [2.304006, 48.902729]}, "properties": {"station": "MAIRIE DE CLICHY", "ID BDGEO": "926", "marker-color": "#56B3FF"}}, {"type": "Feature", "geometry": {"type": "Point", "coordinates": [2.318074, 48.903631]}, "properties": {"station": "GEORGES BOISSEAU", "ID BDGEO": "52", "marker-color": "#56B3FF"}}]}