{"type": "FeatureCollection", "features": [{"type": "Feature", "geometry": {"type": "Point", "coordinates": [2.296576, 48.721226]}, "properties": {"etat de la localisation": "Delocalise", "numparc": 4848, "duree": "00:01:23", "horodatage": "2023-05-07 05:43:16", "marker-color": "#FF565E"}}, {"type": "Feature", "geometry": {"type": "Point", "coordinates": [2.298024, 48.721394]}, "properties": {"etat de la localisation": "Hors service", "numparc": 4850, "duree": "", "horodatage": "2023-05-07 14:06:00", "marker-color": "#707070"}}, {"type": "Feature", "geometry": {"type": "Point", "coordinates": [2.262093, 48.725704]}, "properties": {"etat de la localisation": "Delocalise", "numparc": 4850, "duree": "00:01:06", "horodatage": "2023-05-07 17:02:41", "marker-color": "#FF565E"}}, {"type": "Feature", "geometry": {"type": "Point", "coordinates": [2.297206, 48.721878]}, "properties": {"etat de la localisation": "Hors service", "numparc": 4846, "duree": "", "horodatage": "2023-05-07 19:52:59", "marker-color": "#707070"}}, {"type": "Feature", "geometry": {"type": "Point", "coordinates": [2.298338, 48.721966]}, "properties": {"etat de la localisation": "Hors service", "numparc": 4850, "duree": "", "horodatage": "2023-05-07 20:38:18", "marker-color": "#707070"}}, {"type": "Feature", "geometry": {"type": "Point", "coordinates": [2.297639, 48.722279]}, "properties": {"etat de la localisation": "Hors service", "numparc": 4848, "duree": "", "horodatage": "2023-05-08 00:56:49", "marker-color": "#707070"}}]}