{"type": "FeatureCollection", "features": [{"type": "Feature", "geometry": {"type": "Point", "coordinates": [2.253657, 48.923176]}, "properties": {"etat de la localisation": "Deviation programmee", "numparc": 8955, "duree": "", "horodatage": "2022-10-01 02:27:28", "marker-color": "#56FF93"}}, {"type": "Feature", "geometry": {"type": "Point", "coordinates": [2.189683, 48.902515]}, "properties": {"etat de la localisation": "Hors service", "numparc": 8954, "duree": "", "horodatage": "2022-10-01 02:28:41", "marker-color": "#707070"}}, {"type": "Feature", "geometry": {"type": "Point", "coordinates": [2.230769, 48.921383]}, "properties": {"etat de la localisation": "Deviation programmee", "numparc": 8955, "duree": "", "horodatage": "2022-10-01 02:34:58", "marker-color": "#56FF93"}}, {"type": "Feature", "geometry": {"type": "Point", "coordinates": [2.189583, 48.902653]}, "properties": {"etat de la localisation": "Hors service", "numparc": 8951, "duree": "", "horodatage": "2022-10-01 02:50:05", "marker-color": "#707070"}}, {"type": "Feature", "geometry": {"type": "Point", "coordinates": [2.189321, 48.902771]}, "properties": {"etat de la localisation": "Hors service", "numparc": 8955, "duree": "", "horodatage": "2022-10-01 03:03:47", "marker-color": "#707070"}}, {"type": "Feature", "geometry": {"type": "Point", "coordinates": [2.189481, 48.902534]}, "properties": {"etat de la localisation": "Delocalise", "numparc": 8958, "duree": "00:17:54", "horodatage": "2022-10-01 05:22:43", "marker-color": "#FF565E"}}, {"type": "Feature", "geometry": {"type": "Point", "coordinates": [2.253624, 48.923244]}, "properties": {"etat de la localisation": "Deviation programmee", "numparc": 8937, "duree": "", "horodatage": "2022-10-01 05:32:44", "marker-color": "#56FF93"}}, {"type": "Feature", "geometry": {"type": "Point", "coordinates": [2.189749, 48.902519]}, "properties": {"etat de la localisation": "Delocalise", "numparc": 8954, "duree": "00:27:09", "horodatage": "2022-10-01 05:35:12", "marker-color": "#FF565E"}}, {"type": "Feature", "geometry": {"type": "Point", "coordinates": [2.229308, 48.922157]}, "properties": {"etat de la localisation": "Delocalise", "numparc": 8937, "duree": "00:01:41", "horodatage": "2022-10-01 05:44:07", "marker-color": "#FF565E"}}, {"type": "Feature", "geometry": {"type": "Point", "coordinates": [2.244493, 48.926605]}, "properties": {"etat de la localisation": "Deviation programmee", "numparc": 8936, "duree": "", "horodatage": "2022-10-01 05:52:16", "marker-color": "#56FF93"}}, {"type": "Feature", "geometry": {"type": "Point", "coordinates": [2.253671, 48.923191]}, "properties": {"etat de la localisation": "Deviation programmee", "numparc": 8958, "duree": "", "horodatage": "2022-10-01 05:52:25", "marker-color": "#56FF93"}}, {"type": "Feature", "geometry": {"type": "Point", "coordinates": [2.229371, 48.922123]}, "properties": {"etat de la localisation": "Delocalise", "numparc": 8958, "duree": "00:05:09", "horodatage": "2022-10-01 06:01:37", "marker-color": "#FF565E"}}, {"type": "Feature", "geometry": {"type": "Point", "coordinates": [2.189171, 48.902725]}, "properties": {"etat de la localisation": "Delocalise", "numparc": 8946, "duree": "00:26:11", "horodatage": "2022-10-01 06:06:08", "marker-color": "#FF565E"}}, {"type": "Feature", "geometry": {"type": "Point", "coordinates": [2.283942, 48.931183]}, "properties": {"etat de la localisation": "Delocalise", "numparc": 8936, "duree": "00:10:35", "horodatage": "2022-10-01 06:06:35", "marker-color": "#FF565E"}}, {"type": "Feature", "geometry": {"type": "Point", "coordinates": [2.253694, 48.923225]}, "properties": {"etat de la localisation": "Deviation programmee", "numparc": 8954, "duree": "", "horodatage": "2022-10-01 06:09:43", "marker-color": "#56FF93"}}, {"type": "Feature", "geometry": {"type": "Point", "coordinates": [2.229359, 48.922134]}, "properties": {"etat de la localisation": "Delocalise", "numparc": 8954, "duree": "00:02:38", "horodatage": "2022-10-01 06:20:31", "marker-color": "#FF565E"}}, {"type": "Feature", "geometry": {"type": "Point", "coordinates": [2.253655, 48.923161]}, "properties": {"etat de la localisation": "Deviation programmee", "numparc": 8936, "duree": "", "horodatage": "2022-10-01 06:24:40", "marker-color": "#56FF93"}}, {"type": "Feature", "geometry": {"type": "Point", "coordinates": [2.229302, 48.92218]}, "properties": {"etat de la localisation": "Delocalise", "numparc": 8936, "duree": "00:02:07", "horodatage": "2022-10-01 06:31:34", "marker-color": "#FF565E"}}, {"type": "Feature", "geometry": {"type": "Point", "coordinates": [2.244496, 48.926586]}, "properties": {"etat de la localisation": "Deviation programmee", "numparc": 8937, "duree": "", "horodatage": "2022-10-01 06:38:42", "marker-color": "#56FF93"}}, {"type": "Feature", "geometry": {"type": "Point", "coordinates": [2.253723, 48.923183]}, "properties": {"etat de la localisation": "Deviation programmee", "numparc": 8946, "duree": "", "horodatage": "2022-10-01 06:43:32", "marker-color": "#56FF93"}}, {"type": "Feature", "geometry": {"type": "Point", "coordinates": [2.229341, 48.922142]}, "properties": {"etat de la localisation": "Delocalise", "numparc": 8946, "duree": "00:01:20", "horodatage": "2022-10-01 06:55:09", "marker-color": "#FF565E"}}, {"type": "Feature", "geometry": {"type": "Point", "coordinates": [2.244497, 48.92659]}, "properties": {"etat de la localisation": "Deviation programmee", "numparc": 8958, "duree": "", "horodatage": "2022-10-01 06:59:25", "marker-color": "#56FF93"}}, {"type": "Feature", "geometry": {"type": "Point", "coordinates": [2.253678, 48.923233]}, "properties": {"etat de la localisation": "Deviation programmee", "numparc": 8937, "duree": "", "horodatage": "2022-10-01 07:11:20", "marker-color": "#56FF93"}}, {"type": "Feature", "geometry": {"type": "Point", "coordinates": [2.229355, 48.922081]}, "properties": {"etat de la localisation": "Delocalise", "numparc": 8937, "duree": "00:01:56", "horodatage": "2022-10-01 07:19:51", "marker-color": "#FF565E"}}, {"type": "Feature", "geometry": {"type": "Point", "coordinates": [2.244521, 48.926567]}, "properties": {"etat de la localisation": "Deviation programmee", "numparc": 8954, "duree": "", "horodatage": "2022-10-01 07:22:51", "marker-color": "#56FF93"}}, {"type": "Feature", "geometry": {"type": "Point", "coordinates": [2.244496, 48.926571]}, "properties": {"etat de la localisation": "Deviation programmee", "numparc": 8936, "duree": "", "horodatage": "2022-10-01 07:28:50", "marker-color": "#56FF93"}}, {"type": "Feature", "geometry": {"type": "Point", "coordinates": [2.253652, 48.923206]}, "properties": {"etat de la localisation": "Deviation programmee", "numparc": 8958, "duree": "", "horodatage": "2022-10-01 07:31:26", "marker-color": "#56FF93"}}, {"type": "Feature", "geometry": {"type": "Point", "coordinates": [2.229368, 48.922112]}, "properties": {"etat de la localisation": "Delocalise", "numparc": 8958, "duree": "00:01:04", "horodatage": "2022-10-01 07:42:59", "marker-color": "#FF565E"}}, {"type": "Feature", "geometry": {"type": "Point", "coordinates": [2.244486, 48.926613]}, "properties": {"etat de la localisation": "Deviation programmee", "numparc": 8946, "duree": "", "horodatage": "2022-10-01 07:53:24", "marker-color": "#56FF93"}}, {"type": "Feature", "geometry": {"type": "Point", "coordinates": [2.253702, 48.923229]}, "properties": {"etat de la localisation": "Deviation programmee", "numparc": 8954, "duree": "", "horodatage": "2022-10-01 07:58:09", "marker-color": "#56FF93"}}, {"type": "Feature", "geometry": {"type": "Point", "coordinates": [2.253684, 48.923199]}, "properties": {"etat de la localisation": "Deviation programmee", "numparc": 8936, "duree": "", "horodatage": "2022-10-01 08:07:44", "marker-color": "#56FF93"}}, {"type": "Feature", "geometry": {"type": "Point", "coordinates": [2.229317, 48.922165]}, "properties": {"etat de la localisation": "Delocalise", "numparc": 8954, "duree": "00:01:18", "horodatage": "2022-10-01 08:10:22", "marker-color": "#FF565E"}}, {"type": "Feature", "geometry": {"type": "Point", "coordinates": [2.229284, 48.922169]}, "properties": {"etat de la localisation": "Delocalise", "numparc": 8936, "duree": "00:01:00", "horodatage": "2022-10-01 08:15:52", "marker-color": "#FF565E"}}, {"type": "Feature", "geometry": {"type": "Point", "coordinates": [2.244514, 48.926579]}, "properties": {"etat de la localisation": "Deviation programmee", "numparc": 8937, "duree": "", "horodatage": "2022-10-01 08:18:10", "marker-color": "#56FF93"}}, {"type": "Feature", "geometry": {"type": "Point", "coordinates": [2.253666, 48.923241]}, "properties": {"etat de la localisation": "Deviation programmee", "numparc": 8946, "duree": "", "horodatage": "2022-10-01 08:29:00", "marker-color": "#56FF93"}}, {"type": "Feature", "geometry": {"type": "Point", "coordinates": [2.229338, 48.922096]}, "properties": {"etat de la localisation": "Delocalise", "numparc": 8946, "duree": "00:01:07", "horodatage": "2022-10-01 08:41:58", "marker-color": "#FF565E"}}, {"type": "Feature", "geometry": {"type": "Point", "coordinates": [2.244468, 48.926613]}, "properties": {"etat de la localisation": "Deviation programmee", "numparc": 8958, "duree": "", "horodatage": "2022-10-01 08:47:42", "marker-color": "#56FF93"}}, {"type": "Feature", "geometry": {"type": "Point", "coordinates": [2.253652, 48.923248]}, "properties": {"etat de la localisation": "Deviation programmee", "numparc": 8937, "duree": "", "horodatage": "2022-10-01 08:52:56", "marker-color": "#56FF93"}}, {"type": "Feature", "geometry": {"type": "Point", "coordinates": [2.19188, 48.894569]}, "properties": {"etat de la localisation": "Delocalise", "numparc": 8954, "duree": "00:07:25", "horodatage": "2022-10-01 08:58:20", "marker-color": "#FF565E"}}, {"type": "Feature", "geometry": {"type": "Point", "coordinates": [2.229402, 48.922054]}, "properties": {"etat de la localisation": "Delocalise", "numparc": 8937, "duree": "00:01:08", "horodatage": "2022-10-01 09:05:17", "marker-color": "#FF565E"}}, {"type": "Feature", "geometry": {"type": "Point", "coordinates": [2.25367, 48.923218]}, "properties": {"etat de la localisation": "Deviation programmee", "numparc": 8954, "duree": "", "horodatage": "2022-10-01 09:22:27", "marker-color": "#56FF93"}}, {"type": "Feature", "geometry": {"type": "Point", "coordinates": [2.24446, 48.926586]}, "properties": {"etat de la localisation": "Deviation programmee", "numparc": 8936, "duree": "", "horodatage": "2022-10-01 09:24:14", "marker-color": "#56FF93"}}, {"type": "Feature", "geometry": {"type": "Point", "coordinates": [2.229243, 48.922237]}, "properties": {"etat de la localisation": "Delocalise", "numparc": 8954, "duree": "00:01:39", "horodatage": "2022-10-01 09:36:46", "marker-color": "#FF565E"}}, {"type": "Feature", "geometry": {"type": "Point", "coordinates": [2.253734, 48.923176]}, "properties": {"etat de la localisation": "Deviation programmee", "numparc": 8958, "duree": "", "horodatage": "2022-10-01 09:41:04", "marker-color": "#56FF93"}}, {"type": "Feature", "geometry": {"type": "Point", "coordinates": [2.244472, 48.92659]}, "properties": {"etat de la localisation": "Deviation programmee", "numparc": 8946, "duree": "", "horodatage": "2022-10-01 09:48:36", "marker-color": "#56FF93"}}, {"type": "Feature", "geometry": {"type": "Point", "coordinates": [2.229349, 48.922123]}, "properties": {"etat de la localisation": "Delocalise", "numparc": 8958, "duree": "00:01:22", "horodatage": "2022-10-01 09:53:01", "marker-color": "#FF565E"}}, {"type": "Feature", "geometry": {"type": "Point", "coordinates": [2.253661, 48.923183]}, "properties": {"etat de la localisation": "Deviation programmee", "numparc": 8936, "duree": "", "horodatage": "2022-10-01 10:02:09", "marker-color": "#56FF93"}}, {"type": "Feature", "geometry": {"type": "Point", "coordinates": [2.244531, 48.926594]}, "properties": {"etat de la localisation": "Deviation programmee", "numparc": 8937, "duree": "", "horodatage": "2022-10-01 10:07:38", "marker-color": "#56FF93"}}, {"type": "Feature", "geometry": {"type": "Point", "coordinates": [2.229337, 48.922131]}, "properties": {"etat de la localisation": "Delocalise", "numparc": 8936, "duree": "00:00:51", "horodatage": "2022-10-01 10:14:20", "marker-color": "#FF565E"}}, {"type": "Feature", "geometry": {"type": "Point", "coordinates": [2.25373, 48.923191]}, "properties": {"etat de la localisation": "Deviation programmee", "numparc": 8946, "duree": "", "horodatage": "2022-10-01 10:26:09", "marker-color": "#56FF93"}}, {"type": "Feature", "geometry": {"type": "Point", "coordinates": [2.229367, 48.922062]}, "properties": {"etat de la localisation": "Delocalise", "numparc": 8946, "duree": "00:01:20", "horodatage": "2022-10-01 10:40:06", "marker-color": "#FF565E"}}, {"type": "Feature", "geometry": {"type": "Point", "coordinates": [2.25376, 48.92326]}, "properties": {"etat de la localisation": "Deviation programmee", "numparc": 8937, "duree": "", "horodatage": "2022-10-01 10:42:47", "marker-color": "#56FF93"}}, {"type": "Feature", "geometry": {"type": "Point", "coordinates": [2.2445, 48.926613]}, "properties": {"etat de la localisation": "Deviation programmee", "numparc": 8954, "duree": "", "horodatage": "2022-10-01 10:53:01", "marker-color": "#56FF93"}}, {"type": "Feature", "geometry": {"type": "Point", "coordinates": [2.229288, 48.922153]}, "properties": {"etat de la localisation": "Delocalise", "numparc": 8937, "duree": "00:01:12", "horodatage": "2022-10-01 10:53:36", "marker-color": "#FF565E"}}, {"type": "Feature", "geometry": {"type": "Point", "coordinates": [2.244476, 48.926579]}, "properties": {"etat de la localisation": "Deviation programmee", "numparc": 8958, "duree": "", "horodatage": "2022-10-01 11:08:59", "marker-color": "#56FF93"}}, {"type": "Feature", "geometry": {"type": "Point", "coordinates": [2.253688, 48.923183]}, "properties": {"etat de la localisation": "Deviation programmee", "numparc": 8954, "duree": "", "horodatage": "2022-10-01 11:38:37", "marker-color": "#56FF93"}}, {"type": "Feature", "geometry": {"type": "Point", "coordinates": [2.229353, 48.922119]}, "properties": {"etat de la localisation": "Delocalise", "numparc": 8954, "duree": "00:01:32", "horodatage": "2022-10-01 11:53:34", "marker-color": "#FF565E"}}, {"type": "Feature", "geometry": {"type": "Point", "coordinates": [2.244505, 48.92659]}, "properties": {"etat de la localisation": "Deviation programmee", "numparc": 8946, "duree": "", "horodatage": "2022-10-01 11:56:08", "marker-color": "#56FF93"}}, {"type": "Feature", "geometry": {"type": "Point", "coordinates": [2.253718, 48.923176]}, "properties": {"etat de la localisation": "Deviation programmee", "numparc": 8958, "duree": "", "horodatage": "2022-10-01 11:57:23", "marker-color": "#56FF93"}}, {"type": "Feature", "geometry": {"type": "Point", "coordinates": [2.200301, 48.887527]}, "properties": {"etat de la localisation": "Hors service", "numparc": 8936, "duree": "", "horodatage": "2022-10-01 11:57:32", "marker-color": "#707070"}}, {"type": "Feature", "geometry": {"type": "Point", "coordinates": [2.229305, 48.922169]}, "properties": {"etat de la localisation": "Delocalise", "numparc": 8958, "duree": "00:01:10", "horodatage": "2022-10-01 12:10:49", "marker-color": "#FF565E"}}, {"type": "Feature", "geometry": {"type": "Point", "coordinates": [2.244501, 48.926598]}, "properties": {"etat de la localisation": "Deviation programmee", "numparc": 8937, "duree": "", "horodatage": "2022-10-01 12:19:01", "marker-color": "#56FF93"}}, {"type": "Feature", "geometry": {"type": "Point", "coordinates": [2.2537, 48.923168]}, "properties": {"etat de la localisation": "Deviation programmee", "numparc": 8946, "duree": "", "horodatage": "2022-10-01 12:33:46", "marker-color": "#56FF93"}}, {"type": "Feature", "geometry": {"type": "Point", "coordinates": [2.189521, 48.90266]}, "properties": {"etat de la localisation": "Delocalise", "numparc": 8951, "duree": "00:05:33", "horodatage": "2022-10-01 12:43:21", "marker-color": "#FF565E"}}, {"type": "Feature", "geometry": {"type": "Point", "coordinates": [2.229339, 48.922096]}, "properties": {"etat de la localisation": "Delocalise", "numparc": 8946, "duree": "00:01:18", "horodatage": "2022-10-01 12:48:46", "marker-color": "#FF565E"}}, {"type": "Feature", "geometry": {"type": "Point", "coordinates": [2.244494, 48.926571]}, "properties": {"etat de la localisation": "Deviation programmee", "numparc": 8936, "duree": "", "horodatage": "2022-10-01 12:53:56", "marker-color": "#56FF93"}}, {"type": "Feature", "geometry": {"type": "Point", "coordinates": [2.253745, 48.923275]}, "properties": {"etat de la localisation": "Deviation programmee", "numparc": 8937, "duree": "", "horodatage": "2022-10-01 13:07:20", "marker-color": "#56FF93"}}, {"type": "Feature", "geometry": {"type": "Point", "coordinates": [2.244462, 48.926575]}, "properties": {"etat de la localisation": "Deviation programmee", "numparc": 8954, "duree": "", "horodatage": "2022-10-01 13:16:17", "marker-color": "#56FF93"}}, {"type": "Feature", "geometry": {"type": "Point", "coordinates": [2.22938, 48.922092]}, "properties": {"etat de la localisation": "Delocalise", "numparc": 8937, "duree": "00:01:34", "horodatage": "2022-10-01 13:26:40", "marker-color": "#FF565E"}}, {"type": "Feature", "geometry": {"type": "Point", "coordinates": [2.188812, 48.902805]}, "properties": {"etat de la localisation": "Hors service", "numparc": 8946, "duree": "", "horodatage": "2022-10-01 13:31:47", "marker-color": "#707070"}}, {"type": "Feature", "geometry": {"type": "Point", "coordinates": [2.244493, 48.926605]}, "properties": {"etat de la localisation": "Deviation programmee", "numparc": 8958, "duree": "", "horodatage": "2022-10-01 13:37:16", "marker-color": "#56FF93"}}, {"type": "Feature", "geometry": {"type": "Point", "coordinates": [2.253707, 48.923264]}, "properties": {"etat de la localisation": "Deviation programmee", "numparc": 8936, "duree": "", "horodatage": "2022-10-01 13:41:42", "marker-color": "#56FF93"}}, {"type": "Feature", "geometry": {"type": "Point", "coordinates": [2.189288, 48.90276]}, "properties": {"etat de la localisation": "Delocalise", "numparc": 8955, "duree": "00:21:33", "horodatage": "2022-10-01 13:43:00", "marker-color": "#FF565E"}}, {"type": "Feature", "geometry": {"type": "Point", "coordinates": [2.229401, 48.922073]}, "properties": {"etat de la localisation": "Delocalise", "numparc": 8936, "duree": "00:02:03", "horodatage": "2022-10-01 13:59:41", "marker-color": "#FF565E"}}, {"type": "Feature", "geometry": {"type": "Point", "coordinates": [2.24452, 48.92651]}, "properties": {"etat de la localisation": "Deviation programmee", "numparc": 8951, "duree": "", "horodatage": "2022-10-01 14:03:57", "marker-color": "#56FF93"}}, {"type": "Feature", "geometry": {"type": "Point", "coordinates": [2.253738, 48.923084]}, "properties": {"etat de la localisation": "Deviation programmee", "numparc": 8954, "duree": "", "horodatage": "2022-10-01 14:15:07", "marker-color": "#56FF93"}}, {"type": "Feature", "geometry": {"type": "Point", "coordinates": [2.188842, 48.902561]}, "properties": {"etat de la localisation": "Delocalise", "numparc": 8949, "duree": "00:12:56", "horodatage": "2022-10-01 14:22:48", "marker-color": "#FF565E"}}, {"type": "Feature", "geometry": {"type": "Point", "coordinates": [2.229317, 48.922157]}, "properties": {"etat de la localisation": "Delocalise", "numparc": 8954, "duree": "00:02:20", "horodatage": "2022-10-01 14:29:57", "marker-color": "#FF565E"}}, {"type": "Feature", "geometry": {"type": "Point", "coordinates": [2.253705, 48.923176]}, "properties": {"etat de la localisation": "Deviation programmee", "numparc": 8958, "duree": "", "horodatage": "2022-10-01 14:32:11", "marker-color": "#56FF93"}}, {"type": "Feature", "geometry": {"type": "Point", "coordinates": [2.188841, 48.902561]}, "properties": {"etat de la localisation": "Hors service", "numparc": 8949, "duree": "", "horodatage": "2022-10-01 14:35:44", "marker-color": "#707070"}}, {"type": "Feature", "geometry": {"type": "Point", "coordinates": [2.188815, 48.902954]}, "properties": {"etat de la localisation": "Delocalise", "numparc": 8948, "duree": "00:26:48", "horodatage": "2022-10-01 14:38:41", "marker-color": "#FF565E"}}, {"type": "Feature", "geometry": {"type": "Point", "coordinates": [2.244511, 48.926609]}, "properties": {"etat de la localisation": "Deviation programmee", "numparc": 8955, "duree": "", "horodatage": "2022-10-01 14:42:01", "marker-color": "#56FF93"}}, {"type": "Feature", "geometry": {"type": "Point", "coordinates": [2.229376, 48.922096]}, "properties": {"etat de la localisation": "Delocalise", "numparc": 8958, "duree": "00:01:27", "horodatage": "2022-10-01 14:46:10", "marker-color": "#FF565E"}}, {"type": "Feature", "geometry": {"type": "Point", "coordinates": [2.244506, 48.926586]}, "properties": {"etat de la localisation": "Deviation programmee", "numparc": 8937, "duree": "", "horodatage": "2022-10-01 14:51:28", "marker-color": "#56FF93"}}, {"type": "Feature", "geometry": {"type": "Point", "coordinates": [2.253672, 48.9231]}, "properties": {"etat de la localisation": "Deviation programmee", "numparc": 8951, "duree": "", "horodatage": "2022-10-01 14:53:28", "marker-color": "#56FF93"}}, {"type": "Feature", "geometry": {"type": "Point", "coordinates": [2.229339, 48.922134]}, "properties": {"etat de la localisation": "Delocalise", "numparc": 8951, "duree": "00:01:29", "horodatage": "2022-10-01 15:07:58", "marker-color": "#FF565E"}}, {"type": "Feature", "geometry": {"type": "Point", "coordinates": [2.24445, 48.92659]}, "properties": {"etat de la localisation": "Deviation programmee", "numparc": 8944, "duree": "", "horodatage": "2022-10-01 15:15:43", "marker-color": "#56FF93"}}, {"type": "Feature", "geometry": {"type": "Point", "coordinates": [2.253691, 48.923153]}, "properties": {"etat de la localisation": "Deviation programmee", "numparc": 8948, "duree": "", "horodatage": "2022-10-01 15:21:35", "marker-color": "#56FF93"}}, {"type": "Feature", "geometry": {"type": "Point", "coordinates": [2.244473, 48.926556]}, "properties": {"etat de la localisation": "Deviation programmee", "numparc": 8936, "duree": "", "horodatage": "2022-10-01 15:28:09", "marker-color": "#56FF93"}}, {"type": "Feature", "geometry": {"type": "Point", "coordinates": [2.22935, 48.922123]}, "properties": {"etat de la localisation": "Delocalise", "numparc": 8948, "duree": "00:01:22", "horodatage": "2022-10-01 15:35:14", "marker-color": "#FF565E"}}, {"type": "Feature", "geometry": {"type": "Point", "coordinates": [2.253669, 48.923187]}, "properties": {"etat de la localisation": "Deviation programmee", "numparc": 8955, "duree": "", "horodatage": "2022-10-01 15:42:40", "marker-color": "#56FF93"}}, {"type": "Feature", "geometry": {"type": "Point", "coordinates": [2.244475, 48.926567]}, "properties": {"etat de la localisation": "Deviation programmee", "numparc": 8954, "duree": "", "horodatage": "2022-10-01 15:48:33", "marker-color": "#56FF93"}}, {"type": "Feature", "geometry": {"type": "Point", "coordinates": [2.284047, 48.930996]}, "properties": {"etat de la localisation": "Delocalise", "numparc": 8936, "duree": "00:11:02", "horodatage": "2022-10-01 15:52:46", "marker-color": "#FF565E"}}, {"type": "Feature", "geometry": {"type": "Point", "coordinates": [2.25368, 48.923176]}, "properties": {"etat de la localisation": "Deviation programmee", "numparc": 8937, "duree": "", "horodatage": "2022-10-01 15:55:37", "marker-color": "#56FF93"}}, {"type": "Feature", "geometry": {"type": "Point", "coordinates": [2.229285, 48.922188]}, "properties": {"etat de la localisation": "Delocalise", "numparc": 8955, "duree": "00:01:13", "horodatage": "2022-10-01 15:56:57", "marker-color": "#FF565E"}}, {"type": "Feature", "geometry": {"type": "Point", "coordinates": [2.229362, 48.922104]}, "properties": {"etat de la localisation": "Delocalise", "numparc": 8937, "duree": "00:01:16", "horodatage": "2022-10-01 16:07:43", "marker-color": "#FF565E"}}, {"type": "Feature", "geometry": {"type": "Point", "coordinates": [2.244488, 48.926609]}, "properties": {"etat de la localisation": "Deviation programmee", "numparc": 8958, "duree": "", "horodatage": "2022-10-01 16:08:00", "marker-color": "#56FF93"}}, {"type": "Feature", "geometry": {"type": "Point", "coordinates": [2.25372, 48.923134]}, "properties": {"etat de la localisation": "Deviation programmee", "numparc": 8944, "duree": "", "horodatage": "2022-10-01 16:15:06", "marker-color": "#56FF93"}}, {"type": "Feature", "geometry": {"type": "Point", "coordinates": [2.244518, 48.926579]}, "properties": {"etat de la localisation": "Deviation programmee", "numparc": 8951, "duree": "", "horodatage": "2022-10-01 16:29:06", "marker-color": "#56FF93"}}, {"type": "Feature", "geometry": {"type": "Point", "coordinates": [2.229379, 48.922092]}, "properties": {"etat de la localisation": "Delocalise", "numparc": 8944, "duree": "00:01:27", "horodatage": "2022-10-01 16:31:51", "marker-color": "#FF565E"}}, {"type": "Feature", "geometry": {"type": "Point", "coordinates": [2.253714, 48.923153]}, "properties": {"etat de la localisation": "Deviation programmee", "numparc": 8936, "duree": "", "horodatage": "2022-10-01 16:34:45", "marker-color": "#56FF93"}}, {"type": "Feature", "geometry": {"type": "Point", "coordinates": [2.229411, 48.922066]}, "properties": {"etat de la localisation": "Delocalise", "numparc": 8936, "duree": "00:01:20", "horodatage": "2022-10-01 16:50:39", "marker-color": "#FF565E"}}, {"type": "Feature", "geometry": {"type": "Point", "coordinates": [2.253737, 48.92318]}, "properties": {"etat de la localisation": "Deviation programmee", "numparc": 8954, "duree": "", "horodatage": "2022-10-01 16:55:56", "marker-color": "#56FF93"}}, {"type": "Feature", "geometry": {"type": "Point", "coordinates": [2.244475, 48.92659]}, "properties": {"etat de la localisation": "Deviation programmee", "numparc": 8948, "duree": "", "horodatage": "2022-10-01 17:00:45", "marker-color": "#56FF93"}}, {"type": "Feature", "geometry": {"type": "Point", "coordinates": [2.229375, 48.922112]}, "properties": {"etat de la localisation": "Delocalise", "numparc": 8954, "duree": "00:01:31", "horodatage": "2022-10-01 17:11:01", "marker-color": "#FF565E"}}, {"type": "Feature", "geometry": {"type": "Point", "coordinates": [2.253643, 48.923168]}, "properties": {"etat de la localisation": "Deviation programmee", "numparc": 8958, "duree": "", "horodatage": "2022-10-01 17:13:13", "marker-color": "#56FF93"}}, {"type": "Feature", "geometry": {"type": "Point", "coordinates": [2.244504, 48.926571]}, "properties": {"etat de la localisation": "Deviation programmee", "numparc": 8955, "duree": "", "horodatage": "2022-10-01 17:16:02", "marker-color": "#56FF93"}}, {"type": "Feature", "geometry": {"type": "Point", "coordinates": [2.22933, 48.922142]}, "properties": {"etat de la localisation": "Delocalise", "numparc": 8958, "duree": "00:01:26", "horodatage": "2022-10-01 17:27:07", "marker-color": "#FF565E"}}, {"type": "Feature", "geometry": {"type": "Point", "coordinates": [2.253697, 48.923161]}, "properties": {"etat de la localisation": "Deviation programmee", "numparc": 8951, "duree": "", "horodatage": "2022-10-01 17:33:07", "marker-color": "#56FF93"}}, {"type": "Feature", "geometry": {"type": "Point", "coordinates": [2.244525, 48.92659]}, "properties": {"etat de la localisation": "Deviation programmee", "numparc": 8937, "duree": "", "horodatage": "2022-10-01 17:35:00", "marker-color": "#56FF93"}}, {"type": "Feature", "geometry": {"type": "Point", "coordinates": [2.229364, 48.9221]}, "properties": {"etat de la localisation": "Delocalise", "numparc": 8951, "duree": "00:01:15", "horodatage": "2022-10-01 17:48:56", "marker-color": "#FF565E"}}, {"type": "Feature", "geometry": {"type": "Point", "coordinates": [2.253688, 48.923164]}, "properties": {"etat de la localisation": "Deviation programmee", "numparc": 8948, "duree": "", "horodatage": "2022-10-01 17:50:37", "marker-color": "#56FF93"}}, {"type": "Feature", "geometry": {"type": "Point", "coordinates": [2.244515, 48.926582]}, "properties": {"etat de la localisation": "Deviation programmee", "numparc": 8936, "duree": "", "horodatage": "2022-10-01 17:58:43", "marker-color": "#56FF93"}}, {"type": "Feature", "geometry": {"type": "Point", "coordinates": [2.244507, 48.926579]}, "properties": {"etat de la localisation": "Deviation programmee", "numparc": 8944, "duree": "", "horodatage": "2022-10-01 18:05:06", "marker-color": "#56FF93"}}, {"type": "Feature", "geometry": {"type": "Point", "coordinates": [2.229351, 48.922112]}, "properties": {"etat de la localisation": "Delocalise", "numparc": 8948, "duree": "00:01:28", "horodatage": "2022-10-01 18:06:36", "marker-color": "#FF565E"}}, {"type": "Feature", "geometry": {"type": "Point", "coordinates": [2.25369, 48.923199]}, "properties": {"etat de la localisation": "Deviation programmee", "numparc": 8955, "duree": "", "horodatage": "2022-10-01 18:11:56", "marker-color": "#56FF93"}}, {"type": "Feature", "geometry": {"type": "Point", "coordinates": [2.229328, 48.922138]}, "properties": {"etat de la localisation": "Delocalise", "numparc": 8955, "duree": "00:01:12", "horodatage": "2022-10-01 18:26:36", "marker-color": "#FF565E"}}, {"type": "Feature", "geometry": {"type": "Point", "coordinates": [2.253636, 48.923241]}, "properties": {"etat de la localisation": "Deviation programmee", "numparc": 8937, "duree": "", "horodatage": "2022-10-01 18:30:41", "marker-color": "#56FF93"}}, {"type": "Feature", "geometry": {"type": "Point", "coordinates": [2.244529, 48.926598]}, "properties": {"etat de la localisation": "Deviation programmee", "numparc": 8954, "duree": "", "horodatage": "2022-10-01 18:37:17", "marker-color": "#56FF93"}}, {"type": "Feature", "geometry": {"type": "Point", "coordinates": [2.244534, 48.926582]}, "properties": {"etat de la localisation": "Deviation programmee", "numparc": 8958, "duree": "", "horodatage": "2022-10-01 18:45:10", "marker-color": "#56FF93"}}, {"type": "Feature", "geometry": {"type": "Point", "coordinates": [2.229313, 48.922153]}, "properties": {"etat de la localisation": "Delocalise", "numparc": 8937, "duree": "00:01:31", "horodatage": "2022-10-01 18:45:20", "marker-color": "#FF565E"}}, {"type": "Feature", "geometry": {"type": "Point", "coordinates": [2.253631, 48.923195]}, "properties": {"etat de la localisation": "Deviation programmee", "numparc": 8936, "duree": "", "horodatage": "2022-10-01 18:53:08", "marker-color": "#56FF93"}}, {"type": "Feature", "geometry": {"type": "Point", "coordinates": [2.283812, 48.930012]}, "properties": {"etat de la localisation": "Mission suivante non connue", "numparc": 8954, "duree": "", "horodatage": "2022-10-01 19:00:51", "marker-color": "#7156FF"}}, {"type": "Feature", "geometry": {"type": "Point", "coordinates": [2.283826, 48.930012]}, "properties": {"etat de la localisation": "Mission inconnue", "numparc": 8954, "duree": "", "horodatage": "2022-10-01 19:01:05", "marker-color": "#FF9F56"}}, {"type": "Feature", "geometry": {"type": "Point", "coordinates": [2.229341, 48.922081]}, "properties": {"etat de la localisation": "Delocalise", "numparc": 8936, "duree": "00:01:18", "horodatage": "2022-10-01 19:07:07", "marker-color": "#FF565E"}}, {"type": "Feature", "geometry": {"type": "Point", "coordinates": [2.244486, 48.92659]}, "properties": {"etat de la localisation": "Deviation programmee", "numparc": 8951, "duree": "", "horodatage": "2022-10-01 19:10:14", "marker-color": "#56FF93"}}, {"type": "Feature", "geometry": {"type": "Point", "coordinates": [2.253742, 48.923233]}, "properties": {"etat de la localisation": "Deviation programmee", "numparc": 8944, "duree": "", "horodatage": "2022-10-01 19:13:25", "marker-color": "#56FF93"}}, {"type": "Feature", "geometry": {"type": "Point", "coordinates": [2.244529, 48.926556]}, "properties": {"etat de la localisation": "Deviation programmee", "numparc": 8948, "duree": "", "horodatage": "2022-10-01 19:26:30", "marker-color": "#56FF93"}}, {"type": "Feature", "geometry": {"type": "Point", "coordinates": [2.229347, 48.922123]}, "properties": {"etat de la localisation": "Delocalise", "numparc": 8944, "duree": "00:01:22", "horodatage": "2022-10-01 19:28:52", "marker-color": "#FF565E"}}, {"type": "Feature", "geometry": {"type": "Point", "coordinates": [2.188606, 48.902214]}, "properties": {"etat de la localisation": "Hors service", "numparc": 8954, "duree": "", "horodatage": "2022-10-01 19:28:55", "marker-color": "#707070"}}, {"type": "Feature", "geometry": {"type": "Point", "coordinates": [2.189376, 48.902569]}, "properties": {"etat de la localisation": "Hors service", "numparc": 8958, "duree": "", "horodatage": "2022-10-01 19:31:45", "marker-color": "#707070"}}, {"type": "Feature", "geometry": {"type": "Point", "coordinates": [2.244509, 48.926613]}, "properties": {"etat de la localisation": "Deviation programmee", "numparc": 8955, "duree": "", "horodatage": "2022-10-01 19:47:33", "marker-color": "#56FF93"}}, {"type": "Feature", "geometry": {"type": "Point", "coordinates": [2.253718, 48.923153]}, "properties": {"etat de la localisation": "Deviation programmee", "numparc": 8951, "duree": "", "horodatage": "2022-10-01 19:59:28", "marker-color": "#56FF93"}}, {"type": "Feature", "geometry": {"type": "Point", "coordinates": [2.188841, 48.902561]}, "properties": {"etat de la localisation": "Delocalise", "numparc": 8949, "duree": "00:21:28", "horodatage": "2022-10-01 19:59:32", "marker-color": "#FF565E"}}, {"type": "Feature", "geometry": {"type": "Point", "coordinates": [2.244518, 48.926601]}, "properties": {"etat de la localisation": "Deviation programmee", "numparc": 8937, "duree": "", "horodatage": "2022-10-01 20:03:35", "marker-color": "#56FF93"}}, {"type": "Feature", "geometry": {"type": "Point", "coordinates": [2.246163, 48.927204]}, "properties": {"etat de la localisation": "Delocalise", "numparc": 8951, "duree": "00:00:43", "horodatage": "2022-10-01 20:09:07", "marker-color": "#FF565E"}}, {"type": "Feature", "geometry": {"type": "Point", "coordinates": [2.189179, 48.902496]}, "properties": {"etat de la localisation": "Delocalise", "numparc": 8943, "duree": "00:20:41", "horodatage": "2022-10-01 20:10:13", "marker-color": "#FF565E"}}, {"type": "Feature", "geometry": {"type": "Point", "coordinates": [2.22937, 48.922123]}, "properties": {"etat de la localisation": "Delocalise", "numparc": 8951, "duree": "00:01:27", "horodatage": "2022-10-01 20:19:33", "marker-color": "#FF565E"}}, {"type": "Feature", "geometry": {"type": "Point", "coordinates": [2.244485, 48.926594]}, "properties": {"etat de la localisation": "Deviation programmee", "numparc": 8936, "duree": "", "horodatage": "2022-10-01 20:20:04", "marker-color": "#56FF93"}}, {"type": "Feature", "geometry": {"type": "Point", "coordinates": [2.283526, 48.929947]}, "properties": {"etat de la localisation": "Mission suivante non connue", "numparc": 8937, "duree": "", "horodatage": "2022-10-01 20:21:13", "marker-color": "#7156FF"}}, {"type": "Feature", "geometry": {"type": "Point", "coordinates": [2.283861, 48.930046]}, "properties": {"etat de la localisation": "Mission suivante non connue", "numparc": 8937, "duree": "", "horodatage": "2022-10-01 20:22:04", "marker-color": "#7156FF"}}, {"type": "Feature", "geometry": {"type": "Point", "coordinates": [2.283861, 48.930046]}, "properties": {"etat de la localisation": "Mission inconnue", "numparc": 8937, "duree": "", "horodatage": "2022-10-01 20:22:10", "marker-color": "#FF9F56"}}, {"type": "Feature", "geometry": {"type": "Point", "coordinates": [2.253674, 48.923244]}, "properties": {"etat de la localisation": "Deviation programmee", "numparc": 8948, "duree": "", "horodatage": "2022-10-01 20:22:13", "marker-color": "#56FF93"}}, {"type": "Feature", "geometry": {"type": "Point", "coordinates": [2.253712, 48.92321]}, "properties": {"etat de la localisation": "Deviation programmee", "numparc": 8955, "duree": "", "horodatage": "2022-10-01 20:30:10", "marker-color": "#56FF93"}}, {"type": "Feature", "geometry": {"type": "Point", "coordinates": [2.229306, 48.922176]}, "properties": {"etat de la localisation": "Delocalise", "numparc": 8948, "duree": "00:01:21", "horodatage": "2022-10-01 20:36:02", "marker-color": "#FF565E"}}, {"type": "Feature", "geometry": {"type": "Point", "coordinates": [2.189656, 48.902496]}, "properties": {"etat de la localisation": "Hors service", "numparc": 8951, "duree": "", "horodatage": "2022-10-01 20:39:32", "marker-color": "#707070"}}, {"type": "Feature", "geometry": {"type": "Point", "coordinates": [2.229386, 48.922123]}, "properties": {"etat de la localisation": "Delocalise", "numparc": 8955, "duree": "00:01:18", "horodatage": "2022-10-01 20:44:06", "marker-color": "#FF565E"}}, {"type": "Feature", "geometry": {"type": "Point", "coordinates": [2.18947, 48.902637]}, "properties": {"etat de la localisation": "Hors service", "numparc": 8937, "duree": "", "horodatage": "2022-10-01 20:47:06", "marker-color": "#707070"}}, {"type": "Feature", "geometry": {"type": "Point", "coordinates": [2.253666, 48.923176]}, "properties": {"etat de la localisation": "Deviation programmee", "numparc": 8949, "duree": "", "horodatage": "2022-10-01 20:51:58", "marker-color": "#56FF93"}}, {"type": "Feature", "geometry": {"type": "Point", "coordinates": [2.244481, 48.926594]}, "properties": {"etat de la localisation": "Deviation programmee", "numparc": 8944, "duree": "", "horodatage": "2022-10-01 20:58:36", "marker-color": "#56FF93"}}, {"type": "Feature", "geometry": {"type": "Point", "coordinates": [2.201589, 48.899971]}, "properties": {"etat de la localisation": "Mission inconnue", "numparc": 8942, "duree": "", "horodatage": "2022-10-01 20:59:55", "marker-color": "#FF9F56"}}, {"type": "Feature", "geometry": {"type": "Point", "coordinates": [2.244497, 48.926586]}, "properties": {"etat de la localisation": "Deviation programmee", "numparc": 8943, "duree": "", "horodatage": "2022-10-01 21:04:16", "marker-color": "#56FF93"}}, {"type": "Feature", "geometry": {"type": "Point", "coordinates": [2.229328, 48.922081]}, "properties": {"etat de la localisation": "Delocalise", "numparc": 8949, "duree": "00:01:18", "horodatage": "2022-10-01 21:07:24", "marker-color": "#FF565E"}}, {"type": "Feature", "geometry": {"type": "Point", "coordinates": [2.253641, 48.923191]}, "properties": {"etat de la localisation": "Deviation programmee", "numparc": 8936, "duree": "", "horodatage": "2022-10-01 21:11:44", "marker-color": "#56FF93"}}, {"type": "Feature", "geometry": {"type": "Point", "coordinates": [2.282905, 48.92992]}, "properties": {"etat de la localisation": "Mission suivante non connue", "numparc": 8942, "duree": "", "horodatage": "2022-10-01 21:14:46", "marker-color": "#7156FF"}}, {"type": "Feature", "geometry": {"type": "Point", "coordinates": [2.282825, 48.929897]}, "properties": {"etat de la localisation": "Mission inconnue", "numparc": 8942, "duree": "", "horodatage": "2022-10-01 21:15:35", "marker-color": "#FF9F56"}}, {"type": "Feature", "geometry": {"type": "Point", "coordinates": [2.189125, 48.902657]}, "properties": {"etat de la localisation": "Hors service", "numparc": 8948, "duree": "", "horodatage": "2022-10-01 21:19:08", "marker-color": "#707070"}}, {"type": "Feature", "geometry": {"type": "Point", "coordinates": [2.229379, 48.922062]}, "properties": {"etat de la localisation": "Delocalise", "numparc": 8936, "duree": "00:01:20", "horodatage": "2022-10-01 21:26:46", "marker-color": "#FF565E"}}, {"type": "Feature", "geometry": {"type": "Point", "coordinates": [2.189238, 48.902531]}, "properties": {"etat de la localisation": "Hors service", "numparc": 8944, "duree": "", "horodatage": "2022-10-01 21:42:36", "marker-color": "#707070"}}, {"type": "Feature", "geometry": {"type": "Point", "coordinates": [2.253669, 48.923199]}, "properties": {"etat de la localisation": "Deviation programmee", "numparc": 8943, "duree": "", "horodatage": "2022-10-01 21:50:48", "marker-color": "#56FF93"}}, {"type": "Feature", "geometry": {"type": "Point", "coordinates": [2.244474, 48.926582]}, "properties": {"etat de la localisation": "Deviation programmee", "numparc": 8955, "duree": "", "horodatage": "2022-10-01 21:52:46", "marker-color": "#56FF93"}}, {"type": "Feature", "geometry": {"type": "Point", "coordinates": [2.201148, 48.887623]}, "properties": {"etat de la localisation": "Mission suivante non connue", "numparc": 8942, "duree": "", "horodatage": "2022-10-01 21:58:31", "marker-color": "#7156FF"}}, {"type": "Feature", "geometry": {"type": "Point", "coordinates": [2.229331, 48.922104]}, "properties": {"etat de la localisation": "Delocalise", "numparc": 8943, "duree": "00:01:13", "horodatage": "2022-10-01 22:01:29", "marker-color": "#FF565E"}}, {"type": "Feature", "geometry": {"type": "Point", "coordinates": [2.188902, 48.902767]}, "properties": {"etat de la localisation": "Hors service", "numparc": 8936, "duree": "", "horodatage": "2022-10-01 22:08:34", "marker-color": "#707070"}}, {"type": "Feature", "geometry": {"type": "Point", "coordinates": [2.284116, 48.930107]}, "properties": {"etat de la localisation": "Mission suivante non connue", "numparc": 8955, "duree": "", "horodatage": "2022-10-01 22:09:42", "marker-color": "#7156FF"}}, {"type": "Feature", "geometry": {"type": "Point", "coordinates": [2.284121, 48.930111]}, "properties": {"etat de la localisation": "Mission inconnue", "numparc": 8955, "duree": "", "horodatage": "2022-10-01 22:09:52", "marker-color": "#FF9F56"}}, {"type": "Feature", "geometry": {"type": "Point", "coordinates": [2.244469, 48.926579]}, "properties": {"etat de la localisation": "Deviation programmee", "numparc": 8949, "duree": "", "horodatage": "2022-10-01 22:11:15", "marker-color": "#56FF93"}}, {"type": "Feature", "geometry": {"type": "Point", "coordinates": [2.284054, 48.931087]}, "properties": {"etat de la localisation": "Delocalise", "numparc": 8949, "duree": "00:08:19", "horodatage": "2022-10-01 22:26:51", "marker-color": "#FF565E"}}, {"type": "Feature", "geometry": {"type": "Point", "coordinates": [2.191164, 48.902927]}, "properties": {"etat de la localisation": "Mission inconnue", "numparc": 8955, "duree": "", "horodatage": "2022-10-01 22:28:24", "marker-color": "#FF9F56"}}, {"type": "Feature", "geometry": {"type": "Point", "coordinates": [2.191164, 48.902927]}, "properties": {"etat de la localisation": "Mission inconnue", "numparc": 8955, "duree": "", "horodatage": "2022-10-01 22:28:25", "marker-color": "#FF9F56"}}, {"type": "Feature", "geometry": {"type": "Point", "coordinates": [2.191164, 48.902927]}, "properties": {"etat de la localisation": "Mission inconnue", "numparc": 8955, "duree": "", "horodatage": "2022-10-01 22:28:25", "marker-color": "#FF9F56"}}, {"type": "Feature", "geometry": {"type": "Point", "coordinates": [2.191164, 48.902927]}, "properties": {"etat de la localisation": "Mission inconnue", "numparc": 8955, "duree": "", "horodatage": "2022-10-01 22:28:25", "marker-color": "#FF9F56"}}, {"type": "Feature", "geometry": {"type": "Point", "coordinates": [2.191164, 48.902927]}, "properties": {"etat de la localisation": "Mission inconnue", "numparc": 8955, "duree": "", "horodatage": "2022-10-01 22:28:25", "marker-color": "#FF9F56"}}, {"type": "Feature", "geometry": {"type": "Point", "coordinates": [2.191164, 48.902927]}, "properties": {"etat de la localisation": "Mission inconnue", "numparc": 8955, "duree": "", "horodatage": "2022-10-01 22:28:25", "marker-color": "#FF9F56"}}, {"type": "Feature", "geometry": {"type": "Point", "coordinates": [2.189005, 48.902641]}, "properties": {"etat de la localisation": "Hors service", "numparc": 8955, "duree": "", "horodatage": "2022-10-01 22:35:45", "marker-color": "#707070"}}, {"type": "Feature", "geometry": {"type": "Point", "coordinates": [2.244524, 48.926556]}, "properties": {"etat de la localisation": "Deviation programmee", "numparc": 8942, "duree": "", "horodatage": "2022-10-01 22:51:04", "marker-color": "#56FF93"}}, {"type": "Feature", "geometry": {"type": "Point", "coordinates": [2.253697, 48.923225]}, "properties": {"etat de la localisation": "Deviation programmee", "numparc": 8949, "duree": "", "horodatage": "2022-10-01 23:02:34", "marker-color": "#56FF93"}}, {"type": "Feature", "geometry": {"type": "Point", "coordinates": [2.244504, 48.926582]}, "properties": {"etat de la localisation": "Deviation programmee", "numparc": 8943, "duree": "", "horodatage": "2022-10-01 23:09:16", "marker-color": "#56FF93"}}, {"type": "Feature", "geometry": {"type": "Point", "coordinates": [2.229367, 48.922066]}, "properties": {"etat de la localisation": "Delocalise", "numparc": 8949, "duree": "00:01:13", "horodatage": "2022-10-01 23:15:03", "marker-color": "#FF565E"}}, {"type": "Feature", "geometry": {"type": "Point", "coordinates": [2.283893, 48.931217]}, "properties": {"etat de la localisation": "Delocalise", "numparc": 8943, "duree": "00:25:29", "horodatage": "2022-10-01 23:23:11", "marker-color": "#FF565E"}}, {"type": "Feature", "geometry": {"type": "Point", "coordinates": [2.253704, 48.92318]}, "properties": {"etat de la localisation": "Deviation programmee", "numparc": 8942, "duree": "", "horodatage": "2022-10-01 23:30:09", "marker-color": "#56FF93"}}, {"type": "Feature", "geometry": {"type": "Point", "coordinates": [2.253707, 48.923195]}, "properties": {"etat de la localisation": "Deviation programmee", "numparc": 8943, "duree": "", "horodatage": "2022-10-01 23:57:07", "marker-color": "#56FF93"}}, {"type": "Feature", "geometry": {"type": "Point", "coordinates": [2.229347, 48.922123]}, "properties": {"etat de la localisation": "Delocalise", "numparc": 8943, "duree": "00:01:18", "horodatage": "2022-10-02 00:07:33", "marker-color": "#FF565E"}}, {"type": "Feature", "geometry": {"type": "Point", "coordinates": [2.244462, 48.926575]}, "properties": {"etat de la localisation": "Deviation programmee", "numparc": 8949, "duree": "", "horodatage": "2022-10-02 00:15:20", "marker-color": "#56FF93"}}, {"type": "Feature", "geometry": {"type": "Point", "coordinates": [2.244508, 48.926601]}, "properties": {"etat de la localisation": "Deviation programmee", "numparc": 8942, "duree": "", "horodatage": "2022-10-02 00:48:21", "marker-color": "#56FF93"}}, {"type": "Feature", "geometry": {"type": "Point", "coordinates": [2.253714, 48.923222]}, "properties": {"etat de la localisation": "Deviation programmee", "numparc": 8949, "duree": "", "horodatage": "2022-10-02 00:49:55", "marker-color": "#56FF93"}}, {"type": "Feature", "geometry": {"type": "Point", "coordinates": [2.229332, 48.922085]}, "properties": {"etat de la localisation": "Delocalise", "numparc": 8949, "duree": "00:01:52", "horodatage": "2022-10-02 00:59:48", "marker-color": "#FF565E"}}, {"type": "Feature", "geometry": {"type": "Point", "coordinates": [2.244455, 48.92659]}, "properties": {"etat de la localisation": "Deviation programmee", "numparc": 8943, "duree": "", "horodatage": "2022-10-02 01:13:28", "marker-color": "#56FF93"}}, {"type": "Feature", "geometry": {"type": "Point", "coordinates": [2.282991, 48.929878]}, "properties": {"etat de la localisation": "Hors service", "numparc": 8942, "duree": "", "horodatage": "2022-10-02 01:27:45", "marker-color": "#707070"}}, {"type": "Feature", "geometry": {"type": "Point", "coordinates": [2.283945, 48.931202]}, "properties": {"etat de la localisation": "Delocalise", "numparc": 8943, "duree": "00:43:07", "horodatage": "2022-10-02 01:31:53", "marker-color": "#FF565E"}}, {"type": "Feature", "geometry": {"type": "Point", "coordinates": [2.253663, 48.923176]}, "properties": {"etat de la localisation": "Deviation programmee", "numparc": 8942, "duree": "", "horodatage": "2022-10-02 01:41:16", "marker-color": "#56FF93"}}, {"type": "Feature", "geometry": {"type": "Point", "coordinates": [2.24454, 48.926605]}, "properties": {"etat de la localisation": "Deviation programmee", "numparc": 8949, "duree": "", "horodatage": "2022-10-02 01:49:01", "marker-color": "#56FF93"}}, {"type": "Feature", "geometry": {"type": "Point", "coordinates": [2.229369, 48.92202]}, "properties": {"etat de la localisation": "Delocalise", "numparc": 8942, "duree": "00:01:26", "horodatage": "2022-10-02 01:52:59", "marker-color": "#FF565E"}}, {"type": "Feature", "geometry": {"type": "Point", "coordinates": [2.283832, 48.930019]}, "properties": {"etat de la localisation": "Mission suivante non connue", "numparc": 8949, "duree": "", "horodatage": "2022-10-02 01:59:49", "marker-color": "#7156FF"}}, {"type": "Feature", "geometry": {"type": "Point", "coordinates": [2.283832, 48.930019]}, "properties": {"etat de la localisation": "Mission inconnue", "numparc": 8949, "duree": "", "horodatage": "2022-10-02 02:00:01", "marker-color": "#FF9F56"}}, {"type": "Feature", "geometry": {"type": "Point", "coordinates": [2.189676, 48.902531]}, "properties": {"etat de la localisation": "Hors service", "numparc": 8949, "duree": "", "horodatage": "2022-10-02 02:17:57", "marker-color": "#707070"}}]}