{"type": "FeatureCollection", "features": [{"type": "Feature", "geometry": {"type": "Point", "coordinates": [2.400442, 48.864895]}, "properties": {"etat de la localisation": "Deviation programmee", "numparc": 604, "duree": "", "horodatage": "2022-10-31 03:52:01", "marker-color": "#56FF93"}}, {"type": "Feature", "geometry": {"type": "Point", "coordinates": [2.369695, 48.853279]}, "properties": {"etat de la localisation": "Delocalise", "numparc": 626, "duree": "00:00:31", "horodatage": "2022-10-31 04:54:08", "marker-color": "#FF565E"}}, {"type": "Feature", "geometry": {"type": "Point", "coordinates": [2.407386, 48.849472]}, "properties": {"etat de la localisation": "Hors service", "numparc": 626, "duree": "", "horodatage": "2022-10-31 05:40:20", "marker-color": "#707070"}}, {"type": "Feature", "geometry": {"type": "Point", "coordinates": [2.407261, 48.849674]}, "properties": {"etat de la localisation": "Hors service", "numparc": 604, "duree": "", "horodatage": "2022-10-31 06:35:36", "marker-color": "#707070"}}, {"type": "Feature", "geometry": {"type": "Point", "coordinates": [2.407273, 48.850021]}, "properties": {"etat de la localisation": "Delocalise", "numparc": 640, "duree": "00:00:09", "horodatage": "2022-11-01 00:07:00", "marker-color": "#FF565E"}}, {"type": "Feature", "geometry": {"type": "Point", "coordinates": [2.407346, 48.850071]}, "properties": {"etat de la localisation": "Delocalise", "numparc": 621, "duree": "00:00:13", "horodatage": "2022-11-01 00:32:40", "marker-color": "#FF565E"}}]}