{"type": "FeatureCollection", "features": [{"type": "Feature", "geometry": {"type": "Point", "coordinates": [2.427632, 48.879513]}, "properties": {"etat de la localisation": "Delocalise", "numparc": 2017, "duree": "00:05:39", "horodatage": "2022-02-04 05:02:42", "marker-color": "#FF565E"}}, {"type": "Feature", "geometry": {"type": "Point", "coordinates": [2.428677, 48.87904]}, "properties": {"etat de la localisation": "Delocalise", "numparc": 1539, "duree": "00:04:01", "horodatage": "2022-02-04 05:50:47", "marker-color": "#FF565E"}}, {"type": "Feature", "geometry": {"type": "Point", "coordinates": [2.428227, 48.879486]}, "properties": {"etat de la localisation": "Delocalise", "numparc": 1992, "duree": "00:00:45", "horodatage": "2022-02-04 05:55:05", "marker-color": "#FF565E"}}, {"type": "Feature", "geometry": {"type": "Point", "coordinates": [2.353424, 48.85598]}, "properties": {"etat de la localisation": "Delocalise", "numparc": 2017, "duree": "00:00:36", "horodatage": "2022-02-04 06:00:11", "marker-color": "#FF565E"}}, {"type": "Feature", "geometry": {"type": "Point", "coordinates": [2.353319, 48.855968]}, "properties": {"etat de la localisation": "Delocalise", "numparc": 4946, "duree": "00:02:09", "horodatage": "2022-02-04 06:13:21", "marker-color": "#FF565E"}}, {"type": "Feature", "geometry": {"type": "Point", "coordinates": [2.366362, 48.866047]}, "properties": {"etat de la localisation": "Delocalise", "numparc": 1539, "duree": "00:02:14", "horodatage": "2022-02-04 06:22:54", "marker-color": "#FF565E"}}, {"type": "Feature", "geometry": {"type": "Point", "coordinates": [2.426683, 48.879238]}, "properties": {"etat de la localisation": "Delocalise", "numparc": 1489, "duree": "00:03:29", "horodatage": "2022-02-04 06:30:15", "marker-color": "#FF565E"}}, {"type": "Feature", "geometry": {"type": "Point", "coordinates": [2.320614, 48.842003]}, "properties": {"etat de la localisation": "Hors service", "numparc": 1495, "duree": "", "horodatage": "2022-02-04 06:31:54", "marker-color": "#707070"}}, {"type": "Feature", "geometry": {"type": "Point", "coordinates": [2.426814, 48.878792]}, "properties": {"etat de la localisation": "Hors service", "numparc": 1489, "duree": "", "horodatage": "2022-02-04 06:33:44", "marker-color": "#707070"}}, {"type": "Feature", "geometry": {"type": "Point", "coordinates": [2.427933, 48.879253]}, "properties": {"etat de la localisation": "Mission inconnue", "numparc": 1540, "duree": "", "horodatage": "2022-02-04 06:38:30", "marker-color": "#FF9F56"}}, {"type": "Feature", "geometry": {"type": "Point", "coordinates": [2.427764, 48.878815]}, "properties": {"etat de la localisation": "Delocalise", "numparc": 1488, "duree": "00:11:17", "horodatage": "2022-02-04 06:54:24", "marker-color": "#FF565E"}}, {"type": "Feature", "geometry": {"type": "Point", "coordinates": [2.428191, 48.879505]}, "properties": {"etat de la localisation": "Delocalise", "numparc": 1498, "duree": "00:13:36", "horodatage": "2022-02-04 07:06:10", "marker-color": "#FF565E"}}, {"type": "Feature", "geometry": {"type": "Point", "coordinates": [2.406289, 48.876205]}, "properties": {"etat de la localisation": "Mission suivante non connue", "numparc": 1997, "duree": "", "horodatage": "2022-02-04 07:06:18", "marker-color": "#7156FF"}}, {"type": "Feature", "geometry": {"type": "Point", "coordinates": [2.406174, 48.876076]}, "properties": {"etat de la localisation": "Mission suivante non connue", "numparc": 1992, "duree": "", "horodatage": "2022-02-04 07:11:31", "marker-color": "#7156FF"}}, {"type": "Feature", "geometry": {"type": "Point", "coordinates": [2.406177, 48.876076]}, "properties": {"etat de la localisation": "Mission suivante non connue", "numparc": 1992, "duree": "", "horodatage": "2022-02-04 07:14:30", "marker-color": "#7156FF"}}, {"type": "Feature", "geometry": {"type": "Point", "coordinates": [2.428272, 48.879219]}, "properties": {"etat de la localisation": "Delocalise", "numparc": 1500, "duree": "00:03:58", "horodatage": "2022-02-04 07:24:04", "marker-color": "#FF565E"}}, {"type": "Feature", "geometry": {"type": "Point", "coordinates": [2.428106, 48.879314]}, "properties": {"etat de la localisation": "Delocalise", "numparc": 1522, "duree": "00:03:10", "horodatage": "2022-02-04 07:25:18", "marker-color": "#FF565E"}}, {"type": "Feature", "geometry": {"type": "Point", "coordinates": [2.364396, 48.856674]}, "properties": {"etat de la localisation": "Mission inconnue", "numparc": 1992, "duree": "", "horodatage": "2022-02-04 07:46:04", "marker-color": "#FF9F56"}}, {"type": "Feature", "geometry": {"type": "Point", "coordinates": [2.320663, 48.842049]}, "properties": {"etat de la localisation": "Hors service", "numparc": 4930, "duree": "", "horodatage": "2022-02-04 08:11:12", "marker-color": "#707070"}}, {"type": "Feature", "geometry": {"type": "Point", "coordinates": [2.320312, 48.841881]}, "properties": {"etat de la localisation": "Mission suivante non connue", "numparc": 1992, "duree": "", "horodatage": "2022-02-04 08:11:40", "marker-color": "#7156FF"}}, {"type": "Feature", "geometry": {"type": "Point", "coordinates": [2.320312, 48.841881]}, "properties": {"etat de la localisation": "Hors service", "numparc": 1992, "duree": "", "horodatage": "2022-02-04 08:13:13", "marker-color": "#707070"}}, {"type": "Feature", "geometry": {"type": "Point", "coordinates": [2.354849, 48.854313]}, "properties": {"etat de la localisation": "Delocalise", "numparc": 1997, "duree": "00:09:09", "horodatage": "2022-02-04 08:33:34", "marker-color": "#FF565E"}}, {"type": "Feature", "geometry": {"type": "Point", "coordinates": [2.35076, 48.856007]}, "properties": {"etat de la localisation": "Deviation programmee", "numparc": 4930, "duree": "", "horodatage": "2022-02-04 08:38:40", "marker-color": "#56FF93"}}, {"type": "Feature", "geometry": {"type": "Point", "coordinates": [2.355401, 48.854149]}, "properties": {"etat de la localisation": "Delocalise", "numparc": 4930, "duree": "00:05:38", "horodatage": "2022-02-04 08:40:36", "marker-color": "#FF565E"}}, {"type": "Feature", "geometry": {"type": "Point", "coordinates": [2.347089, 48.857254]}, "properties": {"etat de la localisation": "Mission inconnue", "numparc": 1522, "duree": "", "horodatage": "2022-02-04 08:44:28", "marker-color": "#FF9F56"}}, {"type": "Feature", "geometry": {"type": "Point", "coordinates": [2.406152, 48.875881]}, "properties": {"etat de la localisation": "Mission suivante non connue", "numparc": 1540, "duree": "", "horodatage": "2022-02-04 08:54:09", "marker-color": "#7156FF"}}, {"type": "Feature", "geometry": {"type": "Point", "coordinates": [2.320933, 48.842152]}, "properties": {"etat de la localisation": "Mission inconnue", "numparc": 1539, "duree": "", "horodatage": "2022-02-04 08:56:00", "marker-color": "#FF9F56"}}, {"type": "Feature", "geometry": {"type": "Point", "coordinates": [2.359851, 48.855553]}, "properties": {"etat de la localisation": "Mission inconnue", "numparc": 1522, "duree": "", "horodatage": "2022-02-04 09:16:17", "marker-color": "#FF9F56"}}, {"type": "Feature", "geometry": {"type": "Point", "coordinates": [2.406219, 48.876049]}, "properties": {"etat de la localisation": "Mission suivante non connue", "numparc": 1992, "duree": "", "horodatage": "2022-02-04 09:23:47", "marker-color": "#7156FF"}}, {"type": "Feature", "geometry": {"type": "Point", "coordinates": [2.40615, 48.876122]}, "properties": {"etat de la localisation": "Hors service", "numparc": 1488, "duree": "", "horodatage": "2022-02-04 09:30:53", "marker-color": "#707070"}}, {"type": "Feature", "geometry": {"type": "Point", "coordinates": [2.365222, 48.861641]}, "properties": {"etat de la localisation": "Mission suivante non connue", "numparc": 1539, "duree": "", "horodatage": "2022-02-04 09:34:42", "marker-color": "#7156FF"}}, {"type": "Feature", "geometry": {"type": "Point", "coordinates": [2.406052, 48.875942]}, "properties": {"etat de la localisation": "Hors service", "numparc": 1535, "duree": "", "horodatage": "2022-02-04 09:38:16", "marker-color": "#707070"}}, {"type": "Feature", "geometry": {"type": "Point", "coordinates": [2.364583, 48.861557]}, "properties": {"etat de la localisation": "Mission inconnue", "numparc": 1539, "duree": "", "horodatage": "2022-02-04 09:38:33", "marker-color": "#FF9F56"}}, {"type": "Feature", "geometry": {"type": "Point", "coordinates": [2.40611, 48.876091]}, "properties": {"etat de la localisation": "Mission suivante non connue", "numparc": 1495, "duree": "", "horodatage": "2022-02-04 09:39:39", "marker-color": "#7156FF"}}, {"type": "Feature", "geometry": {"type": "Point", "coordinates": [2.322208, 48.843357]}, "properties": {"etat de la localisation": "Delocalise", "numparc": 1522, "duree": "00:00:57", "horodatage": "2022-02-04 09:40:21", "marker-color": "#FF565E"}}, {"type": "Feature", "geometry": {"type": "Point", "coordinates": [2.406111, 48.876095]}, "properties": {"etat de la localisation": "Hors service", "numparc": 1495, "duree": "", "horodatage": "2022-02-04 09:46:15", "marker-color": "#707070"}}, {"type": "Feature", "geometry": {"type": "Point", "coordinates": [2.35102, 48.857506]}, "properties": {"etat de la localisation": "Mission inconnue", "numparc": 1539, "duree": "", "horodatage": "2022-02-04 09:47:52", "marker-color": "#FF9F56"}}, {"type": "Feature", "geometry": {"type": "Point", "coordinates": [2.34915, 48.856808]}, "properties": {"etat de la localisation": "Delocalise", "numparc": 1539, "duree": "00:03:38", "horodatage": "2022-02-04 09:49:53", "marker-color": "#FF565E"}}, {"type": "Feature", "geometry": {"type": "Point", "coordinates": [2.320417, 48.841949]}, "properties": {"etat de la localisation": "Hors service", "numparc": 1522, "duree": "", "horodatage": "2022-02-04 10:02:08", "marker-color": "#707070"}}, {"type": "Feature", "geometry": {"type": "Point", "coordinates": [2.323045, 48.843895]}, "properties": {"etat de la localisation": "Mission inconnue", "numparc": 1522, "duree": "", "horodatage": "2022-02-04 10:05:55", "marker-color": "#FF9F56"}}, {"type": "Feature", "geometry": {"type": "Point", "coordinates": [2.319992, 48.841923]}, "properties": {"etat de la localisation": "Mission inconnue", "numparc": 1539, "duree": "", "horodatage": "2022-02-04 10:16:22", "marker-color": "#FF9F56"}}, {"type": "Feature", "geometry": {"type": "Point", "coordinates": [2.428147, 48.879013]}, "properties": {"etat de la localisation": "Mission inconnue", "numparc": 1529, "duree": "", "horodatage": "2022-02-04 10:20:37", "marker-color": "#FF9F56"}}, {"type": "Feature", "geometry": {"type": "Point", "coordinates": [2.428147, 48.879013]}, "properties": {"etat de la localisation": "Delocalise", "numparc": 1529, "duree": "00:00:04", "horodatage": "2022-02-04 10:20:41", "marker-color": "#FF565E"}}, {"type": "Feature", "geometry": {"type": "Point", "coordinates": [2.428147, 48.879013]}, "properties": {"etat de la localisation": "Hors service", "numparc": 1529, "duree": "", "horodatage": "2022-02-04 10:20:45", "marker-color": "#707070"}}, {"type": "Feature", "geometry": {"type": "Point", "coordinates": [2.406206, 48.876133]}, "properties": {"etat de la localisation": "Mission suivante non connue", "numparc": 1540, "duree": "", "horodatage": "2022-02-04 10:36:03", "marker-color": "#7156FF"}}, {"type": "Feature", "geometry": {"type": "Point", "coordinates": [2.427664, 48.87923]}, "properties": {"etat de la localisation": "Mission inconnue", "numparc": 1499, "duree": "", "horodatage": "2022-02-04 10:38:55", "marker-color": "#FF9F56"}}, {"type": "Feature", "geometry": {"type": "Point", "coordinates": [2.427664, 48.87923]}, "properties": {"etat de la localisation": "Delocalise", "numparc": 1499, "duree": "00:01:31", "horodatage": "2022-02-04 10:38:58", "marker-color": "#FF565E"}}, {"type": "Feature", "geometry": {"type": "Point", "coordinates": [2.427667, 48.87923]}, "properties": {"etat de la localisation": "Hors service", "numparc": 1499, "duree": "", "horodatage": "2022-02-04 10:40:29", "marker-color": "#707070"}}, {"type": "Feature", "geometry": {"type": "Point", "coordinates": [2.428108, 48.879166]}, "properties": {"etat de la localisation": "Mission inconnue", "numparc": 1529, "duree": "", "horodatage": "2022-02-04 10:48:56", "marker-color": "#FF9F56"}}, {"type": "Feature", "geometry": {"type": "Point", "coordinates": [2.406042, 48.875854]}, "properties": {"etat de la localisation": "Hors service", "numparc": 1487, "duree": "", "horodatage": "2022-02-04 10:49:15", "marker-color": "#707070"}}, {"type": "Feature", "geometry": {"type": "Point", "coordinates": [2.42807, 48.879051]}, "properties": {"etat de la localisation": "Hors service", "numparc": 1529, "duree": "", "horodatage": "2022-02-04 10:53:02", "marker-color": "#707070"}}, {"type": "Feature", "geometry": {"type": "Point", "coordinates": [2.320245, 48.841858]}, "properties": {"etat de la localisation": "Mission suivante non connue", "numparc": 1992, "duree": "", "horodatage": "2022-02-04 10:57:21", "marker-color": "#7156FF"}}, {"type": "Feature", "geometry": {"type": "Point", "coordinates": [2.406048, 48.875896]}, "properties": {"etat de la localisation": "Hors service", "numparc": 1495, "duree": "", "horodatage": "2022-02-04 11:10:20", "marker-color": "#707070"}}, {"type": "Feature", "geometry": {"type": "Point", "coordinates": [2.350218, 48.856106]}, "properties": {"etat de la localisation": "Mission suivante non connue", "numparc": 1992, "duree": "", "horodatage": "2022-02-04 11:30:58", "marker-color": "#7156FF"}}, {"type": "Feature", "geometry": {"type": "Point", "coordinates": [2.406039, 48.875977]}, "properties": {"etat de la localisation": "Hors service", "numparc": 1539, "duree": "", "horodatage": "2022-02-04 11:37:32", "marker-color": "#707070"}}, {"type": "Feature", "geometry": {"type": "Point", "coordinates": [2.405074, 48.873459]}, "properties": {"etat de la localisation": "Delocalise", "numparc": 1495, "duree": "00:00:24", "horodatage": "2022-02-04 11:38:37", "marker-color": "#FF565E"}}, {"type": "Feature", "geometry": {"type": "Point", "coordinates": [2.403655, 48.871754]}, "properties": {"etat de la localisation": "Delocalise", "numparc": 1495, "duree": "00:05:00", "horodatage": "2022-02-04 11:40:39", "marker-color": "#FF565E"}}, {"type": "Feature", "geometry": {"type": "Point", "coordinates": [2.428015, 48.879063]}, "properties": {"etat de la localisation": "Mission inconnue", "numparc": 1529, "duree": "", "horodatage": "2022-02-04 11:50:54", "marker-color": "#FF9F56"}}, {"type": "Feature", "geometry": {"type": "Point", "coordinates": [2.31975, 48.84193]}, "properties": {"etat de la localisation": "Mission suivante non connue", "numparc": 1992, "duree": "", "horodatage": "2022-02-04 12:04:00", "marker-color": "#7156FF"}}, {"type": "Feature", "geometry": {"type": "Point", "coordinates": [2.320018, 48.842075]}, "properties": {"etat de la localisation": "Mission suivante non connue", "numparc": 1540, "duree": "", "horodatage": "2022-02-04 12:05:54", "marker-color": "#7156FF"}}, {"type": "Feature", "geometry": {"type": "Point", "coordinates": [2.405907, 48.875568]}, "properties": {"etat de la localisation": "Hors service", "numparc": 1488, "duree": "", "horodatage": "2022-02-04 12:16:13", "marker-color": "#707070"}}, {"type": "Feature", "geometry": {"type": "Point", "coordinates": [2.406118, 48.87611]}, "properties": {"etat de la localisation": "Hors service", "numparc": 1500, "duree": "", "horodatage": "2022-02-04 12:20:24", "marker-color": "#707070"}}, {"type": "Feature", "geometry": {"type": "Point", "coordinates": [2.406355, 48.875843]}, "properties": {"etat de la localisation": "Hors service", "numparc": 1529, "duree": "", "horodatage": "2022-02-04 12:26:12", "marker-color": "#707070"}}, {"type": "Feature", "geometry": {"type": "Point", "coordinates": [2.406188, 48.876266]}, "properties": {"etat de la localisation": "Hors service", "numparc": 1538, "duree": "", "horodatage": "2022-02-04 12:27:52", "marker-color": "#707070"}}, {"type": "Feature", "geometry": {"type": "Point", "coordinates": [2.320831, 48.84214]}, "properties": {"etat de la localisation": "Hors service", "numparc": 4930, "duree": "", "horodatage": "2022-02-04 12:30:44", "marker-color": "#707070"}}, {"type": "Feature", "geometry": {"type": "Point", "coordinates": [2.380461, 48.866833]}, "properties": {"etat de la localisation": "Delocalise", "numparc": 1501, "duree": "00:00:00", "horodatage": "2022-02-04 12:54:42", "marker-color": "#FF565E"}}, {"type": "Feature", "geometry": {"type": "Point", "coordinates": [2.380461, 48.866833]}, "properties": {"etat de la localisation": "Delocalise", "numparc": 1501, "duree": "00:02:29", "horodatage": "2022-02-04 12:54:42", "marker-color": "#FF565E"}}, {"type": "Feature", "geometry": {"type": "Point", "coordinates": [2.389736, 48.869213]}, "properties": {"etat de la localisation": "Delocalise", "numparc": 1501, "duree": "00:00:00", "horodatage": "2022-02-04 12:59:10", "marker-color": "#FF565E"}}, {"type": "Feature", "geometry": {"type": "Point", "coordinates": [2.389736, 48.869213]}, "properties": {"etat de la localisation": "Delocalise", "numparc": 1501, "duree": "00:05:38", "horodatage": "2022-02-04 12:59:10", "marker-color": "#FF565E"}}, {"type": "Feature", "geometry": {"type": "Point", "coordinates": [2.428444, 48.868759]}, "properties": {"etat de la localisation": "Delocalise", "numparc": 1530, "duree": "00:00:00", "horodatage": "2022-02-04 13:05:43", "marker-color": "#FF565E"}}, {"type": "Feature", "geometry": {"type": "Point", "coordinates": [2.428444, 48.868759]}, "properties": {"etat de la localisation": "Delocalise", "numparc": 1530, "duree": "00:40:43", "horodatage": "2022-02-04 13:05:43", "marker-color": "#FF565E"}}, {"type": "Feature", "geometry": {"type": "Point", "coordinates": [2.406255, 48.875862]}, "properties": {"etat de la localisation": "Mission suivante non connue", "numparc": 1540, "duree": "", "horodatage": "2022-02-04 13:26:39", "marker-color": "#7156FF"}}, {"type": "Feature", "geometry": {"type": "Point", "coordinates": [2.406038, 48.875534]}, "properties": {"etat de la localisation": "Hors service", "numparc": 1488, "duree": "", "horodatage": "2022-02-04 13:30:01", "marker-color": "#707070"}}, {"type": "Feature", "geometry": {"type": "Point", "coordinates": [2.40623, 48.876217]}, "properties": {"etat de la localisation": "Hors service", "numparc": 1522, "duree": "", "horodatage": "2022-02-04 13:56:24", "marker-color": "#707070"}}, {"type": "Feature", "geometry": {"type": "Point", "coordinates": [2.405983, 48.875744]}, "properties": {"etat de la localisation": "Hors service", "numparc": 1495, "duree": "", "horodatage": "2022-02-04 14:08:45", "marker-color": "#707070"}}, {"type": "Feature", "geometry": {"type": "Point", "coordinates": [2.406193, 48.87608]}, "properties": {"etat de la localisation": "Mission suivante non connue", "numparc": 1487, "duree": "", "horodatage": "2022-02-04 14:28:25", "marker-color": "#7156FF"}}, {"type": "Feature", "geometry": {"type": "Point", "coordinates": [2.404682, 48.872791]}, "properties": {"etat de la localisation": "Delocalise", "numparc": 1539, "duree": "00:00:45", "horodatage": "2022-02-04 14:30:12", "marker-color": "#FF565E"}}, {"type": "Feature", "geometry": {"type": "Point", "coordinates": [2.31986, 48.842068]}, "properties": {"etat de la localisation": "Mission suivante non connue", "numparc": 1992, "duree": "", "horodatage": "2022-02-04 15:02:03", "marker-color": "#7156FF"}}, {"type": "Feature", "geometry": {"type": "Point", "coordinates": [2.406294, 48.876171]}, "properties": {"etat de la localisation": "Mission inconnue", "numparc": 1530, "duree": "", "horodatage": "2022-02-04 15:11:01", "marker-color": "#FF9F56"}}, {"type": "Feature", "geometry": {"type": "Point", "coordinates": [2.406294, 48.876171]}, "properties": {"etat de la localisation": "Mission inconnue", "numparc": 1530, "duree": "", "horodatage": "2022-02-04 15:11:01", "marker-color": "#FF9F56"}}, {"type": "Feature", "geometry": {"type": "Point", "coordinates": [2.406149, 48.875942]}, "properties": {"etat de la localisation": "Hors service", "numparc": 1529, "duree": "", "horodatage": "2022-02-04 15:26:08", "marker-color": "#707070"}}, {"type": "Feature", "geometry": {"type": "Point", "coordinates": [2.406216, 48.876274]}, "properties": {"etat de la localisation": "Hors service", "numparc": 1538, "duree": "", "horodatage": "2022-02-04 15:29:59", "marker-color": "#707070"}}, {"type": "Feature", "geometry": {"type": "Point", "coordinates": [2.38521, 48.86758]}, "properties": {"etat de la localisation": "Delocalise", "numparc": 1530, "duree": "00:00:33", "horodatage": "2022-02-04 15:32:08", "marker-color": "#FF565E"}}, {"type": "Feature", "geometry": {"type": "Point", "coordinates": [2.38521, 48.86758]}, "properties": {"etat de la localisation": "Delocalise", "numparc": 1530, "duree": "00:00:00", "horodatage": "2022-02-04 15:32:08", "marker-color": "#FF565E"}}, {"type": "Feature", "geometry": {"type": "Point", "coordinates": [2.320478, 48.841911]}, "properties": {"etat de la localisation": "Mission suivante non connue", "numparc": 1487, "duree": "", "horodatage": "2022-02-04 15:49:00", "marker-color": "#7156FF"}}, {"type": "Feature", "geometry": {"type": "Point", "coordinates": [2.427634, 48.879154]}, "properties": {"etat de la localisation": "Mission inconnue", "numparc": 1499, "duree": "", "horodatage": "2022-02-04 16:32:22", "marker-color": "#FF9F56"}}, {"type": "Feature", "geometry": {"type": "Point", "coordinates": [2.369902, 48.863708]}, "properties": {"etat de la localisation": "Delocalise", "numparc": 1495, "duree": "00:00:27", "horodatage": "2022-02-04 16:42:30", "marker-color": "#FF565E"}}, {"type": "Feature", "geometry": {"type": "Point", "coordinates": [2.320015, 48.842148]}, "properties": {"etat de la localisation": "Mission suivante non connue", "numparc": 1538, "duree": "", "horodatage": "2022-02-04 16:47:14", "marker-color": "#7156FF"}}, {"type": "Feature", "geometry": {"type": "Point", "coordinates": [2.406227, 48.876202]}, "properties": {"etat de la localisation": "Mission suivante non connue", "numparc": 1992, "duree": "", "horodatage": "2022-02-04 16:51:45", "marker-color": "#7156FF"}}, {"type": "Feature", "geometry": {"type": "Point", "coordinates": [2.426695, 48.877762]}, "properties": {"etat de la localisation": "Delocalise", "numparc": 1526, "duree": "00:20:12", "horodatage": "2022-02-04 16:59:55", "marker-color": "#FF565E"}}, {"type": "Feature", "geometry": {"type": "Point", "coordinates": [2.428461, 48.879417]}, "properties": {"etat de la localisation": "Delocalise", "numparc": 1541, "duree": "00:03:05", "horodatage": "2022-02-04 17:05:16", "marker-color": "#FF565E"}}, {"type": "Feature", "geometry": {"type": "Point", "coordinates": [2.406054, 48.875839]}, "properties": {"etat de la localisation": "Hors service", "numparc": 1522, "duree": "", "horodatage": "2022-02-04 17:14:19", "marker-color": "#707070"}}, {"type": "Feature", "geometry": {"type": "Point", "coordinates": [2.404718, 48.872429]}, "properties": {"etat de la localisation": "Delocalise", "numparc": 1499, "duree": "00:00:11", "horodatage": "2022-02-04 17:17:34", "marker-color": "#FF565E"}}, {"type": "Feature", "geometry": {"type": "Point", "coordinates": [2.406034, 48.875568]}, "properties": {"etat de la localisation": "Hors service", "numparc": 1495, "duree": "", "horodatage": "2022-02-04 17:25:15", "marker-color": "#707070"}}, {"type": "Feature", "geometry": {"type": "Point", "coordinates": [2.350179, 48.856182]}, "properties": {"etat de la localisation": "Mission suivante non connue", "numparc": 1538, "duree": "", "horodatage": "2022-02-04 17:25:56", "marker-color": "#7156FF"}}, {"type": "Feature", "geometry": {"type": "Point", "coordinates": [2.406118, 48.876026]}, "properties": {"etat de la localisation": "Mission suivante non connue", "numparc": 1487, "duree": "", "horodatage": "2022-02-04 17:27:47", "marker-color": "#7156FF"}}, {"type": "Feature", "geometry": {"type": "Point", "coordinates": [2.324943, 48.845165]}, "properties": {"etat de la localisation": "Delocalise", "numparc": 1540, "duree": "00:00:35", "horodatage": "2022-02-04 17:33:48", "marker-color": "#FF565E"}}, {"type": "Feature", "geometry": {"type": "Point", "coordinates": [2.406539, 48.87579]}, "properties": {"etat de la localisation": "Hors service", "numparc": 1529, "duree": "", "horodatage": "2022-02-04 17:35:20", "marker-color": "#707070"}}, {"type": "Feature", "geometry": {"type": "Point", "coordinates": [2.320014, 48.841877]}, "properties": {"etat de la localisation": "Mission suivante non connue", "numparc": 1540, "duree": "", "horodatage": "2022-02-04 17:37:12", "marker-color": "#7156FF"}}, {"type": "Feature", "geometry": {"type": "Point", "coordinates": [2.320462, 48.842007]}, "properties": {"etat de la localisation": "Mission suivante non connue", "numparc": 1540, "duree": "", "horodatage": "2022-02-04 17:37:50", "marker-color": "#7156FF"}}, {"type": "Feature", "geometry": {"type": "Point", "coordinates": [2.40611, 48.875786]}, "properties": {"etat de la localisation": "Mission inconnue", "numparc": 1495, "duree": "", "horodatage": "2022-02-04 17:40:02", "marker-color": "#FF9F56"}}, {"type": "Feature", "geometry": {"type": "Point", "coordinates": [2.406785, 48.875908]}, "properties": {"etat de la localisation": "Hors service", "numparc": 1498, "duree": "", "horodatage": "2022-02-04 17:48:10", "marker-color": "#707070"}}, {"type": "Feature", "geometry": {"type": "Point", "coordinates": [2.406123, 48.875877]}, "properties": {"etat de la localisation": "Hors service", "numparc": 1488, "duree": "", "horodatage": "2022-02-04 17:50:23", "marker-color": "#707070"}}, {"type": "Feature", "geometry": {"type": "Point", "coordinates": [2.406106, 48.876015]}, "properties": {"etat de la localisation": "Hors service", "numparc": 1487, "duree": "", "horodatage": "2022-02-04 17:53:41", "marker-color": "#707070"}}, {"type": "Feature", "geometry": {"type": "Point", "coordinates": [2.320415, 48.842014]}, "properties": {"etat de la localisation": "Mission suivante non connue", "numparc": 1538, "duree": "", "horodatage": "2022-02-04 17:55:47", "marker-color": "#7156FF"}}, {"type": "Feature", "geometry": {"type": "Point", "coordinates": [2.320688, 48.842087]}, "properties": {"etat de la localisation": "Hors service", "numparc": 1500, "duree": "", "horodatage": "2022-02-04 17:59:33", "marker-color": "#707070"}}, {"type": "Feature", "geometry": {"type": "Point", "coordinates": [2.367095, 48.862576]}, "properties": {"etat de la localisation": "Delocalise", "numparc": 4930, "duree": "00:00:51", "horodatage": "2022-02-04 18:05:47", "marker-color": "#FF565E"}}, {"type": "Feature", "geometry": {"type": "Point", "coordinates": [2.365024, 48.859009]}, "properties": {"etat de la localisation": "Delocalise", "numparc": 4930, "duree": "00:00:56", "horodatage": "2022-02-04 18:09:36", "marker-color": "#FF565E"}}, {"type": "Feature", "geometry": {"type": "Point", "coordinates": [2.406301, 48.876179]}, "properties": {"etat de la localisation": "Hors service", "numparc": 1530, "duree": "", "horodatage": "2022-02-04 18:17:54", "marker-color": "#707070"}}, {"type": "Feature", "geometry": {"type": "Point", "coordinates": [2.406301, 48.876179]}, "properties": {"etat de la localisation": "Hors service", "numparc": 1530, "duree": "", "horodatage": "2022-02-04 18:17:54", "marker-color": "#707070"}}, {"type": "Feature", "geometry": {"type": "Point", "coordinates": [2.406713, 48.876926]}, "properties": {"etat de la localisation": "Delocalise", "numparc": 1530, "duree": "00:00:00", "horodatage": "2022-02-04 18:22:51", "marker-color": "#FF565E"}}, {"type": "Feature", "geometry": {"type": "Point", "coordinates": [2.406713, 48.876926]}, "properties": {"etat de la localisation": "Delocalise", "numparc": 1530, "duree": "00:03:09", "horodatage": "2022-02-04 18:22:51", "marker-color": "#FF565E"}}, {"type": "Feature", "geometry": {"type": "Point", "coordinates": [2.351787, 48.857506]}, "properties": {"etat de la localisation": "Delocalise", "numparc": 2017, "duree": "00:01:16", "horodatage": "2022-02-04 18:36:52", "marker-color": "#FF565E"}}, {"type": "Feature", "geometry": {"type": "Point", "coordinates": [2.406144, 48.875984]}, "properties": {"etat de la localisation": "Mission suivante non connue", "numparc": 1992, "duree": "", "horodatage": "2022-02-04 18:53:02", "marker-color": "#7156FF"}}, {"type": "Feature", "geometry": {"type": "Point", "coordinates": [2.406241, 48.876068]}, "properties": {"etat de la localisation": "Hors service", "numparc": 1489, "duree": "", "horodatage": "2022-02-04 18:56:00", "marker-color": "#707070"}}, {"type": "Feature", "geometry": {"type": "Point", "coordinates": [2.320817, 48.842102]}, "properties": {"etat de la localisation": "Hors service", "numparc": 1495, "duree": "", "horodatage": "2022-02-04 19:02:11", "marker-color": "#707070"}}, {"type": "Feature", "geometry": {"type": "Point", "coordinates": [2.320944, 48.842178]}, "properties": {"etat de la localisation": "Mission inconnue", "numparc": 1495, "duree": "", "horodatage": "2022-02-04 19:09:26", "marker-color": "#FF9F56"}}, {"type": "Feature", "geometry": {"type": "Point", "coordinates": [2.406113, 48.875668]}, "properties": {"etat de la localisation": "Hors service", "numparc": 1540, "duree": "", "horodatage": "2022-02-04 19:12:36", "marker-color": "#707070"}}, {"type": "Feature", "geometry": {"type": "Point", "coordinates": [2.406018, 48.875965]}, "properties": {"etat de la localisation": "Mission suivante non connue", "numparc": 1538, "duree": "", "horodatage": "2022-02-04 19:15:48", "marker-color": "#7156FF"}}, {"type": "Feature", "geometry": {"type": "Point", "coordinates": [2.406029, 48.875801]}, "properties": {"etat de la localisation": "Mission suivante non connue", "numparc": 1530, "duree": "", "horodatage": "2022-02-04 19:15:53", "marker-color": "#7156FF"}}, {"type": "Feature", "geometry": {"type": "Point", "coordinates": [2.406029, 48.875801]}, "properties": {"etat de la localisation": "Mission suivante non connue", "numparc": 1530, "duree": "", "horodatage": "2022-02-04 19:15:53", "marker-color": "#7156FF"}}, {"type": "Feature", "geometry": {"type": "Point", "coordinates": [2.319961, 48.841869]}, "properties": {"etat de la localisation": "Mission suivante non connue", "numparc": 1498, "duree": "", "horodatage": "2022-02-04 19:26:53", "marker-color": "#7156FF"}}, {"type": "Feature", "geometry": {"type": "Point", "coordinates": [2.320071, 48.841854]}, "properties": {"etat de la localisation": "Mission inconnue", "numparc": 1498, "duree": "", "horodatage": "2022-02-04 19:27:19", "marker-color": "#FF9F56"}}, {"type": "Feature", "geometry": {"type": "Point", "coordinates": [2.406341, 48.876507]}, "properties": {"etat de la localisation": "Hors service", "numparc": 1529, "duree": "", "horodatage": "2022-02-04 19:27:29", "marker-color": "#707070"}}, {"type": "Feature", "geometry": {"type": "Point", "coordinates": [2.406157, 48.875736]}, "properties": {"etat de la localisation": "Hors service", "numparc": 1530, "duree": "", "horodatage": "2022-02-04 19:29:21", "marker-color": "#707070"}}, {"type": "Feature", "geometry": {"type": "Point", "coordinates": [2.406157, 48.875736]}, "properties": {"etat de la localisation": "Hors service", "numparc": 1530, "duree": "", "horodatage": "2022-02-04 19:29:21", "marker-color": "#707070"}}, {"type": "Feature", "geometry": {"type": "Point", "coordinates": [2.320635, 48.842075]}, "properties": {"etat de la localisation": "Hors service", "numparc": 1499, "duree": "", "horodatage": "2022-02-04 19:33:55", "marker-color": "#707070"}}, {"type": "Feature", "geometry": {"type": "Point", "coordinates": [2.406637, 48.875835]}, "properties": {"etat de la localisation": "Hors service", "numparc": 1538, "duree": "", "horodatage": "2022-02-04 19:35:58", "marker-color": "#707070"}}, {"type": "Feature", "geometry": {"type": "Point", "coordinates": [2.406259, 48.876297]}, "properties": {"etat de la localisation": "Mission inconnue", "numparc": 1529, "duree": "", "horodatage": "2022-02-04 19:43:02", "marker-color": "#FF9F56"}}, {"type": "Feature", "geometry": {"type": "Point", "coordinates": [2.406523, 48.876968]}, "properties": {"etat de la localisation": "Mission inconnue", "numparc": 1530, "duree": "", "horodatage": "2022-02-04 19:44:48", "marker-color": "#FF9F56"}}, {"type": "Feature", "geometry": {"type": "Point", "coordinates": [2.406523, 48.876968]}, "properties": {"etat de la localisation": "Mission inconnue", "numparc": 1530, "duree": "", "horodatage": "2022-02-04 19:44:48", "marker-color": "#FF9F56"}}, {"type": "Feature", "geometry": {"type": "Point", "coordinates": [2.406637, 48.875839]}, "properties": {"etat de la localisation": "Mission inconnue", "numparc": 1538, "duree": "", "horodatage": "2022-02-04 19:58:14", "marker-color": "#FF9F56"}}, {"type": "Feature", "geometry": {"type": "Point", "coordinates": [2.427571, 48.878925]}, "properties": {"etat de la localisation": "Hors service", "numparc": 4930, "duree": "", "horodatage": "2022-02-04 20:00:32", "marker-color": "#707070"}}, {"type": "Feature", "geometry": {"type": "Point", "coordinates": [2.320054, 48.842098]}, "properties": {"etat de la localisation": "Mission suivante non connue", "numparc": 1539, "duree": "", "horodatage": "2022-02-04 20:00:36", "marker-color": "#7156FF"}}, {"type": "Feature", "geometry": {"type": "Point", "coordinates": [2.320031, 48.841919]}, "properties": {"etat de la localisation": "Mission suivante non connue", "numparc": 1539, "duree": "", "horodatage": "2022-02-04 20:01:30", "marker-color": "#7156FF"}}, {"type": "Feature", "geometry": {"type": "Point", "coordinates": [2.320031, 48.841919]}, "properties": {"etat de la localisation": "Mission inconnue", "numparc": 1539, "duree": "", "horodatage": "2022-02-04 20:01:55", "marker-color": "#FF9F56"}}, {"type": "Feature", "geometry": {"type": "Point", "coordinates": [2.400338, 48.871128]}, "properties": {"etat de la localisation": "Mission inconnue", "numparc": 1997, "duree": "", "horodatage": "2022-02-04 20:10:09", "marker-color": "#FF9F56"}}, {"type": "Feature", "geometry": {"type": "Point", "coordinates": [2.40032, 48.871124]}, "properties": {"etat de la localisation": "Delocalise", "numparc": 1997, "duree": "00:01:22", "horodatage": "2022-02-04 20:10:11", "marker-color": "#FF565E"}}, {"type": "Feature", "geometry": {"type": "Point", "coordinates": [2.365501, 48.861908]}, "properties": {"etat de la localisation": "Mission suivante non connue", "numparc": 1498, "duree": "", "horodatage": "2022-02-04 20:12:02", "marker-color": "#7156FF"}}, {"type": "Feature", "geometry": {"type": "Point", "coordinates": [2.406636, 48.875839]}, "properties": {"etat de la localisation": "Mission inconnue", "numparc": 1538, "duree": "", "horodatage": "2022-02-04 20:18:10", "marker-color": "#FF9F56"}}, {"type": "Feature", "geometry": {"type": "Point", "coordinates": [2.42738, 48.878754]}, "properties": {"etat de la localisation": "Hors service", "numparc": 2017, "duree": "", "horodatage": "2022-02-04 20:26:40", "marker-color": "#707070"}}, {"type": "Feature", "geometry": {"type": "Point", "coordinates": [2.405777, 48.875488]}, "properties": {"etat de la localisation": "Hors service", "numparc": 1488, "duree": "", "horodatage": "2022-02-04 20:28:45", "marker-color": "#707070"}}, {"type": "Feature", "geometry": {"type": "Point", "coordinates": [2.343942, 48.853683]}, "properties": {"etat de la localisation": "Mission suivante non connue", "numparc": 1530, "duree": "", "horodatage": "2022-02-04 20:31:19", "marker-color": "#7156FF"}}, {"type": "Feature", "geometry": {"type": "Point", "coordinates": [2.343942, 48.853683]}, "properties": {"etat de la localisation": "Mission suivante non connue", "numparc": 1530, "duree": "", "horodatage": "2022-02-04 20:31:19", "marker-color": "#7156FF"}}, {"type": "Feature", "geometry": {"type": "Point", "coordinates": [2.352947, 48.857246]}, "properties": {"etat de la localisation": "Mission suivante non connue", "numparc": 4946, "duree": "", "horodatage": "2022-02-04 20:34:27", "marker-color": "#7156FF"}}, {"type": "Feature", "geometry": {"type": "Point", "coordinates": [2.351959, 48.85741]}, "properties": {"etat de la localisation": "Mission inconnue", "numparc": 4946, "duree": "", "horodatage": "2022-02-04 20:34:56", "marker-color": "#FF9F56"}}, {"type": "Feature", "geometry": {"type": "Point", "coordinates": [2.426866, 48.87888]}, "properties": {"etat de la localisation": "Hors service", "numparc": 1495, "duree": "", "horodatage": "2022-02-04 20:38:38", "marker-color": "#707070"}}, {"type": "Feature", "geometry": {"type": "Point", "coordinates": [2.319962, 48.842014]}, "properties": {"etat de la localisation": "Mission suivante non connue", "numparc": 1498, "duree": "", "horodatage": "2022-02-04 20:42:54", "marker-color": "#7156FF"}}, {"type": "Feature", "geometry": {"type": "Point", "coordinates": [2.428225, 48.878918]}, "properties": {"etat de la localisation": "Hors service", "numparc": 1538, "duree": "", "horodatage": "2022-02-04 20:43:20", "marker-color": "#707070"}}, {"type": "Feature", "geometry": {"type": "Point", "coordinates": [2.365547, 48.861931]}, "properties": {"etat de la localisation": "Mission suivante non connue", "numparc": 1539, "duree": "", "horodatage": "2022-02-04 20:45:52", "marker-color": "#7156FF"}}, {"type": "Feature", "geometry": {"type": "Point", "coordinates": [2.366184, 48.862202]}, "properties": {"etat de la localisation": "Mission inconnue", "numparc": 1539, "duree": "", "horodatage": "2022-02-04 20:46:48", "marker-color": "#FF9F56"}}, {"type": "Feature", "geometry": {"type": "Point", "coordinates": [2.36498, 48.862164]}, "properties": {"etat de la localisation": "Mission inconnue", "numparc": 1539, "duree": "", "horodatage": "2022-02-04 20:49:34", "marker-color": "#FF9F56"}}, {"type": "Feature", "geometry": {"type": "Point", "coordinates": [2.406296, 48.876278]}, "properties": {"etat de la localisation": "Mission suivante non connue", "numparc": 1992, "duree": "", "horodatage": "2022-02-04 20:50:08", "marker-color": "#7156FF"}}, {"type": "Feature", "geometry": {"type": "Point", "coordinates": [2.352949, 48.857239]}, "properties": {"etat de la localisation": "Mission suivante non connue", "numparc": 1535, "duree": "", "horodatage": "2022-02-04 20:57:24", "marker-color": "#7156FF"}}, {"type": "Feature", "geometry": {"type": "Point", "coordinates": [2.352938, 48.857235]}, "properties": {"etat de la localisation": "Mission inconnue", "numparc": 1535, "duree": "", "horodatage": "2022-02-04 20:57:43", "marker-color": "#FF9F56"}}, {"type": "Feature", "geometry": {"type": "Point", "coordinates": [2.428075, 48.879284]}, "properties": {"etat de la localisation": "Hors service", "numparc": 1501, "duree": "", "horodatage": "2022-02-04 20:57:52", "marker-color": "#707070"}}, {"type": "Feature", "geometry": {"type": "Point", "coordinates": [2.428075, 48.879284]}, "properties": {"etat de la localisation": "Hors service", "numparc": 1501, "duree": "", "horodatage": "2022-02-04 20:57:52", "marker-color": "#707070"}}, {"type": "Feature", "geometry": {"type": "Point", "coordinates": [2.42757, 48.879089]}, "properties": {"etat de la localisation": "Hors service", "numparc": 1522, "duree": "", "horodatage": "2022-02-04 21:01:20", "marker-color": "#707070"}}, {"type": "Feature", "geometry": {"type": "Point", "coordinates": [2.42757, 48.879089]}, "properties": {"etat de la localisation": "Hors service", "numparc": 1522, "duree": "", "horodatage": "2022-02-04 21:01:20", "marker-color": "#707070"}}, {"type": "Feature", "geometry": {"type": "Point", "coordinates": [2.406143, 48.876114]}, "properties": {"etat de la localisation": "Hors service", "numparc": 1499, "duree": "", "horodatage": "2022-02-04 21:08:43", "marker-color": "#707070"}}, {"type": "Feature", "geometry": {"type": "Point", "coordinates": [2.428687, 48.879219]}, "properties": {"etat de la localisation": "Hors service", "numparc": 1992, "duree": "", "horodatage": "2022-02-04 21:12:23", "marker-color": "#707070"}}, {"type": "Feature", "geometry": {"type": "Point", "coordinates": [2.320041, 48.842052]}, "properties": {"etat de la localisation": "Mission suivante non connue", "numparc": 1539, "duree": "", "horodatage": "2022-02-04 21:13:41", "marker-color": "#7156FF"}}, {"type": "Feature", "geometry": {"type": "Point", "coordinates": [2.320255, 48.841911]}, "properties": {"etat de la localisation": "Mission inconnue", "numparc": 1539, "duree": "", "horodatage": "2022-02-04 21:14:31", "marker-color": "#FF9F56"}}, {"type": "Feature", "geometry": {"type": "Point", "coordinates": [2.428429, 48.879513]}, "properties": {"etat de la localisation": "Hors service", "numparc": 4946, "duree": "", "horodatage": "2022-02-04 21:15:31", "marker-color": "#707070"}}, {"type": "Feature", "geometry": {"type": "Point", "coordinates": [2.320622, 48.842049]}, "properties": {"etat de la localisation": "Hors service", "numparc": 1498, "duree": "", "horodatage": "2022-02-04 21:18:03", "marker-color": "#707070"}}, {"type": "Feature", "geometry": {"type": "Point", "coordinates": [2.406252, 48.876274]}, "properties": {"etat de la localisation": "Mission suivante non connue", "numparc": 1530, "duree": "", "horodatage": "2022-02-04 21:19:27", "marker-color": "#7156FF"}}, {"type": "Feature", "geometry": {"type": "Point", "coordinates": [2.406252, 48.876274]}, "properties": {"etat de la localisation": "Mission suivante non connue", "numparc": 1530, "duree": "", "horodatage": "2022-02-04 21:19:27", "marker-color": "#7156FF"}}, {"type": "Feature", "geometry": {"type": "Point", "coordinates": [2.320273, 48.841923]}, "properties": {"etat de la localisation": "Hors service", "numparc": 1539, "duree": "", "horodatage": "2022-02-04 21:20:14", "marker-color": "#707070"}}, {"type": "Feature", "geometry": {"type": "Point", "coordinates": [2.320623, 48.842049]}, "properties": {"etat de la localisation": "Mission inconnue", "numparc": 1498, "duree": "", "horodatage": "2022-02-04 21:34:24", "marker-color": "#FF9F56"}}, {"type": "Feature", "geometry": {"type": "Point", "coordinates": [2.427653, 48.878918]}, "properties": {"etat de la localisation": "Hors service", "numparc": 1487, "duree": "", "horodatage": "2022-02-04 21:38:17", "marker-color": "#707070"}}, {"type": "Feature", "geometry": {"type": "Point", "coordinates": [2.428546, 48.879005]}, "properties": {"etat de la localisation": "Hors service", "numparc": 1530, "duree": "", "horodatage": "2022-02-04 21:38:38", "marker-color": "#707070"}}, {"type": "Feature", "geometry": {"type": "Point", "coordinates": [2.428546, 48.879005]}, "properties": {"etat de la localisation": "Hors service", "numparc": 1530, "duree": "", "horodatage": "2022-02-04 21:38:38", "marker-color": "#707070"}}, {"type": "Feature", "geometry": {"type": "Point", "coordinates": [2.320623, 48.842049]}, "properties": {"etat de la localisation": "Hors service", "numparc": 1498, "duree": "", "horodatage": "2022-02-04 21:39:51", "marker-color": "#707070"}}, {"type": "Feature", "geometry": {"type": "Point", "coordinates": [2.320915, 48.842171]}, "properties": {"etat de la localisation": "Mission inconnue", "numparc": 1498, "duree": "", "horodatage": "2022-02-04 21:47:02", "marker-color": "#FF9F56"}}, {"type": "Feature", "geometry": {"type": "Point", "coordinates": [2.428665, 48.879097]}, "properties": {"etat de la localisation": "Hors service", "numparc": 1535, "duree": "", "horodatage": "2022-02-04 21:50:13", "marker-color": "#707070"}}, {"type": "Feature", "geometry": {"type": "Point", "coordinates": [2.320001, 48.84211]}, "properties": {"etat de la localisation": "Mission suivante non connue", "numparc": 1540, "duree": "", "horodatage": "2022-02-04 21:52:26", "marker-color": "#7156FF"}}, {"type": "Feature", "geometry": {"type": "Point", "coordinates": [2.320202, 48.841946]}, "properties": {"etat de la localisation": "Mission suivante non connue", "numparc": 1540, "duree": "", "horodatage": "2022-02-04 21:53:08", "marker-color": "#7156FF"}}, {"type": "Feature", "geometry": {"type": "Point", "coordinates": [2.320204, 48.841946]}, "properties": {"etat de la localisation": "Mission inconnue", "numparc": 1540, "duree": "", "horodatage": "2022-02-04 21:53:10", "marker-color": "#FF9F56"}}, {"type": "Feature", "geometry": {"type": "Point", "coordinates": [2.320435, 48.84193]}, "properties": {"etat de la localisation": "Hors service", "numparc": 1488, "duree": "", "horodatage": "2022-02-04 22:00:40", "marker-color": "#707070"}}, {"type": "Feature", "geometry": {"type": "Point", "coordinates": [2.350252, 48.856255]}, "properties": {"etat de la localisation": "Mission suivante non connue", "numparc": 1498, "duree": "", "horodatage": "2022-02-04 22:09:33", "marker-color": "#7156FF"}}, {"type": "Feature", "geometry": {"type": "Point", "coordinates": [2.427257, 48.878735]}, "properties": {"etat de la localisation": "Hors service", "numparc": 1489, "duree": "", "horodatage": "2022-02-04 22:28:02", "marker-color": "#707070"}}, {"type": "Feature", "geometry": {"type": "Point", "coordinates": [2.319897, 48.84198]}, "properties": {"etat de la localisation": "Mission suivante non connue", "numparc": 1498, "duree": "", "horodatage": "2022-02-04 22:32:22", "marker-color": "#7156FF"}}, {"type": "Feature", "geometry": {"type": "Point", "coordinates": [2.353628, 48.855988]}, "properties": {"etat de la localisation": "Delocalise", "numparc": 1997, "duree": "00:11:09", "horodatage": "2022-02-04 22:41:04", "marker-color": "#FF565E"}}, {"type": "Feature", "geometry": {"type": "Point", "coordinates": [2.427762, 48.879017]}, "properties": {"etat de la localisation": "Hors service", "numparc": 1499, "duree": "", "horodatage": "2022-02-04 22:43:15", "marker-color": "#707070"}}, {"type": "Feature", "geometry": {"type": "Point", "coordinates": [2.320612, 48.84206]}, "properties": {"etat de la localisation": "Hors service", "numparc": 1498, "duree": "", "horodatage": "2022-02-04 22:48:34", "marker-color": "#707070"}}, {"type": "Feature", "geometry": {"type": "Point", "coordinates": [2.406047, 48.875782]}, "properties": {"etat de la localisation": "Mission suivante non connue", "numparc": 1488, "duree": "", "horodatage": "2022-02-04 22:55:30", "marker-color": "#7156FF"}}, {"type": "Feature", "geometry": {"type": "Point", "coordinates": [2.406049, 48.875782]}, "properties": {"etat de la localisation": "Hors service", "numparc": 1488, "duree": "", "horodatage": "2022-02-04 23:02:31", "marker-color": "#707070"}}, {"type": "Feature", "geometry": {"type": "Point", "coordinates": [2.406245, 48.876251]}, "properties": {"etat de la localisation": "Mission suivante non connue", "numparc": 1997, "duree": "", "horodatage": "2022-02-04 23:04:00", "marker-color": "#7156FF"}}, {"type": "Feature", "geometry": {"type": "Point", "coordinates": [2.320637, 48.842072]}, "properties": {"etat de la localisation": "Mission inconnue", "numparc": 1498, "duree": "", "horodatage": "2022-02-04 23:06:55", "marker-color": "#FF9F56"}}, {"type": "Feature", "geometry": {"type": "Point", "coordinates": [2.36446, 48.858982]}, "properties": {"etat de la localisation": "Mission inconnue", "numparc": 1540, "duree": "", "horodatage": "2022-02-04 23:10:28", "marker-color": "#FF9F56"}}, {"type": "Feature", "geometry": {"type": "Point", "coordinates": [2.42753, 48.878723]}, "properties": {"etat de la localisation": "Hors service", "numparc": 1997, "duree": "", "horodatage": "2022-02-04 23:26:22", "marker-color": "#707070"}}, {"type": "Feature", "geometry": {"type": "Point", "coordinates": [2.427313, 48.878815]}, "properties": {"etat de la localisation": "Hors service", "numparc": 1541, "duree": "", "horodatage": "2022-02-04 23:35:54", "marker-color": "#707070"}}, {"type": "Feature", "geometry": {"type": "Point", "coordinates": [2.381295, 48.868591]}, "properties": {"etat de la localisation": "Delocalise", "numparc": 1488, "duree": "00:00:08", "horodatage": "2022-02-04 23:40:18", "marker-color": "#FF565E"}}, {"type": "Feature", "geometry": {"type": "Point", "coordinates": [2.405964, 48.875809]}, "properties": {"etat de la localisation": "Hors service", "numparc": 1526, "duree": "", "horodatage": "2022-02-04 23:44:29", "marker-color": "#707070"}}, {"type": "Feature", "geometry": {"type": "Point", "coordinates": [2.406241, 48.87627]}, "properties": {"etat de la localisation": "Mission suivante non connue", "numparc": 1498, "duree": "", "horodatage": "2022-02-04 23:47:06", "marker-color": "#7156FF"}}, {"type": "Feature", "geometry": {"type": "Point", "coordinates": [2.42671, 48.879055]}, "properties": {"etat de la localisation": "Hors service", "numparc": 1498, "duree": "", "horodatage": "2022-02-05 00:02:21", "marker-color": "#707070"}}, {"type": "Feature", "geometry": {"type": "Point", "coordinates": [2.32093, 48.842148]}, "properties": {"etat de la localisation": "Delocalise", "numparc": 1540, "duree": "00:00:09", "horodatage": "2022-02-05 00:12:23", "marker-color": "#FF565E"}}, {"type": "Feature", "geometry": {"type": "Point", "coordinates": [2.405987, 48.875843]}, "properties": {"etat de la localisation": "Hors service", "numparc": 1488, "duree": "", "horodatage": "2022-02-05 00:23:24", "marker-color": "#707070"}}, {"type": "Feature", "geometry": {"type": "Point", "coordinates": [2.427308, 48.878971]}, "properties": {"etat de la localisation": "Hors service", "numparc": 1500, "duree": "", "horodatage": "2022-02-05 00:27:31", "marker-color": "#707070"}}, {"type": "Feature", "geometry": {"type": "Point", "coordinates": [2.427331, 48.879204]}, "properties": {"etat de la localisation": "Hors service", "numparc": 1539, "duree": "", "horodatage": "2022-02-05 00:42:45", "marker-color": "#707070"}}, {"type": "Feature", "geometry": {"type": "Point", "coordinates": [2.427326, 48.878765]}, "properties": {"etat de la localisation": "Hors service", "numparc": 1526, "duree": "", "horodatage": "2022-02-05 01:01:42", "marker-color": "#707070"}}, {"type": "Feature", "geometry": {"type": "Point", "coordinates": [2.427565, 48.879097]}, "properties": {"etat de la localisation": "Hors service", "numparc": 1540, "duree": "", "horodatage": "2022-02-05 01:06:53", "marker-color": "#707070"}}, {"type": "Feature", "geometry": {"type": "Point", "coordinates": [2.406274, 48.876244]}, "properties": {"etat de la localisation": "Mission suivante non connue", "numparc": 1529, "duree": "", "horodatage": "2022-02-05 01:19:07", "marker-color": "#7156FF"}}, {"type": "Feature", "geometry": {"type": "Point", "coordinates": [2.406455, 48.876751]}, "properties": {"etat de la localisation": "Delocalise", "numparc": 1529, "duree": "00:01:08", "horodatage": "2022-02-05 01:19:21", "marker-color": "#FF565E"}}, {"type": "Feature", "geometry": {"type": "Point", "coordinates": [2.427269, 48.878681]}, "properties": {"etat de la localisation": "Hors service", "numparc": 1529, "duree": "", "horodatage": "2022-02-05 01:30:32", "marker-color": "#707070"}}, {"type": "Feature", "geometry": {"type": "Point", "coordinates": [2.427247, 48.878723]}, "properties": {"etat de la localisation": "Hors service", "numparc": 1488, "duree": "", "horodatage": "2022-02-05 01:50:32", "marker-color": "#707070"}}]}