{"type": "FeatureCollection", "features": [{"type": "Feature", "geometry": {"type": "Point", "coordinates": [2.189549, 48.901814]}, "properties": {"numparc": 5932, "etat de la localisation": "autre", "ID BDGEO": "288", "horodatage": "2023-01-04 09:09:24", "distance (en metres)": 1473.88, "station": "CITE DU VIEUX PONT", "marker-color": "#818181"}}, {"type": "Feature", "geometry": {"type": "Point", "coordinates": [2.189549, 48.901814]}, "properties": {"numparc": 5932, "etat de la localisation": "autre", "ID BDGEO": "288", "horodatage": "2023-01-04 09:09:49", "distance (en metres)": 1473.88, "station": "CITE DU VIEUX PONT", "marker-color": "#818181"}}, {"type": "Feature", "geometry": {"type": "Point", "coordinates": [2.189281, 48.903183]}, "properties": {"numparc": 5932, "etat de la localisation": "autre", "ID BDGEO": "288", "horodatage": "2023-01-04 09:11:36", "distance (en metres)": 1607.57, "station": "CITE DU VIEUX PONT", "marker-color": "#818181"}}, {"type": "Feature", "geometry": {"type": "Point", "coordinates": [2.225038, 48.885212]}, "properties": {"numparc": 5935, "etat de la localisation": "autre", "ID BDGEO": "858", "horodatage": "2023-01-04 11:57:46", "distance (en metres)": 52.36, "station": "LES BERGERES-MARCHE", "marker-color": "#818181"}}, {"type": "Feature", "geometry": {"type": "Point", "coordinates": [2.189788, 48.902237]}, "properties": {"numparc": 5935, "etat de la localisation": "autre", "ID BDGEO": "288", "horodatage": "2023-01-04 21:33:33", "distance (en metres)": 1524.02, "station": "CITE DU VIEUX PONT", "marker-color": "#818181"}}, {"type": "Feature", "geometry": {"type": "Point", "coordinates": [2.189498, 48.903164]}, "properties": {"numparc": 5927, "etat de la localisation": "autre", "ID BDGEO": "288", "horodatage": "2023-01-05 00:07:14", "distance (en metres)": 1611.28, "station": "CITE DU VIEUX PONT", "marker-color": "#818181"}}, {"type": "Feature", "geometry": {"type": "Point", "coordinates": [2.18984, 48.903271]}, "properties": {"numparc": 5927, "etat de la localisation": "autre", "ID BDGEO": "288", "horodatage": "2023-01-05 00:07:49", "distance (en metres)": 1631.54, "station": "CITE DU VIEUX PONT", "marker-color": "#818181"}}, {"type": "Feature", "geometry": {"type": "Point", "coordinates": [2.18834, 48.902927]}, "properties": {"numparc": 5927, "etat de la localisation": "autre", "ID BDGEO": "288", "horodatage": "2023-01-05 00:14:08", "distance (en metres)": 1557.57, "station": "CITE DU VIEUX PONT", "marker-color": "#818181"}}, {"type": "Feature", "geometry": {"type": "Point", "coordinates": [2.18834, 48.902927]}, "properties": {"numparc": 5927, "etat de la localisation": "autre", "ID BDGEO": "288", "horodatage": "2023-01-05 00:14:15", "distance (en metres)": 1557.57, "station": "CITE DU VIEUX PONT", "marker-color": "#818181"}}, {"type": "Feature", "geometry": {"type": "Point", "coordinates": [2.189615, 48.902351]}, "properties": {"numparc": 5935, "etat de la localisation": "autre", "ID BDGEO": "288", "horodatage": "2023-01-05 00:16:32", "distance (en metres)": 1530.76, "station": "CITE DU VIEUX PONT", "marker-color": "#818181"}}, {"type": "Feature", "geometry": {"type": "Point", "coordinates": [2.188374, 48.902885]}, "properties": {"numparc": 5935, "etat de la localisation": "autre", "ID BDGEO": "288", "horodatage": "2023-01-05 00:18:52", "distance (en metres)": 1553.96, "station": "CITE DU VIEUX PONT", "marker-color": "#818181"}}, {"type": "Feature", "geometry": {"type": "Point", "coordinates": [2.181491, 48.889663]}, "properties": {"station": "CITE DU VIEUX PONT", "ID BDGEO": "288", "marker-color": "#56B3FF"}}, {"type": "Feature", "geometry": {"type": "Point", "coordinates": [2.225754, 48.885192]}, "properties": {"station": "LES BERGERES-MARCHE", "ID BDGEO": "858", "marker-color": "#56B3FF"}}]}