{"type": "FeatureCollection", "features": [{"type": "Feature", "geometry": {"type": "Point", "coordinates": [2.658965, 48.842415]}, "properties": {"numparc": 4992, "etat de la localisation": "autre", "ID BDGEO": "8", "horodatage": "2022-09-22 04:26:26", "distance (en metres)": 56.5, "station": "BUSSY (S)", "marker-color": "#818181"}}, {"type": "Feature", "geometry": {"type": "Point", "coordinates": [2.659081, 48.842827]}, "properties": {"numparc": 4970, "etat de la localisation": "autre", "ID BDGEO": "8", "horodatage": "2022-09-22 04:51:01", "distance (en metres)": 52.19, "station": "BUSSY (S)", "marker-color": "#818181"}}, {"type": "Feature", "geometry": {"type": "Point", "coordinates": [2.659081, 48.842827]}, "properties": {"numparc": 4970, "etat de la localisation": "autre", "ID BDGEO": "8", "horodatage": "2022-09-22 04:53:26", "distance (en metres)": 52.19, "station": "BUSSY (S)", "marker-color": "#818181"}}, {"type": "Feature", "geometry": {"type": "Point", "coordinates": [2.633345, 48.850315]}, "properties": {"numparc": 4967, "etat de la localisation": "autre", "ID BDGEO": "65", "horodatage": "2022-09-22 05:16:19", "distance (en metres)": 93.92, "station": "CITE SCOLAIRE", "marker-color": "#818181"}}, {"type": "Feature", "geometry": {"type": "Point", "coordinates": [2.660493, 48.842266]}, "properties": {"numparc": 4975, "etat de la localisation": "autre", "ID BDGEO": "8", "horodatage": "2022-09-22 05:30:13", "distance (en metres)": 68.49, "station": "BUSSY (S)", "marker-color": "#818181"}}, {"type": "Feature", "geometry": {"type": "Point", "coordinates": [2.659172, 48.842251]}, "properties": {"numparc": 4975, "etat de la localisation": "Delocalise", "ID BDGEO": "8", "horodatage": "2022-09-22 05:33:34", "distance (en metres)": 53.22, "station": "BUSSY (S)", "marker-color": "#FF565E"}}, {"type": "Feature", "geometry": {"type": "Point", "coordinates": [2.659393, 48.842293]}, "properties": {"numparc": 4976, "etat de la localisation": "autre", "ID BDGEO": "55", "horodatage": "2022-09-22 05:37:55", "distance (en metres)": 233.33, "station": "SALVADOR ALLENDE", "marker-color": "#818181"}}, {"type": "Feature", "geometry": {"type": "Point", "coordinates": [2.564871, 48.849464]}, "properties": {"numparc": 4967, "etat de la localisation": "autre", "ID BDGEO": "85", "horodatage": "2022-09-22 05:38:54", "distance (en metres)": 57.38, "station": "POINTE DE GOURNAY", "marker-color": "#818181"}}, {"type": "Feature", "geometry": {"type": "Point", "coordinates": [2.660553, 48.842232]}, "properties": {"numparc": 4894, "etat de la localisation": "autre", "ID BDGEO": "8", "horodatage": "2022-09-22 05:48:07", "distance (en metres)": 74.23, "station": "BUSSY (S)", "marker-color": "#818181"}}, {"type": "Feature", "geometry": {"type": "Point", "coordinates": [2.660553, 48.842232]}, "properties": {"numparc": 4894, "etat de la localisation": "autre", "ID BDGEO": "8", "horodatage": "2022-09-22 05:48:23", "distance (en metres)": 74.23, "station": "BUSSY (S)", "marker-color": "#818181"}}, {"type": "Feature", "geometry": {"type": "Point", "coordinates": [2.660553, 48.842232]}, "properties": {"numparc": 4894, "etat de la localisation": "autre", "ID BDGEO": "8", "horodatage": "2022-09-22 05:48:35", "distance (en metres)": 74.23, "station": "BUSSY (S)", "marker-color": "#818181"}}, {"type": "Feature", "geometry": {"type": "Point", "coordinates": [2.660553, 48.842232]}, "properties": {"numparc": 4894, "etat de la localisation": "autre", "ID BDGEO": "8", "horodatage": "2022-09-22 05:50:38", "distance (en metres)": 74.23, "station": "BUSSY (S)", "marker-color": "#818181"}}, {"type": "Feature", "geometry": {"type": "Point", "coordinates": [2.564324, 48.849258]}, "properties": {"numparc": 4967, "etat de la localisation": "autre", "ID BDGEO": "22", "horodatage": "2022-09-22 06:02:08", "distance (en metres)": 45.11, "station": "POINTE DE GOURNAY", "marker-color": "#818181"}}, {"type": "Feature", "geometry": {"type": "Point", "coordinates": [2.657979, 48.841087]}, "properties": {"numparc": 4976, "etat de la localisation": "autre", "ID BDGEO": "55", "horodatage": "2022-09-22 06:17:55", "distance (en metres)": 189.2, "station": "SALVADOR ALLENDE", "marker-color": "#818181"}}, {"type": "Feature", "geometry": {"type": "Point", "coordinates": [2.633337, 48.850353]}, "properties": {"numparc": 4976, "etat de la localisation": "autre", "ID BDGEO": "65", "horodatage": "2022-09-22 06:29:12", "distance (en metres)": 95.46, "station": "CITE SCOLAIRE", "marker-color": "#818181"}}, {"type": "Feature", "geometry": {"type": "Point", "coordinates": [2.660735, 48.842003]}, "properties": {"numparc": 4968, "etat de la localisation": "autre", "ID BDGEO": "8", "horodatage": "2022-09-22 06:46:16", "distance (en metres)": 100.06, "station": "BUSSY (S)", "marker-color": "#818181"}}, {"type": "Feature", "geometry": {"type": "Point", "coordinates": [2.660735, 48.842003]}, "properties": {"numparc": 4968, "etat de la localisation": "autre", "ID BDGEO": "8", "horodatage": "2022-09-22 06:55:00", "distance (en metres)": 100.06, "station": "BUSSY (S)", "marker-color": "#818181"}}, {"type": "Feature", "geometry": {"type": "Point", "coordinates": [2.564906, 48.849487]}, "properties": {"numparc": 4976, "etat de la localisation": "autre", "ID BDGEO": "85", "horodatage": "2022-09-22 06:55:09", "distance (en metres)": 60.46, "station": "POINTE DE GOURNAY", "marker-color": "#818181"}}, {"type": "Feature", "geometry": {"type": "Point", "coordinates": [2.564353, 48.849316]}, "properties": {"numparc": 4970, "etat de la localisation": "autre", "ID BDGEO": "22", "horodatage": "2022-09-22 06:56:35", "distance (en metres)": 41.48, "station": "POINTE DE GOURNAY", "marker-color": "#818181"}}, {"type": "Feature", "geometry": {"type": "Point", "coordinates": [2.565169, 48.84951]}, "properties": {"numparc": 4979, "etat de la localisation": "autre", "ID BDGEO": "85", "horodatage": "2022-09-22 07:06:45", "distance (en metres)": 79.77, "station": "POINTE DE GOURNAY", "marker-color": "#818181"}}, {"type": "Feature", "geometry": {"type": "Point", "coordinates": [2.564353, 48.849316]}, "properties": {"numparc": 4897, "etat de la localisation": "autre", "ID BDGEO": "22", "horodatage": "2022-09-22 07:08:02", "distance (en metres)": 41.48, "station": "POINTE DE GOURNAY", "marker-color": "#818181"}}, {"type": "Feature", "geometry": {"type": "Point", "coordinates": [2.633342, 48.85033]}, "properties": {"numparc": 4967, "etat de la localisation": "autre", "ID BDGEO": "65", "horodatage": "2022-09-22 07:14:31", "distance (en metres)": 94.49, "station": "CITE SCOLAIRE", "marker-color": "#818181"}}, {"type": "Feature", "geometry": {"type": "Point", "coordinates": [2.658797, 48.842739]}, "properties": {"numparc": 4990, "etat de la localisation": "autre", "ID BDGEO": "8", "horodatage": "2022-09-22 07:16:54", "distance (en metres)": 67.72, "station": "BUSSY (S)", "marker-color": "#818181"}}, {"type": "Feature", "geometry": {"type": "Point", "coordinates": [2.526454, 48.843571]}, "properties": {"numparc": 4979, "etat de la localisation": "autre", "ID BDGEO": "4", "horodatage": "2022-09-22 07:17:46", "distance (en metres)": 79.16, "station": "BRY SUR MARNE RER", "marker-color": "#818181"}}, {"type": "Feature", "geometry": {"type": "Point", "coordinates": [2.564923, 48.849487]}, "properties": {"numparc": 4895, "etat de la localisation": "autre", "ID BDGEO": "85", "horodatage": "2022-09-22 07:22:03", "distance (en metres)": 61.67, "station": "POINTE DE GOURNAY", "marker-color": "#818181"}}, {"type": "Feature", "geometry": {"type": "Point", "coordinates": [2.564342, 48.849308]}, "properties": {"numparc": 4976, "etat de la localisation": "autre", "ID BDGEO": "22", "horodatage": "2022-09-22 07:32:14", "distance (en metres)": 42.43, "station": "POINTE DE GOURNAY", "marker-color": "#818181"}}, {"type": "Feature", "geometry": {"type": "Point", "coordinates": [2.657983, 48.841095]}, "properties": {"numparc": 4990, "etat de la localisation": "autre", "ID BDGEO": "55", "horodatage": "2022-09-22 07:36:23", "distance (en metres)": 188.78, "station": "SALVADOR ALLENDE", "marker-color": "#818181"}}, {"type": "Feature", "geometry": {"type": "Point", "coordinates": [2.564871, 48.849518]}, "properties": {"numparc": 4967, "etat de la localisation": "autre", "ID BDGEO": "85", "horodatage": "2022-09-22 07:45:38", "distance (en metres)": 58.99, "station": "POINTE DE GOURNAY", "marker-color": "#818181"}}, {"type": "Feature", "geometry": {"type": "Point", "coordinates": [2.564337, 48.849346]}, "properties": {"numparc": 4979, "etat de la localisation": "autre", "ID BDGEO": "22", "horodatage": "2022-09-22 07:46:28", "distance (en metres)": 42.17, "station": "POINTE DE GOURNAY", "marker-color": "#818181"}}, {"type": "Feature", "geometry": {"type": "Point", "coordinates": [2.564924, 48.849476]}, "properties": {"numparc": 4975, "etat de la localisation": "autre", "ID BDGEO": "85", "horodatage": "2022-09-22 07:50:19", "distance (en metres)": 61.44, "station": "POINTE DE GOURNAY", "marker-color": "#818181"}}, {"type": "Feature", "geometry": {"type": "Point", "coordinates": [2.63337, 48.850307]}, "properties": {"numparc": 4894, "etat de la localisation": "autre", "ID BDGEO": "65", "horodatage": "2022-09-22 07:59:01", "distance (en metres)": 91.95, "station": "CITE SCOLAIRE", "marker-color": "#818181"}}, {"type": "Feature", "geometry": {"type": "Point", "coordinates": [2.63337, 48.850307]}, "properties": {"numparc": 4894, "etat de la localisation": "autre", "ID BDGEO": "65", "horodatage": "2022-09-22 07:59:06", "distance (en metres)": 91.95, "station": "CITE SCOLAIRE", "marker-color": "#818181"}}, {"type": "Feature", "geometry": {"type": "Point", "coordinates": [2.633352, 48.850334]}, "properties": {"numparc": 4970, "etat de la localisation": "autre", "ID BDGEO": "65", "horodatage": "2022-09-22 08:10:10", "distance (en metres)": 93.88, "station": "CITE SCOLAIRE", "marker-color": "#818181"}}, {"type": "Feature", "geometry": {"type": "Point", "coordinates": [2.564884, 48.849548]}, "properties": {"numparc": 4992, "etat de la localisation": "autre", "ID BDGEO": "85", "horodatage": "2022-09-22 08:15:11", "distance (en metres)": 61.04, "station": "POINTE DE GOURNAY", "marker-color": "#818181"}}, {"type": "Feature", "geometry": {"type": "Point", "coordinates": [2.565279, 48.849522]}, "properties": {"numparc": 4990, "etat de la localisation": "autre", "ID BDGEO": "85", "horodatage": "2022-09-22 08:15:26", "distance (en metres)": 87.9, "station": "POINTE DE GOURNAY", "marker-color": "#818181"}}, {"type": "Feature", "geometry": {"type": "Point", "coordinates": [2.633326, 48.850304]}, "properties": {"numparc": 4897, "etat de la localisation": "autre", "ID BDGEO": "65", "horodatage": "2022-09-22 08:24:26", "distance (en metres)": 95.01, "station": "CITE SCOLAIRE", "marker-color": "#818181"}}, {"type": "Feature", "geometry": {"type": "Point", "coordinates": [2.564352, 48.849319]}, "properties": {"numparc": 4975, "etat de la localisation": "autre", "ID BDGEO": "39", "horodatage": "2022-09-22 08:30:30", "distance (en metres)": 4293.9, "station": "LES QUATRE PAVES", "marker-color": "#818181"}}, {"type": "Feature", "geometry": {"type": "Point", "coordinates": [2.564949, 48.849476]}, "properties": {"numparc": 4894, "etat de la localisation": "autre", "ID BDGEO": "85", "horodatage": "2022-09-22 08:30:37", "distance (en metres)": 63.22, "station": "POINTE DE GOURNAY", "marker-color": "#818181"}}, {"type": "Feature", "geometry": {"type": "Point", "coordinates": [2.526219, 48.844086]}, "properties": {"numparc": 4992, "etat de la localisation": "autre", "ID BDGEO": "22", "horodatage": "2022-09-22 08:31:06", "distance (en metres)": 2891.88, "station": "POINTE DE GOURNAY", "marker-color": "#818181"}}, {"type": "Feature", "geometry": {"type": "Point", "coordinates": [2.573808, 48.853279]}, "properties": {"numparc": 4975, "etat de la localisation": "autre", "ID BDGEO": "39", "horodatage": "2022-09-22 08:33:49", "distance (en metres)": 3603.42, "station": "LES QUATRE PAVES", "marker-color": "#818181"}}, {"type": "Feature", "geometry": {"type": "Point", "coordinates": [2.564308, 48.849289]}, "properties": {"numparc": 4968, "etat de la localisation": "autre", "ID BDGEO": "22", "horodatage": "2022-09-22 08:34:52", "distance (en metres)": 45.32, "station": "POINTE DE GOURNAY", "marker-color": "#818181"}}, {"type": "Feature", "geometry": {"type": "Point", "coordinates": [2.577001, 48.856182]}, "properties": {"numparc": 4975, "etat de la localisation": "autre", "ID BDGEO": "39", "horodatage": "2022-09-22 08:35:13", "distance (en metres)": 3406.92, "station": "LES QUATRE PAVES", "marker-color": "#818181"}}, {"type": "Feature", "geometry": {"type": "Point", "coordinates": [2.581347, 48.858517]}, "properties": {"numparc": 4975, "etat de la localisation": "autre", "ID BDGEO": "39", "horodatage": "2022-09-22 08:36:45", "distance (en metres)": 3149.72, "station": "LES QUATRE PAVES", "marker-color": "#818181"}}, {"type": "Feature", "geometry": {"type": "Point", "coordinates": [2.583761, 48.855495]}, "properties": {"numparc": 4975, "etat de la localisation": "autre", "ID BDGEO": "39", "horodatage": "2022-09-22 08:39:00", "distance (en metres)": 2906.52, "station": "LES QUATRE PAVES", "marker-color": "#818181"}}, {"type": "Feature", "geometry": {"type": "Point", "coordinates": [2.590705, 48.855942]}, "properties": {"numparc": 4975, "etat de la localisation": "autre", "ID BDGEO": "39", "horodatage": "2022-09-22 08:40:23", "distance (en metres)": 2416.76, "station": "LES QUATRE PAVES", "marker-color": "#818181"}}, {"type": "Feature", "geometry": {"type": "Point", "coordinates": [2.565273, 48.849514]}, "properties": {"numparc": 4970, "etat de la localisation": "autre", "ID BDGEO": "85", "horodatage": "2022-09-22 08:40:26", "distance (en metres)": 87.29, "station": "POINTE DE GOURNAY", "marker-color": "#818181"}}, {"type": "Feature", "geometry": {"type": "Point", "coordinates": [2.565273, 48.849514]}, "properties": {"numparc": 4970, "etat de la localisation": "autre", "ID BDGEO": "85", "horodatage": "2022-09-22 08:40:32", "distance (en metres)": 87.29, "station": "POINTE DE GOURNAY", "marker-color": "#818181"}}, {"type": "Feature", "geometry": {"type": "Point", "coordinates": [2.56492, 48.849483]}, "properties": {"numparc": 4970, "etat de la localisation": "autre", "ID BDGEO": "85", "horodatage": "2022-09-22 08:41:02", "distance (en metres)": 61.35, "station": "POINTE DE GOURNAY", "marker-color": "#818181"}}, {"type": "Feature", "geometry": {"type": "Point", "coordinates": [2.594004, 48.855225]}, "properties": {"numparc": 4975, "etat de la localisation": "autre", "ID BDGEO": "39", "horodatage": "2022-09-22 08:41:14", "distance (en metres)": 2164.05, "station": "LES QUATRE PAVES", "marker-color": "#818181"}}, {"type": "Feature", "geometry": {"type": "Point", "coordinates": [2.543807, 48.848503]}, "properties": {"numparc": 4894, "etat de la localisation": "autre", "ID BDGEO": "89", "horodatage": "2022-09-22 08:41:36", "distance (en metres)": 99.68, "station": "CHEMIN DE LA BARONNERIE", "marker-color": "#818181"}}, {"type": "Feature", "geometry": {"type": "Point", "coordinates": [2.564297, 48.849281]}, "properties": {"numparc": 4992, "etat de la localisation": "autre", "ID BDGEO": "22", "horodatage": "2022-09-22 08:43:31", "distance (en metres)": 46.3, "station": "POINTE DE GOURNAY", "marker-color": "#818181"}}, {"type": "Feature", "geometry": {"type": "Point", "coordinates": [2.601449, 48.852283]}, "properties": {"numparc": 4975, "etat de la localisation": "autre", "ID BDGEO": "39", "horodatage": "2022-09-22 08:43:52", "distance (en metres)": 1578.14, "station": "LES QUATRE PAVES", "marker-color": "#818181"}}, {"type": "Feature", "geometry": {"type": "Point", "coordinates": [2.609536, 48.85252]}, "properties": {"numparc": 4975, "etat de la localisation": "autre", "ID BDGEO": "39", "horodatage": "2022-09-22 08:45:40", "distance (en metres)": 992.26, "station": "LES QUATRE PAVES", "marker-color": "#818181"}}, {"type": "Feature", "geometry": {"type": "Point", "coordinates": [2.564374, 48.849293]}, "properties": {"numparc": 4990, "etat de la localisation": "autre", "ID BDGEO": "22", "horodatage": "2022-09-22 08:54:18", "distance (en metres)": 40.52, "station": "POINTE DE GOURNAY", "marker-color": "#818181"}}, {"type": "Feature", "geometry": {"type": "Point", "coordinates": [2.565011, 48.849464]}, "properties": {"numparc": 4897, "etat de la localisation": "autre", "ID BDGEO": "85", "horodatage": "2022-09-22 08:54:51", "distance (en metres)": 67.4, "station": "POINTE DE GOURNAY", "marker-color": "#818181"}}, {"type": "Feature", "geometry": {"type": "Point", "coordinates": [2.565011, 48.849464]}, "properties": {"numparc": 4897, "etat de la localisation": "autre", "ID BDGEO": "85", "horodatage": "2022-09-22 08:55:23", "distance (en metres)": 67.4, "station": "POINTE DE GOURNAY", "marker-color": "#818181"}}, {"type": "Feature", "geometry": {"type": "Point", "coordinates": [2.564369, 48.849316]}, "properties": {"numparc": 4894, "etat de la localisation": "autre", "ID BDGEO": "22", "horodatage": "2022-09-22 09:06:12", "distance (en metres)": 40.33, "station": "POINTE DE GOURNAY", "marker-color": "#818181"}}, {"type": "Feature", "geometry": {"type": "Point", "coordinates": [2.633364, 48.850315]}, "properties": {"numparc": 4895, "etat de la localisation": "autre", "ID BDGEO": "65", "horodatage": "2022-09-22 09:06:33", "distance (en metres)": 92.55, "station": "CITE SCOLAIRE", "marker-color": "#818181"}}, {"type": "Feature", "geometry": {"type": "Point", "coordinates": [2.564357, 48.849285]}, "properties": {"numparc": 4970, "etat de la localisation": "autre", "ID BDGEO": "22", "horodatage": "2022-09-22 09:17:36", "distance (en metres)": 41.94, "station": "POINTE DE GOURNAY", "marker-color": "#818181"}}, {"type": "Feature", "geometry": {"type": "Point", "coordinates": [2.564916, 48.849483]}, "properties": {"numparc": 4979, "etat de la localisation": "autre", "ID BDGEO": "85", "horodatage": "2022-09-22 09:20:37", "distance (en metres)": 61.06, "station": "POINTE DE GOURNAY", "marker-color": "#818181"}}, {"type": "Feature", "geometry": {"type": "Point", "coordinates": [2.655553, 48.838428]}, "properties": {"numparc": 4975, "etat de la localisation": "autre", "ID BDGEO": "54", "horodatage": "2022-09-22 09:21:28", "distance (en metres)": 80.29, "station": "TORCY RER", "marker-color": "#818181"}}, {"type": "Feature", "geometry": {"type": "Point", "coordinates": [2.633368, 48.850334]}, "properties": {"numparc": 4967, "etat de la localisation": "autre", "ID BDGEO": "65", "horodatage": "2022-09-22 09:22:16", "distance (en metres)": 92.74, "station": "CITE SCOLAIRE", "marker-color": "#818181"}}, {"type": "Feature", "geometry": {"type": "Point", "coordinates": [2.564329, 48.849293]}, "properties": {"numparc": 4897, "etat de la localisation": "autre", "ID BDGEO": "22", "horodatage": "2022-09-22 09:28:17", "distance (en metres)": 43.72, "station": "POINTE DE GOURNAY", "marker-color": "#818181"}}, {"type": "Feature", "geometry": {"type": "Point", "coordinates": [2.564355, 48.8493]}, "properties": {"numparc": 4976, "etat de la localisation": "autre", "ID BDGEO": "22", "horodatage": "2022-09-22 09:46:33", "distance (en metres)": 41.68, "station": "POINTE DE GOURNAY", "marker-color": "#818181"}}, {"type": "Feature", "geometry": {"type": "Point", "coordinates": [2.564871, 48.849487]}, "properties": {"numparc": 4967, "etat de la localisation": "autre", "ID BDGEO": "85", "horodatage": "2022-09-22 09:46:58", "distance (en metres)": 58.0, "station": "POINTE DE GOURNAY", "marker-color": "#818181"}}, {"type": "Feature", "geometry": {"type": "Point", "coordinates": [2.633336, 48.850334]}, "properties": {"numparc": 4990, "etat de la localisation": "autre", "ID BDGEO": "65", "horodatage": "2022-09-22 10:01:42", "distance (en metres)": 95.01, "station": "CITE SCOLAIRE", "marker-color": "#818181"}}, {"type": "Feature", "geometry": {"type": "Point", "coordinates": [2.564328, 48.849297]}, "properties": {"numparc": 4895, "etat de la localisation": "autre", "ID BDGEO": "22", "horodatage": "2022-09-22 10:02:38", "distance (en metres)": 43.7, "station": "POINTE DE GOURNAY", "marker-color": "#818181"}}, {"type": "Feature", "geometry": {"type": "Point", "coordinates": [2.564916, 48.849476]}, "properties": {"numparc": 4975, "etat de la localisation": "autre", "ID BDGEO": "85", "horodatage": "2022-09-22 10:06:04", "distance (en metres)": 60.86, "station": "POINTE DE GOURNAY", "marker-color": "#818181"}}, {"type": "Feature", "geometry": {"type": "Point", "coordinates": [2.564916, 48.849476]}, "properties": {"numparc": 4975, "etat de la localisation": "autre", "ID BDGEO": "85", "horodatage": "2022-09-22 10:06:09", "distance (en metres)": 60.86, "station": "POINTE DE GOURNAY", "marker-color": "#818181"}}, {"type": "Feature", "geometry": {"type": "Point", "coordinates": [2.564351, 48.8493]}, "properties": {"numparc": 4967, "etat de la localisation": "autre", "ID BDGEO": "22", "horodatage": "2022-09-22 10:16:09", "distance (en metres)": 41.95, "station": "POINTE DE GOURNAY", "marker-color": "#818181"}}, {"type": "Feature", "geometry": {"type": "Point", "coordinates": [2.660645, 48.842411]}, "properties": {"numparc": 4899, "etat de la localisation": "autre", "ID BDGEO": "8", "horodatage": "2022-09-22 10:40:00", "distance (en metres)": 72.35, "station": "BUSSY (S)", "marker-color": "#818181"}}, {"type": "Feature", "geometry": {"type": "Point", "coordinates": [2.659651, 48.842098]}, "properties": {"numparc": 4899, "etat de la localisation": "autre", "ID BDGEO": "8", "horodatage": "2022-09-22 10:42:32", "distance (en metres)": 54.23, "station": "BUSSY (S)", "marker-color": "#818181"}}, {"type": "Feature", "geometry": {"type": "Point", "coordinates": [2.564902, 48.849457]}, "properties": {"numparc": 4894, "etat de la localisation": "autre", "ID BDGEO": "85", "horodatage": "2022-09-22 10:43:35", "distance (en metres)": 59.41, "station": "POINTE DE GOURNAY", "marker-color": "#818181"}}, {"type": "Feature", "geometry": {"type": "Point", "coordinates": [2.564292, 48.849293]}, "properties": {"numparc": 4992, "etat de la localisation": "autre", "ID BDGEO": "22", "horodatage": "2022-09-22 10:47:38", "distance (en metres)": 46.36, "station": "POINTE DE GOURNAY", "marker-color": "#818181"}}, {"type": "Feature", "geometry": {"type": "Point", "coordinates": [2.658766, 48.842773]}, "properties": {"numparc": 4895, "etat de la localisation": "autre", "ID BDGEO": "8", "horodatage": "2022-09-22 10:48:38", "distance (en metres)": 70.95, "station": "BUSSY (S)", "marker-color": "#818181"}}, {"type": "Feature", "geometry": {"type": "Point", "coordinates": [2.564914, 48.849487]}, "properties": {"numparc": 4970, "etat de la localisation": "autre", "ID BDGEO": "85", "horodatage": "2022-09-22 10:52:40", "distance (en metres)": 61.03, "station": "POINTE DE GOURNAY", "marker-color": "#818181"}}, {"type": "Feature", "geometry": {"type": "Point", "coordinates": [2.633318, 48.850334]}, "properties": {"numparc": 4976, "etat de la localisation": "autre", "ID BDGEO": "65", "horodatage": "2022-09-22 11:03:26", "distance (en metres)": 96.31, "station": "CITE SCOLAIRE", "marker-color": "#818181"}}, {"type": "Feature", "geometry": {"type": "Point", "coordinates": [2.564949, 48.849472]}, "properties": {"numparc": 4897, "etat de la localisation": "autre", "ID BDGEO": "85", "horodatage": "2022-09-22 11:06:18", "distance (en metres)": 63.13, "station": "POINTE DE GOURNAY", "marker-color": "#818181"}}, {"type": "Feature", "geometry": {"type": "Point", "coordinates": [2.564311, 48.8493]}, "properties": {"numparc": 4894, "etat de la localisation": "autre", "ID BDGEO": "22", "horodatage": "2022-09-22 11:10:45", "distance (en metres)": 44.82, "station": "POINTE DE GOURNAY", "marker-color": "#818181"}}, {"type": "Feature", "geometry": {"type": "Point", "coordinates": [2.658783, 48.84243]}, "properties": {"numparc": 4899, "etat de la localisation": "autre", "ID BDGEO": "8", "horodatage": "2022-09-22 11:12:57", "distance (en metres)": 68.75, "station": "BUSSY (S)", "marker-color": "#818181"}}, {"type": "Feature", "geometry": {"type": "Point", "coordinates": [2.632967, 48.850307]}, "properties": {"numparc": 4979, "etat de la localisation": "autre", "ID BDGEO": "65", "horodatage": "2022-09-22 11:13:33", "distance (en metres)": 120.95, "station": "CITE SCOLAIRE", "marker-color": "#818181"}}, {"type": "Feature", "geometry": {"type": "Point", "coordinates": [2.564364, 48.849293]}, "properties": {"numparc": 4970, "etat de la localisation": "autre", "ID BDGEO": "22", "horodatage": "2022-09-22 11:24:22", "distance (en metres)": 41.24, "station": "POINTE DE GOURNAY", "marker-color": "#818181"}}, {"type": "Feature", "geometry": {"type": "Point", "coordinates": [2.633281, 48.850346]}, "properties": {"numparc": 4968, "etat de la localisation": "autre", "ID BDGEO": "65", "horodatage": "2022-09-22 11:31:22", "distance (en metres)": 99.23, "station": "CITE SCOLAIRE", "marker-color": "#818181"}}, {"type": "Feature", "geometry": {"type": "Point", "coordinates": [2.56431, 48.8493]}, "properties": {"numparc": 4897, "etat de la localisation": "autre", "ID BDGEO": "22", "horodatage": "2022-09-22 11:39:54", "distance (en metres)": 44.89, "station": "POINTE DE GOURNAY", "marker-color": "#818181"}}, {"type": "Feature", "geometry": {"type": "Point", "coordinates": [2.564955, 48.849487]}, "properties": {"numparc": 4968, "etat de la localisation": "autre", "ID BDGEO": "85", "horodatage": "2022-09-22 11:57:22", "distance (en metres)": 63.94, "station": "POINTE DE GOURNAY", "marker-color": "#818181"}}, {"type": "Feature", "geometry": {"type": "Point", "coordinates": [2.654544, 48.839146]}, "properties": {"numparc": 4970, "etat de la localisation": "autre", "ID BDGEO": "3", "horodatage": "2022-09-22 12:04:15", "distance (en metres)": 61.84, "station": "TORCY RER#", "marker-color": "#818181"}}, {"type": "Feature", "geometry": {"type": "Point", "coordinates": [2.633353, 48.850334]}, "properties": {"numparc": 4990, "etat de la localisation": "autre", "ID BDGEO": "65", "horodatage": "2022-09-22 12:09:08", "distance (en metres)": 93.81, "station": "CITE SCOLAIRE", "marker-color": "#818181"}}, {"type": "Feature", "geometry": {"type": "Point", "coordinates": [2.564324, 48.849297]}, "properties": {"numparc": 4979, "etat de la localisation": "autre", "ID BDGEO": "22", "horodatage": "2022-09-22 12:10:21", "distance (en metres)": 43.99, "station": "POINTE DE GOURNAY", "marker-color": "#818181"}}, {"type": "Feature", "geometry": {"type": "Point", "coordinates": [2.658837, 48.842346]}, "properties": {"numparc": 4970, "etat de la localisation": "autre", "ID BDGEO": "8", "horodatage": "2022-09-22 12:10:54", "distance (en metres)": 68.01, "station": "BUSSY (S)", "marker-color": "#818181"}}, {"type": "Feature", "geometry": {"type": "Point", "coordinates": [2.565002, 48.849487]}, "properties": {"numparc": 4975, "etat de la localisation": "autre", "ID BDGEO": "85", "horodatage": "2022-09-22 12:12:10", "distance (en metres)": 67.28, "station": "POINTE DE GOURNAY", "marker-color": "#818181"}}, {"type": "Feature", "geometry": {"type": "Point", "coordinates": [2.633325, 48.850323]}, "properties": {"numparc": 4894, "etat de la localisation": "autre", "ID BDGEO": "65", "horodatage": "2022-09-22 12:28:21", "distance (en metres)": 95.51, "station": "CITE SCOLAIRE", "marker-color": "#818181"}}, {"type": "Feature", "geometry": {"type": "Point", "coordinates": [2.564344, 48.849297]}, "properties": {"numparc": 4968, "etat de la localisation": "autre", "ID BDGEO": "22", "horodatage": "2022-09-22 12:29:58", "distance (en metres)": 42.56, "station": "POINTE DE GOURNAY", "marker-color": "#818181"}}, {"type": "Feature", "geometry": {"type": "Point", "coordinates": [2.564915, 48.849495]}, "properties": {"numparc": 4990, "etat de la localisation": "autre", "ID BDGEO": "85", "horodatage": "2022-09-22 12:34:38", "distance (en metres)": 61.32, "station": "POINTE DE GOURNAY", "marker-color": "#818181"}}, {"type": "Feature", "geometry": {"type": "Point", "coordinates": [2.564352, 48.849297]}, "properties": {"numparc": 4975, "etat de la localisation": "autre", "ID BDGEO": "22", "horodatage": "2022-09-22 12:39:32", "distance (en metres)": 41.98, "station": "POINTE DE GOURNAY", "marker-color": "#818181"}}, {"type": "Feature", "geometry": {"type": "Point", "coordinates": [2.633348, 48.850307]}, "properties": {"numparc": 4897, "etat de la localisation": "autre", "ID BDGEO": "65", "horodatage": "2022-09-22 12:44:44", "distance (en metres)": 93.52, "station": "CITE SCOLAIRE", "marker-color": "#818181"}}, {"type": "Feature", "geometry": {"type": "Point", "coordinates": [2.564247, 48.849266]}, "properties": {"numparc": 4992, "etat de la localisation": "autre", "ID BDGEO": "22", "horodatage": "2022-09-22 12:50:58", "distance (en metres)": 50.27, "station": "POINTE DE GOURNAY", "marker-color": "#818181"}}, {"type": "Feature", "geometry": {"type": "Point", "coordinates": [2.564938, 48.84948]}, "properties": {"numparc": 4894, "etat de la localisation": "autre", "ID BDGEO": "85", "horodatage": "2022-09-22 12:54:17", "distance (en metres)": 62.54, "station": "POINTE DE GOURNAY", "marker-color": "#818181"}}, {"type": "Feature", "geometry": {"type": "Point", "coordinates": [2.658021, 48.841087]}, "properties": {"numparc": 4979, "etat de la localisation": "autre", "ID BDGEO": "55", "horodatage": "2022-09-22 13:03:33", "distance (en metres)": 191.32, "station": "SALVADOR ALLENDE", "marker-color": "#818181"}}, {"type": "Feature", "geometry": {"type": "Point", "coordinates": [2.564352, 48.8493]}, "properties": {"numparc": 4990, "etat de la localisation": "autre", "ID BDGEO": "22", "horodatage": "2022-09-22 13:04:18", "distance (en metres)": 41.89, "station": "POINTE DE GOURNAY", "marker-color": "#818181"}}, {"type": "Feature", "geometry": {"type": "Point", "coordinates": [2.564933, 48.849476]}, "properties": {"numparc": 4897, "etat de la localisation": "autre", "ID BDGEO": "85", "horodatage": "2022-09-22 13:10:36", "distance (en metres)": 62.08, "station": "POINTE DE GOURNAY", "marker-color": "#818181"}}, {"type": "Feature", "geometry": {"type": "Point", "coordinates": [2.633342, 48.850334]}, "properties": {"numparc": 4979, "etat de la localisation": "autre", "ID BDGEO": "65", "horodatage": "2022-09-22 13:15:22", "distance (en metres)": 94.59, "station": "CITE SCOLAIRE", "marker-color": "#818181"}}, {"type": "Feature", "geometry": {"type": "Point", "coordinates": [2.660452, 48.842445]}, "properties": {"numparc": 4975, "etat de la localisation": "autre", "ID BDGEO": "8", "horodatage": "2022-09-22 13:28:13", "distance (en metres)": 57.71, "station": "BUSSY (S)", "marker-color": "#818181"}}, {"type": "Feature", "geometry": {"type": "Point", "coordinates": [2.564369, 48.849319]}, "properties": {"numparc": 4897, "etat de la localisation": "autre", "ID BDGEO": "22", "horodatage": "2022-09-22 13:38:55", "distance (en metres)": 40.25, "station": "POINTE DE GOURNAY", "marker-color": "#818181"}}, {"type": "Feature", "geometry": {"type": "Point", "coordinates": [2.633388, 48.850334]}, "properties": {"numparc": 4968, "etat de la localisation": "autre", "ID BDGEO": "65", "horodatage": "2022-09-22 13:40:05", "distance (en metres)": 91.32, "station": "CITE SCOLAIRE", "marker-color": "#818181"}}, {"type": "Feature", "geometry": {"type": "Point", "coordinates": [2.564922, 48.849415]}, "properties": {"numparc": 4979, "etat de la localisation": "autre", "ID BDGEO": "85", "horodatage": "2022-09-22 13:42:15", "distance (en metres)": 60.1, "station": "POINTE DE GOURNAY", "marker-color": "#818181"}}, {"type": "Feature", "geometry": {"type": "Point", "coordinates": [2.633408, 48.850334]}, "properties": {"numparc": 4894, "etat de la localisation": "autre", "ID BDGEO": "65", "horodatage": "2022-09-22 14:27:23", "distance (en metres)": 89.9, "station": "CITE SCOLAIRE", "marker-color": "#818181"}}, {"type": "Feature", "geometry": {"type": "Point", "coordinates": [2.564901, 48.84951]}, "properties": {"numparc": 4992, "etat de la localisation": "autre", "ID BDGEO": "85", "horodatage": "2022-09-22 14:28:42", "distance (en metres)": 60.82, "station": "POINTE DE GOURNAY", "marker-color": "#818181"}}, {"type": "Feature", "geometry": {"type": "Point", "coordinates": [2.558823, 48.849026]}, "properties": {"numparc": 4992, "etat de la localisation": "autre", "ID BDGEO": "87", "horodatage": "2022-09-22 14:30:12", "distance (en metres)": 93.71, "station": "CARREFOUR DE MALNOUE", "marker-color": "#818181"}}, {"type": "Feature", "geometry": {"type": "Point", "coordinates": [2.564279, 48.8493]}, "properties": {"numparc": 4968, "etat de la localisation": "autre", "ID BDGEO": "22", "horodatage": "2022-09-22 14:38:05", "distance (en metres)": 47.11, "station": "POINTE DE GOURNAY", "marker-color": "#818181"}}, {"type": "Feature", "geometry": {"type": "Point", "coordinates": [2.56434, 48.849293]}, "properties": {"numparc": 4992, "etat de la localisation": "autre", "ID BDGEO": "22", "horodatage": "2022-09-22 14:56:32", "distance (en metres)": 42.93, "station": "POINTE DE GOURNAY", "marker-color": "#818181"}}, {"type": "Feature", "geometry": {"type": "Point", "coordinates": [2.564365, 48.84927]}, "properties": {"numparc": 4990, "etat de la localisation": "autre", "ID BDGEO": "22", "horodatage": "2022-09-22 15:12:58", "distance (en metres)": 41.86, "station": "POINTE DE GOURNAY", "marker-color": "#818181"}}, {"type": "Feature", "geometry": {"type": "Point", "coordinates": [2.564365, 48.84927]}, "properties": {"numparc": 4990, "etat de la localisation": "autre", "ID BDGEO": "22", "horodatage": "2022-09-22 15:13:00", "distance (en metres)": 41.86, "station": "POINTE DE GOURNAY", "marker-color": "#818181"}}, {"type": "Feature", "geometry": {"type": "Point", "coordinates": [2.564929, 48.849476]}, "properties": {"numparc": 4897, "etat de la localisation": "autre", "ID BDGEO": "85", "horodatage": "2022-09-22 15:16:39", "distance (en metres)": 61.79, "station": "POINTE DE GOURNAY", "marker-color": "#818181"}}, {"type": "Feature", "geometry": {"type": "Point", "coordinates": [2.564357, 48.8493]}, "properties": {"numparc": 4894, "etat de la localisation": "autre", "ID BDGEO": "22", "horodatage": "2022-09-22 15:28:09", "distance (en metres)": 41.53, "station": "POINTE DE GOURNAY", "marker-color": "#818181"}}, {"type": "Feature", "geometry": {"type": "Point", "coordinates": [2.564911, 48.849487]}, "properties": {"numparc": 4979, "etat de la localisation": "autre", "ID BDGEO": "85", "horodatage": "2022-09-22 15:45:24", "distance (en metres)": 60.81, "station": "POINTE DE GOURNAY", "marker-color": "#818181"}}, {"type": "Feature", "geometry": {"type": "Point", "coordinates": [2.564372, 48.849308]}, "properties": {"numparc": 4897, "etat de la localisation": "autre", "ID BDGEO": "22", "horodatage": "2022-09-22 15:50:37", "distance (en metres)": 40.27, "station": "POINTE DE GOURNAY", "marker-color": "#818181"}}, {"type": "Feature", "geometry": {"type": "Point", "coordinates": [2.658784, 48.84243]}, "properties": {"numparc": 4899, "etat de la localisation": "autre", "ID BDGEO": "8", "horodatage": "2022-09-22 16:11:04", "distance (en metres)": 68.69, "station": "BUSSY (S)", "marker-color": "#818181"}}, {"type": "Feature", "geometry": {"type": "Point", "coordinates": [2.633389, 48.850292]}, "properties": {"numparc": 4992, "etat de la localisation": "autre", "ID BDGEO": "65", "horodatage": "2022-09-22 16:14:54", "distance (en metres)": 90.25, "station": "CITE SCOLAIRE", "marker-color": "#818181"}}, {"type": "Feature", "geometry": {"type": "Point", "coordinates": [2.564357, 48.849312]}, "properties": {"numparc": 4979, "etat de la localisation": "autre", "ID BDGEO": "22", "horodatage": "2022-09-22 16:15:46", "distance (en metres)": 41.26, "station": "POINTE DE GOURNAY", "marker-color": "#818181"}}, {"type": "Feature", "geometry": {"type": "Point", "coordinates": [2.564357, 48.849312]}, "properties": {"numparc": 4979, "etat de la localisation": "autre", "ID BDGEO": "22", "horodatage": "2022-09-22 16:15:58", "distance (en metres)": 41.26, "station": "POINTE DE GOURNAY", "marker-color": "#818181"}}, {"type": "Feature", "geometry": {"type": "Point", "coordinates": [2.660617, 48.842434]}, "properties": {"numparc": 4898, "etat de la localisation": "autre", "ID BDGEO": "8", "horodatage": "2022-09-22 16:24:32", "distance (en metres)": 69.73, "station": "BUSSY (S)", "marker-color": "#818181"}}, {"type": "Feature", "geometry": {"type": "Point", "coordinates": [2.660454, 48.842445]}, "properties": {"numparc": 4975, "etat de la localisation": "autre", "ID BDGEO": "8", "horodatage": "2022-09-22 16:35:22", "distance (en metres)": 57.87, "station": "BUSSY (S)", "marker-color": "#818181"}}, {"type": "Feature", "geometry": {"type": "Point", "coordinates": [2.659104, 48.842148]}, "properties": {"numparc": 4975, "etat de la localisation": "autre", "ID BDGEO": "8", "horodatage": "2022-09-22 16:40:26", "distance (en metres)": 64.95, "station": "BUSSY (S)", "marker-color": "#818181"}}, {"type": "Feature", "geometry": {"type": "Point", "coordinates": [2.658836, 48.842346]}, "properties": {"numparc": 4970, "etat de la localisation": "autre", "ID BDGEO": "8", "horodatage": "2022-09-22 16:46:38", "distance (en metres)": 68.08, "station": "BUSSY (S)", "marker-color": "#818181"}}, {"type": "Feature", "geometry": {"type": "Point", "coordinates": [2.564906, 48.849548]}, "properties": {"numparc": 4992, "etat de la localisation": "autre", "ID BDGEO": "85", "horodatage": "2022-09-22 16:46:57", "distance (en metres)": 62.54, "station": "POINTE DE GOURNAY", "marker-color": "#818181"}}, {"type": "Feature", "geometry": {"type": "Point", "coordinates": [2.564121, 48.849274]}, "properties": {"numparc": 4968, "etat de la localisation": "autre", "ID BDGEO": "22", "horodatage": "2022-09-22 16:49:46", "distance (en metres)": 59.04, "station": "POINTE DE GOURNAY", "marker-color": "#818181"}}, {"type": "Feature", "geometry": {"type": "Point", "coordinates": [2.633333, 48.850311]}, "properties": {"numparc": 4898, "etat de la localisation": "autre", "ID BDGEO": "65", "horodatage": "2022-09-22 16:50:57", "distance (en metres)": 94.68, "station": "CITE SCOLAIRE", "marker-color": "#818181"}}, {"type": "Feature", "geometry": {"type": "Point", "coordinates": [2.658836, 48.842346]}, "properties": {"numparc": 4970, "etat de la localisation": "Delocalise", "ID BDGEO": "8", "horodatage": "2022-09-22 16:52:50", "distance (en metres)": 68.08, "station": "BUSSY (S)", "marker-color": "#FF565E"}}, {"type": "Feature", "geometry": {"type": "Point", "coordinates": [2.56492, 48.849487]}, "properties": {"numparc": 4990, "etat de la localisation": "autre", "ID BDGEO": "85", "horodatage": "2022-09-22 16:56:36", "distance (en metres)": 61.46, "station": "POINTE DE GOURNAY", "marker-color": "#818181"}}, {"type": "Feature", "geometry": {"type": "Point", "coordinates": [2.63333, 48.850319]}, "properties": {"numparc": 4899, "etat de la localisation": "autre", "ID BDGEO": "65", "horodatage": "2022-09-22 16:59:36", "distance (en metres)": 95.06, "station": "CITE SCOLAIRE", "marker-color": "#818181"}}, {"type": "Feature", "geometry": {"type": "Point", "coordinates": [2.564939, 48.849472]}, "properties": {"numparc": 4894, "etat de la localisation": "autre", "ID BDGEO": "85", "horodatage": "2022-09-22 17:08:58", "distance (en metres)": 62.41, "station": "POINTE DE GOURNAY", "marker-color": "#818181"}}, {"type": "Feature", "geometry": {"type": "Point", "coordinates": [2.564164, 48.849354]}, "properties": {"numparc": 4992, "etat de la localisation": "autre", "ID BDGEO": "22", "horodatage": "2022-09-22 17:16:34", "distance (en metres)": 54.73, "station": "POINTE DE GOURNAY", "marker-color": "#818181"}}, {"type": "Feature", "geometry": {"type": "Point", "coordinates": [2.564325, 48.849274]}, "properties": {"numparc": 4990, "etat de la localisation": "autre", "ID BDGEO": "22", "horodatage": "2022-09-22 17:26:14", "distance (en metres)": 44.53, "station": "POINTE DE GOURNAY", "marker-color": "#818181"}}, {"type": "Feature", "geometry": {"type": "Point", "coordinates": [2.564325, 48.849274]}, "properties": {"numparc": 4990, "etat de la localisation": "autre", "ID BDGEO": "22", "horodatage": "2022-09-22 17:26:17", "distance (en metres)": 44.53, "station": "POINTE DE GOURNAY", "marker-color": "#818181"}}, {"type": "Feature", "geometry": {"type": "Point", "coordinates": [2.564325, 48.849274]}, "properties": {"numparc": 4990, "etat de la localisation": "autre", "ID BDGEO": "22", "horodatage": "2022-09-22 17:26:23", "distance (en metres)": 44.53, "station": "POINTE DE GOURNAY", "marker-color": "#818181"}}, {"type": "Feature", "geometry": {"type": "Point", "coordinates": [2.564923, 48.849476]}, "properties": {"numparc": 4899, "etat de la localisation": "autre", "ID BDGEO": "85", "horodatage": "2022-09-22 17:29:07", "distance (en metres)": 61.37, "station": "POINTE DE GOURNAY", "marker-color": "#818181"}}, {"type": "Feature", "geometry": {"type": "Point", "coordinates": [2.633344, 48.850323]}, "properties": {"numparc": 4970, "etat de la localisation": "autre", "ID BDGEO": "65", "horodatage": "2022-09-22 17:31:13", "distance (en metres)": 94.17, "station": "CITE SCOLAIRE", "marker-color": "#818181"}}, {"type": "Feature", "geometry": {"type": "Point", "coordinates": [2.63333, 48.850334]}, "properties": {"numparc": 4979, "etat de la localisation": "autre", "ID BDGEO": "65", "horodatage": "2022-09-22 17:40:04", "distance (en metres)": 95.44, "station": "CITE SCOLAIRE", "marker-color": "#818181"}}, {"type": "Feature", "geometry": {"type": "Point", "coordinates": [2.564342, 48.849323]}, "properties": {"numparc": 4894, "etat de la localisation": "autre", "ID BDGEO": "22", "horodatage": "2022-09-22 17:42:56", "distance (en metres)": 42.13, "station": "POINTE DE GOURNAY", "marker-color": "#818181"}}, {"type": "Feature", "geometry": {"type": "Point", "coordinates": [2.564917, 48.849476]}, "properties": {"numparc": 4970, "etat de la localisation": "autre", "ID BDGEO": "85", "horodatage": "2022-09-22 18:00:20", "distance (en metres)": 60.95, "station": "POINTE DE GOURNAY", "marker-color": "#818181"}}, {"type": "Feature", "geometry": {"type": "Point", "coordinates": [2.564347, 48.849316]}, "properties": {"numparc": 4899, "etat de la localisation": "autre", "ID BDGEO": "22", "horodatage": "2022-09-22 18:08:51", "distance (en metres)": 41.91, "station": "POINTE DE GOURNAY", "marker-color": "#818181"}}, {"type": "Feature", "geometry": {"type": "Point", "coordinates": [2.564908, 48.84948]}, "properties": {"numparc": 4979, "etat de la localisation": "autre", "ID BDGEO": "85", "horodatage": "2022-09-22 18:09:21", "distance (en metres)": 60.4, "station": "POINTE DE GOURNAY", "marker-color": "#818181"}}, {"type": "Feature", "geometry": {"type": "Point", "coordinates": [2.582875, 48.855732]}, "properties": {"numparc": 4898, "etat de la localisation": "autre", "ID BDGEO": "13", "horodatage": "2022-09-22 18:27:12", "distance (en metres)": 70.69, "station": "ROND POINT DES PYRAMIDES", "marker-color": "#818181"}}, {"type": "Feature", "geometry": {"type": "Point", "coordinates": [2.582875, 48.855732]}, "properties": {"numparc": 4898, "etat de la localisation": "autre", "ID BDGEO": "13", "horodatage": "2022-09-22 18:27:52", "distance (en metres)": 70.69, "station": "ROND POINT DES PYRAMIDES", "marker-color": "#818181"}}, {"type": "Feature", "geometry": {"type": "Point", "coordinates": [2.564347, 48.849308]}, "properties": {"numparc": 4970, "etat de la localisation": "autre", "ID BDGEO": "22", "horodatage": "2022-09-22 18:31:22", "distance (en metres)": 42.07, "station": "POINTE DE GOURNAY", "marker-color": "#818181"}}, {"type": "Feature", "geometry": {"type": "Point", "coordinates": [2.633308, 48.850334]}, "properties": {"numparc": 4975, "etat de la localisation": "autre", "ID BDGEO": "65", "horodatage": "2022-09-22 18:31:38", "distance (en metres)": 97.02, "station": "CITE SCOLAIRE", "marker-color": "#818181"}}, {"type": "Feature", "geometry": {"type": "Point", "coordinates": [2.633401, 48.850327]}, "properties": {"numparc": 4992, "etat de la localisation": "autre", "ID BDGEO": "65", "horodatage": "2022-09-22 18:33:43", "distance (en metres)": 90.2, "station": "CITE SCOLAIRE", "marker-color": "#818181"}}, {"type": "Feature", "geometry": {"type": "Point", "coordinates": [2.564348, 48.849323]}, "properties": {"numparc": 4979, "etat de la localisation": "autre", "ID BDGEO": "22", "horodatage": "2022-09-22 18:39:43", "distance (en metres)": 41.7, "station": "POINTE DE GOURNAY", "marker-color": "#818181"}}, {"type": "Feature", "geometry": {"type": "Point", "coordinates": [2.565058, 48.849499]}, "properties": {"numparc": 4975, "etat de la localisation": "autre", "ID BDGEO": "85", "horodatage": "2022-09-22 19:00:52", "distance (en metres)": 71.56, "station": "POINTE DE GOURNAY", "marker-color": "#818181"}}, {"type": "Feature", "geometry": {"type": "Point", "coordinates": [2.63334, 48.850311]}, "properties": {"numparc": 4897, "etat de la localisation": "autre", "ID BDGEO": "65", "horodatage": "2022-09-22 19:06:54", "distance (en metres)": 94.19, "station": "CITE SCOLAIRE", "marker-color": "#818181"}}, {"type": "Feature", "geometry": {"type": "Point", "coordinates": [2.582257, 48.857082]}, "properties": {"numparc": 4898, "etat de la localisation": "autre", "ID BDGEO": "82", "horodatage": "2022-09-22 19:08:00", "distance (en metres)": 173.79, "station": "PLACE CHURCHILL", "marker-color": "#818181"}}, {"type": "Feature", "geometry": {"type": "Point", "coordinates": [2.582206, 48.857296]}, "properties": {"numparc": 4898, "etat de la localisation": "autre", "ID BDGEO": "82", "horodatage": "2022-09-22 19:09:09", "distance (en metres)": 156.97, "station": "PLACE CHURCHILL", "marker-color": "#818181"}}, {"type": "Feature", "geometry": {"type": "Point", "coordinates": [2.567387, 48.84948]}, "properties": {"numparc": 4990, "etat de la localisation": "Deviation programmee", "ID BDGEO": "85", "horodatage": "2022-09-22 19:11:57", "distance (en metres)": 240.46, "station": "POINTE DE GOURNAY", "marker-color": "#56FF93"}}, {"type": "Feature", "geometry": {"type": "Point", "coordinates": [2.582791, 48.855492]}, "properties": {"numparc": 4894, "etat de la localisation": "Deviation programmee", "ID BDGEO": "13", "horodatage": "2022-09-22 19:16:30", "distance (en metres)": 69.99, "station": "ROND POINT DES PYRAMIDES", "marker-color": "#56FF93"}}, {"type": "Feature", "geometry": {"type": "Point", "coordinates": [2.564908, 48.849461]}, "properties": {"numparc": 4894, "etat de la localisation": "Deviation programmee", "ID BDGEO": "85", "horodatage": "2022-09-22 19:22:55", "distance (en metres)": 59.92, "station": "POINTE DE GOURNAY", "marker-color": "#56FF93"}}, {"type": "Feature", "geometry": {"type": "Point", "coordinates": [2.633346, 48.850315]}, "properties": {"numparc": 4899, "etat de la localisation": "autre", "ID BDGEO": "65", "horodatage": "2022-09-22 19:23:00", "distance (en metres)": 93.83, "station": "CITE SCOLAIRE", "marker-color": "#818181"}}, {"type": "Feature", "geometry": {"type": "Point", "coordinates": [2.564938, 48.849449]}, "properties": {"numparc": 4898, "etat de la localisation": "autre", "ID BDGEO": "85", "horodatage": "2022-09-22 19:26:36", "distance (en metres)": 61.83, "station": "POINTE DE GOURNAY", "marker-color": "#818181"}}, {"type": "Feature", "geometry": {"type": "Point", "coordinates": [2.616281, 48.843769]}, "properties": {"numparc": 4899, "etat de la localisation": "autre", "ID BDGEO": "93", "horodatage": "2022-09-22 19:29:02", "distance (en metres)": 2725.33, "station": "ROND POINT DES PYRAMIDES#", "marker-color": "#818181"}}, {"type": "Feature", "geometry": {"type": "Point", "coordinates": [2.616239, 48.843769]}, "properties": {"numparc": 4899, "etat de la localisation": "autre", "ID BDGEO": "93", "horodatage": "2022-09-22 19:30:04", "distance (en metres)": 2722.63, "station": "ROND POINT DES PYRAMIDES#", "marker-color": "#818181"}}, {"type": "Feature", "geometry": {"type": "Point", "coordinates": [2.564922, 48.849464]}, "properties": {"numparc": 4897, "etat de la localisation": "autre", "ID BDGEO": "85", "horodatage": "2022-09-22 19:35:52", "distance (en metres)": 61.02, "station": "POINTE DE GOURNAY", "marker-color": "#818181"}}, {"type": "Feature", "geometry": {"type": "Point", "coordinates": [2.564185, 48.849232]}, "properties": {"numparc": 4992, "etat de la localisation": "autre", "ID BDGEO": "22", "horodatage": "2022-09-22 19:36:19", "distance (en metres)": 55.7, "station": "POINTE DE GOURNAY", "marker-color": "#818181"}}, {"type": "Feature", "geometry": {"type": "Point", "coordinates": [2.633357, 48.850327]}, "properties": {"numparc": 4968, "etat de la localisation": "autre", "ID BDGEO": "65", "horodatage": "2022-09-22 19:37:12", "distance (en metres)": 93.32, "station": "CITE SCOLAIRE", "marker-color": "#818181"}}, {"type": "Feature", "geometry": {"type": "Point", "coordinates": [2.654255, 48.839024]}, "properties": {"numparc": 4979, "etat de la localisation": "autre", "ID BDGEO": "54", "horodatage": "2022-09-22 19:41:32", "distance (en metres)": 42.03, "station": "TORCY RER", "marker-color": "#818181"}}, {"type": "Feature", "geometry": {"type": "Point", "coordinates": [2.564359, 48.849293]}, "properties": {"numparc": 4990, "etat de la localisation": "autre", "ID BDGEO": "22", "horodatage": "2022-09-22 19:45:46", "distance (en metres)": 41.59, "station": "POINTE DE GOURNAY", "marker-color": "#818181"}}, {"type": "Feature", "geometry": {"type": "Point", "coordinates": [2.600475, 48.851383]}, "properties": {"numparc": 4992, "etat de la localisation": "autre", "ID BDGEO": "30", "horodatage": "2022-09-22 19:47:41", "distance (en metres)": 136.23, "station": "MAIRIE DE CHAMPS", "marker-color": "#818181"}}, {"type": "Feature", "geometry": {"type": "Point", "coordinates": [2.658834, 48.842392]}, "properties": {"numparc": 4899, "etat de la localisation": "autre", "ID BDGEO": "8", "horodatage": "2022-09-22 19:53:14", "distance (en metres)": 66.4, "station": "BUSSY (S)", "marker-color": "#818181"}}, {"type": "Feature", "geometry": {"type": "Point", "coordinates": [2.658834, 48.842392]}, "properties": {"numparc": 4899, "etat de la localisation": "autre", "ID BDGEO": "8", "horodatage": "2022-09-22 19:55:11", "distance (en metres)": 66.4, "station": "BUSSY (S)", "marker-color": "#818181"}}, {"type": "Feature", "geometry": {"type": "Point", "coordinates": [2.633346, 48.850319]}, "properties": {"numparc": 4979, "etat de la localisation": "autre", "ID BDGEO": "65", "horodatage": "2022-09-22 19:55:58", "distance (en metres)": 93.92, "station": "CITE SCOLAIRE", "marker-color": "#818181"}}, {"type": "Feature", "geometry": {"type": "Point", "coordinates": [2.564365, 48.849285]}, "properties": {"numparc": 4894, "etat de la localisation": "autre", "ID BDGEO": "22", "horodatage": "2022-09-22 19:58:05", "distance (en metres)": 41.38, "station": "POINTE DE GOURNAY", "marker-color": "#818181"}}, {"type": "Feature", "geometry": {"type": "Point", "coordinates": [2.564995, 48.849461]}, "properties": {"numparc": 4968, "etat de la localisation": "autre", "ID BDGEO": "85", "horodatage": "2022-09-22 20:06:54", "distance (en metres)": 66.17, "station": "POINTE DE GOURNAY", "marker-color": "#818181"}}, {"type": "Feature", "geometry": {"type": "Point", "coordinates": [2.564327, 48.849319]}, "properties": {"numparc": 4897, "etat de la localisation": "autre", "ID BDGEO": "22", "horodatage": "2022-09-22 20:09:02", "distance (en metres)": 43.28, "station": "POINTE DE GOURNAY", "marker-color": "#818181"}}, {"type": "Feature", "geometry": {"type": "Point", "coordinates": [2.654279, 48.839291]}, "properties": {"numparc": 4974, "etat de la localisation": "autre", "ID BDGEO": "53", "horodatage": "2022-09-22 20:09:51", "distance (en metres)": 101.24, "station": "TORCY RER.", "marker-color": "#818181"}}, {"type": "Feature", "geometry": {"type": "Point", "coordinates": [2.564935, 48.849464]}, "properties": {"numparc": 4979, "etat de la localisation": "autre", "ID BDGEO": "85", "horodatage": "2022-09-22 20:21:32", "distance (en metres)": 61.94, "station": "POINTE DE GOURNAY", "marker-color": "#818181"}}, {"type": "Feature", "geometry": {"type": "Point", "coordinates": [2.564352, 48.849293]}, "properties": {"numparc": 4968, "etat de la localisation": "autre", "ID BDGEO": "22", "horodatage": "2022-09-22 20:31:11", "distance (en metres)": 42.08, "station": "POINTE DE GOURNAY", "marker-color": "#818181"}}, {"type": "Feature", "geometry": {"type": "Point", "coordinates": [2.654494, 48.839161]}, "properties": {"numparc": 4894, "etat de la localisation": "autre", "ID BDGEO": "8", "horodatage": "2022-09-22 20:35:39", "distance (en metres)": 538.25, "station": "BUSSY (S)", "marker-color": "#818181"}}, {"type": "Feature", "geometry": {"type": "Point", "coordinates": [2.660686, 48.842068]}, "properties": {"numparc": 4894, "etat de la localisation": "autre", "ID BDGEO": "8", "horodatage": "2022-09-22 20:42:00", "distance (en metres)": 92.72, "station": "BUSSY (S)", "marker-color": "#818181"}}, {"type": "Feature", "geometry": {"type": "Point", "coordinates": [2.564328, 48.849277]}, "properties": {"numparc": 4970, "etat de la localisation": "autre", "ID BDGEO": "22", "horodatage": "2022-09-22 20:48:54", "distance (en metres)": 44.21, "station": "POINTE DE GOURNAY", "marker-color": "#818181"}}, {"type": "Feature", "geometry": {"type": "Point", "coordinates": [2.564865, 48.849472]}, "properties": {"numparc": 4898, "etat de la localisation": "autre", "ID BDGEO": "85", "horodatage": "2022-09-22 20:51:27", "distance (en metres)": 57.15, "station": "POINTE DE GOURNAY", "marker-color": "#818181"}}, {"type": "Feature", "geometry": {"type": "Point", "coordinates": [2.633193, 48.850311]}, "properties": {"numparc": 4990, "etat de la localisation": "autre", "ID BDGEO": "65", "horodatage": "2022-09-22 20:57:09", "distance (en metres)": 104.72, "station": "CITE SCOLAIRE", "marker-color": "#818181"}}, {"type": "Feature", "geometry": {"type": "Point", "coordinates": [2.564341, 48.849316]}, "properties": {"numparc": 4979, "etat de la localisation": "autre", "ID BDGEO": "22", "horodatage": "2022-09-22 21:02:03", "distance (en metres)": 42.34, "station": "POINTE DE GOURNAY", "marker-color": "#818181"}}, {"type": "Feature", "geometry": {"type": "Point", "coordinates": [2.633387, 48.850334]}, "properties": {"numparc": 4974, "etat de la localisation": "autre", "ID BDGEO": "65", "horodatage": "2022-09-22 21:30:31", "distance (en metres)": 91.39, "station": "CITE SCOLAIRE", "marker-color": "#818181"}}, {"type": "Feature", "geometry": {"type": "Point", "coordinates": [2.564944, 48.849472]}, "properties": {"numparc": 4897, "etat de la localisation": "autre", "ID BDGEO": "85", "horodatage": "2022-09-22 21:34:11", "distance (en metres)": 62.77, "station": "POINTE DE GOURNAY", "marker-color": "#818181"}}, {"type": "Feature", "geometry": {"type": "Point", "coordinates": [2.635339, 48.850075]}, "properties": {"numparc": 4898, "etat de la localisation": "autre", "ID BDGEO": "42", "horodatage": "2022-09-22 21:36:28", "distance (en metres)": 52.45, "station": "CITE SCOLAIRE", "marker-color": "#818181"}}, {"type": "Feature", "geometry": {"type": "Point", "coordinates": [2.564305, 48.8493]}, "properties": {"numparc": 4992, "etat de la localisation": "autre", "ID BDGEO": "22", "horodatage": "2022-09-22 21:48:12", "distance (en metres)": 45.25, "station": "POINTE DE GOURNAY", "marker-color": "#818181"}}, {"type": "Feature", "geometry": {"type": "Point", "coordinates": [2.658786, 48.842278]}, "properties": {"numparc": 4990, "etat de la localisation": "autre", "ID BDGEO": "8", "horodatage": "2022-09-22 21:52:45", "distance (en metres)": 74.63, "station": "BUSSY (S)", "marker-color": "#818181"}}, {"type": "Feature", "geometry": {"type": "Point", "coordinates": [2.659224, 48.842125]}, "properties": {"numparc": 4990, "etat de la localisation": "autre", "ID BDGEO": "8", "horodatage": "2022-09-22 21:54:35", "distance (en metres)": 61.6, "station": "BUSSY (S)", "marker-color": "#818181"}}, {"type": "Feature", "geometry": {"type": "Point", "coordinates": [2.63336, 48.850319]}, "properties": {"numparc": 4970, "etat de la localisation": "autre", "ID BDGEO": "65", "horodatage": "2022-09-22 21:58:46", "distance (en metres)": 92.93, "station": "CITE SCOLAIRE", "marker-color": "#818181"}}, {"type": "Feature", "geometry": {"type": "Point", "coordinates": [2.564336, 48.849316]}, "properties": {"numparc": 4897, "etat de la localisation": "autre", "ID BDGEO": "22", "horodatage": "2022-09-22 22:08:03", "distance (en metres)": 42.7, "station": "POINTE DE GOURNAY", "marker-color": "#818181"}}, {"type": "Feature", "geometry": {"type": "Point", "coordinates": [2.564922, 48.84948]}, "properties": {"numparc": 4970, "etat de la localisation": "autre", "ID BDGEO": "85", "horodatage": "2022-09-22 22:21:29", "distance (en metres)": 61.4, "station": "POINTE DE GOURNAY", "marker-color": "#818181"}}, {"type": "Feature", "geometry": {"type": "Point", "coordinates": [2.660563, 48.842152]}, "properties": {"numparc": 4992, "etat de la localisation": "autre", "ID BDGEO": "110", "horodatage": "2022-09-22 22:30:29", "distance (en metres)": 368.24, "station": "CITES UNIES", "marker-color": "#818181"}}, {"type": "Feature", "geometry": {"type": "Point", "coordinates": [2.564322, 48.849331]}, "properties": {"numparc": 4974, "etat de la localisation": "autre", "ID BDGEO": "22", "horodatage": "2022-09-22 22:32:37", "distance (en metres)": 43.45, "station": "POINTE DE GOURNAY", "marker-color": "#818181"}}, {"type": "Feature", "geometry": {"type": "Point", "coordinates": [2.659661, 48.842087]}, "properties": {"numparc": 4898, "etat de la localisation": "autre", "ID BDGEO": "8", "horodatage": "2022-09-22 23:07:15", "distance (en metres)": 55.47, "station": "BUSSY (S)", "marker-color": "#818181"}}, {"type": "Feature", "geometry": {"type": "Point", "coordinates": [2.660482, 48.842316]}, "properties": {"numparc": 4979, "etat de la localisation": "Delocalise", "ID BDGEO": "8", "horodatage": "2022-09-22 23:09:05", "distance (en metres)": 65.08, "station": "BUSSY (S)", "marker-color": "#FF565E"}}, {"type": "Feature", "geometry": {"type": "Point", "coordinates": [2.564361, 48.8493]}, "properties": {"numparc": 4970, "etat de la localisation": "autre", "ID BDGEO": "22", "horodatage": "2022-09-22 23:10:41", "distance (en metres)": 41.24, "station": "POINTE DE GOURNAY", "marker-color": "#818181"}}, {"type": "Feature", "geometry": {"type": "Point", "coordinates": [2.633424, 48.850334]}, "properties": {"numparc": 4974, "etat de la localisation": "autre", "ID BDGEO": "65", "horodatage": "2022-09-22 23:48:28", "distance (en metres)": 88.76, "station": "CITE SCOLAIRE", "marker-color": "#818181"}}, {"type": "Feature", "geometry": {"type": "Point", "coordinates": [2.658089, 48.843006]}, "properties": {"numparc": 4975, "etat de la localisation": "autre", "ID BDGEO": "8", "horodatage": "2022-09-23 00:19:49", "distance (en metres)": 126.34, "station": "BUSSY (S)", "marker-color": "#818181"}}, {"type": "Feature", "geometry": {"type": "Point", "coordinates": [2.660269, 48.842293]}, "properties": {"numparc": 4897, "etat de la localisation": "autre", "ID BDGEO": "8", "horodatage": "2022-09-23 00:53:41", "distance (en metres)": 53.27, "station": "BUSSY (S)", "marker-color": "#818181"}}, {"type": "Feature", "geometry": {"type": "Point", "coordinates": [2.564376, 48.849297]}, "properties": {"numparc": 4970, "etat de la localisation": "autre", "ID BDGEO": "22", "horodatage": "2022-09-23 01:09:38", "distance (en metres)": 40.27, "station": "POINTE DE GOURNAY", "marker-color": "#818181"}}, {"type": "Feature", "geometry": {"type": "Point", "coordinates": [2.660145, 48.842346]}, "properties": {"numparc": 4974, "etat de la localisation": "autre", "ID BDGEO": "8", "horodatage": "2022-09-23 01:18:48", "distance (en metres)": 42.47, "station": "BUSSY (S)", "marker-color": "#818181"}}, {"type": "Feature", "geometry": {"type": "Point", "coordinates": [2.659692, 48.842585]}, "properties": {"station": "BUSSY (S)", "ID BDGEO": "8", "marker-color": "#56B3FF"}}, {"type": "Feature", "geometry": {"type": "Point", "coordinates": [2.6346, 48.850137]}, "properties": {"station": "CITE SCOLAIRE", "ID BDGEO": "65", "marker-color": "#56B3FF"}}, {"type": "Feature", "geometry": {"type": "Point", "coordinates": [2.656205, 48.842325]}, "properties": {"station": "SALVADOR ALLENDE", "ID BDGEO": "55", "marker-color": "#56B3FF"}}, {"type": "Feature", "geometry": {"type": "Point", "coordinates": [2.564107, 48.849349]}, "properties": {"station": "POINTE DE GOURNAY", "ID BDGEO": "85", "marker-color": "#56B3FF"}}, {"type": "Feature", "geometry": {"type": "Point", "coordinates": [2.564911, 48.849383]}, "properties": {"station": "POINTE DE GOURNAY", "ID BDGEO": "22", "marker-color": "#56B3FF"}}, {"type": "Feature", "geometry": {"type": "Point", "coordinates": [2.526012, 48.84422]}, "properties": {"station": "BRY SUR MARNE RER", "ID BDGEO": "4", "marker-color": "#56B3FF"}}, {"type": "Feature", "geometry": {"type": "Point", "coordinates": [2.622962, 48.851262]}, "properties": {"station": "LES QUATRE PAVES", "ID BDGEO": "39", "marker-color": "#56B3FF"}}, {"type": "Feature", "geometry": {"type": "Point", "coordinates": [2.542464, 48.848354]}, "properties": {"station": "CHEMIN DE LA BARONNERIE", "ID BDGEO": "89", "marker-color": "#56B3FF"}}, {"type": "Feature", "geometry": {"type": "Point", "coordinates": [2.654823, 48.838967]}, "properties": {"station": "TORCY RER", "ID BDGEO": "54", "marker-color": "#56B3FF"}}, {"type": "Feature", "geometry": {"type": "Point", "coordinates": [2.655189, 48.838787]}, "properties": {"station": "TORCY RER#", "ID BDGEO": "3", "marker-color": "#56B3FF"}}, {"type": "Feature", "geometry": {"type": "Point", "coordinates": [2.557568, 48.848858]}, "properties": {"station": "CARREFOUR DE MALNOUE", "ID BDGEO": "87", "marker-color": "#56B3FF"}}, {"type": "Feature", "geometry": {"type": "Point", "coordinates": [2.583746, 48.855457]}, "properties": {"station": "ROND POINT DES PYRAMIDES", "ID BDGEO": "13", "marker-color": "#56B3FF"}}, {"type": "Feature", "geometry": {"type": "Point", "coordinates": [2.580394, 48.858052]}, "properties": {"station": "PLACE CHURCHILL", "ID BDGEO": "82", "marker-color": "#56B3FF"}}, {"type": "Feature", "geometry": {"type": "Point", "coordinates": [2.583528, 48.85544]}, "properties": {"station": "ROND POINT DES PYRAMIDES#", "ID BDGEO": "93", "marker-color": "#56B3FF"}}, {"type": "Feature", "geometry": {"type": "Point", "coordinates": [2.601695, 48.852309]}, "properties": {"station": "MAIRIE DE CHAMPS", "ID BDGEO": "30", "marker-color": "#56B3FF"}}, {"type": "Feature", "geometry": {"type": "Point", "coordinates": [2.655339, 48.838705]}, "properties": {"station": "TORCY RER.", "ID BDGEO": "53", "marker-color": "#56B3FF"}}, {"type": "Feature", "geometry": {"type": "Point", "coordinates": [2.634627, 48.850128]}, "properties": {"station": "CITE SCOLAIRE", "ID BDGEO": "42", "marker-color": "#56B3FF"}}, {"type": "Feature", "geometry": {"type": "Point", "coordinates": [2.657644, 48.839454]}, "properties": {"station": "CITES UNIES", "ID BDGEO": "110", "marker-color": "#56B3FF"}}]}