{"type": "FeatureCollection", "features": [{"type": "Feature", "geometry": {"type": "Point", "coordinates": [2.442387, 48.771721]}, "properties": {"etat de la localisation": "Delocalise", "numparc": 9530, "duree": "00:30:52", "horodatage": "2021-12-10 05:47:07", "marker-color": "#FF565E"}}, {"type": "Feature", "geometry": {"type": "Point", "coordinates": [2.443122, 48.771786]}, "properties": {"etat de la localisation": "Delocalise", "numparc": 9549, "duree": "00:12:10", "horodatage": "2021-12-10 05:59:58", "marker-color": "#FF565E"}}, {"type": "Feature", "geometry": {"type": "Point", "coordinates": [2.557779, 48.813526]}, "properties": {"etat de la localisation": "Delocalise", "numparc": 9536, "duree": "00:01:08", "horodatage": "2021-12-10 06:14:53", "marker-color": "#FF565E"}}, {"type": "Feature", "geometry": {"type": "Point", "coordinates": [2.557075, 48.806698]}, "properties": {"etat de la localisation": "Mission suivante non connue", "numparc": 9534, "duree": "", "horodatage": "2021-12-10 07:37:19", "marker-color": "#7156FF"}}, {"type": "Feature", "geometry": {"type": "Point", "coordinates": [2.558008, 48.807606]}, "properties": {"etat de la localisation": "Mission inconnue", "numparc": 9534, "duree": "", "horodatage": "2021-12-10 07:42:41", "marker-color": "#FF9F56"}}, {"type": "Feature", "geometry": {"type": "Point", "coordinates": [2.557903, 48.807255]}, "properties": {"etat de la localisation": "Delocalise", "numparc": 9536, "duree": "00:00:17", "horodatage": "2021-12-10 07:47:04", "marker-color": "#FF565E"}}, {"type": "Feature", "geometry": {"type": "Point", "coordinates": [2.557887, 48.807373]}, "properties": {"etat de la localisation": "Delocalise", "numparc": 9530, "duree": "00:00:22", "horodatage": "2021-12-10 08:28:32", "marker-color": "#FF565E"}}, {"type": "Feature", "geometry": {"type": "Point", "coordinates": [2.510595, 48.807171]}, "properties": {"etat de la localisation": "Hors service", "numparc": 9536, "duree": "", "horodatage": "2021-12-10 08:39:21", "marker-color": "#707070"}}, {"type": "Feature", "geometry": {"type": "Point", "coordinates": [2.5106, 48.807167]}, "properties": {"etat de la localisation": "Hors service", "numparc": 9536, "duree": "", "horodatage": "2021-12-10 08:47:17", "marker-color": "#707070"}}, {"type": "Feature", "geometry": {"type": "Point", "coordinates": [2.557758, 48.813984]}, "properties": {"etat de la localisation": "Mission suivante non connue", "numparc": 9534, "duree": "", "horodatage": "2021-12-10 08:53:22", "marker-color": "#7156FF"}}, {"type": "Feature", "geometry": {"type": "Point", "coordinates": [2.509538, 48.807381]}, "properties": {"etat de la localisation": "Mission suivante non connue", "numparc": 9534, "duree": "", "horodatage": "2021-12-10 09:16:59", "marker-color": "#7156FF"}}, {"type": "Feature", "geometry": {"type": "Point", "coordinates": [2.557735, 48.813984]}, "properties": {"etat de la localisation": "Mission suivante non connue", "numparc": 9534, "duree": "", "horodatage": "2021-12-10 09:52:44", "marker-color": "#7156FF"}}, {"type": "Feature", "geometry": {"type": "Point", "coordinates": [2.443061, 48.772167]}, "properties": {"etat de la localisation": "Hors service", "numparc": 9528, "duree": "", "horodatage": "2021-12-10 10:04:45", "marker-color": "#707070"}}, {"type": "Feature", "geometry": {"type": "Point", "coordinates": [2.509452, 48.807415]}, "properties": {"etat de la localisation": "Mission suivante non connue", "numparc": 9534, "duree": "", "horodatage": "2021-12-10 10:17:42", "marker-color": "#7156FF"}}, {"type": "Feature", "geometry": {"type": "Point", "coordinates": [2.557837, 48.807335]}, "properties": {"etat de la localisation": "Delocalise", "numparc": 9536, "duree": "00:00:17", "horodatage": "2021-12-10 11:07:56", "marker-color": "#FF565E"}}, {"type": "Feature", "geometry": {"type": "Point", "coordinates": [2.585299, 48.805012]}, "properties": {"etat de la localisation": "Mission suivante non connue", "numparc": 9534, "duree": "", "horodatage": "2021-12-10 11:20:50", "marker-color": "#7156FF"}}, {"type": "Feature", "geometry": {"type": "Point", "coordinates": [2.58514, 48.805294]}, "properties": {"etat de la localisation": "Mission inconnue", "numparc": 9534, "duree": "", "horodatage": "2021-12-10 11:27:37", "marker-color": "#FF9F56"}}, {"type": "Feature", "geometry": {"type": "Point", "coordinates": [2.510121, 48.807327]}, "properties": {"etat de la localisation": "Hors service", "numparc": 9530, "duree": "", "horodatage": "2021-12-10 12:18:52", "marker-color": "#707070"}}, {"type": "Feature", "geometry": {"type": "Point", "coordinates": [2.557852, 48.813992]}, "properties": {"etat de la localisation": "Mission suivante non connue", "numparc": 9534, "duree": "", "horodatage": "2021-12-10 12:41:54", "marker-color": "#7156FF"}}, {"type": "Feature", "geometry": {"type": "Point", "coordinates": [2.55713, 48.806774]}, "properties": {"etat de la localisation": "Mission suivante non connue", "numparc": 9530, "duree": "", "horodatage": "2021-12-10 12:54:03", "marker-color": "#7156FF"}}, {"type": "Feature", "geometry": {"type": "Point", "coordinates": [2.556427, 48.807869]}, "properties": {"etat de la localisation": "Delocalise", "numparc": 9530, "duree": "00:11:30", "horodatage": "2021-12-10 12:54:50", "marker-color": "#FF565E"}}, {"type": "Feature", "geometry": {"type": "Point", "coordinates": [2.509585, 48.809254]}, "properties": {"etat de la localisation": "Delocalise", "numparc": 9530, "duree": "00:13:55", "horodatage": "2021-12-10 13:08:08", "marker-color": "#FF565E"}}, {"type": "Feature", "geometry": {"type": "Point", "coordinates": [2.5123, 48.806412]}, "properties": {"etat de la localisation": "Hors service", "numparc": 9534, "duree": "", "horodatage": "2021-12-10 13:09:19", "marker-color": "#707070"}}, {"type": "Feature", "geometry": {"type": "Point", "coordinates": [2.442207, 48.772316]}, "properties": {"etat de la localisation": "Hors service", "numparc": 9536, "duree": "", "horodatage": "2021-12-10 13:11:18", "marker-color": "#707070"}}, {"type": "Feature", "geometry": {"type": "Point", "coordinates": [2.509035, 48.807747]}, "properties": {"etat de la localisation": "Delocalise", "numparc": 9534, "duree": "00:01:06", "horodatage": "2021-12-10 13:26:18", "marker-color": "#FF565E"}}, {"type": "Feature", "geometry": {"type": "Point", "coordinates": [2.584745, 48.805183]}, "properties": {"etat de la localisation": "Mission suivante non connue", "numparc": 9530, "duree": "", "horodatage": "2021-12-10 14:05:09", "marker-color": "#7156FF"}}, {"type": "Feature", "geometry": {"type": "Point", "coordinates": [2.557744, 48.813984]}, "properties": {"etat de la localisation": "Mission suivante non connue", "numparc": 9530, "duree": "", "horodatage": "2021-12-10 15:22:44", "marker-color": "#7156FF"}}, {"type": "Feature", "geometry": {"type": "Point", "coordinates": [2.50939, 48.80743]}, "properties": {"etat de la localisation": "Mission suivante non connue", "numparc": 9530, "duree": "", "horodatage": "2021-12-10 15:45:35", "marker-color": "#7156FF"}}, {"type": "Feature", "geometry": {"type": "Point", "coordinates": [2.557744, 48.813984]}, "properties": {"etat de la localisation": "Mission suivante non connue", "numparc": 9530, "duree": "", "horodatage": "2021-12-10 16:31:12", "marker-color": "#7156FF"}}, {"type": "Feature", "geometry": {"type": "Point", "coordinates": [2.557635, 48.813278]}, "properties": {"etat de la localisation": "Hors service", "numparc": 9530, "duree": "", "horodatage": "2021-12-10 16:32:12", "marker-color": "#707070"}}, {"type": "Feature", "geometry": {"type": "Point", "coordinates": [2.509545, 48.8074]}, "properties": {"etat de la localisation": "Mission suivante non connue", "numparc": 9530, "duree": "", "horodatage": "2021-12-10 16:58:13", "marker-color": "#7156FF"}}, {"type": "Feature", "geometry": {"type": "Point", "coordinates": [2.557148, 48.806728]}, "properties": {"etat de la localisation": "Mission suivante non connue", "numparc": 9530, "duree": "", "horodatage": "2021-12-10 18:06:01", "marker-color": "#7156FF"}}, {"type": "Feature", "geometry": {"type": "Point", "coordinates": [2.481424, 48.765396]}, "properties": {"etat de la localisation": "Mission inconnue", "numparc": 9530, "duree": "", "horodatage": "2021-12-10 18:34:49", "marker-color": "#FF9F56"}}, {"type": "Feature", "geometry": {"type": "Point", "coordinates": [2.442323, 48.771786]}, "properties": {"etat de la localisation": "Hors service", "numparc": 9530, "duree": "", "horodatage": "2021-12-10 18:54:18", "marker-color": "#707070"}}, {"type": "Feature", "geometry": {"type": "Point", "coordinates": [2.509498, 48.80743]}, "properties": {"etat de la localisation": "Mission suivante non connue", "numparc": 9528, "duree": "", "horodatage": "2021-12-10 20:00:12", "marker-color": "#7156FF"}}, {"type": "Feature", "geometry": {"type": "Point", "coordinates": [2.443033, 48.772396]}, "properties": {"etat de la localisation": "Hors service", "numparc": 9534, "duree": "", "horodatage": "2021-12-10 20:00:26", "marker-color": "#707070"}}, {"type": "Feature", "geometry": {"type": "Point", "coordinates": [2.509882, 48.80735]}, "properties": {"etat de la localisation": "Mission inconnue", "numparc": 9528, "duree": "", "horodatage": "2021-12-10 20:00:43", "marker-color": "#FF9F56"}}, {"type": "Feature", "geometry": {"type": "Point", "coordinates": [2.51158, 48.807167]}, "properties": {"etat de la localisation": "Mission inconnue", "numparc": 9528, "duree": "", "horodatage": "2021-12-10 20:05:16", "marker-color": "#FF9F56"}}, {"type": "Feature", "geometry": {"type": "Point", "coordinates": [2.443042, 48.7724]}, "properties": {"etat de la localisation": "Hors service", "numparc": 9549, "duree": "", "horodatage": "2021-12-10 20:05:37", "marker-color": "#707070"}}, {"type": "Feature", "geometry": {"type": "Point", "coordinates": [2.443015, 48.772305]}, "properties": {"etat de la localisation": "Hors service", "numparc": 9528, "duree": "", "horodatage": "2021-12-10 20:29:53", "marker-color": "#707070"}}, {"type": "Feature", "geometry": {"type": "Point", "coordinates": [2.442604, 48.771832]}, "properties": {"etat de la localisation": "Hors service", "numparc": 9536, "duree": "", "horodatage": "2021-12-10 21:14:02", "marker-color": "#707070"}}, {"type": "Feature", "geometry": {"type": "Point", "coordinates": [2.442603, 48.771828]}, "properties": {"etat de la localisation": "Mission inconnue", "numparc": 9536, "duree": "", "horodatage": "2021-12-10 21:22:38", "marker-color": "#FF9F56"}}, {"type": "Feature", "geometry": {"type": "Point", "coordinates": [2.442595, 48.771828]}, "properties": {"etat de la localisation": "Hors service", "numparc": 9536, "duree": "", "horodatage": "2021-12-10 21:26:21", "marker-color": "#707070"}}, {"type": "Feature", "geometry": {"type": "Point", "coordinates": [2.443016, 48.772305]}, "properties": {"etat de la localisation": "Mission inconnue", "numparc": 9528, "duree": "", "horodatage": "2021-12-10 21:27:42", "marker-color": "#FF9F56"}}, {"type": "Feature", "geometry": {"type": "Point", "coordinates": [2.443026, 48.772305]}, "properties": {"etat de la localisation": "Hors service", "numparc": 9528, "duree": "", "horodatage": "2021-12-10 21:32:06", "marker-color": "#707070"}}, {"type": "Feature", "geometry": {"type": "Point", "coordinates": [2.443041, 48.7724]}, "properties": {"etat de la localisation": "Mission inconnue", "numparc": 9549, "duree": "", "horodatage": "2021-12-10 21:38:01", "marker-color": "#FF9F56"}}, {"type": "Feature", "geometry": {"type": "Point", "coordinates": [2.443041, 48.7724]}, "properties": {"etat de la localisation": "Hors service", "numparc": 9549, "duree": "", "horodatage": "2021-12-10 21:42:12", "marker-color": "#707070"}}, {"type": "Feature", "geometry": {"type": "Point", "coordinates": [2.443034, 48.772396]}, "properties": {"etat de la localisation": "Mission inconnue", "numparc": 9534, "duree": "", "horodatage": "2021-12-10 21:44:08", "marker-color": "#FF9F56"}}, {"type": "Feature", "geometry": {"type": "Point", "coordinates": [2.443033, 48.772396]}, "properties": {"etat de la localisation": "Hors service", "numparc": 9534, "duree": "", "horodatage": "2021-12-10 21:47:12", "marker-color": "#707070"}}]}