{"type": "FeatureCollection", "features": [{"type": "Feature", "geometry": {"type": "Point", "coordinates": [2.296551, 48.721256]}, "properties": {"numparc": 7051, "etat de la localisation": "autre", "ID BDGEO": "23", "horodatage": "2022-05-13 04:45:49", "distance (en metres)": 307.17, "station": "Z.A.C DU PEROU", "marker-color": "#818181"}}, {"type": "Feature", "geometry": {"type": "Point", "coordinates": [2.297153, 48.721268]}, "properties": {"numparc": 7060, "etat de la localisation": "autre", "ID BDGEO": "25", "horodatage": "2022-05-13 05:20:34", "distance (en metres)": 40.29, "station": "DEPOT DE MASSY SORTIE", "marker-color": "#818181"}}, {"type": "Feature", "geometry": {"type": "Point", "coordinates": [2.324684, 48.821434]}, "properties": {"numparc": 7051, "etat de la localisation": "autre", "ID BDGEO": "2", "horodatage": "2022-05-13 05:40:55", "distance (en metres)": 49.24, "station": "PORTE D'ORLEANS-ERNEST REYER", "marker-color": "#818181"}}, {"type": "Feature", "geometry": {"type": "Point", "coordinates": [2.297177, 48.722122]}, "properties": {"numparc": 7057, "etat de la localisation": "autre", "ID BDGEO": "25", "horodatage": "2022-05-13 06:09:23", "distance (en metres)": 61.86, "station": "DEPOT DE MASSY SORTIE", "marker-color": "#818181"}}, {"type": "Feature", "geometry": {"type": "Point", "coordinates": [2.297074, 48.721298]}, "properties": {"numparc": 7047, "etat de la localisation": "autre", "ID BDGEO": "25", "horodatage": "2022-05-13 06:21:11", "distance (en metres)": 40.56, "station": "DEPOT DE MASSY SORTIE", "marker-color": "#818181"}}, {"type": "Feature", "geometry": {"type": "Point", "coordinates": [2.297181, 48.721081]}, "properties": {"numparc": 7052, "etat de la localisation": "autre", "ID BDGEO": "25", "horodatage": "2022-05-13 06:37:15", "distance (en metres)": 58.83, "station": "DEPOT DE MASSY SORTIE", "marker-color": "#818181"}}, {"type": "Feature", "geometry": {"type": "Point", "coordinates": [2.297525, 48.721981]}, "properties": {"numparc": 7052, "etat de la localisation": "autre", "ID BDGEO": "25", "horodatage": "2022-05-13 06:48:49", "distance (en metres)": 44.53, "station": "DEPOT DE MASSY SORTIE", "marker-color": "#818181"}}, {"type": "Feature", "geometry": {"type": "Point", "coordinates": [2.324764, 48.821552]}, "properties": {"numparc": 7057, "etat de la localisation": "autre", "ID BDGEO": "2", "horodatage": "2022-05-13 07:15:31", "distance (en metres)": 63.55, "station": "PORTE D'ORLEANS-ERNEST REYER", "marker-color": "#818181"}}, {"type": "Feature", "geometry": {"type": "Point", "coordinates": [2.324674, 48.821411]}, "properties": {"numparc": 7057, "etat de la localisation": "autre", "ID BDGEO": "2", "horodatage": "2022-05-13 07:16:26", "distance (en metres)": 46.6, "station": "PORTE D'ORLEANS-ERNEST REYER", "marker-color": "#818181"}}, {"type": "Feature", "geometry": {"type": "Point", "coordinates": [2.324724, 48.821472]}, "properties": {"numparc": 7051, "etat de la localisation": "autre", "ID BDGEO": "2", "horodatage": "2022-05-13 07:27:39", "distance (en metres)": 54.18, "station": "PORTE D'ORLEANS-ERNEST REYER", "marker-color": "#818181"}}, {"type": "Feature", "geometry": {"type": "Point", "coordinates": [2.304114, 48.721554]}, "properties": {"numparc": 7060, "etat de la localisation": "autre", "ID BDGEO": "88", "horodatage": "2022-05-13 07:28:37", "distance (en metres)": 80.62, "station": "CONCORDE", "marker-color": "#818181"}}, {"type": "Feature", "geometry": {"type": "Point", "coordinates": [2.32472, 48.821503]}, "properties": {"numparc": 7052, "etat de la localisation": "autre", "ID BDGEO": "2", "horodatage": "2022-05-13 07:55:49", "distance (en metres)": 57.32, "station": "PORTE D'ORLEANS-ERNEST REYER", "marker-color": "#818181"}}, {"type": "Feature", "geometry": {"type": "Point", "coordinates": [2.30424, 48.721592]}, "properties": {"numparc": 7051, "etat de la localisation": "autre", "ID BDGEO": "88", "horodatage": "2022-05-13 07:58:50", "distance (en metres)": 90.64, "station": "CONCORDE", "marker-color": "#818181"}}, {"type": "Feature", "geometry": {"type": "Point", "coordinates": [2.335398, 48.705879]}, "properties": {"numparc": 7057, "etat de la localisation": "autre", "ID BDGEO": "98", "horodatage": "2022-05-13 07:59:27", "distance (en metres)": 41.99, "station": "PLACE LUCIEN BOILLEAU", "marker-color": "#818181"}}, {"type": "Feature", "geometry": {"type": "Point", "coordinates": [2.298384, 48.721638]}, "properties": {"numparc": 7049, "etat de la localisation": "autre", "ID BDGEO": "3", "horodatage": "2022-05-13 08:02:55", "distance (en metres)": 343.86, "station": "Z.A.C DU PEROU", "marker-color": "#818181"}}, {"type": "Feature", "geometry": {"type": "Point", "coordinates": [2.335424, 48.705944]}, "properties": {"numparc": 7051, "etat de la localisation": "autre", "ID BDGEO": "98", "horodatage": "2022-05-13 08:25:45", "distance (en metres)": 48.96, "station": "PLACE LUCIEN BOILLEAU", "marker-color": "#818181"}}, {"type": "Feature", "geometry": {"type": "Point", "coordinates": [2.325413, 48.821499]}, "properties": {"numparc": 7047, "etat de la localisation": "autre", "ID BDGEO": "126", "horodatage": "2022-05-13 08:39:35", "distance (en metres)": 71.53, "station": "PORTE D'ORLEANS#", "marker-color": "#818181"}}, {"type": "Feature", "geometry": {"type": "Point", "coordinates": [2.304129, 48.721542]}, "properties": {"numparc": 7052, "etat de la localisation": "autre", "ID BDGEO": "88", "horodatage": "2022-05-13 08:42:01", "distance (en metres)": 80.8, "station": "CONCORDE", "marker-color": "#818181"}}, {"type": "Feature", "geometry": {"type": "Point", "coordinates": [2.324683, 48.821552]}, "properties": {"numparc": 7057, "etat de la localisation": "autre", "ID BDGEO": "25", "horodatage": "2022-05-13 09:16:58", "distance (en metres)": 11293.82, "station": "DEPOT DE MASSY SORTIE", "marker-color": "#818181"}}, {"type": "Feature", "geometry": {"type": "Point", "coordinates": [2.324674, 48.821514]}, "properties": {"numparc": 7057, "etat de la localisation": "autre", "ID BDGEO": "25", "horodatage": "2022-05-13 09:18:05", "distance (en metres)": 11289.53, "station": "DEPOT DE MASSY SORTIE", "marker-color": "#818181"}}, {"type": "Feature", "geometry": {"type": "Point", "coordinates": [2.311132, 48.707626]}, "properties": {"numparc": 7082, "etat de la localisation": "autre", "ID BDGEO": "25", "horodatage": "2022-05-13 09:28:21", "distance (en metres)": 1850.27, "station": "DEPOT DE MASSY SORTIE", "marker-color": "#818181"}}, {"type": "Feature", "geometry": {"type": "Point", "coordinates": [2.311132, 48.707626]}, "properties": {"numparc": 7082, "etat de la localisation": "autre", "ID BDGEO": "25", "horodatage": "2022-05-13 09:31:27", "distance (en metres)": 1850.27, "station": "DEPOT DE MASSY SORTIE", "marker-color": "#818181"}}, {"type": "Feature", "geometry": {"type": "Point", "coordinates": [2.324664, 48.821442]}, "properties": {"numparc": 7051, "etat de la localisation": "autre", "ID BDGEO": "2", "horodatage": "2022-05-13 09:31:50", "distance (en metres)": 49.66, "station": "PORTE D'ORLEANS-ERNEST REYER", "marker-color": "#818181"}}, {"type": "Feature", "geometry": {"type": "Point", "coordinates": [2.304111, 48.721569]}, "properties": {"numparc": 7060, "etat de la localisation": "autre", "ID BDGEO": "88", "horodatage": "2022-05-13 09:38:51", "distance (en metres)": 81.41, "station": "CONCORDE", "marker-color": "#818181"}}, {"type": "Feature", "geometry": {"type": "Point", "coordinates": [2.298673, 48.721783]}, "properties": {"numparc": 7049, "etat de la localisation": "autre", "ID BDGEO": "3", "horodatage": "2022-05-13 09:46:34", "distance (en metres)": 365.06, "station": "Z.A.C DU PEROU", "marker-color": "#818181"}}, {"type": "Feature", "geometry": {"type": "Point", "coordinates": [2.298673, 48.721783]}, "properties": {"numparc": 7049, "etat de la localisation": "autre", "ID BDGEO": "3", "horodatage": "2022-05-13 09:46:40", "distance (en metres)": 365.06, "station": "Z.A.C DU PEROU", "marker-color": "#818181"}}, {"type": "Feature", "geometry": {"type": "Point", "coordinates": [2.297974, 48.715279]}, "properties": {"numparc": 7052, "etat de la localisation": "autre", "ID BDGEO": "99", "horodatage": "2022-05-13 10:35:02", "distance (en metres)": 266.33, "station": "RUE DES FLEURS", "marker-color": "#818181"}}, {"type": "Feature", "geometry": {"type": "Point", "coordinates": [2.335384, 48.705883]}, "properties": {"numparc": 7052, "etat de la localisation": "autre", "ID BDGEO": "98", "horodatage": "2022-05-13 10:52:01", "distance (en metres)": 42.56, "station": "PLACE LUCIEN BOILLEAU", "marker-color": "#818181"}}, {"type": "Feature", "geometry": {"type": "Point", "coordinates": [2.325321, 48.821499]}, "properties": {"numparc": 7060, "etat de la localisation": "autre", "ID BDGEO": "126", "horodatage": "2022-05-13 10:54:09", "distance (en metres)": 65.7, "station": "PORTE D'ORLEANS#", "marker-color": "#818181"}}, {"type": "Feature", "geometry": {"type": "Point", "coordinates": [2.324682, 48.821449]}, "properties": {"numparc": 7051, "etat de la localisation": "autre", "ID BDGEO": "2", "horodatage": "2022-05-13 11:09:21", "distance (en metres)": 50.83, "station": "PORTE D'ORLEANS-ERNEST REYER", "marker-color": "#818181"}}, {"type": "Feature", "geometry": {"type": "Point", "coordinates": [2.297817, 48.720978]}, "properties": {"numparc": 7060, "etat de la localisation": "autre", "ID BDGEO": "25", "horodatage": "2022-05-13 11:16:26", "distance (en metres)": 74.08, "station": "DEPOT DE MASSY SORTIE", "marker-color": "#818181"}}, {"type": "Feature", "geometry": {"type": "Point", "coordinates": [2.324653, 48.821472]}, "properties": {"numparc": 7051, "etat de la localisation": "autre", "ID BDGEO": "2", "horodatage": "2022-05-13 12:34:38", "distance (en metres)": 52.75, "station": "PORTE D'ORLEANS-ERNEST REYER", "marker-color": "#818181"}}, {"type": "Feature", "geometry": {"type": "Point", "coordinates": [2.295169, 48.717201]}, "properties": {"numparc": 7052, "etat de la localisation": "autre", "ID BDGEO": "100", "horodatage": "2022-05-13 12:48:22", "distance (en metres)": 53.17, "station": "RUE DES FLEURS", "marker-color": "#818181"}}, {"type": "Feature", "geometry": {"type": "Point", "coordinates": [2.325793, 48.700447]}, "properties": {"numparc": 7052, "etat de la localisation": "autre", "ID BDGEO": "16", "horodatage": "2022-05-13 14:05:19", "distance (en metres)": 44.4, "station": "L'AVENIR", "marker-color": "#818181"}}, {"type": "Feature", "geometry": {"type": "Point", "coordinates": [2.324679, 48.82151]}, "properties": {"numparc": 7051, "etat de la localisation": "autre", "ID BDGEO": "2", "horodatage": "2022-05-13 14:06:33", "distance (en metres)": 57.32, "station": "PORTE D'ORLEANS-ERNEST REYER", "marker-color": "#818181"}}, {"type": "Feature", "geometry": {"type": "Point", "coordinates": [2.324608, 48.821384]}, "properties": {"numparc": 7051, "etat de la localisation": "autre", "ID BDGEO": "2", "horodatage": "2022-05-13 14:08:20", "distance (en metres)": 42.51, "station": "PORTE D'ORLEANS-ERNEST REYER", "marker-color": "#818181"}}, {"type": "Feature", "geometry": {"type": "Point", "coordinates": [2.325341, 48.821545]}, "properties": {"numparc": 7052, "etat de la localisation": "autre", "ID BDGEO": "2", "horodatage": "2022-05-13 14:36:43", "distance (en metres)": 86.2, "station": "PORTE D'ORLEANS-ERNEST REYER", "marker-color": "#818181"}}, {"type": "Feature", "geometry": {"type": "Point", "coordinates": [2.324597, 48.821365]}, "properties": {"numparc": 7052, "etat de la localisation": "autre", "ID BDGEO": "2", "horodatage": "2022-05-13 14:39:44", "distance (en metres)": 40.27, "station": "PORTE D'ORLEANS-ERNEST REYER", "marker-color": "#818181"}}, {"type": "Feature", "geometry": {"type": "Point", "coordinates": [2.302268, 48.713181]}, "properties": {"numparc": 7052, "etat de la localisation": "autre", "ID BDGEO": "4", "horodatage": "2022-05-13 15:07:23", "distance (en metres)": 40.68, "station": "RTE DE MASSY-LES CHAMPARTS", "marker-color": "#818181"}}, {"type": "Feature", "geometry": {"type": "Point", "coordinates": [2.335392, 48.705917]}, "properties": {"numparc": 7052, "etat de la localisation": "autre", "ID BDGEO": "98", "horodatage": "2022-05-13 15:22:39", "distance (en metres)": 46.25, "station": "PLACE LUCIEN BOILLEAU", "marker-color": "#818181"}}, {"type": "Feature", "geometry": {"type": "Point", "coordinates": [2.324703, 48.82148]}, "properties": {"numparc": 7051, "etat de la localisation": "autre", "ID BDGEO": "2", "horodatage": "2022-05-13 15:38:34", "distance (en metres)": 54.52, "station": "PORTE D'ORLEANS-ERNEST REYER", "marker-color": "#818181"}}, {"type": "Feature", "geometry": {"type": "Point", "coordinates": [2.297555, 48.721233]}, "properties": {"numparc": 7060, "etat de la localisation": "autre", "ID BDGEO": "25", "horodatage": "2022-05-13 16:14:32", "distance (en metres)": 40.8, "station": "DEPOT DE MASSY SORTIE", "marker-color": "#818181"}}, {"type": "Feature", "geometry": {"type": "Point", "coordinates": [2.325377, 48.821556]}, "properties": {"numparc": 7052, "etat de la localisation": "autre", "ID BDGEO": "2", "horodatage": "2022-05-13 16:16:55", "distance (en metres)": 89.0, "station": "PORTE D'ORLEANS-ERNEST REYER", "marker-color": "#818181"}}, {"type": "Feature", "geometry": {"type": "Point", "coordinates": [2.335407, 48.706074]}, "properties": {"numparc": 7051, "etat de la localisation": "autre", "ID BDGEO": "98", "horodatage": "2022-05-13 16:41:18", "distance (en metres)": 63.44, "station": "PLACE LUCIEN BOILLEAU", "marker-color": "#818181"}}, {"type": "Feature", "geometry": {"type": "Point", "coordinates": [2.324566, 48.821384]}, "properties": {"numparc": 7060, "etat de la localisation": "autre", "ID BDGEO": "2", "horodatage": "2022-05-13 16:45:19", "distance (en metres)": 41.98, "station": "PORTE D'ORLEANS-ERNEST REYER", "marker-color": "#818181"}}, {"type": "Feature", "geometry": {"type": "Point", "coordinates": [2.295206, 48.717175]}, "properties": {"numparc": 7052, "etat de la localisation": "autre", "ID BDGEO": "100", "horodatage": "2022-05-13 17:22:19", "distance (en metres)": 49.16, "station": "RUE DES FLEURS", "marker-color": "#818181"}}, {"type": "Feature", "geometry": {"type": "Point", "coordinates": [2.324682, 48.821529]}, "properties": {"numparc": 7051, "etat de la localisation": "autre", "ID BDGEO": "2", "horodatage": "2022-05-13 17:38:27", "distance (en metres)": 59.44, "station": "PORTE D'ORLEANS-ERNEST REYER", "marker-color": "#818181"}}, {"type": "Feature", "geometry": {"type": "Point", "coordinates": [2.324615, 48.821369]}, "properties": {"numparc": 7051, "etat de la localisation": "autre", "ID BDGEO": "2", "horodatage": "2022-05-13 17:40:15", "distance (en metres)": 40.96, "station": "PORTE D'ORLEANS-ERNEST REYER", "marker-color": "#818181"}}, {"type": "Feature", "geometry": {"type": "Point", "coordinates": [2.326582, 48.820049]}, "properties": {"numparc": 7052, "etat de la localisation": "autre", "ID BDGEO": "2", "horodatage": "2022-05-13 17:58:05", "distance (en metres)": 186.89, "station": "PORTE D'ORLEANS-ERNEST REYER", "marker-color": "#818181"}}, {"type": "Feature", "geometry": {"type": "Point", "coordinates": [2.325307, 48.821384]}, "properties": {"numparc": 7052, "etat de la localisation": "autre", "ID BDGEO": "2", "horodatage": "2022-05-13 18:02:26", "distance (en metres)": 72.98, "station": "PORTE D'ORLEANS-ERNEST REYER", "marker-color": "#818181"}}, {"type": "Feature", "geometry": {"type": "Point", "coordinates": [2.324641, 48.821468]}, "properties": {"numparc": 7052, "etat de la localisation": "autre", "ID BDGEO": "2", "horodatage": "2022-05-13 18:04:00", "distance (en metres)": 52.14, "station": "PORTE D'ORLEANS-ERNEST REYER", "marker-color": "#818181"}}, {"type": "Feature", "geometry": {"type": "Point", "coordinates": [2.335343, 48.706085]}, "properties": {"numparc": 7051, "etat de la localisation": "autre", "ID BDGEO": "98", "horodatage": "2022-05-13 18:20:54", "distance (en metres)": 65.24, "station": "PLACE LUCIEN BOILLEAU", "marker-color": "#818181"}}, {"type": "Feature", "geometry": {"type": "Point", "coordinates": [2.324651, 48.82151]}, "properties": {"numparc": 7060, "etat de la localisation": "autre", "ID BDGEO": "2", "horodatage": "2022-05-13 18:24:05", "distance (en metres)": 56.86, "station": "PORTE D'ORLEANS-ERNEST REYER", "marker-color": "#818181"}}, {"type": "Feature", "geometry": {"type": "Point", "coordinates": [2.324589, 48.821365]}, "properties": {"numparc": 7060, "etat de la localisation": "autre", "ID BDGEO": "2", "horodatage": "2022-05-13 18:34:50", "distance (en metres)": 40.16, "station": "PORTE D'ORLEANS-ERNEST REYER", "marker-color": "#818181"}}, {"type": "Feature", "geometry": {"type": "Point", "coordinates": [2.296117, 48.716629]}, "properties": {"numparc": 7052, "etat de la localisation": "autre", "ID BDGEO": "100", "horodatage": "2022-05-13 19:00:53", "distance (en metres)": 41.14, "station": "RUE DES FLEURS", "marker-color": "#818181"}}, {"type": "Feature", "geometry": {"type": "Point", "coordinates": [2.302649, 48.722923]}, "properties": {"numparc": 7052, "etat de la localisation": "autre", "ID BDGEO": "23", "horodatage": "2022-05-13 19:08:54", "distance (en metres)": 598.38, "station": "Z.A.C DU PEROU", "marker-color": "#818181"}}, {"type": "Feature", "geometry": {"type": "Point", "coordinates": [2.335433, 48.705967]}, "properties": {"numparc": 7060, "etat de la localisation": "autre", "ID BDGEO": "98", "horodatage": "2022-05-13 19:09:24", "distance (en metres)": 51.46, "station": "PLACE LUCIEN BOILLEAU", "marker-color": "#818181"}}, {"type": "Feature", "geometry": {"type": "Point", "coordinates": [2.335433, 48.705967]}, "properties": {"numparc": 7060, "etat de la localisation": "autre", "ID BDGEO": "98", "horodatage": "2022-05-13 19:09:28", "distance (en metres)": 51.46, "station": "PLACE LUCIEN BOILLEAU", "marker-color": "#818181"}}, {"type": "Feature", "geometry": {"type": "Point", "coordinates": [2.324696, 48.821537]}, "properties": {"numparc": 7052, "etat de la localisation": "autre", "ID BDGEO": "2", "horodatage": "2022-05-13 19:46:45", "distance (en metres)": 60.51, "station": "PORTE D'ORLEANS-ERNEST REYER", "marker-color": "#818181"}}, {"type": "Feature", "geometry": {"type": "Point", "coordinates": [2.324613, 48.821381]}, "properties": {"numparc": 7052, "etat de la localisation": "autre", "ID BDGEO": "2", "horodatage": "2022-05-13 19:47:42", "distance (en metres)": 42.17, "station": "PORTE D'ORLEANS-ERNEST REYER", "marker-color": "#818181"}}, {"type": "Feature", "geometry": {"type": "Point", "coordinates": [2.325488, 48.821625]}, "properties": {"numparc": 7060, "etat de la localisation": "autre", "ID BDGEO": "2", "horodatage": "2022-05-13 20:05:06", "distance (en metres)": 100.15, "station": "PORTE D'ORLEANS-ERNEST REYER", "marker-color": "#818181"}}, {"type": "Feature", "geometry": {"type": "Point", "coordinates": [2.324585, 48.821404]}, "properties": {"numparc": 7060, "etat de la localisation": "autre", "ID BDGEO": "2", "horodatage": "2022-05-13 20:09:33", "distance (en metres)": 44.29, "station": "PORTE D'ORLEANS-ERNEST REYER", "marker-color": "#818181"}}, {"type": "Feature", "geometry": {"type": "Point", "coordinates": [2.32467, 48.821487]}, "properties": {"numparc": 7052, "etat de la localisation": "autre", "ID BDGEO": "2", "horodatage": "2022-05-13 21:11:32", "distance (en metres)": 54.69, "station": "PORTE D'ORLEANS-ERNEST REYER", "marker-color": "#818181"}}, {"type": "Feature", "geometry": {"type": "Point", "coordinates": [2.324567, 48.821384]}, "properties": {"numparc": 7060, "etat de la localisation": "autre", "ID BDGEO": "2", "horodatage": "2022-05-13 21:29:02", "distance (en metres)": 41.99, "station": "PORTE D'ORLEANS-ERNEST REYER", "marker-color": "#818181"}}, {"type": "Feature", "geometry": {"type": "Point", "coordinates": [2.335366, 48.705906]}, "properties": {"numparc": 7060, "etat de la localisation": "autre", "ID BDGEO": "98", "horodatage": "2022-05-13 22:13:07", "distance (en metres)": 45.29, "station": "PLACE LUCIEN BOILLEAU", "marker-color": "#818181"}}, {"type": "Feature", "geometry": {"type": "Point", "coordinates": [2.325237, 48.821728]}, "properties": {"numparc": 7052, "etat de la localisation": "autre", "ID BDGEO": "2", "horodatage": "2022-05-13 22:44:44", "distance (en metres)": 96.81, "station": "PORTE D'ORLEANS-ERNEST REYER", "marker-color": "#818181"}}, {"type": "Feature", "geometry": {"type": "Point", "coordinates": [2.32518, 48.821896]}, "properties": {"numparc": 7052, "etat de la localisation": "autre", "ID BDGEO": "2", "horodatage": "2022-05-13 22:46:01", "distance (en metres)": 110.71, "station": "PORTE D'ORLEANS-ERNEST REYER", "marker-color": "#818181"}}, {"type": "Feature", "geometry": {"type": "Point", "coordinates": [2.325168, 48.821976]}, "properties": {"numparc": 7052, "etat de la localisation": "autre", "ID BDGEO": "2", "horodatage": "2022-05-13 22:47:03", "distance (en metres)": 118.32, "station": "PORTE D'ORLEANS-ERNEST REYER", "marker-color": "#818181"}}, {"type": "Feature", "geometry": {"type": "Point", "coordinates": [2.325398, 48.82156]}, "properties": {"numparc": 7052, "etat de la localisation": "autre", "ID BDGEO": "2", "horodatage": "2022-05-13 22:56:46", "distance (en metres)": 90.41, "station": "PORTE D'ORLEANS-ERNEST REYER", "marker-color": "#818181"}}, {"type": "Feature", "geometry": {"type": "Point", "coordinates": [2.325529, 48.821686]}, "properties": {"numparc": 7060, "etat de la localisation": "autre", "ID BDGEO": "2", "horodatage": "2022-05-13 23:09:52", "distance (en metres)": 107.01, "station": "PORTE D'ORLEANS-ERNEST REYER", "marker-color": "#818181"}}, {"type": "Feature", "geometry": {"type": "Point", "coordinates": [2.325588, 48.822746]}, "properties": {"numparc": 7060, "etat de la localisation": "autre", "ID BDGEO": "2", "horodatage": "2022-05-13 23:18:45", "distance (en metres)": 209.15, "station": "PORTE D'ORLEANS-ERNEST REYER", "marker-color": "#818181"}}, {"type": "Feature", "geometry": {"type": "Point", "coordinates": [2.32716, 48.701477]}, "properties": {"numparc": 7052, "etat de la localisation": "autre", "ID BDGEO": "10", "horodatage": "2022-05-13 23:21:42", "distance (en metres)": 89.18, "station": "PIERRE LOTI", "marker-color": "#818181"}}, {"type": "Feature", "geometry": {"type": "Point", "coordinates": [2.335447, 48.70591]}, "properties": {"numparc": 7052, "etat de la localisation": "autre", "ID BDGEO": "98", "horodatage": "2022-05-13 23:25:44", "distance (en metres)": 45.05, "station": "PLACE LUCIEN BOILLEAU", "marker-color": "#818181"}}, {"type": "Feature", "geometry": {"type": "Point", "coordinates": [2.324879, 48.821449]}, "properties": {"numparc": 7060, "etat de la localisation": "autre", "ID BDGEO": "2", "horodatage": "2022-05-13 23:34:53", "distance (en metres)": 56.58, "station": "PORTE D'ORLEANS-ERNEST REYER", "marker-color": "#818181"}}, {"type": "Feature", "geometry": {"type": "Point", "coordinates": [2.29517, 48.717182]}, "properties": {"numparc": 7060, "etat de la localisation": "autre", "ID BDGEO": "100", "horodatage": "2022-05-14 00:42:55", "distance (en metres)": 51.66, "station": "RUE DES FLEURS", "marker-color": "#818181"}}, {"type": "Feature", "geometry": {"type": "Point", "coordinates": [2.297766, 48.718613]}, "properties": {"station": "Z.A.C DU PEROU", "ID BDGEO": "23", "marker-color": "#56B3FF"}}, {"type": "Feature", "geometry": {"type": "Point", "coordinates": [2.297411, 48.721588]}, "properties": {"station": "DEPOT DE MASSY SORTIE", "ID BDGEO": "25", "marker-color": "#56B3FF"}}, {"type": "Feature", "geometry": {"type": "Point", "coordinates": [2.324488, 48.82101]}, "properties": {"station": "PORTE D'ORLEANS-ERNEST REYER", "ID BDGEO": "2", "marker-color": "#56B3FF"}}, {"type": "Feature", "geometry": {"type": "Point", "coordinates": [2.303212, 48.72114]}, "properties": {"station": "CONCORDE", "ID BDGEO": "88", "marker-color": "#56B3FF"}}, {"type": "Feature", "geometry": {"type": "Point", "coordinates": [2.335476, 48.705505]}, "properties": {"station": "PLACE LUCIEN BOILLEAU", "ID BDGEO": "98", "marker-color": "#56B3FF"}}, {"type": "Feature", "geometry": {"type": "Point", "coordinates": [2.297236, 48.718639]}, "properties": {"station": "Z.A.C DU PEROU", "ID BDGEO": "3", "marker-color": "#56B3FF"}}, {"type": "Feature", "geometry": {"type": "Point", "coordinates": [2.324556, 48.82119]}, "properties": {"station": "PORTE D'ORLEANS#", "ID BDGEO": "126", "marker-color": "#56B3FF"}}, {"type": "Feature", "geometry": {"type": "Point", "coordinates": [2.295295, 48.716895]}, "properties": {"station": "RUE DES FLEURS", "ID BDGEO": "99", "marker-color": "#56B3FF"}}, {"type": "Feature", "geometry": {"type": "Point", "coordinates": [2.295689, 48.716868]}, "properties": {"station": "RUE DES FLEURS", "ID BDGEO": "100", "marker-color": "#56B3FF"}}, {"type": "Feature", "geometry": {"type": "Point", "coordinates": [2.325196, 48.700381]}, "properties": {"station": "L'AVENIR", "ID BDGEO": "16", "marker-color": "#56B3FF"}}, {"type": "Feature", "geometry": {"type": "Point", "coordinates": [2.30175, 48.713311]}, "properties": {"station": "RTE DE MASSY-LES CHAMPARTS", "ID BDGEO": "4", "marker-color": "#56B3FF"}}, {"type": "Feature", "geometry": {"type": "Point", "coordinates": [2.327912, 48.702107]}, "properties": {"station": "PIERRE LOTI", "ID BDGEO": "10", "marker-color": "#56B3FF"}}]}