{"type": "FeatureCollection", "features": [{"type": "Feature", "geometry": {"type": "Point", "coordinates": [2.426284, 48.885464]}, "properties": {"alarme": "VEHICULE DELOCALISE", "numparc": 1556, "type": "EXPLOITATION", "duree": "00:03:50", "horodatage": "2022-05-31 07:12:02", "statut": "start", "marker-color": "#ff0000"}}, {"type": "Feature", "geometry": {"type": "Point", "coordinates": [2.437518, 48.884899]}, "properties": {"alarme": "VEHICULE DELOCALISE", "numparc": 1505, "type": "EXPLOITATION", "duree": "00:01:10", "horodatage": "2022-05-31 09:10:49", "statut": "start", "marker-color": "#ff0000"}}, {"type": "Feature", "geometry": {"type": "Point", "coordinates": [2.425241, 48.894848]}, "properties": {"alarme": "VEHICULE DELOCALISE", "numparc": 1556, "type": "EXPLOITATION", "duree": "00:02:17", "horodatage": "2022-05-31 09:33:00", "statut": "start", "marker-color": "#ff0000"}}, {"type": "Feature", "geometry": {"type": "Point", "coordinates": [2.425225, 48.894688]}, "properties": {"alarme": "VEHICULE DELOCALISE", "numparc": 1505, "type": "EXPLOITATION", "duree": "00:02:01", "horodatage": "2022-05-31 11:31:19", "statut": "start", "marker-color": "#ff0000"}}, {"type": "Feature", "geometry": {"type": "Point", "coordinates": [2.42521, 48.894703]}, "properties": {"alarme": "VEHICULE DELOCALISE", "numparc": 1556, "type": "EXPLOITATION", "duree": "00:04:45", "horodatage": "2022-05-31 11:53:51", "statut": "start", "marker-color": "#ff0000"}}, {"type": "Feature", "geometry": {"type": "Point", "coordinates": [2.425368, 48.894917]}, "properties": {"alarme": "VEHICULE DELOCALISE", "numparc": 1545, "type": "EXPLOITATION", "duree": "00:08:56", "horodatage": "2022-05-31 14:59:41", "statut": "start", "marker-color": "#ff0000"}}, {"type": "Feature", "geometry": {"type": "Point", "coordinates": [2.424058, 48.875355]}, "properties": {"alarme": "DEFAUT LIAISON DATA SAEIV / AIGLE", "numparc": 1559, "type": "TECHNIQUE", "duree": "00:00:08", "horodatage": "2022-05-31 19:39:59", "statut": "start", "marker-color": "#ff0000"}}, {"type": "Feature", "geometry": {"type": "Point", "coordinates": [2.425107, 48.875729]}, "properties": {"alarme": "DEFAUT LIAISON DATA SAEIV / AIGLE", "numparc": 1559, "type": "TECHNIQUE", "duree": "00:01:18", "horodatage": "2022-05-31 23:26:55", "statut": "start", "marker-color": "#ff0000"}}, {"type": "Feature", "geometry": {"type": "Point", "coordinates": [2.427258, 48.878731]}, "properties": {"alarme": "DEFAUT LIAISON DATA SAEIV / AIGLE", "numparc": 1559, "type": "TECHNIQUE", "duree": "00:01:59", "horodatage": "2022-05-31 23:30:17", "statut": "start", "marker-color": "#ff0000"}}, {"type": "Feature", "geometry": {"type": "Point", "coordinates": [2.432356, 48.884876]}, "properties": {"alarme": "VEHICULE DELOCALISE", "numparc": 1556, "type": "EXPLOITATION", "duree": "00:03:50", "horodatage": "2022-05-31 07:15:52", "statut": "end", "marker-color": "#2fe184"}}, {"type": "Feature", "geometry": {"type": "Point", "coordinates": [2.438816, 48.884483]}, "properties": {"alarme": "VEHICULE DELOCALISE", "numparc": 1505, "type": "EXPLOITATION", "duree": "00:01:10", "horodatage": "2022-05-31 09:11:59", "statut": "end", "marker-color": "#2fe184"}}, {"type": "Feature", "geometry": {"type": "Point", "coordinates": [2.426458, 48.890915]}, "properties": {"alarme": "VEHICULE DELOCALISE", "numparc": 1556, "type": "EXPLOITATION", "duree": "00:02:17", "horodatage": "2022-05-31 09:35:17", "statut": "end", "marker-color": "#2fe184"}}, {"type": "Feature", "geometry": {"type": "Point", "coordinates": [2.426471, 48.8909]}, "properties": {"alarme": "VEHICULE DELOCALISE", "numparc": 1505, "type": "EXPLOITATION", "duree": "00:02:01", "horodatage": "2022-05-31 11:33:20", "statut": "end", "marker-color": "#2fe184"}}, {"type": "Feature", "geometry": {"type": "Point", "coordinates": [2.42646, 48.890945]}, "properties": {"alarme": "VEHICULE DELOCALISE", "numparc": 1556, "type": "EXPLOITATION", "duree": "00:04:45", "horodatage": "2022-05-31 11:58:36", "statut": "end", "marker-color": "#2fe184"}}, {"type": "Feature", "geometry": {"type": "Point", "coordinates": [2.432336, 48.884865]}, "properties": {"alarme": "VEHICULE DELOCALISE", "numparc": 1545, "type": "EXPLOITATION", "duree": "00:08:56", "horodatage": "2022-05-31 15:08:37", "statut": "end", "marker-color": "#2fe184"}}, {"type": "Feature", "geometry": {"type": "Point", "coordinates": [2.424058, 48.875355]}, "properties": {"alarme": "DEFAUT LIAISON DATA SAEIV / AIGLE", "numparc": 1559, "type": "TECHNIQUE", "duree": "00:00:08", "horodatage": "2022-05-31 19:40:07", "statut": "end", "marker-color": "#2fe184"}}, {"type": "Feature", "geometry": {"type": "Point", "coordinates": [2.427256, 48.878437]}, "properties": {"alarme": "DEFAUT LIAISON DATA SAEIV / AIGLE", "numparc": 1559, "type": "TECHNIQUE", "duree": "00:01:18", "horodatage": "2022-05-31 23:28:13", "statut": "end", "marker-color": "#2fe184"}}, {"type": "Feature", "geometry": {"type": "Point", "coordinates": [2.427551, 48.879093]}, "properties": {"alarme": "DEFAUT LIAISON DATA SAEIV / AIGLE", "numparc": 1559, "type": "TECHNIQUE", "duree": "00:01:59", "horodatage": "2022-05-31 23:32:16", "statut": "end", "marker-color": "#2fe184"}}]}