{"type": "FeatureCollection", "features": [{"type": "Feature", "geometry": {"type": "Point", "coordinates": [2.369399, 48.74501]}, "properties": {"alarme": "VEHICULE DELOCALISE", "numparc": 7435, "type": "EXPLOITATION", "duree": "00:00:35", "horodatage": "2022-08-08 05:04:46", "statut": "start", "marker-color": "#ff0000"}}, {"type": "Feature", "geometry": {"type": "Point", "coordinates": [2.370196, 48.748486]}, "properties": {"alarme": "VEHICULE DELOCALISE", "numparc": 7437, "type": "EXPLOITATION", "duree": "00:01:33", "horodatage": "2022-08-08 05:29:11", "statut": "start", "marker-color": "#ff0000"}}, {"type": "Feature", "geometry": {"type": "Point", "coordinates": [2.370254, 48.758965]}, "properties": {"alarme": "VEHICULE DELOCALISE", "numparc": 7437, "type": "EXPLOITATION", "duree": "00:00:35", "horodatage": "2022-08-08 05:37:14", "statut": "start", "marker-color": "#ff0000"}}, {"type": "Feature", "geometry": {"type": "Point", "coordinates": [2.363339, 48.729683]}, "properties": {"alarme": "VEHICULE DELOCALISE", "numparc": 7438, "type": "EXPLOITATION", "duree": "00:02:28", "horodatage": "2022-08-08 05:48:51", "statut": "start", "marker-color": "#ff0000"}}, {"type": "Feature", "geometry": {"type": "Point", "coordinates": [2.363379, 48.72945]}, "properties": {"alarme": "VEHICULE DELOCALISE", "numparc": 7437, "type": "EXPLOITATION", "duree": "00:01:57", "horodatage": "2022-08-08 06:19:46", "statut": "start", "marker-color": "#ff0000"}}, {"type": "Feature", "geometry": {"type": "Point", "coordinates": [2.363295, 48.72971]}, "properties": {"alarme": "VEHICULE DELOCALISE", "numparc": 7421, "type": "EXPLOITATION", "duree": "00:03:32", "horodatage": "2022-08-08 06:31:29", "statut": "start", "marker-color": "#ff0000"}}, {"type": "Feature", "geometry": {"type": "Point", "coordinates": [2.369415, 48.743237]}, "properties": {"alarme": "VEHICULE DELOCALISE", "numparc": 7435, "type": "EXPLOITATION", "duree": "00:01:15", "horodatage": "2022-08-08 06:34:02", "statut": "start", "marker-color": "#ff0000"}}, {"type": "Feature", "geometry": {"type": "Point", "coordinates": [2.363404, 48.729393]}, "properties": {"alarme": "VEHICULE DELOCALISE", "numparc": 7433, "type": "EXPLOITATION", "duree": "00:04:07", "horodatage": "2022-08-08 07:11:22", "statut": "start", "marker-color": "#ff0000"}}, {"type": "Feature", "geometry": {"type": "Point", "coordinates": [2.363362, 48.729481]}, "properties": {"alarme": "VEHICULE DELOCALISE", "numparc": 7426, "type": "EXPLOITATION", "duree": "00:18:06", "horodatage": "2022-08-08 07:14:03", "statut": "start", "marker-color": "#ff0000"}}, {"type": "Feature", "geometry": {"type": "Point", "coordinates": [2.363373, 48.729481]}, "properties": {"alarme": "VEHICULE DELOCALISE", "numparc": 7424, "type": "EXPLOITATION", "duree": "00:03:14", "horodatage": "2022-08-08 07:31:48", "statut": "start", "marker-color": "#ff0000"}}, {"type": "Feature", "geometry": {"type": "Point", "coordinates": [2.369722, 48.738754]}, "properties": {"alarme": "VEHICULE DELOCALISE", "numparc": 7426, "type": "EXPLOITATION", "duree": "00:03:43", "horodatage": "2022-08-08 07:33:38", "statut": "start", "marker-color": "#ff0000"}}, {"type": "Feature", "geometry": {"type": "Point", "coordinates": [2.363442, 48.729309]}, "properties": {"alarme": "VEHICULE DELOCALISE", "numparc": 7438, "type": "EXPLOITATION", "duree": "00:02:53", "horodatage": "2022-08-08 07:51:03", "statut": "start", "marker-color": "#ff0000"}}, {"type": "Feature", "geometry": {"type": "Point", "coordinates": [2.363398, 48.729439]}, "properties": {"alarme": "VEHICULE DELOCALISE", "numparc": 7425, "type": "EXPLOITATION", "duree": "00:14:41", "horodatage": "2022-08-08 08:03:53", "statut": "start", "marker-color": "#ff0000"}}, {"type": "Feature", "geometry": {"type": "Point", "coordinates": [2.363374, 48.729511]}, "properties": {"alarme": "VEHICULE DELOCALISE", "numparc": 7437, "type": "EXPLOITATION", "duree": "00:03:19", "horodatage": "2022-08-08 08:19:17", "statut": "start", "marker-color": "#ff0000"}}, {"type": "Feature", "geometry": {"type": "Point", "coordinates": [2.369762, 48.738697]}, "properties": {"alarme": "VEHICULE DELOCALISE", "numparc": 7425, "type": "EXPLOITATION", "duree": "00:04:58", "horodatage": "2022-08-08 08:21:37", "statut": "start", "marker-color": "#ff0000"}}, {"type": "Feature", "geometry": {"type": "Point", "coordinates": [2.374246, 48.746197]}, "properties": {"alarme": "VEHICULE DELOCALISE", "numparc": 7425, "type": "EXPLOITATION", "duree": "00:03:22", "horodatage": "2022-08-08 08:27:16", "statut": "start", "marker-color": "#ff0000"}}, {"type": "Feature", "geometry": {"type": "Point", "coordinates": [2.394305, 48.744774]}, "properties": {"alarme": "VEHICULE DELOCALISE", "numparc": 7425, "type": "EXPLOITATION", "duree": "00:03:55", "horodatage": "2022-08-08 08:32:09", "statut": "start", "marker-color": "#ff0000"}}, {"type": "Feature", "geometry": {"type": "Point", "coordinates": [2.363378, 48.729408]}, "properties": {"alarme": "VEHICULE DELOCALISE", "numparc": 7440, "type": "EXPLOITATION", "duree": "00:06:13", "horodatage": "2022-08-08 08:36:34", "statut": "start", "marker-color": "#ff0000"}}, {"type": "Feature", "geometry": {"type": "Point", "coordinates": [2.410322, 48.745773]}, "properties": {"alarme": "VEHICULE DELOCALISE", "numparc": 7425, "type": "EXPLOITATION", "duree": "00:00:08", "horodatage": "2022-08-08 08:38:31", "statut": "start", "marker-color": "#ff0000"}}, {"type": "Feature", "geometry": {"type": "Point", "coordinates": [2.411258, 48.746983]}, "properties": {"alarme": "VEHICULE DELOCALISE", "numparc": 7425, "type": "EXPLOITATION", "duree": "00:02:48", "horodatage": "2022-08-08 08:38:58", "statut": "start", "marker-color": "#ff0000"}}, {"type": "Feature", "geometry": {"type": "Point", "coordinates": [2.411338, 48.755562]}, "properties": {"alarme": "VEHICULE DELOCALISE", "numparc": 7425, "type": "EXPLOITATION", "duree": "00:02:03", "horodatage": "2022-08-08 08:43:42", "statut": "start", "marker-color": "#ff0000"}}, {"type": "Feature", "geometry": {"type": "Point", "coordinates": [2.414909, 48.759682]}, "properties": {"alarme": "VEHICULE DELOCALISE", "numparc": 7425, "type": "EXPLOITATION", "duree": "00:00:52", "horodatage": "2022-08-08 08:46:24", "statut": "start", "marker-color": "#ff0000"}}, {"type": "Feature", "geometry": {"type": "Point", "coordinates": [2.412317, 48.764339]}, "properties": {"alarme": "VEHICULE DELOCALISE", "numparc": 7425, "type": "EXPLOITATION", "duree": "00:00:13", "horodatage": "2022-08-08 08:47:57", "statut": "start", "marker-color": "#ff0000"}}, {"type": "Feature", "geometry": {"type": "Point", "coordinates": [2.410771, 48.764984]}, "properties": {"alarme": "VEHICULE DELOCALISE", "numparc": 7425, "type": "EXPLOITATION", "duree": "00:03:47", "horodatage": "2022-08-08 08:48:56", "statut": "start", "marker-color": "#ff0000"}}, {"type": "Feature", "geometry": {"type": "Point", "coordinates": [2.402288, 48.762398]}, "properties": {"alarme": "VEHICULE DELOCALISE", "numparc": 7425, "type": "EXPLOITATION", "duree": "00:00:20", "horodatage": "2022-08-08 08:53:54", "statut": "start", "marker-color": "#ff0000"}}, {"type": "Feature", "geometry": {"type": "Point", "coordinates": [2.398884, 48.763466]}, "properties": {"alarme": "VEHICULE DELOCALISE", "numparc": 7425, "type": "EXPLOITATION", "duree": "00:01:24", "horodatage": "2022-08-08 08:55:15", "statut": "start", "marker-color": "#ff0000"}}, {"type": "Feature", "geometry": {"type": "Point", "coordinates": [2.392528, 48.765301]}, "properties": {"alarme": "VEHICULE DELOCALISE", "numparc": 7425, "type": "EXPLOITATION", "duree": "00:02:21", "horodatage": "2022-08-08 08:57:33", "statut": "start", "marker-color": "#ff0000"}}, {"type": "Feature", "geometry": {"type": "Point", "coordinates": [2.383806, 48.766895]}, "properties": {"alarme": "VEHICULE DELOCALISE", "numparc": 7425, "type": "EXPLOITATION", "duree": "00:00:36", "horodatage": "2022-08-08 09:01:08", "statut": "start", "marker-color": "#ff0000"}}, {"type": "Feature", "geometry": {"type": "Point", "coordinates": [2.377466, 48.767639]}, "properties": {"alarme": "VEHICULE DELOCALISE", "numparc": 7425, "type": "EXPLOITATION", "duree": "00:02:23", "horodatage": "2022-08-08 09:02:10", "statut": "start", "marker-color": "#ff0000"}}, {"type": "Feature", "geometry": {"type": "Point", "coordinates": [2.367951, 48.767826]}, "properties": {"alarme": "VEHICULE DELOCALISE", "numparc": 7425, "type": "EXPLOITATION", "duree": "00:00:54", "horodatage": "2022-08-08 09:11:15", "statut": "start", "marker-color": "#ff0000"}}, {"type": "Feature", "geometry": {"type": "Point", "coordinates": [2.369412, 48.744961]}, "properties": {"alarme": "VEHICULE DELOCALISE", "numparc": 7435, "type": "EXPLOITATION", "duree": "00:00:20", "horodatage": "2022-08-08 09:23:03", "statut": "start", "marker-color": "#ff0000"}}, {"type": "Feature", "geometry": {"type": "Point", "coordinates": [2.363364, 48.729519]}, "properties": {"alarme": "VEHICULE DELOCALISE", "numparc": 7433, "type": "EXPLOITATION", "duree": "00:06:39", "horodatage": "2022-08-08 09:28:22", "statut": "start", "marker-color": "#ff0000"}}, {"type": "Feature", "geometry": {"type": "Point", "coordinates": [2.363421, 48.729416]}, "properties": {"alarme": "VEHICULE DELOCALISE", "numparc": 7426, "type": "EXPLOITATION", "duree": "00:05:22", "horodatage": "2022-08-08 09:39:44", "statut": "start", "marker-color": "#ff0000"}}, {"type": "Feature", "geometry": {"type": "Point", "coordinates": [2.363304, 48.729759]}, "properties": {"alarme": "VEHICULE DELOCALISE", "numparc": 7424, "type": "EXPLOITATION", "duree": "00:03:30", "horodatage": "2022-08-08 09:46:37", "statut": "start", "marker-color": "#ff0000"}}, {"type": "Feature", "geometry": {"type": "Point", "coordinates": [2.363462, 48.729328]}, "properties": {"alarme": "VEHICULE DELOCALISE", "numparc": 7438, "type": "EXPLOITATION", "duree": "00:03:45", "horodatage": "2022-08-08 10:09:18", "statut": "start", "marker-color": "#ff0000"}}, {"type": "Feature", "geometry": {"type": "Point", "coordinates": [2.363266, 48.729797]}, "properties": {"alarme": "VEHICULE DELOCALISE", "numparc": 7425, "type": "EXPLOITATION", "duree": "00:16:25", "horodatage": "2022-08-08 10:24:34", "statut": "start", "marker-color": "#ff0000"}}, {"type": "Feature", "geometry": {"type": "Point", "coordinates": [2.363304, 48.729633]}, "properties": {"alarme": "VEHICULE DELOCALISE", "numparc": 7437, "type": "EXPLOITATION", "duree": "00:04:08", "horodatage": "2022-08-08 10:33:30", "statut": "start", "marker-color": "#ff0000"}}, {"type": "Feature", "geometry": {"type": "Point", "coordinates": [2.394379, 48.744789]}, "properties": {"alarme": "VEHICULE DELOCALISE", "numparc": 7425, "type": "EXPLOITATION", "duree": "00:04:11", "horodatage": "2022-08-08 10:42:28", "statut": "start", "marker-color": "#ff0000"}}, {"type": "Feature", "geometry": {"type": "Point", "coordinates": [2.410289, 48.745731]}, "properties": {"alarme": "VEHICULE DELOCALISE", "numparc": 7425, "type": "EXPLOITATION", "duree": "00:00:11", "horodatage": "2022-08-08 10:48:09", "statut": "start", "marker-color": "#ff0000"}}, {"type": "Feature", "geometry": {"type": "Point", "coordinates": [2.411184, 48.746845]}, "properties": {"alarme": "VEHICULE DELOCALISE", "numparc": 7425, "type": "EXPLOITATION", "duree": "00:00:49", "horodatage": "2022-08-08 10:48:48", "statut": "start", "marker-color": "#ff0000"}}, {"type": "Feature", "geometry": {"type": "Point", "coordinates": [2.413486, 48.752239]}, "properties": {"alarme": "VEHICULE DELOCALISE", "numparc": 7425, "type": "EXPLOITATION", "duree": "00:00:29", "horodatage": "2022-08-08 10:50:48", "statut": "start", "marker-color": "#ff0000"}}, {"type": "Feature", "geometry": {"type": "Point", "coordinates": [2.411223, 48.755703]}, "properties": {"alarme": "VEHICULE DELOCALISE", "numparc": 7425, "type": "EXPLOITATION", "duree": "00:01:38", "horodatage": "2022-08-08 10:51:58", "statut": "start", "marker-color": "#ff0000"}}, {"type": "Feature", "geometry": {"type": "Point", "coordinates": [2.414906, 48.759697]}, "properties": {"alarme": "VEHICULE DELOCALISE", "numparc": 7425, "type": "EXPLOITATION", "duree": "00:01:26", "horodatage": "2022-08-08 10:54:07", "statut": "start", "marker-color": "#ff0000"}}, {"type": "Feature", "geometry": {"type": "Point", "coordinates": [2.410767, 48.764992]}, "properties": {"alarme": "VEHICULE DELOCALISE", "numparc": 7425, "type": "EXPLOITATION", "duree": "00:03:48", "horodatage": "2022-08-08 10:56:07", "statut": "start", "marker-color": "#ff0000"}}, {"type": "Feature", "geometry": {"type": "Point", "coordinates": [2.402247, 48.762459]}, "properties": {"alarme": "VEHICULE DELOCALISE", "numparc": 7425, "type": "EXPLOITATION", "duree": "00:00:22", "horodatage": "2022-08-08 11:00:55", "statut": "start", "marker-color": "#ff0000"}}, {"type": "Feature", "geometry": {"type": "Point", "coordinates": [2.363362, 48.729481]}, "properties": {"alarme": "VEHICULE DELOCALISE", "numparc": 7421, "type": "EXPLOITATION", "duree": "00:03:01", "horodatage": "2022-08-08 11:02:28", "statut": "start", "marker-color": "#ff0000"}}, {"type": "Feature", "geometry": {"type": "Point", "coordinates": [2.398646, 48.76355]}, "properties": {"alarme": "VEHICULE DELOCALISE", "numparc": 7425, "type": "EXPLOITATION", "duree": "00:00:55", "horodatage": "2022-08-08 11:02:40", "statut": "start", "marker-color": "#ff0000"}}, {"type": "Feature", "geometry": {"type": "Point", "coordinates": [2.392543, 48.765385]}, "properties": {"alarme": "VEHICULE DELOCALISE", "numparc": 7425, "type": "EXPLOITATION", "duree": "00:00:48", "horodatage": "2022-08-08 11:04:19", "statut": "start", "marker-color": "#ff0000"}}, {"type": "Feature", "geometry": {"type": "Point", "coordinates": [2.386573, 48.766483]}, "properties": {"alarme": "VEHICULE DELOCALISE", "numparc": 7425, "type": "EXPLOITATION", "duree": "00:06:01", "horodatage": "2022-08-08 11:06:08", "statut": "start", "marker-color": "#ff0000"}}, {"type": "Feature", "geometry": {"type": "Point", "coordinates": [2.369399, 48.743336]}, "properties": {"alarme": "VEHICULE DELOCALISE", "numparc": 7435, "type": "EXPLOITATION", "duree": "00:05:43", "horodatage": "2022-08-08 11:07:19", "statut": "start", "marker-color": "#ff0000"}}, {"type": "Feature", "geometry": {"type": "Point", "coordinates": [2.363301, 48.72979]}, "properties": {"alarme": "VEHICULE DELOCALISE", "numparc": 7433, "type": "EXPLOITATION", "duree": "00:02:56", "horodatage": "2022-08-08 11:36:51", "statut": "start", "marker-color": "#ff0000"}}, {"type": "Feature", "geometry": {"type": "Point", "coordinates": [2.363345, 48.729549]}, "properties": {"alarme": "VEHICULE DELOCALISE", "numparc": 7426, "type": "EXPLOITATION", "duree": "00:03:58", "horodatage": "2022-08-08 11:54:40", "statut": "start", "marker-color": "#ff0000"}}, {"type": "Feature", "geometry": {"type": "Point", "coordinates": [2.363342, 48.729591]}, "properties": {"alarme": "VEHICULE DELOCALISE", "numparc": 7424, "type": "EXPLOITATION", "duree": "00:19:05", "horodatage": "2022-08-08 11:58:45", "statut": "start", "marker-color": "#ff0000"}}, {"type": "Feature", "geometry": {"type": "Point", "coordinates": [2.369736, 48.738804]}, "properties": {"alarme": "VEHICULE DELOCALISE", "numparc": 7424, "type": "EXPLOITATION", "duree": "00:01:45", "horodatage": "2022-08-08 12:21:24", "statut": "start", "marker-color": "#ff0000"}}, {"type": "Feature", "geometry": {"type": "Point", "coordinates": [2.363371, 48.729523]}, "properties": {"alarme": "VEHICULE DELOCALISE", "numparc": 7438, "type": "EXPLOITATION", "duree": "00:02:48", "horodatage": "2022-08-08 12:21:47", "statut": "start", "marker-color": "#ff0000"}}, {"type": "Feature", "geometry": {"type": "Point", "coordinates": [2.369645, 48.746044]}, "properties": {"alarme": "VEHICULE DELOCALISE", "numparc": 7424, "type": "EXPLOITATION", "duree": "00:00:15", "horodatage": "2022-08-08 12:24:40", "statut": "start", "marker-color": "#ff0000"}}, {"type": "Feature", "geometry": {"type": "Point", "coordinates": [2.374339, 48.746208]}, "properties": {"alarme": "VEHICULE DELOCALISE", "numparc": 7424, "type": "EXPLOITATION", "duree": "00:02:07", "horodatage": "2022-08-08 12:25:50", "statut": "start", "marker-color": "#ff0000"}}, {"type": "Feature", "geometry": {"type": "Point", "coordinates": [2.394275, 48.744804]}, "properties": {"alarme": "VEHICULE DELOCALISE", "numparc": 7424, "type": "EXPLOITATION", "duree": "00:03:51", "horodatage": "2022-08-08 12:29:35", "statut": "start", "marker-color": "#ff0000"}}, {"type": "Feature", "geometry": {"type": "Point", "coordinates": [2.363275, 48.72971]}, "properties": {"alarme": "VEHICULE DELOCALISE", "numparc": 7425, "type": "EXPLOITATION", "duree": "00:02:43", "horodatage": "2022-08-08 12:29:55", "statut": "start", "marker-color": "#ff0000"}}, {"type": "Feature", "geometry": {"type": "Point", "coordinates": [2.410285, 48.745789]}, "properties": {"alarme": "VEHICULE DELOCALISE", "numparc": 7424, "type": "EXPLOITATION", "duree": "00:00:08", "horodatage": "2022-08-08 12:35:13", "statut": "start", "marker-color": "#ff0000"}}, {"type": "Feature", "geometry": {"type": "Point", "coordinates": [2.411213, 48.74699]}, "properties": {"alarme": "VEHICULE DELOCALISE", "numparc": 7424, "type": "EXPLOITATION", "duree": "00:00:44", "horodatage": "2022-08-08 12:35:39", "statut": "start", "marker-color": "#ff0000"}}, {"type": "Feature", "geometry": {"type": "Point", "coordinates": [2.413397, 48.752289]}, "properties": {"alarme": "VEHICULE DELOCALISE", "numparc": 7424, "type": "EXPLOITATION", "duree": "00:00:28", "horodatage": "2022-08-08 12:37:20", "statut": "start", "marker-color": "#ff0000"}}, {"type": "Feature", "geometry": {"type": "Point", "coordinates": [2.411191, 48.755692]}, "properties": {"alarme": "VEHICULE DELOCALISE", "numparc": 7424, "type": "EXPLOITATION", "duree": "00:01:52", "horodatage": "2022-08-08 12:38:53", "statut": "start", "marker-color": "#ff0000"}}, {"type": "Feature", "geometry": {"type": "Point", "coordinates": [2.41486, 48.759644]}, "properties": {"alarme": "VEHICULE DELOCALISE", "numparc": 7424, "type": "EXPLOITATION", "duree": "00:01:11", "horodatage": "2022-08-08 12:41:16", "statut": "start", "marker-color": "#ff0000"}}, {"type": "Feature", "geometry": {"type": "Point", "coordinates": [2.412272, 48.764301]}, "properties": {"alarme": "VEHICULE DELOCALISE", "numparc": 7424, "type": "EXPLOITATION", "duree": "00:00:14", "horodatage": "2022-08-08 12:43:09", "statut": "start", "marker-color": "#ff0000"}}, {"type": "Feature", "geometry": {"type": "Point", "coordinates": [2.410728, 48.764954]}, "properties": {"alarme": "VEHICULE DELOCALISE", "numparc": 7424, "type": "EXPLOITATION", "duree": "00:03:22", "horodatage": "2022-08-08 12:44:01", "statut": "start", "marker-color": "#ff0000"}}, {"type": "Feature", "geometry": {"type": "Point", "coordinates": [2.402755, 48.761982]}, "properties": {"alarme": "VEHICULE DELOCALISE", "numparc": 7424, "type": "EXPLOITATION", "duree": "00:05:10", "horodatage": "2022-08-08 12:48:43", "statut": "start", "marker-color": "#ff0000"}}, {"type": "Feature", "geometry": {"type": "Point", "coordinates": [2.383797, 48.766853]}, "properties": {"alarme": "VEHICULE DELOCALISE", "numparc": 7424, "type": "EXPLOITATION", "duree": "00:02:17", "horodatage": "2022-08-08 12:54:32", "statut": "start", "marker-color": "#ff0000"}}, {"type": "Feature", "geometry": {"type": "Point", "coordinates": [2.362347, 48.759411]}, "properties": {"alarme": "VEHICULE DELOCALISE", "numparc": 7433, "type": "EXPLOITATION", "duree": "00:01:43", "horodatage": "2022-08-08 12:57:41", "statut": "start", "marker-color": "#ff0000"}}, {"type": "Feature", "geometry": {"type": "Point", "coordinates": [2.363297, 48.729683]}, "properties": {"alarme": "VEHICULE DELOCALISE", "numparc": 7423, "type": "EXPLOITATION", "duree": "00:03:10", "horodatage": "2022-08-08 13:20:30", "statut": "start", "marker-color": "#ff0000"}}, {"type": "Feature", "geometry": {"type": "Point", "coordinates": [2.363362, 48.729469]}, "properties": {"alarme": "VEHICULE DELOCALISE", "numparc": 7426, "type": "EXPLOITATION", "duree": "00:02:30", "horodatage": "2022-08-08 14:04:48", "statut": "start", "marker-color": "#ff0000"}}, {"type": "Feature", "geometry": {"type": "Point", "coordinates": [2.363292, 48.729755]}, "properties": {"alarme": "VEHICULE DELOCALISE", "numparc": 7424, "type": "EXPLOITATION", "duree": "00:10:31", "horodatage": "2022-08-08 14:17:25", "statut": "start", "marker-color": "#ff0000"}}, {"type": "Feature", "geometry": {"type": "Point", "coordinates": [2.363297, 48.729687]}, "properties": {"alarme": "VEHICULE DELOCALISE", "numparc": 7438, "type": "EXPLOITATION", "duree": "00:04:32", "horodatage": "2022-08-08 14:44:03", "statut": "start", "marker-color": "#ff0000"}}, {"type": "Feature", "geometry": {"type": "Point", "coordinates": [2.363294, 48.729771]}, "properties": {"alarme": "VEHICULE DELOCALISE", "numparc": 7423, "type": "EXPLOITATION", "duree": "00:02:13", "horodatage": "2022-08-08 15:31:24", "statut": "start", "marker-color": "#ff0000"}}, {"type": "Feature", "geometry": {"type": "Point", "coordinates": [2.363352, 48.729527]}, "properties": {"alarme": "VEHICULE DELOCALISE", "numparc": 7421, "type": "EXPLOITATION", "duree": "00:03:23", "horodatage": "2022-08-08 15:47:07", "statut": "start", "marker-color": "#ff0000"}}, {"type": "Feature", "geometry": {"type": "Point", "coordinates": [2.363292, 48.729752]}, "properties": {"alarme": "VEHICULE DELOCALISE", "numparc": 7426, "type": "EXPLOITATION", "duree": "00:13:46", "horodatage": "2022-08-08 16:17:21", "statut": "start", "marker-color": "#ff0000"}}, {"type": "Feature", "geometry": {"type": "Point", "coordinates": [2.41143, 48.760876]}, "properties": {"alarme": "VEHICULE DELOCALISE", "numparc": 7433, "type": "EXPLOITATION", "duree": "00:03:55", "horodatage": "2022-08-08 16:50:15", "statut": "start", "marker-color": "#ff0000"}}, {"type": "Feature", "geometry": {"type": "Point", "coordinates": [2.369407, 48.745014]}, "properties": {"alarme": "VEHICULE DELOCALISE", "numparc": 7424, "type": "EXPLOITATION", "duree": "00:01:03", "horodatage": "2022-08-08 16:56:52", "statut": "start", "marker-color": "#ff0000"}}, {"type": "Feature", "geometry": {"type": "Point", "coordinates": [2.363386, 48.729412]}, "properties": {"alarme": "VEHICULE DELOCALISE", "numparc": 7438, "type": "EXPLOITATION", "duree": "00:02:40", "horodatage": "2022-08-08 16:58:15", "statut": "start", "marker-color": "#ff0000"}}, {"type": "Feature", "geometry": {"type": "Point", "coordinates": [2.3694, 48.72879]}, "properties": {"alarme": "DEFAUT LIAISON DATA SAEIV / AIGLE", "numparc": 7437, "type": "TECHNIQUE", "duree": "00:00:28", "horodatage": "2022-08-08 17:15:52", "statut": "start", "marker-color": "#ff0000"}}, {"type": "Feature", "geometry": {"type": "Point", "coordinates": [2.363383, 48.729397]}, "properties": {"alarme": "VEHICULE DELOCALISE", "numparc": 7421, "type": "EXPLOITATION", "duree": "00:03:00", "horodatage": "2022-08-08 18:02:47", "statut": "start", "marker-color": "#ff0000"}}, {"type": "Feature", "geometry": {"type": "Point", "coordinates": [2.363304, 48.729763]}, "properties": {"alarme": "VEHICULE DELOCALISE", "numparc": 7426, "type": "EXPLOITATION", "duree": "00:02:11", "horodatage": "2022-08-08 18:33:24", "statut": "start", "marker-color": "#ff0000"}}, {"type": "Feature", "geometry": {"type": "Point", "coordinates": [2.369416, 48.745098]}, "properties": {"alarme": "VEHICULE DELOCALISE", "numparc": 7424, "type": "EXPLOITATION", "duree": "00:00:22", "horodatage": "2022-08-08 19:08:26", "statut": "start", "marker-color": "#ff0000"}}, {"type": "Feature", "geometry": {"type": "Point", "coordinates": [2.363415, 48.729416]}, "properties": {"alarme": "VEHICULE DELOCALISE", "numparc": 7438, "type": "EXPLOITATION", "duree": "00:02:58", "horodatage": "2022-08-08 19:09:40", "statut": "start", "marker-color": "#ff0000"}}, {"type": "Feature", "geometry": {"type": "Point", "coordinates": [2.363302, 48.729774]}, "properties": {"alarme": "VEHICULE DELOCALISE", "numparc": 7422, "type": "EXPLOITATION", "duree": "00:14:59", "horodatage": "2022-08-08 19:18:19", "statut": "start", "marker-color": "#ff0000"}}, {"type": "Feature", "geometry": {"type": "Point", "coordinates": [2.411479, 48.760967]}, "properties": {"alarme": "VEHICULE DELOCALISE", "numparc": 7437, "type": "EXPLOITATION", "duree": "00:03:33", "horodatage": "2022-08-08 19:23:00", "statut": "start", "marker-color": "#ff0000"}}, {"type": "Feature", "geometry": {"type": "Point", "coordinates": [2.411532, 48.760906]}, "properties": {"alarme": "VEHICULE DELOCALISE", "numparc": 7424, "type": "EXPLOITATION", "duree": "00:04:00", "horodatage": "2022-08-08 19:31:35", "statut": "start", "marker-color": "#ff0000"}}, {"type": "Feature", "geometry": {"type": "Point", "coordinates": [2.368138, 48.739128]}, "properties": {"alarme": "VEHICULE DELOCALISE", "numparc": 7422, "type": "EXPLOITATION", "duree": "00:01:23", "horodatage": "2022-08-08 19:34:06", "statut": "start", "marker-color": "#ff0000"}}, {"type": "Feature", "geometry": {"type": "Point", "coordinates": [2.363392, 48.729435]}, "properties": {"alarme": "VEHICULE DELOCALISE", "numparc": 7425, "type": "EXPLOITATION", "duree": "00:02:19", "horodatage": "2022-08-08 19:55:55", "statut": "start", "marker-color": "#ff0000"}}, {"type": "Feature", "geometry": {"type": "Point", "coordinates": [2.363363, 48.729469]}, "properties": {"alarme": "VEHICULE DELOCALISE", "numparc": 7421, "type": "EXPLOITATION", "duree": "00:02:35", "horodatage": "2022-08-08 20:27:39", "statut": "start", "marker-color": "#ff0000"}}, {"type": "Feature", "geometry": {"type": "Point", "coordinates": [2.363373, 48.729477]}, "properties": {"alarme": "VEHICULE DELOCALISE", "numparc": 7437, "type": "EXPLOITATION", "duree": "00:22:08", "horodatage": "2022-08-08 20:50:11", "statut": "start", "marker-color": "#ff0000"}}, {"type": "Feature", "geometry": {"type": "Point", "coordinates": [2.369727, 48.738796]}, "properties": {"alarme": "VEHICULE DELOCALISE", "numparc": 7437, "type": "EXPLOITATION", "duree": "00:04:05", "horodatage": "2022-08-08 21:14:09", "statut": "start", "marker-color": "#ff0000"}}, {"type": "Feature", "geometry": {"type": "Point", "coordinates": [2.37435, 48.746208]}, "properties": {"alarme": "VEHICULE DELOCALISE", "numparc": 7437, "type": "EXPLOITATION", "duree": "00:04:00", "horodatage": "2022-08-08 21:18:55", "statut": "start", "marker-color": "#ff0000"}}, {"type": "Feature", "geometry": {"type": "Point", "coordinates": [2.363274, 48.72982]}, "properties": {"alarme": "VEHICULE DELOCALISE", "numparc": 7426, "type": "EXPLOITATION", "duree": "00:02:23", "horodatage": "2022-08-08 21:24:06", "statut": "start", "marker-color": "#ff0000"}}, {"type": "Feature", "geometry": {"type": "Point", "coordinates": [2.37255, 48.758934]}, "properties": {"alarme": "VEHICULE DELOCALISE", "numparc": 7421, "type": "EXPLOITATION", "duree": "00:16:52", "horodatage": "2022-08-08 21:25:17", "statut": "start", "marker-color": "#ff0000"}}, {"type": "Feature", "geometry": {"type": "Point", "coordinates": [2.363395, 48.729416]}, "properties": {"alarme": "VEHICULE DELOCALISE", "numparc": 7422, "type": "EXPLOITATION", "duree": "00:12:19", "horodatage": "2022-08-08 21:39:54", "statut": "start", "marker-color": "#ff0000"}}, {"type": "Feature", "geometry": {"type": "Point", "coordinates": [2.369755, 48.738674]}, "properties": {"alarme": "VEHICULE DELOCALISE", "numparc": 7422, "type": "EXPLOITATION", "duree": "00:00:17", "horodatage": "2022-08-08 21:54:12", "statut": "start", "marker-color": "#ff0000"}}, {"type": "Feature", "geometry": {"type": "Point", "coordinates": [2.363364, 48.729515]}, "properties": {"alarme": "VEHICULE DELOCALISE", "numparc": 7425, "type": "EXPLOITATION", "duree": "00:01:54", "horodatage": "2022-08-08 22:31:37", "statut": "start", "marker-color": "#ff0000"}}, {"type": "Feature", "geometry": {"type": "Point", "coordinates": [2.363358, 48.729477]}, "properties": {"alarme": "VEHICULE DELOCALISE", "numparc": 7437, "type": "EXPLOITATION", "duree": "00:02:06", "horodatage": "2022-08-08 23:00:19", "statut": "start", "marker-color": "#ff0000"}}, {"type": "Feature", "geometry": {"type": "Point", "coordinates": [2.36329, 48.729744]}, "properties": {"alarme": "VEHICULE DELOCALISE", "numparc": 7426, "type": "EXPLOITATION", "duree": "00:02:46", "horodatage": "2022-08-08 23:17:30", "statut": "start", "marker-color": "#ff0000"}}, {"type": "Feature", "geometry": {"type": "Point", "coordinates": [2.363381, 48.729469]}, "properties": {"alarme": "VEHICULE DELOCALISE", "numparc": 7422, "type": "EXPLOITATION", "duree": "00:00:31", "horodatage": "2022-08-08 23:37:03", "statut": "start", "marker-color": "#ff0000"}}, {"type": "Feature", "geometry": {"type": "Point", "coordinates": [2.363306, 48.729717]}, "properties": {"alarme": "VEHICULE DELOCALISE", "numparc": 7425, "type": "EXPLOITATION", "duree": "00:00:50", "horodatage": "2022-08-09 00:21:17", "statut": "start", "marker-color": "#ff0000"}}, {"type": "Feature", "geometry": {"type": "Point", "coordinates": [2.363302, 48.729691]}, "properties": {"alarme": "VEHICULE DELOCALISE", "numparc": 7437, "type": "EXPLOITATION", "duree": "00:01:59", "horodatage": "2022-08-09 00:55:24", "statut": "start", "marker-color": "#ff0000"}}, {"type": "Feature", "geometry": {"type": "Point", "coordinates": [2.369445, 48.743046]}, "properties": {"alarme": "VEHICULE DELOCALISE", "numparc": 7426, "type": "EXPLOITATION", "duree": "00:06:05", "horodatage": "2022-08-09 01:08:13", "statut": "start", "marker-color": "#ff0000"}}, {"type": "Feature", "geometry": {"type": "Point", "coordinates": [2.368294, 48.762035]}, "properties": {"alarme": "VEHICULE DELOCALISE", "numparc": 7425, "type": "EXPLOITATION", "duree": "00:00:16", "horodatage": "2022-08-09 01:14:27", "statut": "start", "marker-color": "#ff0000"}}, {"type": "Feature", "geometry": {"type": "Point", "coordinates": [2.370171, 48.74604]}, "properties": {"alarme": "VEHICULE DELOCALISE", "numparc": 7435, "type": "EXPLOITATION", "duree": "00:00:35", "horodatage": "2022-08-08 05:05:21", "statut": "end", "marker-color": "#2fe184"}}, {"type": "Feature", "geometry": {"type": "Point", "coordinates": [2.374269, 48.75256]}, "properties": {"alarme": "VEHICULE DELOCALISE", "numparc": 7437, "type": "EXPLOITATION", "duree": "00:01:33", "horodatage": "2022-08-08 05:30:44", "statut": "end", "marker-color": "#2fe184"}}, {"type": "Feature", "geometry": {"type": "Point", "coordinates": [2.368762, 48.759521]}, "properties": {"alarme": "VEHICULE DELOCALISE", "numparc": 7437, "type": "EXPLOITATION", "duree": "00:00:35", "horodatage": "2022-08-08 05:37:49", "statut": "end", "marker-color": "#2fe184"}}, {"type": "Feature", "geometry": {"type": "Point", "coordinates": [2.369391, 48.728825]}, "properties": {"alarme": "VEHICULE DELOCALISE", "numparc": 7438, "type": "EXPLOITATION", "duree": "00:02:28", "horodatage": "2022-08-08 05:51:19", "statut": "end", "marker-color": "#2fe184"}}, {"type": "Feature", "geometry": {"type": "Point", "coordinates": [2.369373, 48.728764]}, "properties": {"alarme": "VEHICULE DELOCALISE", "numparc": 7437, "type": "EXPLOITATION", "duree": "00:01:57", "horodatage": "2022-08-08 06:21:43", "statut": "end", "marker-color": "#2fe184"}}, {"type": "Feature", "geometry": {"type": "Point", "coordinates": [2.369433, 48.72879]}, "properties": {"alarme": "VEHICULE DELOCALISE", "numparc": 7421, "type": "EXPLOITATION", "duree": "00:03:32", "horodatage": "2022-08-08 06:35:01", "statut": "end", "marker-color": "#2fe184"}}, {"type": "Feature", "geometry": {"type": "Point", "coordinates": [2.369722, 48.737045]}, "properties": {"alarme": "VEHICULE DELOCALISE", "numparc": 7435, "type": "EXPLOITATION", "duree": "00:01:15", "horodatage": "2022-08-08 06:35:17", "statut": "end", "marker-color": "#2fe184"}}, {"type": "Feature", "geometry": {"type": "Point", "coordinates": [2.369367, 48.728786]}, "properties": {"alarme": "VEHICULE DELOCALISE", "numparc": 7433, "type": "EXPLOITATION", "duree": "00:04:07", "horodatage": "2022-08-08 07:15:29", "statut": "end", "marker-color": "#2fe184"}}, {"type": "Feature", "geometry": {"type": "Point", "coordinates": [2.371483, 48.733196]}, "properties": {"alarme": "VEHICULE DELOCALISE", "numparc": 7426, "type": "EXPLOITATION", "duree": "00:18:06", "horodatage": "2022-08-08 07:32:09", "statut": "end", "marker-color": "#2fe184"}}, {"type": "Feature", "geometry": {"type": "Point", "coordinates": [2.36937, 48.728764]}, "properties": {"alarme": "VEHICULE DELOCALISE", "numparc": 7424, "type": "EXPLOITATION", "duree": "00:03:14", "horodatage": "2022-08-08 07:35:02", "statut": "end", "marker-color": "#2fe184"}}, {"type": "Feature", "geometry": {"type": "Point", "coordinates": [2.37019, 48.74604]}, "properties": {"alarme": "VEHICULE DELOCALISE", "numparc": 7426, "type": "EXPLOITATION", "duree": "00:03:43", "horodatage": "2022-08-08 07:37:21", "statut": "end", "marker-color": "#2fe184"}}, {"type": "Feature", "geometry": {"type": "Point", "coordinates": [2.369257, 48.728729]}, "properties": {"alarme": "VEHICULE DELOCALISE", "numparc": 7438, "type": "EXPLOITATION", "duree": "00:02:53", "horodatage": "2022-08-08 07:53:56", "statut": "end", "marker-color": "#2fe184"}}, {"type": "Feature", "geometry": {"type": "Point", "coordinates": [2.371521, 48.733177]}, "properties": {"alarme": "VEHICULE DELOCALISE", "numparc": 7425, "type": "EXPLOITATION", "duree": "00:14:41", "horodatage": "2022-08-08 08:18:34", "statut": "end", "marker-color": "#2fe184"}}, {"type": "Feature", "geometry": {"type": "Point", "coordinates": [2.369262, 48.728706]}, "properties": {"alarme": "VEHICULE DELOCALISE", "numparc": 7437, "type": "EXPLOITATION", "duree": "00:03:19", "horodatage": "2022-08-08 08:22:36", "statut": "end", "marker-color": "#2fe184"}}, {"type": "Feature", "geometry": {"type": "Point", "coordinates": [2.370134, 48.746029]}, "properties": {"alarme": "VEHICULE DELOCALISE", "numparc": 7425, "type": "EXPLOITATION", "duree": "00:04:58", "horodatage": "2022-08-08 08:26:35", "statut": "end", "marker-color": "#2fe184"}}, {"type": "Feature", "geometry": {"type": "Point", "coordinates": [2.387969, 48.745228]}, "properties": {"alarme": "VEHICULE DELOCALISE", "numparc": 7425, "type": "EXPLOITATION", "duree": "00:03:22", "horodatage": "2022-08-08 08:30:38", "statut": "end", "marker-color": "#2fe184"}}, {"type": "Feature", "geometry": {"type": "Point", "coordinates": [2.406762, 48.744545]}, "properties": {"alarme": "VEHICULE DELOCALISE", "numparc": 7425, "type": "EXPLOITATION", "duree": "00:03:55", "horodatage": "2022-08-08 08:36:04", "statut": "end", "marker-color": "#2fe184"}}, {"type": "Feature", "geometry": {"type": "Point", "coordinates": [2.369395, 48.728798]}, "properties": {"alarme": "VEHICULE DELOCALISE", "numparc": 7440, "type": "EXPLOITATION", "duree": "00:06:13", "horodatage": "2022-08-08 08:42:47", "statut": "end", "marker-color": "#2fe184"}}, {"type": "Feature", "geometry": {"type": "Point", "coordinates": [2.410324, 48.745777]}, "properties": {"alarme": "VEHICULE DELOCALISE", "numparc": 7425, "type": "EXPLOITATION", "duree": "00:00:08", "horodatage": "2022-08-08 08:38:39", "statut": "end", "marker-color": "#2fe184"}}, {"type": "Feature", "geometry": {"type": "Point", "coordinates": [2.412573, 48.753658]}, "properties": {"alarme": "VEHICULE DELOCALISE", "numparc": 7425, "type": "EXPLOITATION", "duree": "00:02:48", "horodatage": "2022-08-08 08:41:46", "statut": "end", "marker-color": "#2fe184"}}, {"type": "Feature", "geometry": {"type": "Point", "coordinates": [2.413862, 48.758625]}, "properties": {"alarme": "VEHICULE DELOCALISE", "numparc": 7425, "type": "EXPLOITATION", "duree": "00:02:03", "horodatage": "2022-08-08 08:45:45", "statut": "end", "marker-color": "#2fe184"}}, {"type": "Feature", "geometry": {"type": "Point", "coordinates": [2.413483, 48.762234]}, "properties": {"alarme": "VEHICULE DELOCALISE", "numparc": 7425, "type": "EXPLOITATION", "duree": "00:00:52", "horodatage": "2022-08-08 08:47:16", "statut": "end", "marker-color": "#2fe184"}}, {"type": "Feature", "geometry": {"type": "Point", "coordinates": [2.412286, 48.764481]}, "properties": {"alarme": "VEHICULE DELOCALISE", "numparc": 7425, "type": "EXPLOITATION", "duree": "00:00:13", "horodatage": "2022-08-08 08:48:10", "statut": "end", "marker-color": "#2fe184"}}, {"type": "Feature", "geometry": {"type": "Point", "coordinates": [2.406164, 48.762321]}, "properties": {"alarme": "VEHICULE DELOCALISE", "numparc": 7425, "type": "EXPLOITATION", "duree": "00:03:47", "horodatage": "2022-08-08 08:52:43", "statut": "end", "marker-color": "#2fe184"}}, {"type": "Feature", "geometry": {"type": "Point", "coordinates": [2.401903, 48.762745]}, "properties": {"alarme": "VEHICULE DELOCALISE", "numparc": 7425, "type": "EXPLOITATION", "duree": "00:00:20", "horodatage": "2022-08-08 08:54:14", "statut": "end", "marker-color": "#2fe184"}}, {"type": "Feature", "geometry": {"type": "Point", "coordinates": [2.393489, 48.764122]}, "properties": {"alarme": "VEHICULE DELOCALISE", "numparc": 7425, "type": "EXPLOITATION", "duree": "00:01:24", "horodatage": "2022-08-08 08:56:39", "statut": "end", "marker-color": "#2fe184"}}, {"type": "Feature", "geometry": {"type": "Point", "coordinates": [2.385871, 48.766594]}, "properties": {"alarme": "VEHICULE DELOCALISE", "numparc": 7425, "type": "EXPLOITATION", "duree": "00:02:21", "horodatage": "2022-08-08 08:59:54", "statut": "end", "marker-color": "#2fe184"}}, {"type": "Feature", "geometry": {"type": "Point", "coordinates": [2.380161, 48.767334]}, "properties": {"alarme": "VEHICULE DELOCALISE", "numparc": 7425, "type": "EXPLOITATION", "duree": "00:00:36", "horodatage": "2022-08-08 09:01:44", "statut": "end", "marker-color": "#2fe184"}}, {"type": "Feature", "geometry": {"type": "Point", "coordinates": [2.369231, 48.768635]}, "properties": {"alarme": "VEHICULE DELOCALISE", "numparc": 7425, "type": "EXPLOITATION", "duree": "00:02:23", "horodatage": "2022-08-08 09:04:33", "statut": "end", "marker-color": "#2fe184"}}, {"type": "Feature", "geometry": {"type": "Point", "coordinates": [2.368357, 48.762978]}, "properties": {"alarme": "VEHICULE DELOCALISE", "numparc": 7425, "type": "EXPLOITATION", "duree": "00:00:54", "horodatage": "2022-08-08 09:12:09", "statut": "end", "marker-color": "#2fe184"}}, {"type": "Feature", "geometry": {"type": "Point", "coordinates": [2.369483, 48.745789]}, "properties": {"alarme": "VEHICULE DELOCALISE", "numparc": 7435, "type": "EXPLOITATION", "duree": "00:00:20", "horodatage": "2022-08-08 09:23:23", "statut": "end", "marker-color": "#2fe184"}}, {"type": "Feature", "geometry": {"type": "Point", "coordinates": [2.372307, 48.730225]}, "properties": {"alarme": "VEHICULE DELOCALISE", "numparc": 7433, "type": "EXPLOITATION", "duree": "00:06:39", "horodatage": "2022-08-08 09:35:01", "statut": "end", "marker-color": "#2fe184"}}, {"type": "Feature", "geometry": {"type": "Point", "coordinates": [2.369282, 48.728706]}, "properties": {"alarme": "VEHICULE DELOCALISE", "numparc": 7426, "type": "EXPLOITATION", "duree": "00:05:22", "horodatage": "2022-08-08 09:45:06", "statut": "end", "marker-color": "#2fe184"}}, {"type": "Feature", "geometry": {"type": "Point", "coordinates": [2.368912, 48.728539]}, "properties": {"alarme": "VEHICULE DELOCALISE", "numparc": 7424, "type": "EXPLOITATION", "duree": "00:03:30", "horodatage": "2022-08-08 09:50:07", "statut": "end", "marker-color": "#2fe184"}}, {"type": "Feature", "geometry": {"type": "Point", "coordinates": [2.369241, 48.728691]}, "properties": {"alarme": "VEHICULE DELOCALISE", "numparc": 7438, "type": "EXPLOITATION", "duree": "00:03:45", "horodatage": "2022-08-08 10:13:03", "statut": "end", "marker-color": "#2fe184"}}, {"type": "Feature", "geometry": {"type": "Point", "coordinates": [2.387989, 48.74522]}, "properties": {"alarme": "VEHICULE DELOCALISE", "numparc": 7425, "type": "EXPLOITATION", "duree": "00:16:25", "horodatage": "2022-08-08 10:40:59", "statut": "end", "marker-color": "#2fe184"}}, {"type": "Feature", "geometry": {"type": "Point", "coordinates": [2.369248, 48.728699]}, "properties": {"alarme": "VEHICULE DELOCALISE", "numparc": 7437, "type": "EXPLOITATION", "duree": "00:04:08", "horodatage": "2022-08-08 10:37:38", "statut": "end", "marker-color": "#2fe184"}}, {"type": "Feature", "geometry": {"type": "Point", "coordinates": [2.406688, 48.744564]}, "properties": {"alarme": "VEHICULE DELOCALISE", "numparc": 7425, "type": "EXPLOITATION", "duree": "00:04:11", "horodatage": "2022-08-08 10:46:39", "statut": "end", "marker-color": "#2fe184"}}, {"type": "Feature", "geometry": {"type": "Point", "coordinates": [2.410327, 48.745792]}, "properties": {"alarme": "VEHICULE DELOCALISE", "numparc": 7425, "type": "EXPLOITATION", "duree": "00:00:11", "horodatage": "2022-08-08 10:48:20", "statut": "end", "marker-color": "#2fe184"}}, {"type": "Feature", "geometry": {"type": "Point", "coordinates": [2.413117, 48.75]}, "properties": {"alarme": "VEHICULE DELOCALISE", "numparc": 7425, "type": "EXPLOITATION", "duree": "00:00:49", "horodatage": "2022-08-08 10:49:37", "statut": "end", "marker-color": "#2fe184"}}, {"type": "Feature", "geometry": {"type": "Point", "coordinates": [2.412477, 48.753738]}, "properties": {"alarme": "VEHICULE DELOCALISE", "numparc": 7425, "type": "EXPLOITATION", "duree": "00:00:29", "horodatage": "2022-08-08 10:51:17", "statut": "end", "marker-color": "#2fe184"}}, {"type": "Feature", "geometry": {"type": "Point", "coordinates": [2.413884, 48.758675]}, "properties": {"alarme": "VEHICULE DELOCALISE", "numparc": 7425, "type": "EXPLOITATION", "duree": "00:01:38", "horodatage": "2022-08-08 10:53:36", "statut": "end", "marker-color": "#2fe184"}}, {"type": "Feature", "geometry": {"type": "Point", "coordinates": [2.412284, 48.764473]}, "properties": {"alarme": "VEHICULE DELOCALISE", "numparc": 7425, "type": "EXPLOITATION", "duree": "00:01:26", "horodatage": "2022-08-08 10:55:33", "statut": "end", "marker-color": "#2fe184"}}, {"type": "Feature", "geometry": {"type": "Point", "coordinates": [2.406091, 48.76236]}, "properties": {"alarme": "VEHICULE DELOCALISE", "numparc": 7425, "type": "EXPLOITATION", "duree": "00:03:48", "horodatage": "2022-08-08 10:59:55", "statut": "end", "marker-color": "#2fe184"}}, {"type": "Feature", "geometry": {"type": "Point", "coordinates": [2.40174, 48.762913]}, "properties": {"alarme": "VEHICULE DELOCALISE", "numparc": 7425, "type": "EXPLOITATION", "duree": "00:00:22", "horodatage": "2022-08-08 11:01:17", "statut": "end", "marker-color": "#2fe184"}}, {"type": "Feature", "geometry": {"type": "Point", "coordinates": [2.369197, 48.728687]}, "properties": {"alarme": "VEHICULE DELOCALISE", "numparc": 7421, "type": "EXPLOITATION", "duree": "00:03:01", "horodatage": "2022-08-08 11:05:29", "statut": "end", "marker-color": "#2fe184"}}, {"type": "Feature", "geometry": {"type": "Point", "coordinates": [2.393461, 48.764168]}, "properties": {"alarme": "VEHICULE DELOCALISE", "numparc": 7425, "type": "EXPLOITATION", "duree": "00:00:55", "horodatage": "2022-08-08 11:03:35", "statut": "end", "marker-color": "#2fe184"}}, {"type": "Feature", "geometry": {"type": "Point", "coordinates": [2.389728, 48.766117]}, "properties": {"alarme": "VEHICULE DELOCALISE", "numparc": 7425, "type": "EXPLOITATION", "duree": "00:00:48", "horodatage": "2022-08-08 11:05:07", "statut": "end", "marker-color": "#2fe184"}}, {"type": "Feature", "geometry": {"type": "Point", "coordinates": [2.369864, 48.762917]}, "properties": {"alarme": "VEHICULE DELOCALISE", "numparc": 7425, "type": "EXPLOITATION", "duree": "00:06:01", "horodatage": "2022-08-08 11:12:09", "statut": "end", "marker-color": "#2fe184"}}, {"type": "Feature", "geometry": {"type": "Point", "coordinates": [2.369225, 48.728653]}, "properties": {"alarme": "VEHICULE DELOCALISE", "numparc": 7435, "type": "EXPLOITATION", "duree": "00:05:43", "horodatage": "2022-08-08 11:13:02", "statut": "end", "marker-color": "#2fe184"}}, {"type": "Feature", "geometry": {"type": "Point", "coordinates": [2.369349, 48.728783]}, "properties": {"alarme": "VEHICULE DELOCALISE", "numparc": 7433, "type": "EXPLOITATION", "duree": "00:02:56", "horodatage": "2022-08-08 11:39:47", "statut": "end", "marker-color": "#2fe184"}}, {"type": "Feature", "geometry": {"type": "Point", "coordinates": [2.369265, 48.728764]}, "properties": {"alarme": "VEHICULE DELOCALISE", "numparc": 7426, "type": "EXPLOITATION", "duree": "00:03:58", "horodatage": "2022-08-08 11:58:38", "statut": "end", "marker-color": "#2fe184"}}, {"type": "Feature", "geometry": {"type": "Point", "coordinates": [2.371483, 48.7332]}, "properties": {"alarme": "VEHICULE DELOCALISE", "numparc": 7424, "type": "EXPLOITATION", "duree": "00:19:05", "horodatage": "2022-08-08 12:17:50", "statut": "end", "marker-color": "#2fe184"}}, {"type": "Feature", "geometry": {"type": "Point", "coordinates": [2.364877, 48.74345]}, "properties": {"alarme": "VEHICULE DELOCALISE", "numparc": 7424, "type": "EXPLOITATION", "duree": "00:01:45", "horodatage": "2022-08-08 12:23:09", "statut": "end", "marker-color": "#2fe184"}}, {"type": "Feature", "geometry": {"type": "Point", "coordinates": [2.369345, 48.728802]}, "properties": {"alarme": "VEHICULE DELOCALISE", "numparc": 7438, "type": "EXPLOITATION", "duree": "00:02:48", "horodatage": "2022-08-08 12:24:35", "statut": "end", "marker-color": "#2fe184"}}, {"type": "Feature", "geometry": {"type": "Point", "coordinates": [2.370156, 48.74604]}, "properties": {"alarme": "VEHICULE DELOCALISE", "numparc": 7424, "type": "EXPLOITATION", "duree": "00:00:15", "horodatage": "2022-08-08 12:24:55", "statut": "end", "marker-color": "#2fe184"}}, {"type": "Feature", "geometry": {"type": "Point", "coordinates": [2.387981, 48.745228]}, "properties": {"alarme": "VEHICULE DELOCALISE", "numparc": 7424, "type": "EXPLOITATION", "duree": "00:02:07", "horodatage": "2022-08-08 12:27:57", "statut": "end", "marker-color": "#2fe184"}}, {"type": "Feature", "geometry": {"type": "Point", "coordinates": [2.40683, 48.744602]}, "properties": {"alarme": "VEHICULE DELOCALISE", "numparc": 7424, "type": "EXPLOITATION", "duree": "00:03:51", "horodatage": "2022-08-08 12:33:26", "statut": "end", "marker-color": "#2fe184"}}, {"type": "Feature", "geometry": {"type": "Point", "coordinates": [2.369345, 48.728798]}, "properties": {"alarme": "VEHICULE DELOCALISE", "numparc": 7425, "type": "EXPLOITATION", "duree": "00:02:43", "horodatage": "2022-08-08 12:32:38", "statut": "end", "marker-color": "#2fe184"}}, {"type": "Feature", "geometry": {"type": "Point", "coordinates": [2.410285, 48.745789]}, "properties": {"alarme": "VEHICULE DELOCALISE", "numparc": 7424, "type": "EXPLOITATION", "duree": "00:00:08", "horodatage": "2022-08-08 12:35:21", "statut": "end", "marker-color": "#2fe184"}}, {"type": "Feature", "geometry": {"type": "Point", "coordinates": [2.413073, 48.750027]}, "properties": {"alarme": "VEHICULE DELOCALISE", "numparc": 7424, "type": "EXPLOITATION", "duree": "00:00:44", "horodatage": "2022-08-08 12:36:23", "statut": "end", "marker-color": "#2fe184"}}, {"type": "Feature", "geometry": {"type": "Point", "coordinates": [2.412433, 48.753788]}, "properties": {"alarme": "VEHICULE DELOCALISE", "numparc": 7424, "type": "EXPLOITATION", "duree": "00:00:28", "horodatage": "2022-08-08 12:37:48", "statut": "end", "marker-color": "#2fe184"}}, {"type": "Feature", "geometry": {"type": "Point", "coordinates": [2.413841, 48.758614]}, "properties": {"alarme": "VEHICULE DELOCALISE", "numparc": 7424, "type": "EXPLOITATION", "duree": "00:01:52", "horodatage": "2022-08-08 12:40:45", "statut": "end", "marker-color": "#2fe184"}}, {"type": "Feature", "geometry": {"type": "Point", "coordinates": [2.413462, 48.76226]}, "properties": {"alarme": "VEHICULE DELOCALISE", "numparc": 7424, "type": "EXPLOITATION", "duree": "00:01:11", "horodatage": "2022-08-08 12:42:27", "statut": "end", "marker-color": "#2fe184"}}, {"type": "Feature", "geometry": {"type": "Point", "coordinates": [2.412232, 48.764469]}, "properties": {"alarme": "VEHICULE DELOCALISE", "numparc": 7424, "type": "EXPLOITATION", "duree": "00:00:14", "horodatage": "2022-08-08 12:43:23", "statut": "end", "marker-color": "#2fe184"}}, {"type": "Feature", "geometry": {"type": "Point", "coordinates": [2.406526, 48.762669]}, "properties": {"alarme": "VEHICULE DELOCALISE", "numparc": 7424, "type": "EXPLOITATION", "duree": "00:03:22", "horodatage": "2022-08-08 12:47:23", "statut": "end", "marker-color": "#2fe184"}}, {"type": "Feature", "geometry": {"type": "Point", "coordinates": [2.385771, 48.766594]}, "properties": {"alarme": "VEHICULE DELOCALISE", "numparc": 7424, "type": "EXPLOITATION", "duree": "00:05:10", "horodatage": "2022-08-08 12:53:53", "statut": "end", "marker-color": "#2fe184"}}, {"type": "Feature", "geometry": {"type": "Point", "coordinates": [2.368493, 48.76873]}, "properties": {"alarme": "VEHICULE DELOCALISE", "numparc": 7424, "type": "EXPLOITATION", "duree": "00:02:17", "horodatage": "2022-08-08 12:56:49", "statut": "end", "marker-color": "#2fe184"}}, {"type": "Feature", "geometry": {"type": "Point", "coordinates": [2.369819, 48.758354]}, "properties": {"alarme": "VEHICULE DELOCALISE", "numparc": 7433, "type": "EXPLOITATION", "duree": "00:01:43", "horodatage": "2022-08-08 12:59:24", "statut": "end", "marker-color": "#2fe184"}}, {"type": "Feature", "geometry": {"type": "Point", "coordinates": [2.369342, 48.728802]}, "properties": {"alarme": "VEHICULE DELOCALISE", "numparc": 7423, "type": "EXPLOITATION", "duree": "00:03:10", "horodatage": "2022-08-08 13:23:40", "statut": "end", "marker-color": "#2fe184"}}, {"type": "Feature", "geometry": {"type": "Point", "coordinates": [2.369321, 48.72876]}, "properties": {"alarme": "VEHICULE DELOCALISE", "numparc": 7426, "type": "EXPLOITATION", "duree": "00:02:30", "horodatage": "2022-08-08 14:07:18", "statut": "end", "marker-color": "#2fe184"}}, {"type": "Feature", "geometry": {"type": "Point", "coordinates": [2.369351, 48.728806]}, "properties": {"alarme": "VEHICULE DELOCALISE", "numparc": 7424, "type": "EXPLOITATION", "duree": "00:10:31", "horodatage": "2022-08-08 14:27:56", "statut": "end", "marker-color": "#2fe184"}}, {"type": "Feature", "geometry": {"type": "Point", "coordinates": [2.369371, 48.728798]}, "properties": {"alarme": "VEHICULE DELOCALISE", "numparc": 7438, "type": "EXPLOITATION", "duree": "00:04:32", "horodatage": "2022-08-08 14:48:35", "statut": "end", "marker-color": "#2fe184"}}, {"type": "Feature", "geometry": {"type": "Point", "coordinates": [2.369283, 48.728725]}, "properties": {"alarme": "VEHICULE DELOCALISE", "numparc": 7423, "type": "EXPLOITATION", "duree": "00:02:13", "horodatage": "2022-08-08 15:33:37", "statut": "end", "marker-color": "#2fe184"}}, {"type": "Feature", "geometry": {"type": "Point", "coordinates": [2.369387, 48.728798]}, "properties": {"alarme": "VEHICULE DELOCALISE", "numparc": 7421, "type": "EXPLOITATION", "duree": "00:03:23", "horodatage": "2022-08-08 15:50:30", "statut": "end", "marker-color": "#2fe184"}}, {"type": "Feature", "geometry": {"type": "Point", "coordinates": [2.372511, 48.730541]}, "properties": {"alarme": "VEHICULE DELOCALISE", "numparc": 7426, "type": "EXPLOITATION", "duree": "00:13:46", "horodatage": "2022-08-08 16:31:07", "statut": "end", "marker-color": "#2fe184"}}, {"type": "Feature", "geometry": {"type": "Point", "coordinates": [2.406102, 48.762337]}, "properties": {"alarme": "VEHICULE DELOCALISE", "numparc": 7433, "type": "EXPLOITATION", "duree": "00:03:55", "horodatage": "2022-08-08 16:54:10", "statut": "end", "marker-color": "#2fe184"}}, {"type": "Feature", "geometry": {"type": "Point", "coordinates": [2.370115, 48.746056]}, "properties": {"alarme": "VEHICULE DELOCALISE", "numparc": 7424, "type": "EXPLOITATION", "duree": "00:01:03", "horodatage": "2022-08-08 16:57:55", "statut": "end", "marker-color": "#2fe184"}}, {"type": "Feature", "geometry": {"type": "Point", "coordinates": [2.369276, 48.728725]}, "properties": {"alarme": "VEHICULE DELOCALISE", "numparc": 7438, "type": "EXPLOITATION", "duree": "00:02:40", "horodatage": "2022-08-08 17:00:55", "statut": "end", "marker-color": "#2fe184"}}, {"type": "Feature", "geometry": {"type": "Point", "coordinates": [2.3694, 48.72879]}, "properties": {"alarme": "DEFAUT LIAISON DATA SAEIV / AIGLE", "numparc": 7437, "type": "TECHNIQUE", "duree": "00:00:28", "horodatage": "2022-08-08 17:16:20", "statut": "end", "marker-color": "#2fe184"}}, {"type": "Feature", "geometry": {"type": "Point", "coordinates": [2.369369, 48.728794]}, "properties": {"alarme": "VEHICULE DELOCALISE", "numparc": 7421, "type": "EXPLOITATION", "duree": "00:03:00", "horodatage": "2022-08-08 18:05:47", "statut": "end", "marker-color": "#2fe184"}}, {"type": "Feature", "geometry": {"type": "Point", "coordinates": [2.368875, 48.728539]}, "properties": {"alarme": "VEHICULE DELOCALISE", "numparc": 7426, "type": "EXPLOITATION", "duree": "00:02:11", "horodatage": "2022-08-08 18:35:35", "statut": "end", "marker-color": "#2fe184"}}, {"type": "Feature", "geometry": {"type": "Point", "coordinates": [2.36949, 48.745792]}, "properties": {"alarme": "VEHICULE DELOCALISE", "numparc": 7424, "type": "EXPLOITATION", "duree": "00:00:22", "horodatage": "2022-08-08 19:08:48", "statut": "end", "marker-color": "#2fe184"}}, {"type": "Feature", "geometry": {"type": "Point", "coordinates": [2.369275, 48.728733]}, "properties": {"alarme": "VEHICULE DELOCALISE", "numparc": 7438, "type": "EXPLOITATION", "duree": "00:02:58", "horodatage": "2022-08-08 19:12:38", "statut": "end", "marker-color": "#2fe184"}}, {"type": "Feature", "geometry": {"type": "Point", "coordinates": [2.369861, 48.737675]}, "properties": {"alarme": "VEHICULE DELOCALISE", "numparc": 7422, "type": "EXPLOITATION", "duree": "00:14:59", "horodatage": "2022-08-08 19:33:18", "statut": "end", "marker-color": "#2fe184"}}, {"type": "Feature", "geometry": {"type": "Point", "coordinates": [2.406114, 48.762321]}, "properties": {"alarme": "VEHICULE DELOCALISE", "numparc": 7437, "type": "EXPLOITATION", "duree": "00:03:33", "horodatage": "2022-08-08 19:26:33", "statut": "end", "marker-color": "#2fe184"}}, {"type": "Feature", "geometry": {"type": "Point", "coordinates": [2.400817, 48.76318]}, "properties": {"alarme": "VEHICULE DELOCALISE", "numparc": 7424, "type": "EXPLOITATION", "duree": "00:04:00", "horodatage": "2022-08-08 19:35:35", "statut": "end", "marker-color": "#2fe184"}}, {"type": "Feature", "geometry": {"type": "Point", "coordinates": [2.364931, 48.74345]}, "properties": {"alarme": "VEHICULE DELOCALISE", "numparc": 7422, "type": "EXPLOITATION", "duree": "00:01:23", "horodatage": "2022-08-08 19:35:29", "statut": "end", "marker-color": "#2fe184"}}, {"type": "Feature", "geometry": {"type": "Point", "coordinates": [2.368625, 48.728569]}, "properties": {"alarme": "VEHICULE DELOCALISE", "numparc": 7425, "type": "EXPLOITATION", "duree": "00:02:19", "horodatage": "2022-08-08 19:58:14", "statut": "end", "marker-color": "#2fe184"}}, {"type": "Feature", "geometry": {"type": "Point", "coordinates": [2.369373, 48.728802]}, "properties": {"alarme": "VEHICULE DELOCALISE", "numparc": 7421, "type": "EXPLOITATION", "duree": "00:02:35", "horodatage": "2022-08-08 20:30:14", "statut": "end", "marker-color": "#2fe184"}}, {"type": "Feature", "geometry": {"type": "Point", "coordinates": [2.371485, 48.733204]}, "properties": {"alarme": "VEHICULE DELOCALISE", "numparc": 7437, "type": "EXPLOITATION", "duree": "00:22:08", "horodatage": "2022-08-08 21:12:19", "statut": "end", "marker-color": "#2fe184"}}, {"type": "Feature", "geometry": {"type": "Point", "coordinates": [2.370169, 48.746044]}, "properties": {"alarme": "VEHICULE DELOCALISE", "numparc": 7437, "type": "EXPLOITATION", "duree": "00:04:05", "horodatage": "2022-08-08 21:18:14", "statut": "end", "marker-color": "#2fe184"}}, {"type": "Feature", "geometry": {"type": "Point", "coordinates": [2.392589, 48.744774]}, "properties": {"alarme": "VEHICULE DELOCALISE", "numparc": 7437, "type": "EXPLOITATION", "duree": "00:04:00", "horodatage": "2022-08-08 21:22:55", "statut": "end", "marker-color": "#2fe184"}}, {"type": "Feature", "geometry": {"type": "Point", "coordinates": [2.369271, 48.728745]}, "properties": {"alarme": "VEHICULE DELOCALISE", "numparc": 7426, "type": "EXPLOITATION", "duree": "00:02:23", "horodatage": "2022-08-08 21:26:29", "statut": "end", "marker-color": "#2fe184"}}, {"type": "Feature", "geometry": {"type": "Point", "coordinates": [2.388259, 48.754826]}, "properties": {"alarme": "VEHICULE DELOCALISE", "numparc": 7421, "type": "EXPLOITATION", "duree": "00:16:52", "horodatage": "2022-08-08 21:42:09", "statut": "end", "marker-color": "#2fe184"}}, {"type": "Feature", "geometry": {"type": "Point", "coordinates": [2.371521, 48.733181]}, "properties": {"alarme": "VEHICULE DELOCALISE", "numparc": 7422, "type": "EXPLOITATION", "duree": "00:12:19", "horodatage": "2022-08-08 21:52:13", "statut": "end", "marker-color": "#2fe184"}}, {"type": "Feature", "geometry": {"type": "Point", "coordinates": [2.368753, 48.73914]}, "properties": {"alarme": "VEHICULE DELOCALISE", "numparc": 7422, "type": "EXPLOITATION", "duree": "00:00:17", "horodatage": "2022-08-08 21:54:29", "statut": "end", "marker-color": "#2fe184"}}, {"type": "Feature", "geometry": {"type": "Point", "coordinates": [2.367513, 48.728397]}, "properties": {"alarme": "VEHICULE DELOCALISE", "numparc": 7425, "type": "EXPLOITATION", "duree": "00:01:54", "horodatage": "2022-08-08 22:33:31", "statut": "end", "marker-color": "#2fe184"}}, {"type": "Feature", "geometry": {"type": "Point", "coordinates": [2.368927, 48.728539]}, "properties": {"alarme": "VEHICULE DELOCALISE", "numparc": 7437, "type": "EXPLOITATION", "duree": "00:02:06", "horodatage": "2022-08-08 23:02:25", "statut": "end", "marker-color": "#2fe184"}}, {"type": "Feature", "geometry": {"type": "Point", "coordinates": [2.369295, 48.728588]}, "properties": {"alarme": "VEHICULE DELOCALISE", "numparc": 7426, "type": "EXPLOITATION", "duree": "00:02:46", "horodatage": "2022-08-08 23:20:16", "statut": "end", "marker-color": "#2fe184"}}, {"type": "Feature", "geometry": {"type": "Point", "coordinates": [2.364938, 48.730225]}, "properties": {"alarme": "VEHICULE DELOCALISE", "numparc": 7422, "type": "EXPLOITATION", "duree": "00:00:31", "horodatage": "2022-08-08 23:37:34", "statut": "end", "marker-color": "#2fe184"}}, {"type": "Feature", "geometry": {"type": "Point", "coordinates": [2.365685, 48.729366]}, "properties": {"alarme": "VEHICULE DELOCALISE", "numparc": 7425, "type": "EXPLOITATION", "duree": "00:00:50", "horodatage": "2022-08-09 00:22:07", "statut": "end", "marker-color": "#2fe184"}}, {"type": "Feature", "geometry": {"type": "Point", "coordinates": [2.368942, 48.72855]}, "properties": {"alarme": "VEHICULE DELOCALISE", "numparc": 7437, "type": "EXPLOITATION", "duree": "00:01:59", "horodatage": "2022-08-09 00:57:23", "statut": "end", "marker-color": "#2fe184"}}, {"type": "Feature", "geometry": {"type": "Point", "coordinates": [2.369327, 48.728798]}, "properties": {"alarme": "VEHICULE DELOCALISE", "numparc": 7426, "type": "EXPLOITATION", "duree": "00:06:05", "horodatage": "2022-08-09 01:14:18", "statut": "end", "marker-color": "#2fe184"}}, {"type": "Feature", "geometry": {"type": "Point", "coordinates": [2.368372, 48.760353]}, "properties": {"alarme": "VEHICULE DELOCALISE", "numparc": 7425, "type": "EXPLOITATION", "duree": "00:00:16", "horodatage": "2022-08-09 01:14:43", "statut": "end", "marker-color": "#2fe184"}}]}