{"type": "FeatureCollection", "features": [{"type": "Feature", "geometry": {"type": "Point", "coordinates": [2.348905, 48.896729]}, "properties": {"numparc": 4391, "etat de la localisation": "autre", "ID BDGEO": "450", "horodatage": "2021-11-05 07:25:52", "distance (en metres)": 46.39, "station": "SORTIE DEPOT", "marker-color": "#818181"}}, {"type": "Feature", "geometry": {"type": "Point", "coordinates": [2.348893, 48.896439]}, "properties": {"numparc": 4391, "etat de la localisation": "autre", "ID BDGEO": "450", "horodatage": "2021-11-05 07:35:15", "distance (en metres)": 60.0, "station": "SORTIE DEPOT", "marker-color": "#818181"}}, {"type": "Feature", "geometry": {"type": "Point", "coordinates": [2.323706, 48.875854]}, "properties": {"numparc": 4391, "etat de la localisation": "autre", "ID BDGEO": "119", "horodatage": "2021-11-05 08:02:41", "distance (en metres)": 55.2, "station": "GARE SAINT-LAZARE-ROME", "marker-color": "#818181"}}, {"type": "Feature", "geometry": {"type": "Point", "coordinates": [2.286453, 48.833088]}, "properties": {"numparc": 4391, "etat de la localisation": "autre", "ID BDGEO": "9", "horodatage": "2021-11-05 08:39:56", "distance (en metres)": 44.09, "station": "PORTE DE VERSAILLES", "marker-color": "#818181"}}, {"type": "Feature", "geometry": {"type": "Point", "coordinates": [2.349536, 48.896774]}, "properties": {"station": "SORTIE DEPOT", "ID BDGEO": "450", "marker-color": "#56B3FF"}}, {"type": "Feature", "geometry": {"type": "Point", "coordinates": [2.323534, 48.876337]}, "properties": {"station": "GARE SAINT-LAZARE-ROME", "ID BDGEO": "119", "marker-color": "#56B3FF"}}, {"type": "Feature", "geometry": {"type": "Point", "coordinates": [2.287033, 48.832981]}, "properties": {"station": "PORTE DE VERSAILLES", "ID BDGEO": "9", "marker-color": "#56B3FF"}}]}