{"type": "FeatureCollection", "features": [{"type": "Feature", "geometry": {"type": "Point", "coordinates": [2.250825, 48.947586]}, "properties": {"alarme": "VEHICULE DELOCALISE", "numparc": 8969, "type": "EXPLOITATION", "duree": "00:03:37", "horodatage": "2022-12-08 09:40:09", "statut": "start", "marker-color": "#ff0000"}}, {"type": "Feature", "geometry": {"type": "Point", "coordinates": [2.248403, 48.946384]}, "properties": {"alarme": "VEHICULE DELOCALISE", "numparc": 8964, "type": "EXPLOITATION", "duree": "00:00:24", "horodatage": "2022-12-08 10:23:55", "statut": "start", "marker-color": "#ff0000"}}, {"type": "Feature", "geometry": {"type": "Point", "coordinates": [2.205922, 48.945206]}, "properties": {"alarme": "VEHICULE DELOCALISE", "numparc": 8962, "type": "EXPLOITATION", "duree": "00:00:58", "horodatage": "2022-12-08 12:26:52", "statut": "start", "marker-color": "#ff0000"}}, {"type": "Feature", "geometry": {"type": "Point", "coordinates": [2.216972, 48.925709]}, "properties": {"alarme": "VEHICULE DELOCALISE", "numparc": 8950, "type": "EXPLOITATION", "duree": "00:01:02", "horodatage": "2022-12-08 14:58:05", "statut": "start", "marker-color": "#ff0000"}}, {"type": "Feature", "geometry": {"type": "Point", "coordinates": [2.166216, 48.940792]}, "properties": {"alarme": "VEHICULE DELOCALISE", "numparc": 8950, "type": "EXPLOITATION", "duree": "00:00:27", "horodatage": "2022-12-08 15:29:26", "statut": "start", "marker-color": "#ff0000"}}, {"type": "Feature", "geometry": {"type": "Point", "coordinates": [2.245785, 48.937992]}, "properties": {"alarme": "VEHICULE DELOCALISE", "numparc": 8973, "type": "EXPLOITATION", "duree": "00:03:43", "horodatage": "2022-12-08 20:42:31", "statut": "start", "marker-color": "#ff0000"}}, {"type": "Feature", "geometry": {"type": "Point", "coordinates": [2.256889, 48.947159]}, "properties": {"alarme": "VEHICULE DELOCALISE", "numparc": 8969, "type": "EXPLOITATION", "duree": "00:03:37", "horodatage": "2022-12-08 09:43:46", "statut": "end", "marker-color": "#2fe184"}}, {"type": "Feature", "geometry": {"type": "Point", "coordinates": [2.247079, 48.945576]}, "properties": {"alarme": "VEHICULE DELOCALISE", "numparc": 8964, "type": "EXPLOITATION", "duree": "00:00:24", "horodatage": "2022-12-08 10:24:19", "statut": "end", "marker-color": "#2fe184"}}, {"type": "Feature", "geometry": {"type": "Point", "coordinates": [2.202396, 48.94244]}, "properties": {"alarme": "VEHICULE DELOCALISE", "numparc": 8962, "type": "EXPLOITATION", "duree": "00:00:58", "horodatage": "2022-12-08 12:27:50", "statut": "end", "marker-color": "#2fe184"}}, {"type": "Feature", "geometry": {"type": "Point", "coordinates": [2.21558, 48.92762]}, "properties": {"alarme": "VEHICULE DELOCALISE", "numparc": 8950, "type": "EXPLOITATION", "duree": "00:01:02", "horodatage": "2022-12-08 14:59:07", "statut": "end", "marker-color": "#2fe184"}}, {"type": "Feature", "geometry": {"type": "Point", "coordinates": [2.164755, 48.941563]}, "properties": {"alarme": "VEHICULE DELOCALISE", "numparc": 8950, "type": "EXPLOITATION", "duree": "00:00:27", "horodatage": "2022-12-08 15:29:53", "statut": "end", "marker-color": "#2fe184"}}, {"type": "Feature", "geometry": {"type": "Point", "coordinates": [2.232488, 48.933033]}, "properties": {"alarme": "VEHICULE DELOCALISE", "numparc": 8973, "type": "EXPLOITATION", "duree": "00:03:43", "horodatage": "2022-12-08 20:46:14", "statut": "end", "marker-color": "#2fe184"}}]}