{"type": "FeatureCollection", "features": [{"type": "Feature", "geometry": {"type": "Point", "coordinates": [2.328441, 48.82362]}, "properties": {"numparc": 1474, "etat de la localisation": "autre", "ID BDGEO": "5429", "horodatage": "2022-05-24 05:23:08", "distance (en metres)": 117.92, "station": "MONTROUGE SORTIE#", "marker-color": "#818181"}}, {"type": "Feature", "geometry": {"type": "Point", "coordinates": [2.319278, 48.837833]}, "properties": {"numparc": 1474, "etat de la localisation": "Deviation programmee", "ID BDGEO": "5411", "horodatage": "2022-05-24 05:55:19", "distance (en metres)": 62.93, "station": "PLACE DE CATALOGNE", "marker-color": "#56FF93"}}, {"type": "Feature", "geometry": {"type": "Point", "coordinates": [2.285111, 48.818237]}, "properties": {"numparc": 1474, "etat de la localisation": "autre", "ID BDGEO": "5420", "horodatage": "2022-05-24 06:09:51", "distance (en metres)": 130.21, "station": "DIDEROT", "marker-color": "#818181"}}, {"type": "Feature", "geometry": {"type": "Point", "coordinates": [2.285111, 48.818237]}, "properties": {"numparc": 1474, "etat de la localisation": "autre", "ID BDGEO": "5420", "horodatage": "2022-05-24 06:09:59", "distance (en metres)": 130.21, "station": "DIDEROT", "marker-color": "#818181"}}, {"type": "Feature", "geometry": {"type": "Point", "coordinates": [2.285111, 48.818237]}, "properties": {"numparc": 1474, "etat de la localisation": "autre", "ID BDGEO": "5420", "horodatage": "2022-05-24 06:10:07", "distance (en metres)": 130.21, "station": "DIDEROT", "marker-color": "#818181"}}, {"type": "Feature", "geometry": {"type": "Point", "coordinates": [2.272629, 48.814358]}, "properties": {"numparc": 1474, "etat de la localisation": "autre", "ID BDGEO": "5375", "horodatage": "2022-05-24 06:13:45", "distance (en metres)": 64.74, "station": "GARE DE CLAMART", "marker-color": "#818181"}}, {"type": "Feature", "geometry": {"type": "Point", "coordinates": [2.272629, 48.814358]}, "properties": {"numparc": 1474, "etat de la localisation": "autre", "ID BDGEO": "5375", "horodatage": "2022-05-24 06:14:02", "distance (en metres)": 64.74, "station": "GARE DE CLAMART", "marker-color": "#818181"}}, {"type": "Feature", "geometry": {"type": "Point", "coordinates": [2.272629, 48.814358]}, "properties": {"numparc": 1474, "etat de la localisation": "autre", "ID BDGEO": "5375", "horodatage": "2022-05-24 06:14:47", "distance (en metres)": 64.74, "station": "GARE DE CLAMART", "marker-color": "#818181"}}, {"type": "Feature", "geometry": {"type": "Point", "coordinates": [2.292042, 48.820976]}, "properties": {"numparc": 1474, "etat de la localisation": "autre", "ID BDGEO": "5380", "horodatage": "2022-05-24 06:28:40", "distance (en metres)": 46.93, "station": "INSURRECTION-BLEUZEN", "marker-color": "#818181"}}, {"type": "Feature", "geometry": {"type": "Point", "coordinates": [2.329515, 48.822983]}, "properties": {"numparc": 1472, "etat de la localisation": "autre", "ID BDGEO": "5429", "horodatage": "2022-05-24 06:41:45", "distance (en metres)": 51.02, "station": "MONTROUGE SORTIE#", "marker-color": "#818181"}}, {"type": "Feature", "geometry": {"type": "Point", "coordinates": [2.358791, 48.620911]}, "properties": {"numparc": 1472, "etat de la localisation": "autre", "ID BDGEO": "5523", "horodatage": "2022-05-24 07:17:31", "distance (en metres)": 22456.41, "station": "GARE DE CLAMART#", "marker-color": "#818181"}}, {"type": "Feature", "geometry": {"type": "Point", "coordinates": [2.358791, 48.620911]}, "properties": {"numparc": 1472, "etat de la localisation": "autre", "ID BDGEO": "5523", "horodatage": "2022-05-24 07:30:31", "distance (en metres)": 22456.41, "station": "GARE DE CLAMART#", "marker-color": "#818181"}}, {"type": "Feature", "geometry": {"type": "Point", "coordinates": [2.32288, 48.838062]}, "properties": {"numparc": 1474, "etat de la localisation": "Deviation programmee", "ID BDGEO": "5410", "horodatage": "2022-05-24 07:30:36", "distance (en metres)": 110.48, "station": "JEAN ZAY - MAINE", "marker-color": "#56FF93"}}, {"type": "Feature", "geometry": {"type": "Point", "coordinates": [2.358791, 48.620911]}, "properties": {"numparc": 1472, "etat de la localisation": "autre", "ID BDGEO": "5523", "horodatage": "2022-05-24 07:31:56", "distance (en metres)": 22456.41, "station": "GARE DE CLAMART#", "marker-color": "#818181"}}, {"type": "Feature", "geometry": {"type": "Point", "coordinates": [2.358791, 48.620911]}, "properties": {"numparc": 1472, "etat de la localisation": "autre", "ID BDGEO": "5523", "horodatage": "2022-05-24 07:32:22", "distance (en metres)": 22456.41, "station": "GARE DE CLAMART#", "marker-color": "#818181"}}, {"type": "Feature", "geometry": {"type": "Point", "coordinates": [2.292005, 48.82098]}, "properties": {"numparc": 1474, "etat de la localisation": "autre", "ID BDGEO": "5380", "horodatage": "2022-05-24 08:23:36", "distance (en metres)": 44.95, "station": "INSURRECTION-BLEUZEN", "marker-color": "#818181"}}, {"type": "Feature", "geometry": {"type": "Point", "coordinates": [2.322894, 48.838017]}, "properties": {"numparc": 1474, "etat de la localisation": "Deviation programmee", "ID BDGEO": "5410", "horodatage": "2022-05-24 09:35:58", "distance (en metres)": 109.14, "station": "JEAN ZAY - MAINE", "marker-color": "#56FF93"}}, {"type": "Feature", "geometry": {"type": "Point", "coordinates": [2.319258, 48.837906]}, "properties": {"numparc": 1474, "etat de la localisation": "Deviation programmee", "ID BDGEO": "5411", "horodatage": "2022-05-24 09:38:31", "distance (en metres)": 70.92, "station": "PLACE DE CATALOGNE", "marker-color": "#56FF93"}}, {"type": "Feature", "geometry": {"type": "Point", "coordinates": [2.377378, 48.622353]}, "properties": {"numparc": 1476, "etat de la localisation": "autre", "ID BDGEO": "5429", "horodatage": "2022-05-24 09:56:21", "distance (en metres)": 22615.47, "station": "MONTROUGE SORTIE#", "marker-color": "#818181"}}, {"type": "Feature", "geometry": {"type": "Point", "coordinates": [2.358298, 48.620743]}, "properties": {"numparc": 1476, "etat de la localisation": "autre", "ID BDGEO": "5429", "horodatage": "2022-05-24 10:01:39", "distance (en metres)": 22621.21, "station": "MONTROUGE SORTIE#", "marker-color": "#818181"}}, {"type": "Feature", "geometry": {"type": "Point", "coordinates": [2.358735, 48.620953]}, "properties": {"numparc": 1476, "etat de la localisation": "autre", "ID BDGEO": "5429", "horodatage": "2022-05-24 10:06:54", "distance (en metres)": 22600.95, "station": "MONTROUGE SORTIE#", "marker-color": "#818181"}}, {"type": "Feature", "geometry": {"type": "Point", "coordinates": [2.291965, 48.821045]}, "properties": {"numparc": 1474, "etat de la localisation": "autre", "ID BDGEO": "5380", "horodatage": "2022-05-24 10:18:38", "distance (en metres)": 47.44, "station": "INSURRECTION-BLEUZEN", "marker-color": "#818181"}}, {"type": "Feature", "geometry": {"type": "Point", "coordinates": [2.332185, 48.833546]}, "properties": {"numparc": 1474, "etat de la localisation": "autre", "ID BDGEO": "5408", "horodatage": "2022-05-24 10:42:23", "distance (en metres)": 125.2, "station": "DENFERT-ROCHEREAU - FROIDEVAUX", "marker-color": "#818181"}}, {"type": "Feature", "geometry": {"type": "Point", "coordinates": [2.33329, 48.833595]}, "properties": {"numparc": 1474, "etat de la localisation": "autre", "ID BDGEO": "5408", "horodatage": "2022-05-24 10:43:46", "distance (en metres)": 168.77, "station": "DENFERT-ROCHEREAU - FROIDEVAUX", "marker-color": "#818181"}}, {"type": "Feature", "geometry": {"type": "Point", "coordinates": [2.33329, 48.833595]}, "properties": {"numparc": 1474, "etat de la localisation": "autre", "ID BDGEO": "5408", "horodatage": "2022-05-24 10:46:11", "distance (en metres)": 168.77, "station": "DENFERT-ROCHEREAU - FROIDEVAUX", "marker-color": "#818181"}}, {"type": "Feature", "geometry": {"type": "Point", "coordinates": [2.358774, 48.620945]}, "properties": {"numparc": 1476, "etat de la localisation": "autre", "ID BDGEO": "5429", "horodatage": "2022-05-24 10:48:33", "distance (en metres)": 22602.06, "station": "MONTROUGE SORTIE#", "marker-color": "#818181"}}, {"type": "Feature", "geometry": {"type": "Point", "coordinates": [2.358774, 48.620945]}, "properties": {"numparc": 1476, "etat de la localisation": "autre", "ID BDGEO": "5429", "horodatage": "2022-05-24 10:56:06", "distance (en metres)": 22602.06, "station": "MONTROUGE SORTIE#", "marker-color": "#818181"}}, {"type": "Feature", "geometry": {"type": "Point", "coordinates": [2.358774, 48.620945]}, "properties": {"numparc": 1476, "etat de la localisation": "autre", "ID BDGEO": "5429", "horodatage": "2022-05-24 10:56:30", "distance (en metres)": 22602.06, "station": "MONTROUGE SORTIE#", "marker-color": "#818181"}}, {"type": "Feature", "geometry": {"type": "Point", "coordinates": [2.358774, 48.620945]}, "properties": {"numparc": 1476, "etat de la localisation": "autre", "ID BDGEO": "5429", "horodatage": "2022-05-24 10:57:49", "distance (en metres)": 22602.06, "station": "MONTROUGE SORTIE#", "marker-color": "#818181"}}, {"type": "Feature", "geometry": {"type": "Point", "coordinates": [2.358774, 48.620945]}, "properties": {"numparc": 1476, "etat de la localisation": "autre", "ID BDGEO": "5429", "horodatage": "2022-05-24 11:00:13", "distance (en metres)": 22602.06, "station": "MONTROUGE SORTIE#", "marker-color": "#818181"}}, {"type": "Feature", "geometry": {"type": "Point", "coordinates": [2.319193, 48.837902]}, "properties": {"numparc": 1474, "etat de la localisation": "Deviation programmee", "ID BDGEO": "5411", "horodatage": "2022-05-24 11:03:32", "distance (en metres)": 70.51, "station": "PLACE DE CATALOGNE", "marker-color": "#56FF93"}}, {"type": "Feature", "geometry": {"type": "Point", "coordinates": [2.358774, 48.620945]}, "properties": {"numparc": 1476, "etat de la localisation": "autre", "ID BDGEO": "5429", "horodatage": "2022-05-24 11:04:58", "distance (en metres)": 22602.06, "station": "MONTROUGE SORTIE#", "marker-color": "#818181"}}, {"type": "Feature", "geometry": {"type": "Point", "coordinates": [2.358104, 48.620853]}, "properties": {"numparc": 1476, "etat de la localisation": "autre", "ID BDGEO": "5429", "horodatage": "2022-05-24 11:11:13", "distance (en metres)": 22607.66, "station": "MONTROUGE SORTIE#", "marker-color": "#818181"}}, {"type": "Feature", "geometry": {"type": "Point", "coordinates": [2.358104, 48.620853]}, "properties": {"numparc": 1476, "etat de la localisation": "autre", "ID BDGEO": "5429", "horodatage": "2022-05-24 11:21:07", "distance (en metres)": 22607.66, "station": "MONTROUGE SORTIE#", "marker-color": "#818181"}}, {"type": "Feature", "geometry": {"type": "Point", "coordinates": [2.29197, 48.82098]}, "properties": {"numparc": 1474, "etat de la localisation": "autre", "ID BDGEO": "5380", "horodatage": "2022-05-24 11:38:39", "distance (en metres)": 42.91, "station": "INSURRECTION-BLEUZEN", "marker-color": "#818181"}}, {"type": "Feature", "geometry": {"type": "Point", "coordinates": [2.329303, 48.822937]}, "properties": {"numparc": 1407, "etat de la localisation": "autre", "ID BDGEO": "5429", "horodatage": "2022-05-24 11:48:20", "distance (en metres)": 65.75, "station": "MONTROUGE SORTIE#", "marker-color": "#818181"}}, {"type": "Feature", "geometry": {"type": "Point", "coordinates": [2.329303, 48.822937]}, "properties": {"numparc": 1407, "etat de la localisation": "autre", "ID BDGEO": "5429", "horodatage": "2022-05-24 11:50:28", "distance (en metres)": 65.75, "station": "MONTROUGE SORTIE#", "marker-color": "#818181"}}, {"type": "Feature", "geometry": {"type": "Point", "coordinates": [2.304935, 48.82687]}, "properties": {"numparc": 1383, "etat de la localisation": "autre", "ID BDGEO": "5383", "horodatage": "2022-05-24 12:00:14", "distance (en metres)": 62.69, "station": "PORTE DE VANVES", "marker-color": "#818181"}}, {"type": "Feature", "geometry": {"type": "Point", "coordinates": [2.330168, 48.822803]}, "properties": {"numparc": 1476, "etat de la localisation": "autre", "ID BDGEO": "5429", "horodatage": "2022-05-24 12:00:29", "distance (en metres)": 59.04, "station": "MONTROUGE SORTIE#", "marker-color": "#818181"}}, {"type": "Feature", "geometry": {"type": "Point", "coordinates": [2.304935, 48.82687]}, "properties": {"numparc": 1383, "etat de la localisation": "autre", "ID BDGEO": "5383", "horodatage": "2022-05-24 12:06:52", "distance (en metres)": 62.69, "station": "PORTE DE VANVES", "marker-color": "#818181"}}, {"type": "Feature", "geometry": {"type": "Point", "coordinates": [2.304827, 48.826878]}, "properties": {"numparc": 1370, "etat de la localisation": "autre", "ID BDGEO": "5427", "horodatage": "2022-05-24 12:20:42", "distance (en metres)": 58.33, "station": "PORTE DE VANVES#", "marker-color": "#818181"}}, {"type": "Feature", "geometry": {"type": "Point", "coordinates": [2.304827, 48.826878]}, "properties": {"numparc": 1370, "etat de la localisation": "autre", "ID BDGEO": "5427", "horodatage": "2022-05-24 12:22:46", "distance (en metres)": 58.33, "station": "PORTE DE VANVES#", "marker-color": "#818181"}}, {"type": "Feature", "geometry": {"type": "Point", "coordinates": [2.292127, 48.820904]}, "properties": {"numparc": 1407, "etat de la localisation": "autre", "ID BDGEO": "5380", "horodatage": "2022-05-24 12:33:41", "distance (en metres)": 48.69, "station": "INSURRECTION-BLEUZEN", "marker-color": "#818181"}}, {"type": "Feature", "geometry": {"type": "Point", "coordinates": [2.322912, 48.838085]}, "properties": {"numparc": 1474, "etat de la localisation": "Deviation programmee", "ID BDGEO": "5410", "horodatage": "2022-05-24 12:45:31", "distance (en metres)": 113.74, "station": "JEAN ZAY - MAINE", "marker-color": "#56FF93"}}, {"type": "Feature", "geometry": {"type": "Point", "coordinates": [2.319144, 48.837875]}, "properties": {"numparc": 1474, "etat de la localisation": "Deviation programmee", "ID BDGEO": "5411", "horodatage": "2022-05-24 12:48:27", "distance (en metres)": 67.78, "station": "PLACE DE CATALOGNE", "marker-color": "#56FF93"}}, {"type": "Feature", "geometry": {"type": "Point", "coordinates": [2.32276, 48.838089]}, "properties": {"numparc": 1383, "etat de la localisation": "Deviation programmee", "ID BDGEO": "5410", "horodatage": "2022-05-24 13:04:02", "distance (en metres)": 104.3, "station": "JEAN ZAY - MAINE", "marker-color": "#56FF93"}}, {"type": "Feature", "geometry": {"type": "Point", "coordinates": [2.318935, 48.837914]}, "properties": {"numparc": 1383, "etat de la localisation": "Deviation programmee", "ID BDGEO": "5411", "horodatage": "2022-05-24 13:06:10", "distance (en metres)": 74.88, "station": "PLACE DE CATALOGNE", "marker-color": "#56FF93"}}, {"type": "Feature", "geometry": {"type": "Point", "coordinates": [2.323525, 48.837421]}, "properties": {"numparc": 1370, "etat de la localisation": "Deviation programmee", "ID BDGEO": "5410", "horodatage": "2022-05-24 13:21:55", "distance (en metres)": 146.44, "station": "JEAN ZAY - MAINE", "marker-color": "#56FF93"}}, {"type": "Feature", "geometry": {"type": "Point", "coordinates": [2.322759, 48.838116]}, "properties": {"numparc": 1370, "etat de la localisation": "Deviation programmee", "ID BDGEO": "5410", "horodatage": "2022-05-24 13:22:45", "distance (en metres)": 105.8, "station": "JEAN ZAY - MAINE", "marker-color": "#56FF93"}}, {"type": "Feature", "geometry": {"type": "Point", "coordinates": [2.318963, 48.83794]}, "properties": {"numparc": 1370, "etat de la localisation": "Deviation programmee", "ID BDGEO": "5411", "horodatage": "2022-05-24 13:24:48", "distance (en metres)": 77.19, "station": "PLACE DE CATALOGNE", "marker-color": "#56FF93"}}, {"type": "Feature", "geometry": {"type": "Point", "coordinates": [2.310583, 48.832176]}, "properties": {"numparc": 1370, "etat de la localisation": "autre", "ID BDGEO": "5414", "horodatage": "2022-05-24 13:29:54", "distance (en metres)": 130.86, "station": "VERCINGETORIX-ROUVIER", "marker-color": "#818181"}}, {"type": "Feature", "geometry": {"type": "Point", "coordinates": [2.292049, 48.820961]}, "properties": {"numparc": 1474, "etat de la localisation": "autre", "ID BDGEO": "5380", "horodatage": "2022-05-24 13:31:56", "distance (en metres)": 46.44, "station": "INSURRECTION-BLEUZEN", "marker-color": "#818181"}}, {"type": "Feature", "geometry": {"type": "Point", "coordinates": [2.322832, 48.83807]}, "properties": {"numparc": 1407, "etat de la localisation": "Deviation programmee", "ID BDGEO": "5410", "horodatage": "2022-05-24 13:36:11", "distance (en metres)": 107.79, "station": "JEAN ZAY - MAINE", "marker-color": "#56FF93"}}, {"type": "Feature", "geometry": {"type": "Point", "coordinates": [2.319079, 48.83773]}, "properties": {"numparc": 1407, "etat de la localisation": "Deviation programmee", "ID BDGEO": "5411", "horodatage": "2022-05-24 13:38:05", "distance (en metres)": 52.53, "station": "PLACE DE CATALOGNE", "marker-color": "#56FF93"}}, {"type": "Feature", "geometry": {"type": "Point", "coordinates": [2.292092, 48.821026]}, "properties": {"numparc": 1383, "etat de la localisation": "autre", "ID BDGEO": "5380", "horodatage": "2022-05-24 13:55:17", "distance (en metres)": 53.1, "station": "INSURRECTION-BLEUZEN", "marker-color": "#818181"}}, {"type": "Feature", "geometry": {"type": "Point", "coordinates": [2.292114, 48.821018]}, "properties": {"numparc": 1370, "etat de la localisation": "autre", "ID BDGEO": "5380", "horodatage": "2022-05-24 14:08:46", "distance (en metres)": 53.91, "station": "INSURRECTION-BLEUZEN", "marker-color": "#818181"}}, {"type": "Feature", "geometry": {"type": "Point", "coordinates": [2.292089, 48.820988]}, "properties": {"numparc": 1407, "etat de la localisation": "autre", "ID BDGEO": "5380", "horodatage": "2022-05-24 14:28:42", "distance (en metres)": 50.5, "station": "INSURRECTION-BLEUZEN", "marker-color": "#818181"}}, {"type": "Feature", "geometry": {"type": "Point", "coordinates": [2.322891, 48.838051]}, "properties": {"numparc": 1474, "etat de la localisation": "Deviation programmee", "ID BDGEO": "5410", "horodatage": "2022-05-24 14:44:03", "distance (en metres)": 110.61, "station": "JEAN ZAY - MAINE", "marker-color": "#56FF93"}}, {"type": "Feature", "geometry": {"type": "Point", "coordinates": [2.322794, 48.838078]}, "properties": {"numparc": 1383, "etat de la localisation": "Deviation programmee", "ID BDGEO": "5410", "horodatage": "2022-05-24 14:54:40", "distance (en metres)": 105.78, "station": "JEAN ZAY - MAINE", "marker-color": "#56FF93"}}, {"type": "Feature", "geometry": {"type": "Point", "coordinates": [2.352184, 48.836369]}, "properties": {"numparc": 1370, "etat de la localisation": "autre", "ID BDGEO": "5403", "horodatage": "2022-05-24 15:03:56", "distance (en metres)": 120.14, "station": "LES GOBELINS", "marker-color": "#818181"}}, {"type": "Feature", "geometry": {"type": "Point", "coordinates": [2.322786, 48.838123]}, "properties": {"numparc": 1370, "etat de la localisation": "Deviation programmee", "ID BDGEO": "5410", "horodatage": "2022-05-24 15:18:56", "distance (en metres)": 107.93, "station": "JEAN ZAY - MAINE", "marker-color": "#56FF93"}}, {"type": "Feature", "geometry": {"type": "Point", "coordinates": [2.292035, 48.821018]}, "properties": {"numparc": 1474, "etat de la localisation": "autre", "ID BDGEO": "5380", "horodatage": "2022-05-24 15:23:49", "distance (en metres)": 49.28, "station": "INSURRECTION-BLEUZEN", "marker-color": "#818181"}}, {"type": "Feature", "geometry": {"type": "Point", "coordinates": [2.322922, 48.838219]}, "properties": {"numparc": 1407, "etat de la localisation": "Deviation programmee", "ID BDGEO": "5410", "horodatage": "2022-05-24 15:37:28", "distance (en metres)": 122.07, "station": "JEAN ZAY - MAINE", "marker-color": "#56FF93"}}, {"type": "Feature", "geometry": {"type": "Point", "coordinates": [2.319368, 48.837749]}, "properties": {"numparc": 1407, "etat de la localisation": "Deviation programmee", "ID BDGEO": "5411", "horodatage": "2022-05-24 15:40:08", "distance (en metres)": 54.46, "station": "PLACE DE CATALOGNE", "marker-color": "#56FF93"}}, {"type": "Feature", "geometry": {"type": "Point", "coordinates": [2.292103, 48.821018]}, "properties": {"numparc": 1383, "etat de la localisation": "autre", "ID BDGEO": "5380", "horodatage": "2022-05-24 15:40:16", "distance (en metres)": 53.26, "station": "INSURRECTION-BLEUZEN", "marker-color": "#818181"}}, {"type": "Feature", "geometry": {"type": "Point", "coordinates": [2.279605, 48.816032]}, "properties": {"numparc": 1370, "etat de la localisation": "autre", "ID BDGEO": "5422", "horodatage": "2022-05-24 15:45:00", "distance (en metres)": 72.66, "station": "STADE", "marker-color": "#818181"}}, {"type": "Feature", "geometry": {"type": "Point", "coordinates": [2.292107, 48.820999]}, "properties": {"numparc": 1370, "etat de la localisation": "autre", "ID BDGEO": "5380", "horodatage": "2022-05-24 16:05:23", "distance (en metres)": 52.31, "station": "INSURRECTION-BLEUZEN", "marker-color": "#818181"}}, {"type": "Feature", "geometry": {"type": "Point", "coordinates": [2.292065, 48.821011]}, "properties": {"numparc": 1407, "etat de la localisation": "autre", "ID BDGEO": "5380", "horodatage": "2022-05-24 16:26:48", "distance (en metres)": 50.49, "station": "INSURRECTION-BLEUZEN", "marker-color": "#818181"}}, {"type": "Feature", "geometry": {"type": "Point", "coordinates": [2.322961, 48.8381]}, "properties": {"numparc": 1474, "etat de la localisation": "Deviation programmee", "ID BDGEO": "5410", "horodatage": "2022-05-24 16:40:04", "distance (en metres)": 117.71, "station": "JEAN ZAY - MAINE", "marker-color": "#56FF93"}}, {"type": "Feature", "geometry": {"type": "Point", "coordinates": [2.319209, 48.837936]}, "properties": {"numparc": 1474, "etat de la localisation": "Deviation programmee", "ID BDGEO": "5411", "horodatage": "2022-05-24 16:42:46", "distance (en metres)": 74.29, "station": "PLACE DE CATALOGNE", "marker-color": "#56FF93"}}, {"type": "Feature", "geometry": {"type": "Point", "coordinates": [2.323634, 48.822453]}, "properties": {"numparc": 1382, "etat de la localisation": "autre", "ID BDGEO": "5429", "horodatage": "2022-05-24 16:46:05", "distance (en metres)": 474.97, "station": "MONTROUGE SORTIE#", "marker-color": "#818181"}}, {"type": "Feature", "geometry": {"type": "Point", "coordinates": [2.354798, 48.831509]}, "properties": {"numparc": 1370, "etat de la localisation": "autre", "ID BDGEO": "5524", "horodatage": "2022-05-24 16:47:03", "distance (en metres)": 97.35, "station": "PLACE D'ITALIE#", "marker-color": "#818181"}}, {"type": "Feature", "geometry": {"type": "Point", "coordinates": [2.323479, 48.822495]}, "properties": {"numparc": 1382, "etat de la localisation": "autre", "ID BDGEO": "5429", "horodatage": "2022-05-24 16:47:09", "distance (en metres)": 485.17, "station": "MONTROUGE SORTIE#", "marker-color": "#818181"}}, {"type": "Feature", "geometry": {"type": "Point", "coordinates": [2.336555, 48.834297]}, "properties": {"numparc": 1407, "etat de la localisation": "autre", "ID BDGEO": "5392", "horodatage": "2022-05-24 16:50:51", "distance (en metres)": 43.3, "station": "ARAGO-SAINT JACQUES", "marker-color": "#818181"}}, {"type": "Feature", "geometry": {"type": "Point", "coordinates": [2.305427, 48.826599]}, "properties": {"numparc": 1382, "etat de la localisation": "autre", "ID BDGEO": "5427", "horodatage": "2022-05-24 17:04:25", "distance (en metres)": 95.65, "station": "PORTE DE VANVES#", "marker-color": "#818181"}}, {"type": "Feature", "geometry": {"type": "Point", "coordinates": [2.322836, 48.838028]}, "properties": {"numparc": 1383, "etat de la localisation": "Deviation programmee", "ID BDGEO": "5410", "horodatage": "2022-05-24 17:08:10", "distance (en metres)": 105.87, "station": "JEAN ZAY - MAINE", "marker-color": "#56FF93"}}, {"type": "Feature", "geometry": {"type": "Point", "coordinates": [2.319142, 48.837898]}, "properties": {"numparc": 1383, "etat de la localisation": "Deviation programmee", "ID BDGEO": "5411", "horodatage": "2022-05-24 17:12:14", "distance (en metres)": 70.32, "station": "PLACE DE CATALOGNE", "marker-color": "#56FF93"}}, {"type": "Feature", "geometry": {"type": "Point", "coordinates": [2.305427, 48.826599]}, "properties": {"numparc": 1382, "etat de la localisation": "autre", "ID BDGEO": "5427", "horodatage": "2022-05-24 17:18:17", "distance (en metres)": 95.65, "station": "PORTE DE VANVES#", "marker-color": "#818181"}}, {"type": "Feature", "geometry": {"type": "Point", "coordinates": [2.329814, 48.822403]}, "properties": {"numparc": 1476, "etat de la localisation": "autre", "ID BDGEO": "5429", "horodatage": "2022-05-24 17:26:20", "distance (en metres)": 102.83, "station": "MONTROUGE SORTIE#", "marker-color": "#818181"}}, {"type": "Feature", "geometry": {"type": "Point", "coordinates": [2.292002, 48.821037]}, "properties": {"numparc": 1474, "etat de la localisation": "autre", "ID BDGEO": "5380", "horodatage": "2022-05-24 17:28:35", "distance (en metres)": 48.81, "station": "INSURRECTION-BLEUZEN", "marker-color": "#818181"}}, {"type": "Feature", "geometry": {"type": "Point", "coordinates": [2.322848, 48.838013]}, "properties": {"numparc": 1407, "etat de la localisation": "Deviation programmee", "ID BDGEO": "5410", "horodatage": "2022-05-24 17:30:36", "distance (en metres)": 105.92, "station": "JEAN ZAY - MAINE", "marker-color": "#56FF93"}}, {"type": "Feature", "geometry": {"type": "Point", "coordinates": [2.319098, 48.837898]}, "properties": {"numparc": 1407, "etat de la localisation": "Deviation programmee", "ID BDGEO": "5411", "horodatage": "2022-05-24 17:33:51", "distance (en metres)": 70.68, "station": "PLACE DE CATALOGNE", "marker-color": "#56FF93"}}, {"type": "Feature", "geometry": {"type": "Point", "coordinates": [2.27265, 48.814484]}, "properties": {"numparc": 1383, "etat de la localisation": "autre", "ID BDGEO": "5375", "horodatage": "2022-05-24 17:41:01", "distance (en metres)": 50.91, "station": "GARE DE CLAMART", "marker-color": "#818181"}}, {"type": "Feature", "geometry": {"type": "Point", "coordinates": [2.278356, 48.814911]}, "properties": {"numparc": 1383, "etat de la localisation": "autre", "ID BDGEO": "5376", "horodatage": "2022-05-24 17:46:11", "distance (en metres)": 155.68, "station": "CLOS MONTHOLON - LARMEROUX", "marker-color": "#818181"}}, {"type": "Feature", "geometry": {"type": "Point", "coordinates": [2.28361, 48.81776]}, "properties": {"numparc": 1383, "etat de la localisation": "autre", "ID BDGEO": "5378", "horodatage": "2022-05-24 17:49:40", "distance (en metres)": 40.36, "station": "RUE DE CHATILLON", "marker-color": "#818181"}}, {"type": "Feature", "geometry": {"type": "Point", "coordinates": [2.292078, 48.821026]}, "properties": {"numparc": 1383, "etat de la localisation": "autre", "ID BDGEO": "5380", "horodatage": "2022-05-24 17:53:51", "distance (en metres)": 52.28, "station": "INSURRECTION-BLEUZEN", "marker-color": "#818181"}}, {"type": "Feature", "geometry": {"type": "Point", "coordinates": [2.310789, 48.830261]}, "properties": {"numparc": 1383, "etat de la localisation": "autre", "ID BDGEO": "5384", "horodatage": "2022-05-24 18:05:04", "distance (en metres)": 55.29, "station": "HOPITAL SAINT-JOSEPH", "marker-color": "#818181"}}, {"type": "Feature", "geometry": {"type": "Point", "coordinates": [2.292069, 48.820984]}, "properties": {"numparc": 1407, "etat de la localisation": "autre", "ID BDGEO": "5380", "horodatage": "2022-05-24 18:20:20", "distance (en metres)": 49.04, "station": "INSURRECTION-BLEUZEN", "marker-color": "#818181"}}, {"type": "Feature", "geometry": {"type": "Point", "coordinates": [2.322894, 48.837971]}, "properties": {"numparc": 1382, "etat de la localisation": "Deviation programmee", "ID BDGEO": "5410", "horodatage": "2022-05-24 18:28:03", "distance (en metres)": 107.09, "station": "JEAN ZAY - MAINE", "marker-color": "#56FF93"}}, {"type": "Feature", "geometry": {"type": "Point", "coordinates": [2.319111, 48.837906]}, "properties": {"numparc": 1382, "etat de la localisation": "Deviation programmee", "ID BDGEO": "5411", "horodatage": "2022-05-24 18:30:25", "distance (en metres)": 71.4, "station": "PLACE DE CATALOGNE", "marker-color": "#56FF93"}}, {"type": "Feature", "geometry": {"type": "Point", "coordinates": [2.322955, 48.838043]}, "properties": {"numparc": 1474, "etat de la localisation": "Deviation programmee", "ID BDGEO": "5410", "horodatage": "2022-05-24 18:39:57", "distance (en metres)": 114.43, "station": "JEAN ZAY - MAINE", "marker-color": "#56FF93"}}, {"type": "Feature", "geometry": {"type": "Point", "coordinates": [2.322751, 48.838097]}, "properties": {"numparc": 1383, "etat de la localisation": "Deviation programmee", "ID BDGEO": "5410", "horodatage": "2022-05-24 19:01:25", "distance (en metres)": 104.18, "station": "JEAN ZAY - MAINE", "marker-color": "#56FF93"}}, {"type": "Feature", "geometry": {"type": "Point", "coordinates": [2.319026, 48.837891]}, "properties": {"numparc": 1383, "etat de la localisation": "Deviation programmee", "ID BDGEO": "5411", "horodatage": "2022-05-24 19:04:44", "distance (en metres)": 70.76, "station": "PLACE DE CATALOGNE", "marker-color": "#56FF93"}}, {"type": "Feature", "geometry": {"type": "Point", "coordinates": [2.322792, 48.837929]}, "properties": {"numparc": 1370, "etat de la localisation": "Deviation programmee", "ID BDGEO": "5410", "horodatage": "2022-05-24 19:12:09", "distance (en metres)": 98.41, "station": "JEAN ZAY - MAINE", "marker-color": "#56FF93"}}, {"type": "Feature", "geometry": {"type": "Point", "coordinates": [2.291995, 48.820995]}, "properties": {"numparc": 1382, "etat de la localisation": "autre", "ID BDGEO": "5380", "horodatage": "2022-05-24 19:12:14", "distance (en metres)": 45.4, "station": "INSURRECTION-BLEUZEN", "marker-color": "#818181"}}, {"type": "Feature", "geometry": {"type": "Point", "coordinates": [2.322736, 48.838062]}, "properties": {"numparc": 1370, "etat de la localisation": "Deviation programmee", "ID BDGEO": "5410", "horodatage": "2022-05-24 19:12:59", "distance (en metres)": 101.26, "station": "JEAN ZAY - MAINE", "marker-color": "#56FF93"}}, {"type": "Feature", "geometry": {"type": "Point", "coordinates": [2.318998, 48.837906]}, "properties": {"numparc": 1370, "etat de la localisation": "Deviation programmee", "ID BDGEO": "5411", "horodatage": "2022-05-24 19:15:43", "distance (en metres)": 72.86, "station": "PLACE DE CATALOGNE", "marker-color": "#56FF93"}}, {"type": "Feature", "geometry": {"type": "Point", "coordinates": [2.292064, 48.820946]}, "properties": {"numparc": 1474, "etat de la localisation": "autre", "ID BDGEO": "5380", "horodatage": "2022-05-24 19:25:20", "distance (en metres)": 46.53, "station": "INSURRECTION-BLEUZEN", "marker-color": "#818181"}}, {"type": "Feature", "geometry": {"type": "Point", "coordinates": [2.322783, 48.838005]}, "properties": {"numparc": 1407, "etat de la localisation": "Deviation programmee", "ID BDGEO": "5410", "horodatage": "2022-05-24 19:37:28", "distance (en metres)": 101.26, "station": "JEAN ZAY - MAINE", "marker-color": "#56FF93"}}, {"type": "Feature", "geometry": {"type": "Point", "coordinates": [2.319119, 48.837898]}, "properties": {"numparc": 1407, "etat de la localisation": "Deviation programmee", "ID BDGEO": "5411", "horodatage": "2022-05-24 19:39:29", "distance (en metres)": 70.49, "station": "PLACE DE CATALOGNE", "marker-color": "#56FF93"}}, {"type": "Feature", "geometry": {"type": "Point", "coordinates": [2.292116, 48.821007]}, "properties": {"numparc": 1383, "etat de la localisation": "autre", "ID BDGEO": "5380", "horodatage": "2022-05-24 19:43:49", "distance (en metres)": 53.31, "station": "INSURRECTION-BLEUZEN", "marker-color": "#818181"}}, {"type": "Feature", "geometry": {"type": "Point", "coordinates": [2.313933, 48.831753]}, "properties": {"numparc": 1383, "etat de la localisation": "autre", "ID BDGEO": "5385", "horodatage": "2022-05-24 19:55:06", "distance (en metres)": 41.19, "station": "PLAISANCE", "marker-color": "#818181"}}, {"type": "Feature", "geometry": {"type": "Point", "coordinates": [2.292065, 48.821022]}, "properties": {"numparc": 1370, "etat de la localisation": "autre", "ID BDGEO": "5380", "horodatage": "2022-05-24 19:58:45", "distance (en metres)": 51.26, "station": "INSURRECTION-BLEUZEN", "marker-color": "#818181"}}, {"type": "Feature", "geometry": {"type": "Point", "coordinates": [2.319047, 48.83786]}, "properties": {"numparc": 1382, "etat de la localisation": "Deviation programmee", "ID BDGEO": "5411", "horodatage": "2022-05-24 20:11:39", "distance (en metres)": 67.13, "station": "PLACE DE CATALOGNE", "marker-color": "#56FF93"}}, {"type": "Feature", "geometry": {"type": "Point", "coordinates": [2.319047, 48.83786]}, "properties": {"numparc": 1382, "etat de la localisation": "Deviation programmee", "ID BDGEO": "5411", "horodatage": "2022-05-24 20:11:44", "distance (en metres)": 67.13, "station": "PLACE DE CATALOGNE", "marker-color": "#56FF93"}}, {"type": "Feature", "geometry": {"type": "Point", "coordinates": [2.318986, 48.837826]}, "properties": {"numparc": 1382, "etat de la localisation": "Deviation programmee", "ID BDGEO": "5411", "horodatage": "2022-05-24 20:12:09", "distance (en metres)": 64.47, "station": "PLACE DE CATALOGNE", "marker-color": "#56FF93"}}, {"type": "Feature", "geometry": {"type": "Point", "coordinates": [2.31909, 48.837856]}, "properties": {"numparc": 1474, "etat de la localisation": "Deviation programmee", "ID BDGEO": "5411", "horodatage": "2022-05-24 20:24:42", "distance (en metres)": 66.15, "station": "PLACE DE CATALOGNE", "marker-color": "#56FF93"}}, {"type": "Feature", "geometry": {"type": "Point", "coordinates": [2.292092, 48.821018]}, "properties": {"numparc": 1407, "etat de la localisation": "autre", "ID BDGEO": "5380", "horodatage": "2022-05-24 20:26:47", "distance (en metres)": 52.6, "station": "INSURRECTION-BLEUZEN", "marker-color": "#818181"}}, {"type": "Feature", "geometry": {"type": "Point", "coordinates": [2.322739, 48.838093]}, "properties": {"numparc": 1383, "etat de la localisation": "Deviation programmee", "ID BDGEO": "5410", "horodatage": "2022-05-24 20:36:07", "distance (en metres)": 103.2, "station": "JEAN ZAY - MAINE", "marker-color": "#56FF93"}}, {"type": "Feature", "geometry": {"type": "Point", "coordinates": [2.292035, 48.820992]}, "properties": {"numparc": 1382, "etat de la localisation": "autre", "ID BDGEO": "5380", "horodatage": "2022-05-24 20:55:13", "distance (en metres)": 47.48, "station": "INSURRECTION-BLEUZEN", "marker-color": "#818181"}}, {"type": "Feature", "geometry": {"type": "Point", "coordinates": [2.322818, 48.838066]}, "properties": {"numparc": 1370, "etat de la localisation": "Deviation programmee", "ID BDGEO": "5410", "horodatage": "2022-05-24 21:01:25", "distance (en metres)": 106.69, "station": "JEAN ZAY - MAINE", "marker-color": "#56FF93"}}, {"type": "Feature", "geometry": {"type": "Point", "coordinates": [2.319018, 48.83786]}, "properties": {"numparc": 1370, "etat de la localisation": "Deviation programmee", "ID BDGEO": "5411", "horodatage": "2022-05-24 21:03:03", "distance (en metres)": 67.58, "station": "PLACE DE CATALOGNE", "marker-color": "#56FF93"}}, {"type": "Feature", "geometry": {"type": "Point", "coordinates": [2.292069, 48.820999]}, "properties": {"numparc": 1474, "etat de la localisation": "autre", "ID BDGEO": "5380", "horodatage": "2022-05-24 21:07:02", "distance (en metres)": 49.99, "station": "INSURRECTION-BLEUZEN", "marker-color": "#818181"}}, {"type": "Feature", "geometry": {"type": "Point", "coordinates": [2.292109, 48.821041]}, "properties": {"numparc": 1383, "etat de la localisation": "autre", "ID BDGEO": "5380", "horodatage": "2022-05-24 21:20:09", "distance (en metres)": 55.11, "station": "INSURRECTION-BLEUZEN", "marker-color": "#818181"}}, {"type": "Feature", "geometry": {"type": "Point", "coordinates": [2.272848, 48.814518]}, "properties": {"numparc": 1370, "etat de la localisation": "autre", "ID BDGEO": "5375", "horodatage": "2022-05-24 21:23:46", "distance (en metres)": 44.51, "station": "GARE DE CLAMART", "marker-color": "#818181"}}, {"type": "Feature", "geometry": {"type": "Point", "coordinates": [2.272815, 48.814552]}, "properties": {"numparc": 1370, "etat de la localisation": "autre", "ID BDGEO": "5375", "horodatage": "2022-05-24 21:24:39", "distance (en metres)": 40.86, "station": "GARE DE CLAMART", "marker-color": "#818181"}}, {"type": "Feature", "geometry": {"type": "Point", "coordinates": [2.322786, 48.838055]}, "properties": {"numparc": 1407, "etat de la localisation": "Deviation programmee", "ID BDGEO": "5410", "horodatage": "2022-05-24 21:24:54", "distance (en metres)": 104.02, "station": "JEAN ZAY - MAINE", "marker-color": "#56FF93"}}, {"type": "Feature", "geometry": {"type": "Point", "coordinates": [2.319109, 48.837849]}, "properties": {"numparc": 1407, "etat de la localisation": "Deviation programmee", "ID BDGEO": "5411", "horodatage": "2022-05-24 21:27:02", "distance (en metres)": 65.11, "station": "PLACE DE CATALOGNE", "marker-color": "#56FF93"}}, {"type": "Feature", "geometry": {"type": "Point", "coordinates": [2.292139, 48.82098]}, "properties": {"numparc": 1370, "etat de la localisation": "autre", "ID BDGEO": "5380", "horodatage": "2022-05-24 21:30:11", "distance (en metres)": 53.19, "station": "INSURRECTION-BLEUZEN", "marker-color": "#818181"}}, {"type": "Feature", "geometry": {"type": "Point", "coordinates": [2.329689, 48.834995]}, "properties": {"numparc": 1370, "etat de la localisation": "autre", "ID BDGEO": "5390", "horodatage": "2022-05-24 21:43:49", "distance (en metres)": 128.34, "station": "DENFERT-ROCHEREAU - FROIDEVAUX", "marker-color": "#818181"}}, {"type": "Feature", "geometry": {"type": "Point", "coordinates": [2.329689, 48.834995]}, "properties": {"numparc": 1370, "etat de la localisation": "autre", "ID BDGEO": "5390", "horodatage": "2022-05-24 21:43:52", "distance (en metres)": 128.34, "station": "DENFERT-ROCHEREAU - FROIDEVAUX", "marker-color": "#818181"}}, {"type": "Feature", "geometry": {"type": "Point", "coordinates": [2.319132, 48.837936]}, "properties": {"numparc": 1382, "etat de la localisation": "Deviation programmee", "ID BDGEO": "5411", "horodatage": "2022-05-24 21:54:07", "distance (en metres)": 74.61, "station": "PLACE DE CATALOGNE", "marker-color": "#56FF93"}}, {"type": "Feature", "geometry": {"type": "Point", "coordinates": [2.292093, 48.820961]}, "properties": {"numparc": 1407, "etat de la localisation": "autre", "ID BDGEO": "5380", "horodatage": "2022-05-24 21:55:11", "distance (en metres)": 49.21, "station": "INSURRECTION-BLEUZEN", "marker-color": "#818181"}}, {"type": "Feature", "geometry": {"type": "Point", "coordinates": [2.296598, 48.823387]}, "properties": {"numparc": 1407, "etat de la localisation": "autre", "ID BDGEO": "5381", "horodatage": "2022-05-24 21:57:01", "distance (en metres)": 65.59, "station": "JEAN JAURES-JEAN BLEUZEN", "marker-color": "#818181"}}, {"type": "Feature", "geometry": {"type": "Point", "coordinates": [2.322798, 48.838161]}, "properties": {"numparc": 1383, "etat de la localisation": "Deviation programmee", "ID BDGEO": "5410", "horodatage": "2022-05-24 22:14:24", "distance (en metres)": 110.99, "station": "JEAN ZAY - MAINE", "marker-color": "#56FF93"}}, {"type": "Feature", "geometry": {"type": "Point", "coordinates": [2.318851, 48.837894]}, "properties": {"numparc": 1383, "etat de la localisation": "Deviation programmee", "ID BDGEO": "5411", "horodatage": "2022-05-24 22:16:06", "distance (en metres)": 74.89, "station": "PLACE DE CATALOGNE", "marker-color": "#56FF93"}}, {"type": "Feature", "geometry": {"type": "Point", "coordinates": [2.356189, 48.831039]}, "properties": {"numparc": 1407, "etat de la localisation": "autre", "ID BDGEO": "5400", "horodatage": "2022-05-24 22:18:31", "distance (en metres)": 88.24, "station": "PLACE D'ITALIE", "marker-color": "#818181"}}, {"type": "Feature", "geometry": {"type": "Point", "coordinates": [2.356189, 48.831039]}, "properties": {"numparc": 1407, "etat de la localisation": "autre", "ID BDGEO": "5400", "horodatage": "2022-05-24 22:19:16", "distance (en metres)": 88.24, "station": "PLACE D'ITALIE", "marker-color": "#818181"}}, {"type": "Feature", "geometry": {"type": "Point", "coordinates": [2.292047, 48.821007]}, "properties": {"numparc": 1382, "etat de la localisation": "autre", "ID BDGEO": "5380", "horodatage": "2022-05-24 22:23:35", "distance (en metres)": 49.19, "station": "INSURRECTION-BLEUZEN", "marker-color": "#818181"}}, {"type": "Feature", "geometry": {"type": "Point", "coordinates": [2.356189, 48.831039]}, "properties": {"numparc": 1407, "etat de la localisation": "autre", "ID BDGEO": "5400", "horodatage": "2022-05-24 22:32:34", "distance (en metres)": 88.24, "station": "PLACE D'ITALIE", "marker-color": "#818181"}}, {"type": "Feature", "geometry": {"type": "Point", "coordinates": [2.291971, 48.820995]}, "properties": {"numparc": 1474, "etat de la localisation": "autre", "ID BDGEO": "5380", "horodatage": "2022-05-24 22:38:24", "distance (en metres)": 44.03, "station": "INSURRECTION-BLEUZEN", "marker-color": "#818181"}}, {"type": "Feature", "geometry": {"type": "Point", "coordinates": [2.292063, 48.82106]}, "properties": {"numparc": 1383, "etat de la localisation": "autre", "ID BDGEO": "5380", "horodatage": "2022-05-24 22:47:00", "distance (en metres)": 53.84, "station": "INSURRECTION-BLEUZEN", "marker-color": "#818181"}}, {"type": "Feature", "geometry": {"type": "Point", "coordinates": [2.307557, 48.828785]}, "properties": {"numparc": 1383, "etat de la localisation": "autre", "ID BDGEO": "5384", "horodatage": "2022-05-24 22:53:07", "distance (en metres)": 232.68, "station": "HOPITAL SAINT-JOSEPH", "marker-color": "#818181"}}, {"type": "Feature", "geometry": {"type": "Point", "coordinates": [2.322836, 48.838093]}, "properties": {"numparc": 1407, "etat de la localisation": "Deviation programmee", "ID BDGEO": "5410", "horodatage": "2022-05-24 22:56:50", "distance (en metres)": 109.29, "station": "JEAN ZAY - MAINE", "marker-color": "#56FF93"}}, {"type": "Feature", "geometry": {"type": "Point", "coordinates": [2.319089, 48.837891]}, "properties": {"numparc": 1407, "etat de la localisation": "Deviation programmee", "ID BDGEO": "5411", "horodatage": "2022-05-24 22:58:54", "distance (en metres)": 69.94, "station": "PLACE DE CATALOGNE", "marker-color": "#56FF93"}}, {"type": "Feature", "geometry": {"type": "Point", "coordinates": [2.292093, 48.821011]}, "properties": {"numparc": 1370, "etat de la localisation": "autre", "ID BDGEO": "5380", "horodatage": "2022-05-24 23:06:47", "distance (en metres)": 52.17, "station": "INSURRECTION-BLEUZEN", "marker-color": "#818181"}}, {"type": "Feature", "geometry": {"type": "Point", "coordinates": [2.292053, 48.820995]}, "properties": {"numparc": 1407, "etat de la localisation": "autre", "ID BDGEO": "5380", "horodatage": "2022-05-24 23:26:46", "distance (en metres)": 48.79, "station": "INSURRECTION-BLEUZEN", "marker-color": "#818181"}}, {"type": "Feature", "geometry": {"type": "Point", "coordinates": [2.327939, 48.823677]}, "properties": {"numparc": 1382, "etat de la localisation": "autre", "ID BDGEO": "5429", "horodatage": "2022-05-24 23:38:19", "distance (en metres)": 155.02, "station": "MONTROUGE SORTIE#", "marker-color": "#818181"}}, {"type": "Feature", "geometry": {"type": "Point", "coordinates": [2.356326, 48.831123]}, "properties": {"numparc": 1407, "etat de la localisation": "autre", "ID BDGEO": "5400", "horodatage": "2022-05-24 23:52:02", "distance (en metres)": 81.53, "station": "PLACE D'ITALIE", "marker-color": "#818181"}}, {"type": "Feature", "geometry": {"type": "Point", "coordinates": [2.27272, 48.814571]}, "properties": {"numparc": 1383, "etat de la localisation": "autre", "ID BDGEO": "5375", "horodatage": "2022-05-25 00:05:46", "distance (en metres)": 40.06, "station": "GARE DE CLAMART", "marker-color": "#818181"}}, {"type": "Feature", "geometry": {"type": "Point", "coordinates": [2.327889, 48.823647]}, "properties": {"numparc": 1474, "etat de la localisation": "autre", "ID BDGEO": "5429", "horodatage": "2022-05-25 00:09:24", "distance (en metres)": 157.75, "station": "MONTROUGE SORTIE#", "marker-color": "#818181"}}, {"type": "Feature", "geometry": {"type": "Point", "coordinates": [2.318413, 48.834099]}, "properties": {"numparc": 1383, "etat de la localisation": "autre", "ID BDGEO": "5387", "horodatage": "2022-05-25 00:23:43", "distance (en metres)": 51.51, "station": "PERNETY", "marker-color": "#818181"}}, {"type": "Feature", "geometry": {"type": "Point", "coordinates": [2.352317, 48.836121]}, "properties": {"numparc": 1383, "etat de la localisation": "autre", "ID BDGEO": "5396", "horodatage": "2022-05-25 00:34:30", "distance (en metres)": 116.55, "station": "LES GOBELINS", "marker-color": "#818181"}}, {"type": "Feature", "geometry": {"type": "Point", "coordinates": [2.327828, 48.823677]}, "properties": {"numparc": 1383, "etat de la localisation": "autre", "ID BDGEO": "5429", "horodatage": "2022-05-25 00:50:07", "distance (en metres)": 162.9, "station": "MONTROUGE SORTIE#", "marker-color": "#818181"}}, {"type": "Feature", "geometry": {"type": "Point", "coordinates": [2.328025, 48.823643]}, "properties": {"numparc": 1383, "etat de la localisation": "autre", "ID BDGEO": "5429", "horodatage": "2022-05-25 00:50:38", "distance (en metres)": 147.97, "station": "MONTROUGE SORTIE#", "marker-color": "#818181"}}, {"type": "Feature", "geometry": {"type": "Point", "coordinates": [2.32764, 48.823719]}, "properties": {"numparc": 1407, "etat de la localisation": "autre", "ID BDGEO": "5429", "horodatage": "2022-05-25 00:51:50", "distance (en metres)": 177.38, "station": "MONTROUGE SORTIE#", "marker-color": "#818181"}}, {"type": "Feature", "geometry": {"type": "Point", "coordinates": [2.327984, 48.823643]}, "properties": {"numparc": 1407, "etat de la localisation": "autre", "ID BDGEO": "5429", "horodatage": "2022-05-25 00:52:54", "distance (en metres)": 150.88, "station": "MONTROUGE SORTIE#", "marker-color": "#818181"}}, {"type": "Feature", "geometry": {"type": "Point", "coordinates": [2.328753, 48.823288]}, "properties": {"numparc": 1383, "etat de la localisation": "autre", "ID BDGEO": "5429", "horodatage": "2022-05-25 00:54:52", "distance (en metres)": 90.36, "station": "MONTROUGE SORTIE#", "marker-color": "#818181"}}, {"type": "Feature", "geometry": {"type": "Point", "coordinates": [2.328753, 48.823288]}, "properties": {"numparc": 1383, "etat de la localisation": "autre", "ID BDGEO": "5429", "horodatage": "2022-05-25 00:54:56", "distance (en metres)": 90.36, "station": "MONTROUGE SORTIE#", "marker-color": "#818181"}}, {"type": "Feature", "geometry": {"type": "Point", "coordinates": [2.32868, 48.8237]}, "properties": {"numparc": 1407, "etat de la localisation": "autre", "ID BDGEO": "5429", "horodatage": "2022-05-25 00:57:04", "distance (en metres)": 104.51, "station": "MONTROUGE SORTIE#", "marker-color": "#818181"}}, {"type": "Feature", "geometry": {"type": "Point", "coordinates": [2.327706, 48.823654]}, "properties": {"numparc": 1370, "etat de la localisation": "autre", "ID BDGEO": "5429", "horodatage": "2022-05-25 01:08:52", "distance (en metres)": 170.99, "station": "MONTROUGE SORTIE#", "marker-color": "#818181"}}, {"type": "Feature", "geometry": {"type": "Point", "coordinates": [2.327802, 48.823635]}, "properties": {"numparc": 1370, "etat de la localisation": "autre", "ID BDGEO": "5429", "horodatage": "2022-05-25 01:09:38", "distance (en metres)": 163.68, "station": "MONTROUGE SORTIE#", "marker-color": "#818181"}}, {"type": "Feature", "geometry": {"type": "Point", "coordinates": [2.327802, 48.823635]}, "properties": {"numparc": 1370, "etat de la localisation": "autre", "ID BDGEO": "5429", "horodatage": "2022-05-25 01:09:52", "distance (en metres)": 163.68, "station": "MONTROUGE SORTIE#", "marker-color": "#818181"}}, {"type": "Feature", "geometry": {"type": "Point", "coordinates": [2.329113, 48.823265]}, "properties": {"numparc": 1370, "etat de la localisation": "autre", "ID BDGEO": "5429", "horodatage": "2022-05-25 01:13:07", "distance (en metres)": 64.22, "station": "MONTROUGE SORTIE#", "marker-color": "#818181"}}, {"type": "Feature", "geometry": {"type": "Point", "coordinates": [2.329239, 48.822849]}, "properties": {"numparc": 1370, "etat de la localisation": "autre", "ID BDGEO": "5429", "horodatage": "2022-05-25 01:15:31", "distance (en metres)": 75.77, "station": "MONTROUGE SORTIE#", "marker-color": "#818181"}}, {"type": "Feature", "geometry": {"type": "Point", "coordinates": [2.329986, 48.823321]}, "properties": {"station": "MONTROUGE SORTIE#", "ID BDGEO": "5429", "marker-color": "#56B3FF"}}, {"type": "Feature", "geometry": {"type": "Point", "coordinates": [2.319228, 48.837268]}, "properties": {"station": "PLACE DE CATALOGNE", "ID BDGEO": "5411", "marker-color": "#56B3FF"}}, {"type": "Feature", "geometry": {"type": "Point", "coordinates": [2.286679, 48.818789]}, "properties": {"station": "DIDEROT", "ID BDGEO": "5420", "marker-color": "#56B3FF"}}, {"type": "Feature", "geometry": {"type": "Point", "coordinates": [2.27287, 48.814918]}, "properties": {"station": "GARE DE CLAMART", "ID BDGEO": "5375", "marker-color": "#56B3FF"}}, {"type": "Feature", "geometry": {"type": "Point", "coordinates": [2.291509, 48.820742]}, "properties": {"station": "INSURRECTION-BLEUZEN", "ID BDGEO": "5380", "marker-color": "#56B3FF"}}, {"type": "Feature", "geometry": {"type": "Point", "coordinates": [2.272734, 48.81472]}, "properties": {"station": "GARE DE CLAMART#", "ID BDGEO": "5523", "marker-color": "#56B3FF"}}, {"type": "Feature", "geometry": {"type": "Point", "coordinates": [2.321543, 48.837601]}, "properties": {"station": "JEAN ZAY - MAINE", "ID BDGEO": "5410", "marker-color": "#56B3FF"}}, {"type": "Feature", "geometry": {"type": "Point", "coordinates": [2.33155, 48.834591]}, "properties": {"station": "DENFERT-ROCHEREAU - FROIDEVAUX", "ID BDGEO": "5408", "marker-color": "#56B3FF"}}, {"type": "Feature", "geometry": {"type": "Point", "coordinates": [2.30498, 48.827433]}, "properties": {"station": "PORTE DE VANVES", "ID BDGEO": "5383", "marker-color": "#56B3FF"}}, {"type": "Feature", "geometry": {"type": "Point", "coordinates": [2.304939, 48.827397]}, "properties": {"station": "PORTE DE VANVES#", "ID BDGEO": "5427", "marker-color": "#56B3FF"}}, {"type": "Feature", "geometry": {"type": "Point", "coordinates": [2.309333, 48.831335]}, "properties": {"station": "VERCINGETORIX-ROUVIER", "ID BDGEO": "5414", "marker-color": "#56B3FF"}}, {"type": "Feature", "geometry": {"type": "Point", "coordinates": [2.350543, 48.836352]}, "properties": {"station": "LES GOBELINS", "ID BDGEO": "5403", "marker-color": "#56B3FF"}}, {"type": "Feature", "geometry": {"type": "Point", "coordinates": [2.28023, 48.81654]}, "properties": {"station": "STADE", "ID BDGEO": "5422", "marker-color": "#56B3FF"}}, {"type": "Feature", "geometry": {"type": "Point", "coordinates": [2.356055, 48.831795]}, "properties": {"station": "PLACE D'ITALIE#", "ID BDGEO": "5524", "marker-color": "#56B3FF"}}, {"type": "Feature", "geometry": {"type": "Point", "coordinates": [2.336125, 48.834564]}, "properties": {"station": "ARAGO-SAINT JACQUES", "ID BDGEO": "5392", "marker-color": "#56B3FF"}}, {"type": "Feature", "geometry": {"type": "Point", "coordinates": [2.276557, 48.815657]}, "properties": {"station": "CLOS MONTHOLON - LARMEROUX", "ID BDGEO": "5376", "marker-color": "#56B3FF"}}, {"type": "Feature", "geometry": {"type": "Point", "coordinates": [2.283115, 48.817601]}, "properties": {"station": "RUE DE CHATILLON", "ID BDGEO": "5378", "marker-color": "#56B3FF"}}, {"type": "Feature", "geometry": {"type": "Point", "coordinates": [2.310178, 48.829969]}, "properties": {"station": "HOPITAL SAINT-JOSEPH", "ID BDGEO": "5384", "marker-color": "#56B3FF"}}, {"type": "Feature", "geometry": {"type": "Point", "coordinates": [2.313513, 48.831506]}, "properties": {"station": "PLAISANCE", "ID BDGEO": "5385", "marker-color": "#56B3FF"}}, {"type": "Feature", "geometry": {"type": "Point", "coordinates": [2.33087, 48.834142]}, "properties": {"station": "DENFERT-ROCHEREAU - FROIDEVAUX", "ID BDGEO": "5390", "marker-color": "#56B3FF"}}, {"type": "Feature", "geometry": {"type": "Point", "coordinates": [2.297264, 48.823782]}, "properties": {"station": "JEAN JAURES-JEAN BLEUZEN", "ID BDGEO": "5381", "marker-color": "#56B3FF"}}, {"type": "Feature", "geometry": {"type": "Point", "coordinates": [2.355987, 48.831822]}, "properties": {"station": "PLACE D'ITALIE", "ID BDGEO": "5400", "marker-color": "#56B3FF"}}, {"type": "Feature", "geometry": {"type": "Point", "coordinates": [2.317855, 48.833817]}, "properties": {"station": "PERNETY", "ID BDGEO": "5387", "marker-color": "#56B3FF"}}, {"type": "Feature", "geometry": {"type": "Point", "coordinates": [2.350801, 48.836442]}, "properties": {"station": "LES GOBELINS", "ID BDGEO": "5396", "marker-color": "#56B3FF"}}]}