{"type": "FeatureCollection", "features": [{"type": "Feature", "geometry": {"type": "Point", "coordinates": [2.449151, 48.907333]}, "properties": {"alarme": "VEHICULE DELOCALISE", "numparc": 4939, "type": "EXPLOITATION", "duree": "00:00:12", "horodatage": "2022-03-01 10:31:07", "statut": "start", "marker-color": "#ff0000"}}, {"type": "Feature", "geometry": {"type": "Point", "coordinates": [2.445606, 48.886196]}, "properties": {"alarme": "VEHICULE DELOCALISE", "numparc": 4936, "type": "EXPLOITATION", "duree": "00:04:49", "horodatage": "2022-03-01 12:50:13", "statut": "start", "marker-color": "#ff0000"}}, {"type": "Feature", "geometry": {"type": "Point", "coordinates": [2.443174, 48.877319]}, "properties": {"alarme": "VEHICULE DELOCALISE", "numparc": 4939, "type": "EXPLOITATION", "duree": "00:34:02", "horodatage": "2022-03-01 13:20:45", "statut": "start", "marker-color": "#ff0000"}}, {"type": "Feature", "geometry": {"type": "Point", "coordinates": [2.449148, 48.907356]}, "properties": {"alarme": "VEHICULE DELOCALISE", "numparc": 4939, "type": "EXPLOITATION", "duree": "00:00:12", "horodatage": "2022-03-01 10:31:19", "statut": "end", "marker-color": "#2fe184"}}, {"type": "Feature", "geometry": {"type": "Point", "coordinates": [2.442181, 48.900875]}, "properties": {"alarme": "VEHICULE DELOCALISE", "numparc": 4936, "type": "EXPLOITATION", "duree": "00:04:49", "horodatage": "2022-03-01 12:55:02", "statut": "end", "marker-color": "#2fe184"}}, {"type": "Feature", "geometry": {"type": "Point", "coordinates": [2.440653, 48.875088]}, "properties": {"alarme": "VEHICULE DELOCALISE", "numparc": 4939, "type": "EXPLOITATION", "duree": "00:34:02", "horodatage": "2022-03-01 13:54:47", "statut": "end", "marker-color": "#2fe184"}}]}