{"type": "FeatureCollection", "features": [{"type": "Feature", "geometry": {"type": "Point", "coordinates": [2.329813, 48.823162]}, "properties": {"etat de la localisation": "Delocalise", "numparc": 1430, "duree": "00:06:00", "horodatage": "2022-07-02 05:30:00", "marker-color": "#FF565E"}}, {"type": "Feature", "geometry": {"type": "Point", "coordinates": [2.330117, 48.823082]}, "properties": {"etat de la localisation": "Delocalise", "numparc": 1449, "duree": "00:21:12", "horodatage": "2022-07-02 06:04:57", "marker-color": "#FF565E"}}, {"type": "Feature", "geometry": {"type": "Point", "coordinates": [2.329543, 48.822987]}, "properties": {"etat de la localisation": "Delocalise", "numparc": 1443, "duree": "00:00:10", "horodatage": "2022-07-02 06:15:56", "marker-color": "#FF565E"}}, {"type": "Feature", "geometry": {"type": "Point", "coordinates": [2.32669, 48.823971]}, "properties": {"etat de la localisation": "Hors service", "numparc": 1430, "duree": "", "horodatage": "2022-07-02 07:00:28", "marker-color": "#707070"}}, {"type": "Feature", "geometry": {"type": "Point", "coordinates": [2.329744, 48.823177]}, "properties": {"etat de la localisation": "Delocalise", "numparc": 1442, "duree": "00:06:46", "horodatage": "2022-07-02 07:01:15", "marker-color": "#FF565E"}}, {"type": "Feature", "geometry": {"type": "Point", "coordinates": [2.326668, 48.823959]}, "properties": {"etat de la localisation": "Hors service", "numparc": 1430, "duree": "", "horodatage": "2022-07-02 08:29:30", "marker-color": "#707070"}}, {"type": "Feature", "geometry": {"type": "Point", "coordinates": [2.295871, 48.871071]}, "properties": {"etat de la localisation": "Delocalise", "numparc": 1430, "duree": "00:01:31", "horodatage": "2022-07-02 09:05:25", "marker-color": "#FF565E"}}, {"type": "Feature", "geometry": {"type": "Point", "coordinates": [2.296267, 48.872395]}, "properties": {"etat de la localisation": "Delocalise", "numparc": 1430, "duree": "00:04:23", "horodatage": "2022-07-02 09:19:43", "marker-color": "#FF565E"}}, {"type": "Feature", "geometry": {"type": "Point", "coordinates": [2.302703, 48.860443]}, "properties": {"etat de la localisation": "Delocalise", "numparc": 1430, "duree": "00:00:30", "horodatage": "2022-07-02 09:24:56", "marker-color": "#FF565E"}}, {"type": "Feature", "geometry": {"type": "Point", "coordinates": [2.304128, 48.857506]}, "properties": {"etat de la localisation": "Delocalise", "numparc": 1430, "duree": "00:00:14", "horodatage": "2022-07-02 09:25:52", "marker-color": "#FF565E"}}, {"type": "Feature", "geometry": {"type": "Point", "coordinates": [2.304758, 48.856178]}, "properties": {"etat de la localisation": "Delocalise", "numparc": 1430, "duree": "00:00:33", "horodatage": "2022-07-02 09:27:41", "marker-color": "#FF565E"}}, {"type": "Feature", "geometry": {"type": "Point", "coordinates": [2.307283, 48.854141]}, "properties": {"etat de la localisation": "Delocalise", "numparc": 1430, "duree": "00:02:00", "horodatage": "2022-07-02 09:30:38", "marker-color": "#FF565E"}}, {"type": "Feature", "geometry": {"type": "Point", "coordinates": [2.327237, 48.823704]}, "properties": {"etat de la localisation": "Mission suivante non connue", "numparc": 1430, "duree": "", "horodatage": "2022-07-02 09:51:42", "marker-color": "#7156FF"}}, {"type": "Feature", "geometry": {"type": "Point", "coordinates": [2.294342, 48.885899]}, "properties": {"etat de la localisation": "Mission suivante non connue", "numparc": 1430, "duree": "", "horodatage": "2022-07-02 10:49:05", "marker-color": "#7156FF"}}, {"type": "Feature", "geometry": {"type": "Point", "coordinates": [2.321969, 48.840195]}, "properties": {"etat de la localisation": "Delocalise", "numparc": 1436, "duree": "00:00:28", "horodatage": "2022-07-02 11:18:49", "marker-color": "#FF565E"}}, {"type": "Feature", "geometry": {"type": "Point", "coordinates": [2.300808, 48.864906]}, "properties": {"etat de la localisation": "Mission suivante non connue", "numparc": 1442, "duree": "", "horodatage": "2022-07-02 11:26:40", "marker-color": "#7156FF"}}, {"type": "Feature", "geometry": {"type": "Point", "coordinates": [2.300808, 48.864906]}, "properties": {"etat de la localisation": "Mission inconnue", "numparc": 1442, "duree": "", "horodatage": "2022-07-02 11:27:04", "marker-color": "#FF9F56"}}, {"type": "Feature", "geometry": {"type": "Point", "coordinates": [2.310522, 48.853901]}, "properties": {"etat de la localisation": "Mission inconnue", "numparc": 1442, "duree": "", "horodatage": "2022-07-02 11:38:59", "marker-color": "#FF9F56"}}, {"type": "Feature", "geometry": {"type": "Point", "coordinates": [2.327237, 48.82375]}, "properties": {"etat de la localisation": "Mission suivante non connue", "numparc": 1430, "duree": "", "horodatage": "2022-07-02 11:41:41", "marker-color": "#7156FF"}}, {"type": "Feature", "geometry": {"type": "Point", "coordinates": [2.330269, 48.823242]}, "properties": {"etat de la localisation": "Delocalise", "numparc": 1441, "duree": "00:00:38", "horodatage": "2022-07-02 11:44:06", "marker-color": "#FF565E"}}, {"type": "Feature", "geometry": {"type": "Point", "coordinates": [2.326543, 48.82383]}, "properties": {"etat de la localisation": "Hors service", "numparc": 1430, "duree": "", "horodatage": "2022-07-02 11:54:08", "marker-color": "#707070"}}, {"type": "Feature", "geometry": {"type": "Point", "coordinates": [2.324657, 48.832958]}, "properties": {"etat de la localisation": "Delocalise", "numparc": 1442, "duree": "00:00:29", "horodatage": "2022-07-02 11:55:25", "marker-color": "#FF565E"}}, {"type": "Feature", "geometry": {"type": "Point", "coordinates": [2.325513, 48.830975]}, "properties": {"etat de la localisation": "Delocalise", "numparc": 1442, "duree": "00:00:59", "horodatage": "2022-07-02 11:56:46", "marker-color": "#FF565E"}}, {"type": "Feature", "geometry": {"type": "Point", "coordinates": [2.326242, 48.826462]}, "properties": {"etat de la localisation": "Delocalise", "numparc": 1442, "duree": "00:03:15", "horodatage": "2022-07-02 11:59:58", "marker-color": "#FF565E"}}, {"type": "Feature", "geometry": {"type": "Point", "coordinates": [2.300648, 48.86499]}, "properties": {"etat de la localisation": "Mission suivante non connue", "numparc": 1443, "duree": "", "horodatage": "2022-07-02 12:09:11", "marker-color": "#7156FF"}}, {"type": "Feature", "geometry": {"type": "Point", "coordinates": [2.300648, 48.86499]}, "properties": {"etat de la localisation": "Mission inconnue", "numparc": 1443, "duree": "", "horodatage": "2022-07-02 12:09:42", "marker-color": "#FF9F56"}}, {"type": "Feature", "geometry": {"type": "Point", "coordinates": [2.304474, 48.856834]}, "properties": {"etat de la localisation": "Mission inconnue", "numparc": 1443, "duree": "", "horodatage": "2022-07-02 12:22:47", "marker-color": "#FF9F56"}}, {"type": "Feature", "geometry": {"type": "Point", "coordinates": [2.330072, 48.823212]}, "properties": {"etat de la localisation": "Delocalise", "numparc": 1450, "duree": "00:01:50", "horodatage": "2022-07-02 12:24:54", "marker-color": "#FF565E"}}, {"type": "Feature", "geometry": {"type": "Point", "coordinates": [2.329908, 48.82312]}, "properties": {"etat de la localisation": "Hors service", "numparc": 1424, "duree": "", "horodatage": "2022-07-02 12:28:41", "marker-color": "#707070"}}, {"type": "Feature", "geometry": {"type": "Point", "coordinates": [2.329836, 48.823284]}, "properties": {"etat de la localisation": "Delocalise", "numparc": 1421, "duree": "00:02:20", "horodatage": "2022-07-02 12:38:22", "marker-color": "#FF565E"}}, {"type": "Feature", "geometry": {"type": "Point", "coordinates": [2.329847, 48.822865]}, "properties": {"etat de la localisation": "Delocalise", "numparc": 1444, "duree": "00:02:44", "horodatage": "2022-07-02 12:38:33", "marker-color": "#FF565E"}}, {"type": "Feature", "geometry": {"type": "Point", "coordinates": [2.327421, 48.823841]}, "properties": {"etat de la localisation": "Mission suivante non connue", "numparc": 1443, "duree": "", "horodatage": "2022-07-02 12:48:52", "marker-color": "#7156FF"}}, {"type": "Feature", "geometry": {"type": "Point", "coordinates": [2.327009, 48.824562]}, "properties": {"etat de la localisation": "Hors service", "numparc": 1421, "duree": "", "horodatage": "2022-07-02 12:58:57", "marker-color": "#707070"}}, {"type": "Feature", "geometry": {"type": "Point", "coordinates": [2.327063, 48.82439]}, "properties": {"etat de la localisation": "Hors service", "numparc": 1434, "duree": "", "horodatage": "2022-07-02 13:27:34", "marker-color": "#707070"}}, {"type": "Feature", "geometry": {"type": "Point", "coordinates": [2.326501, 48.823811]}, "properties": {"etat de la localisation": "Hors service", "numparc": 1430, "duree": "", "horodatage": "2022-07-02 14:01:34", "marker-color": "#707070"}}, {"type": "Feature", "geometry": {"type": "Point", "coordinates": [2.294327, 48.885933]}, "properties": {"etat de la localisation": "Mission suivante non connue", "numparc": 1434, "duree": "", "horodatage": "2022-07-02 14:18:22", "marker-color": "#7156FF"}}, {"type": "Feature", "geometry": {"type": "Point", "coordinates": [2.326674, 48.823765]}, "properties": {"etat de la localisation": "Hors service", "numparc": 1450, "duree": "", "horodatage": "2022-07-02 14:29:43", "marker-color": "#707070"}}, {"type": "Feature", "geometry": {"type": "Point", "coordinates": [2.300608, 48.864796]}, "properties": {"etat de la localisation": "Mission inconnue", "numparc": 1439, "duree": "", "horodatage": "2022-07-02 14:39:03", "marker-color": "#FF9F56"}}, {"type": "Feature", "geometry": {"type": "Point", "coordinates": [2.296013, 48.872776]}, "properties": {"etat de la localisation": "Mission inconnue", "numparc": 1434, "duree": "", "horodatage": "2022-07-02 14:39:24", "marker-color": "#FF9F56"}}, {"type": "Feature", "geometry": {"type": "Point", "coordinates": [2.294545, 48.885937]}, "properties": {"etat de la localisation": "Mission inconnue", "numparc": 1423, "duree": "", "horodatage": "2022-07-02 14:40:30", "marker-color": "#FF9F56"}}, {"type": "Feature", "geometry": {"type": "Point", "coordinates": [2.294388, 48.885872]}, "properties": {"etat de la localisation": "Mission suivante non connue", "numparc": 1441, "duree": "", "horodatage": "2022-07-02 14:41:10", "marker-color": "#7156FF"}}, {"type": "Feature", "geometry": {"type": "Point", "coordinates": [2.330304, 48.823196]}, "properties": {"etat de la localisation": "Hors service", "numparc": 1449, "duree": "", "horodatage": "2022-07-02 14:42:22", "marker-color": "#707070"}}, {"type": "Feature", "geometry": {"type": "Point", "coordinates": [2.2944, 48.88588]}, "properties": {"etat de la localisation": "Mission inconnue", "numparc": 1441, "duree": "", "horodatage": "2022-07-02 14:42:42", "marker-color": "#FF9F56"}}, {"type": "Feature", "geometry": {"type": "Point", "coordinates": [2.30089, 48.864838]}, "properties": {"etat de la localisation": "Mission inconnue", "numparc": 1439, "duree": "", "horodatage": "2022-07-02 14:43:32", "marker-color": "#FF9F56"}}, {"type": "Feature", "geometry": {"type": "Point", "coordinates": [2.322824, 48.844273]}, "properties": {"etat de la localisation": "Mission inconnue", "numparc": 1450, "duree": "", "horodatage": "2022-07-02 14:46:05", "marker-color": "#FF9F56"}}, {"type": "Feature", "geometry": {"type": "Point", "coordinates": [2.326435, 48.823776]}, "properties": {"etat de la localisation": "Hors service", "numparc": 1443, "duree": "", "horodatage": "2022-07-02 14:50:28", "marker-color": "#707070"}}, {"type": "Feature", "geometry": {"type": "Point", "coordinates": [2.294559, 48.885952]}, "properties": {"etat de la localisation": "Mission inconnue", "numparc": 1441, "duree": "", "horodatage": "2022-07-02 14:52:13", "marker-color": "#FF9F56"}}, {"type": "Feature", "geometry": {"type": "Point", "coordinates": [2.29949, 48.864975]}, "properties": {"etat de la localisation": "Delocalise", "numparc": 1430, "duree": "00:04:29", "horodatage": "2022-07-02 14:54:34", "marker-color": "#FF565E"}}, {"type": "Feature", "geometry": {"type": "Point", "coordinates": [2.300662, 48.864826]}, "properties": {"etat de la localisation": "Mission inconnue", "numparc": 1430, "duree": "", "horodatage": "2022-07-02 14:59:34", "marker-color": "#FF9F56"}}, {"type": "Feature", "geometry": {"type": "Point", "coordinates": [2.326435, 48.823776]}, "properties": {"etat de la localisation": "Mission inconnue", "numparc": 1443, "duree": "", "horodatage": "2022-07-02 15:00:10", "marker-color": "#FF9F56"}}, {"type": "Feature", "geometry": {"type": "Point", "coordinates": [2.298333, 48.865063]}, "properties": {"etat de la localisation": "Delocalise", "numparc": 1439, "duree": "00:04:42", "horodatage": "2022-07-02 15:01:26", "marker-color": "#FF565E"}}, {"type": "Feature", "geometry": {"type": "Point", "coordinates": [2.326444, 48.823826]}, "properties": {"etat de la localisation": "Hors service", "numparc": 1444, "duree": "", "horodatage": "2022-07-02 15:04:00", "marker-color": "#707070"}}, {"type": "Feature", "geometry": {"type": "Point", "coordinates": [2.301885, 48.864582]}, "properties": {"etat de la localisation": "Mission inconnue", "numparc": 1423, "duree": "", "horodatage": "2022-07-02 15:06:33", "marker-color": "#FF9F56"}}, {"type": "Feature", "geometry": {"type": "Point", "coordinates": [2.295722, 48.87381]}, "properties": {"etat de la localisation": "Mission inconnue", "numparc": 1439, "duree": "", "horodatage": "2022-07-02 15:06:47", "marker-color": "#FF9F56"}}, {"type": "Feature", "geometry": {"type": "Point", "coordinates": [2.294212, 48.885834]}, "properties": {"etat de la localisation": "Mission suivante non connue", "numparc": 1442, "duree": "", "horodatage": "2022-07-02 15:09:13", "marker-color": "#7156FF"}}, {"type": "Feature", "geometry": {"type": "Point", "coordinates": [2.294212, 48.885834]}, "properties": {"etat de la localisation": "Mission inconnue", "numparc": 1442, "duree": "", "horodatage": "2022-07-02 15:09:36", "marker-color": "#FF9F56"}}, {"type": "Feature", "geometry": {"type": "Point", "coordinates": [2.298353, 48.865089]}, "properties": {"etat de la localisation": "Delocalise", "numparc": 1430, "duree": "00:04:30", "horodatage": "2022-07-02 15:09:44", "marker-color": "#FF565E"}}, {"type": "Feature", "geometry": {"type": "Point", "coordinates": [2.312263, 48.853909]}, "properties": {"etat de la localisation": "Hors service", "numparc": 1450, "duree": "", "horodatage": "2022-07-02 15:09:55", "marker-color": "#707070"}}, {"type": "Feature", "geometry": {"type": "Point", "coordinates": [2.326437, 48.82378]}, "properties": {"etat de la localisation": "Hors service", "numparc": 1443, "duree": "", "horodatage": "2022-07-02 15:09:58", "marker-color": "#707070"}}, {"type": "Feature", "geometry": {"type": "Point", "coordinates": [2.298047, 48.86507]}, "properties": {"etat de la localisation": "Delocalise", "numparc": 1434, "duree": "00:04:27", "horodatage": "2022-07-02 15:11:49", "marker-color": "#FF565E"}}, {"type": "Feature", "geometry": {"type": "Point", "coordinates": [2.300644, 48.864975]}, "properties": {"etat de la localisation": "Mission inconnue", "numparc": 1441, "duree": "", "horodatage": "2022-07-02 15:13:34", "marker-color": "#FF9F56"}}, {"type": "Feature", "geometry": {"type": "Point", "coordinates": [2.293922, 48.885727]}, "properties": {"etat de la localisation": "Mission suivante non connue", "numparc": 1439, "duree": "", "horodatage": "2022-07-02 15:17:04", "marker-color": "#7156FF"}}, {"type": "Feature", "geometry": {"type": "Point", "coordinates": [2.300529, 48.865013]}, "properties": {"etat de la localisation": "Mission inconnue", "numparc": 1441, "duree": "", "horodatage": "2022-07-02 15:18:35", "marker-color": "#FF9F56"}}, {"type": "Feature", "geometry": {"type": "Point", "coordinates": [2.294241, 48.885784]}, "properties": {"etat de la localisation": "Mission suivante non connue", "numparc": 1430, "duree": "", "horodatage": "2022-07-02 15:25:18", "marker-color": "#7156FF"}}, {"type": "Feature", "geometry": {"type": "Point", "coordinates": [2.294015, 48.885754]}, "properties": {"etat de la localisation": "Mission suivante non connue", "numparc": 1434, "duree": "", "horodatage": "2022-07-02 15:25:38", "marker-color": "#7156FF"}}, {"type": "Feature", "geometry": {"type": "Point", "coordinates": [2.294241, 48.885784]}, "properties": {"etat de la localisation": "Mission inconnue", "numparc": 1430, "duree": "", "horodatage": "2022-07-02 15:26:33", "marker-color": "#FF9F56"}}, {"type": "Feature", "geometry": {"type": "Point", "coordinates": [2.294015, 48.885754]}, "properties": {"etat de la localisation": "Mission inconnue", "numparc": 1434, "duree": "", "horodatage": "2022-07-02 15:28:23", "marker-color": "#FF9F56"}}, {"type": "Feature", "geometry": {"type": "Point", "coordinates": [2.326923, 48.82365]}, "properties": {"etat de la localisation": "Hors service", "numparc": 1436, "duree": "", "horodatage": "2022-07-02 15:28:25", "marker-color": "#707070"}}, {"type": "Feature", "geometry": {"type": "Point", "coordinates": [2.293795, 48.885704]}, "properties": {"etat de la localisation": "Mission suivante non connue", "numparc": 1423, "duree": "", "horodatage": "2022-07-02 15:31:45", "marker-color": "#7156FF"}}, {"type": "Feature", "geometry": {"type": "Point", "coordinates": [2.326857, 48.823753]}, "properties": {"etat de la localisation": "Hors service", "numparc": 1421, "duree": "", "horodatage": "2022-07-02 15:32:46", "marker-color": "#707070"}}, {"type": "Feature", "geometry": {"type": "Point", "coordinates": [2.294381, 48.885818]}, "properties": {"etat de la localisation": "Mission inconnue", "numparc": 1430, "duree": "", "horodatage": "2022-07-02 15:36:40", "marker-color": "#FF9F56"}}, {"type": "Feature", "geometry": {"type": "Point", "coordinates": [2.327313, 48.8237]}, "properties": {"etat de la localisation": "Mission suivante non connue", "numparc": 1450, "duree": "", "horodatage": "2022-07-02 15:40:30", "marker-color": "#7156FF"}}, {"type": "Feature", "geometry": {"type": "Point", "coordinates": [2.300652, 48.864937]}, "properties": {"etat de la localisation": "Delocalise", "numparc": 1442, "duree": "00:02:02", "horodatage": "2022-07-02 15:51:07", "marker-color": "#FF565E"}}, {"type": "Feature", "geometry": {"type": "Point", "coordinates": [2.300735, 48.864906]}, "properties": {"etat de la localisation": "Delocalise", "numparc": 1439, "duree": "00:00:10", "horodatage": "2022-07-02 15:56:58", "marker-color": "#FF565E"}}, {"type": "Feature", "geometry": {"type": "Point", "coordinates": [2.326331, 48.823841]}, "properties": {"etat de la localisation": "Mission inconnue", "numparc": 1444, "duree": "", "horodatage": "2022-07-02 16:03:35", "marker-color": "#FF9F56"}}, {"type": "Feature", "geometry": {"type": "Point", "coordinates": [2.294075, 48.885799]}, "properties": {"etat de la localisation": "Mission suivante non connue", "numparc": 1442, "duree": "", "horodatage": "2022-07-02 16:08:15", "marker-color": "#7156FF"}}, {"type": "Feature", "geometry": {"type": "Point", "coordinates": [2.326813, 48.823677]}, "properties": {"etat de la localisation": "Hors service", "numparc": 1436, "duree": "", "horodatage": "2022-07-02 16:08:30", "marker-color": "#707070"}}, {"type": "Feature", "geometry": {"type": "Point", "coordinates": [2.294621, 48.885918]}, "properties": {"etat de la localisation": "Mission inconnue", "numparc": 1441, "duree": "", "horodatage": "2022-07-02 16:10:07", "marker-color": "#FF9F56"}}, {"type": "Feature", "geometry": {"type": "Point", "coordinates": [2.294441, 48.885899]}, "properties": {"etat de la localisation": "Hors service", "numparc": 1442, "duree": "", "horodatage": "2022-07-02 16:11:56", "marker-color": "#707070"}}, {"type": "Feature", "geometry": {"type": "Point", "coordinates": [2.301857, 48.864647]}, "properties": {"etat de la localisation": "Mission inconnue", "numparc": 1430, "duree": "", "horodatage": "2022-07-02 16:13:48", "marker-color": "#FF9F56"}}, {"type": "Feature", "geometry": {"type": "Point", "coordinates": [2.325851, 48.823994]}, "properties": {"etat de la localisation": "Hors service", "numparc": 1450, "duree": "", "horodatage": "2022-07-02 16:16:04", "marker-color": "#707070"}}, {"type": "Feature", "geometry": {"type": "Point", "coordinates": [2.293879, 48.885761]}, "properties": {"etat de la localisation": "Mission suivante non connue", "numparc": 1439, "duree": "", "horodatage": "2022-07-02 16:19:45", "marker-color": "#7156FF"}}, {"type": "Feature", "geometry": {"type": "Point", "coordinates": [2.326327, 48.823845]}, "properties": {"etat de la localisation": "Hors service", "numparc": 1444, "duree": "", "horodatage": "2022-07-02 16:20:11", "marker-color": "#707070"}}, {"type": "Feature", "geometry": {"type": "Point", "coordinates": [2.298201, 48.865059]}, "properties": {"etat de la localisation": "Delocalise", "numparc": 1430, "duree": "00:04:23", "horodatage": "2022-07-02 16:20:27", "marker-color": "#FF565E"}}, {"type": "Feature", "geometry": {"type": "Point", "coordinates": [2.32702, 48.823654]}, "properties": {"etat de la localisation": "Hors service", "numparc": 1423, "duree": "", "horodatage": "2022-07-02 16:29:28", "marker-color": "#707070"}}, {"type": "Feature", "geometry": {"type": "Point", "coordinates": [2.328137, 48.823795]}, "properties": {"etat de la localisation": "Delocalise", "numparc": 1448, "duree": "00:00:47", "horodatage": "2022-07-02 16:32:34", "marker-color": "#FF565E"}}, {"type": "Feature", "geometry": {"type": "Point", "coordinates": [2.297926, 48.865047]}, "properties": {"etat de la localisation": "Delocalise", "numparc": 1434, "duree": "00:05:45", "horodatage": "2022-07-02 16:34:23", "marker-color": "#FF565E"}}, {"type": "Feature", "geometry": {"type": "Point", "coordinates": [2.326145, 48.823868]}, "properties": {"etat de la localisation": "Mission inconnue", "numparc": 1444, "duree": "", "horodatage": "2022-07-02 16:34:45", "marker-color": "#FF9F56"}}, {"type": "Feature", "geometry": {"type": "Point", "coordinates": [2.293979, 48.88578]}, "properties": {"etat de la localisation": "Mission suivante non connue", "numparc": 1430, "duree": "", "horodatage": "2022-07-02 16:38:38", "marker-color": "#7156FF"}}, {"type": "Feature", "geometry": {"type": "Point", "coordinates": [2.294799, 48.886074]}, "properties": {"etat de la localisation": "Mission inconnue", "numparc": 1430, "duree": "", "horodatage": "2022-07-02 16:39:28", "marker-color": "#FF9F56"}}, {"type": "Feature", "geometry": {"type": "Point", "coordinates": [2.326413, 48.826019]}, "properties": {"etat de la localisation": "Mission inconnue", "numparc": 1403, "duree": "", "horodatage": "2022-07-02 16:46:44", "marker-color": "#FF9F56"}}, {"type": "Feature", "geometry": {"type": "Point", "coordinates": [2.293861, 48.885723]}, "properties": {"etat de la localisation": "Mission suivante non connue", "numparc": 1434, "duree": "", "horodatage": "2022-07-02 16:47:51", "marker-color": "#7156FF"}}, {"type": "Feature", "geometry": {"type": "Point", "coordinates": [2.326451, 48.823776]}, "properties": {"etat de la localisation": "Mission inconnue", "numparc": 1421, "duree": "", "horodatage": "2022-07-02 16:54:55", "marker-color": "#FF9F56"}}, {"type": "Feature", "geometry": {"type": "Point", "coordinates": [2.296057, 48.882416]}, "properties": {"etat de la localisation": "Delocalise", "numparc": 1441, "duree": "00:00:34", "horodatage": "2022-07-02 16:56:20", "marker-color": "#FF565E"}}, {"type": "Feature", "geometry": {"type": "Point", "coordinates": [2.306242, 48.854263]}, "properties": {"etat de la localisation": "Mission suivante non connue", "numparc": 1444, "duree": "", "horodatage": "2022-07-02 16:58:42", "marker-color": "#7156FF"}}, {"type": "Feature", "geometry": {"type": "Point", "coordinates": [2.297317, 48.88541]}, "properties": {"etat de la localisation": "Delocalise", "numparc": 1441, "duree": "00:01:19", "horodatage": "2022-07-02 16:58:43", "marker-color": "#FF565E"}}, {"type": "Feature", "geometry": {"type": "Point", "coordinates": [2.326432, 48.823776]}, "properties": {"etat de la localisation": "Mission inconnue", "numparc": 1443, "duree": "", "horodatage": "2022-07-02 16:59:59", "marker-color": "#FF9F56"}}, {"type": "Feature", "geometry": {"type": "Point", "coordinates": [2.305544, 48.854454]}, "properties": {"etat de la localisation": "Mission suivante non connue", "numparc": 1444, "duree": "", "horodatage": "2022-07-02 17:00:28", "marker-color": "#7156FF"}}, {"type": "Feature", "geometry": {"type": "Point", "coordinates": [2.305477, 48.854336]}, "properties": {"etat de la localisation": "Mission inconnue", "numparc": 1444, "duree": "", "horodatage": "2022-07-02 17:00:37", "marker-color": "#FF9F56"}}, {"type": "Feature", "geometry": {"type": "Point", "coordinates": [2.298237, 48.86512]}, "properties": {"etat de la localisation": "Delocalise", "numparc": 1448, "duree": "00:05:18", "horodatage": "2022-07-02 17:18:41", "marker-color": "#FF565E"}}, {"type": "Feature", "geometry": {"type": "Point", "coordinates": [2.295183, 48.874199]}, "properties": {"etat de la localisation": "Delocalise", "numparc": 1436, "duree": "00:10:59", "horodatage": "2022-07-02 17:24:00", "marker-color": "#FF565E"}}, {"type": "Feature", "geometry": {"type": "Point", "coordinates": [2.329243, 48.822796]}, "properties": {"etat de la localisation": "Hors service", "numparc": 1444, "duree": "", "horodatage": "2022-07-02 17:30:17", "marker-color": "#707070"}}, {"type": "Feature", "geometry": {"type": "Point", "coordinates": [2.327425, 48.823868]}, "properties": {"etat de la localisation": "Mission suivante non connue", "numparc": 1434, "duree": "", "horodatage": "2022-07-02 17:45:46", "marker-color": "#7156FF"}}, {"type": "Feature", "geometry": {"type": "Point", "coordinates": [2.326747, 48.823711]}, "properties": {"etat de la localisation": "Hors service", "numparc": 1434, "duree": "", "horodatage": "2022-07-02 17:58:37", "marker-color": "#707070"}}, {"type": "Feature", "geometry": {"type": "Point", "coordinates": [2.298201, 48.865112]}, "properties": {"etat de la localisation": "Delocalise", "numparc": 1423, "duree": "00:04:53", "horodatage": "2022-07-02 17:59:54", "marker-color": "#FF565E"}}, {"type": "Feature", "geometry": {"type": "Point", "coordinates": [2.30465, 48.853771]}, "properties": {"etat de la localisation": "Delocalise", "numparc": 1442, "duree": "00:14:54", "horodatage": "2022-07-02 18:20:49", "marker-color": "#FF565E"}}, {"type": "Feature", "geometry": {"type": "Point", "coordinates": [2.307855, 48.853195]}, "properties": {"etat de la localisation": "Delocalise", "numparc": 1423, "duree": "00:05:24", "horodatage": "2022-07-02 18:54:16", "marker-color": "#FF565E"}}, {"type": "Feature", "geometry": {"type": "Point", "coordinates": [2.329993, 48.823357]}, "properties": {"etat de la localisation": "Hors service", "numparc": 1421, "duree": "", "horodatage": "2022-07-02 19:04:07", "marker-color": "#707070"}}, {"type": "Feature", "geometry": {"type": "Point", "coordinates": [2.304675, 48.8564]}, "properties": {"etat de la localisation": "Delocalise", "numparc": 1436, "duree": "00:00:00", "horodatage": "2022-07-02 19:05:05", "marker-color": "#FF565E"}}, {"type": "Feature", "geometry": {"type": "Point", "coordinates": [2.326847, 48.8237]}, "properties": {"etat de la localisation": "Hors service", "numparc": 1450, "duree": "", "horodatage": "2022-07-02 19:10:01", "marker-color": "#707070"}}, {"type": "Feature", "geometry": {"type": "Point", "coordinates": [2.326643, 48.823765]}, "properties": {"etat de la localisation": "Hors service", "numparc": 1442, "duree": "", "horodatage": "2022-07-02 19:16:20", "marker-color": "#707070"}}, {"type": "Feature", "geometry": {"type": "Point", "coordinates": [2.326575, 48.823765]}, "properties": {"etat de la localisation": "Hors service", "numparc": 1434, "duree": "", "horodatage": "2022-07-02 19:19:06", "marker-color": "#707070"}}, {"type": "Feature", "geometry": {"type": "Point", "coordinates": [2.326581, 48.823803]}, "properties": {"etat de la localisation": "Hors service", "numparc": 1450, "duree": "", "horodatage": "2022-07-02 19:29:58", "marker-color": "#707070"}}, {"type": "Feature", "geometry": {"type": "Point", "coordinates": [2.326731, 48.823765]}, "properties": {"etat de la localisation": "Hors service", "numparc": 1430, "duree": "", "horodatage": "2022-07-02 19:51:33", "marker-color": "#707070"}}, {"type": "Feature", "geometry": {"type": "Point", "coordinates": [2.307697, 48.853268]}, "properties": {"etat de la localisation": "Delocalise", "numparc": 1441, "duree": "00:08:13", "horodatage": "2022-07-02 19:53:15", "marker-color": "#FF565E"}}, {"type": "Feature", "geometry": {"type": "Point", "coordinates": [2.300774, 48.864933]}, "properties": {"etat de la localisation": "Mission suivante non connue", "numparc": 1434, "duree": "", "horodatage": "2022-07-02 19:54:32", "marker-color": "#7156FF"}}, {"type": "Feature", "geometry": {"type": "Point", "coordinates": [2.300774, 48.864933]}, "properties": {"etat de la localisation": "Mission inconnue", "numparc": 1434, "duree": "", "horodatage": "2022-07-02 19:54:57", "marker-color": "#FF9F56"}}, {"type": "Feature", "geometry": {"type": "Point", "coordinates": [2.326828, 48.823711]}, "properties": {"etat de la localisation": "Hors service", "numparc": 1439, "duree": "", "horodatage": "2022-07-02 20:20:58", "marker-color": "#707070"}}, {"type": "Feature", "geometry": {"type": "Point", "coordinates": [2.327289, 48.823734]}, "properties": {"etat de la localisation": "Mission suivante non connue", "numparc": 1434, "duree": "", "horodatage": "2022-07-02 20:31:41", "marker-color": "#7156FF"}}, {"type": "Feature", "geometry": {"type": "Point", "coordinates": [2.300718, 48.864944]}, "properties": {"etat de la localisation": "Mission suivante non connue", "numparc": 1430, "duree": "", "horodatage": "2022-07-02 20:31:52", "marker-color": "#7156FF"}}, {"type": "Feature", "geometry": {"type": "Point", "coordinates": [2.300718, 48.864944]}, "properties": {"etat de la localisation": "Mission inconnue", "numparc": 1430, "duree": "", "horodatage": "2022-07-02 20:32:11", "marker-color": "#FF9F56"}}, {"type": "Feature", "geometry": {"type": "Point", "coordinates": [2.328894, 48.822842]}, "properties": {"etat de la localisation": "Hors service", "numparc": 1436, "duree": "", "horodatage": "2022-07-02 20:35:03", "marker-color": "#707070"}}, {"type": "Feature", "geometry": {"type": "Point", "coordinates": [2.301733, 48.863316]}, "properties": {"etat de la localisation": "Delocalise", "numparc": 1430, "duree": "00:03:02", "horodatage": "2022-07-02 20:43:06", "marker-color": "#FF565E"}}, {"type": "Feature", "geometry": {"type": "Point", "coordinates": [2.325972, 48.824287]}, "properties": {"etat de la localisation": "Mission inconnue", "numparc": 1439, "duree": "", "horodatage": "2022-07-02 20:44:27", "marker-color": "#FF9F56"}}, {"type": "Feature", "geometry": {"type": "Point", "coordinates": [2.304768, 48.856182]}, "properties": {"etat de la localisation": "Delocalise", "numparc": 1430, "duree": "00:00:34", "horodatage": "2022-07-02 20:46:39", "marker-color": "#FF565E"}}, {"type": "Feature", "geometry": {"type": "Point", "coordinates": [2.30728, 48.854084]}, "properties": {"etat de la localisation": "Delocalise", "numparc": 1430, "duree": "00:03:11", "horodatage": "2022-07-02 20:49:17", "marker-color": "#FF565E"}}, {"type": "Feature", "geometry": {"type": "Point", "coordinates": [2.308037, 48.853058]}, "properties": {"etat de la localisation": "Delocalise", "numparc": 1443, "duree": "00:10:04", "horodatage": "2022-07-02 20:50:06", "marker-color": "#FF565E"}}, {"type": "Feature", "geometry": {"type": "Point", "coordinates": [2.32889, 48.822796]}, "properties": {"etat de la localisation": "Hors service", "numparc": 1439, "duree": "", "horodatage": "2022-07-02 20:50:32", "marker-color": "#707070"}}, {"type": "Feature", "geometry": {"type": "Point", "coordinates": [2.32915, 48.822876]}, "properties": {"etat de la localisation": "Hors service", "numparc": 1403, "duree": "", "horodatage": "2022-07-02 20:51:45", "marker-color": "#707070"}}, {"type": "Feature", "geometry": {"type": "Point", "coordinates": [2.317471, 48.846355]}, "properties": {"etat de la localisation": "Delocalise", "numparc": 1430, "duree": "00:00:23", "horodatage": "2022-07-02 20:53:11", "marker-color": "#FF565E"}}, {"type": "Feature", "geometry": {"type": "Point", "coordinates": [2.320171, 48.845119]}, "properties": {"etat de la localisation": "Delocalise", "numparc": 1430, "duree": "00:00:10", "horodatage": "2022-07-02 20:54:27", "marker-color": "#FF565E"}}, {"type": "Feature", "geometry": {"type": "Point", "coordinates": [2.329213, 48.823082]}, "properties": {"etat de la localisation": "Hors service", "numparc": 1442, "duree": "", "horodatage": "2022-07-02 20:57:29", "marker-color": "#707070"}}, {"type": "Feature", "geometry": {"type": "Point", "coordinates": [2.327289, 48.823708]}, "properties": {"etat de la localisation": "Mission suivante non connue", "numparc": 1430, "duree": "", "horodatage": "2022-07-02 21:06:30", "marker-color": "#7156FF"}}, {"type": "Feature", "geometry": {"type": "Point", "coordinates": [2.327289, 48.823708]}, "properties": {"etat de la localisation": "Mission inconnue", "numparc": 1430, "duree": "", "horodatage": "2022-07-02 21:06:51", "marker-color": "#FF9F56"}}, {"type": "Feature", "geometry": {"type": "Point", "coordinates": [2.306734, 48.854134]}, "properties": {"etat de la localisation": "Delocalise", "numparc": 1423, "duree": "00:03:11", "horodatage": "2022-07-02 21:23:35", "marker-color": "#FF565E"}}, {"type": "Feature", "geometry": {"type": "Point", "coordinates": [2.300675, 48.865005]}, "properties": {"etat de la localisation": "Mission suivante non connue", "numparc": 1444, "duree": "", "horodatage": "2022-07-02 21:27:43", "marker-color": "#7156FF"}}, {"type": "Feature", "geometry": {"type": "Point", "coordinates": [2.300675, 48.865005]}, "properties": {"etat de la localisation": "Mission inconnue", "numparc": 1444, "duree": "", "horodatage": "2022-07-02 21:28:13", "marker-color": "#FF9F56"}}, {"type": "Feature", "geometry": {"type": "Point", "coordinates": [2.301642, 48.863617]}, "properties": {"etat de la localisation": "Delocalise", "numparc": 1444, "duree": "00:05:12", "horodatage": "2022-07-02 21:32:10", "marker-color": "#FF565E"}}, {"type": "Feature", "geometry": {"type": "Point", "coordinates": [2.308179, 48.854019]}, "properties": {"etat de la localisation": "Delocalise", "numparc": 1444, "duree": "00:01:57", "horodatage": "2022-07-02 21:38:29", "marker-color": "#FF565E"}}, {"type": "Feature", "geometry": {"type": "Point", "coordinates": [2.314663, 48.849953]}, "properties": {"etat de la localisation": "Delocalise", "numparc": 1444, "duree": "00:01:34", "horodatage": "2022-07-02 21:41:14", "marker-color": "#FF565E"}}, {"type": "Feature", "geometry": {"type": "Point", "coordinates": [2.318246, 48.845837]}, "properties": {"etat de la localisation": "Delocalise", "numparc": 1444, "duree": "00:00:16", "horodatage": "2022-07-02 21:43:31", "marker-color": "#FF565E"}}, {"type": "Feature", "geometry": {"type": "Point", "coordinates": [2.320247, 48.844952]}, "properties": {"etat de la localisation": "Delocalise", "numparc": 1444, "duree": "00:00:31", "horodatage": "2022-07-02 21:44:47", "marker-color": "#FF565E"}}, {"type": "Feature", "geometry": {"type": "Point", "coordinates": [2.323853, 48.843132]}, "properties": {"etat de la localisation": "Delocalise", "numparc": 1444, "duree": "00:00:14", "horodatage": "2022-07-02 21:46:35", "marker-color": "#FF565E"}}, {"type": "Feature", "geometry": {"type": "Point", "coordinates": [2.322614, 48.842148]}, "properties": {"etat de la localisation": "Delocalise", "numparc": 1444, "duree": "00:00:25", "horodatage": "2022-07-02 21:47:30", "marker-color": "#FF565E"}}, {"type": "Feature", "geometry": {"type": "Point", "coordinates": [2.321735, 48.84013]}, "properties": {"etat de la localisation": "Delocalise", "numparc": 1448, "duree": "00:08:51", "horodatage": "2022-07-02 21:48:28", "marker-color": "#FF565E"}}, {"type": "Feature", "geometry": {"type": "Point", "coordinates": [2.294207, 48.885815]}, "properties": {"etat de la localisation": "Mission suivante non connue", "numparc": 1430, "duree": "", "horodatage": "2022-07-02 21:54:12", "marker-color": "#7156FF"}}, {"type": "Feature", "geometry": {"type": "Point", "coordinates": [2.326932, 48.823601]}, "properties": {"etat de la localisation": "Hors service", "numparc": 1423, "duree": "", "horodatage": "2022-07-02 21:55:13", "marker-color": "#707070"}}, {"type": "Feature", "geometry": {"type": "Point", "coordinates": [2.327482, 48.823936]}, "properties": {"etat de la localisation": "Mission suivante non connue", "numparc": 1444, "duree": "", "horodatage": "2022-07-02 21:57:28", "marker-color": "#7156FF"}}, {"type": "Feature", "geometry": {"type": "Point", "coordinates": [2.327365, 48.823807]}, "properties": {"etat de la localisation": "Mission inconnue", "numparc": 1444, "duree": "", "horodatage": "2022-07-02 21:58:08", "marker-color": "#FF9F56"}}, {"type": "Feature", "geometry": {"type": "Point", "coordinates": [2.326674, 48.823784]}, "properties": {"etat de la localisation": "Hors service", "numparc": 1444, "duree": "", "horodatage": "2022-07-02 22:16:26", "marker-color": "#707070"}}, {"type": "Feature", "geometry": {"type": "Point", "coordinates": [2.321676, 48.840099]}, "properties": {"etat de la localisation": "Delocalise", "numparc": 1434, "duree": "00:00:33", "horodatage": "2022-07-02 22:25:52", "marker-color": "#FF565E"}}, {"type": "Feature", "geometry": {"type": "Point", "coordinates": [2.326745, 48.823734]}, "properties": {"etat de la localisation": "Hors service", "numparc": 1443, "duree": "", "horodatage": "2022-07-02 22:34:15", "marker-color": "#707070"}}, {"type": "Feature", "geometry": {"type": "Point", "coordinates": [2.326745, 48.823734]}, "properties": {"etat de la localisation": "Mission inconnue", "numparc": 1443, "duree": "", "horodatage": "2022-07-02 22:38:07", "marker-color": "#FF9F56"}}, {"type": "Feature", "geometry": {"type": "Point", "coordinates": [2.317414, 48.845913]}, "properties": {"etat de la localisation": "Delocalise", "numparc": 1444, "duree": "00:00:58", "horodatage": "2022-07-02 22:41:20", "marker-color": "#FF565E"}}, {"type": "Feature", "geometry": {"type": "Point", "coordinates": [2.329656, 48.822689]}, "properties": {"etat de la localisation": "Hors service", "numparc": 1448, "duree": "", "horodatage": "2022-07-02 22:49:47", "marker-color": "#707070"}}, {"type": "Feature", "geometry": {"type": "Point", "coordinates": [2.327235, 48.823689]}, "properties": {"etat de la localisation": "Mission suivante non connue", "numparc": 1430, "duree": "", "horodatage": "2022-07-02 22:51:23", "marker-color": "#7156FF"}}, {"type": "Feature", "geometry": {"type": "Point", "coordinates": [2.330324, 48.822979]}, "properties": {"etat de la localisation": "Hors service", "numparc": 1423, "duree": "", "horodatage": "2022-07-02 23:38:36", "marker-color": "#707070"}}, {"type": "Feature", "geometry": {"type": "Point", "coordinates": [2.330348, 48.823254]}, "properties": {"etat de la localisation": "Hors service", "numparc": 1430, "duree": "", "horodatage": "2022-07-03 00:20:20", "marker-color": "#707070"}}, {"type": "Feature", "geometry": {"type": "Point", "coordinates": [2.329678, 48.822578]}, "properties": {"etat de la localisation": "Hors service", "numparc": 1443, "duree": "", "horodatage": "2022-07-03 00:31:20", "marker-color": "#707070"}}, {"type": "Feature", "geometry": {"type": "Point", "coordinates": [2.297966, 48.887054]}, "properties": {"etat de la localisation": "Delocalise", "numparc": 1444, "duree": "00:25:30", "horodatage": "2022-07-03 00:38:56", "marker-color": "#FF565E"}}, {"type": "Feature", "geometry": {"type": "Point", "coordinates": [2.330002, 48.822632]}, "properties": {"etat de la localisation": "Hors service", "numparc": 1441, "duree": "", "horodatage": "2022-07-03 00:57:06", "marker-color": "#707070"}}, {"type": "Feature", "geometry": {"type": "Point", "coordinates": [2.328236, 48.823376]}, "properties": {"etat de la localisation": "Hors service", "numparc": 1444, "duree": "", "horodatage": "2022-07-03 01:04:26", "marker-color": "#707070"}}, {"type": "Feature", "geometry": {"type": "Point", "coordinates": [2.329602, 48.822788]}, "properties": {"etat de la localisation": "Hors service", "numparc": 1434, "duree": "", "horodatage": "2022-07-03 01:23:29", "marker-color": "#707070"}}, {"type": "Feature", "geometry": {"type": "Point", "coordinates": [2.329695, 48.823189]}, "properties": {"etat de la localisation": "Hors service", "numparc": 1450, "duree": "", "horodatage": "2022-07-03 02:07:10", "marker-color": "#707070"}}]}