{"type": "FeatureCollection", "features": [{"type": "Feature", "geometry": {"type": "Point", "coordinates": [2.383709, 48.766891]}, "properties": {"alarme": "VEHICULE DELOCALISE", "numparc": 7441, "type": "EXPLOITATION", "duree": "00:02:47", "horodatage": "2023-05-14 19:07:45", "statut": "start", "marker-color": "#ff0000"}}, {"type": "Feature", "geometry": {"type": "Point", "coordinates": [2.410298, 48.745815]}, "properties": {"alarme": "VEHICULE DELOCALISE", "numparc": 7423, "type": "EXPLOITATION", "duree": "00:00:09", "horodatage": "2023-05-14 21:16:20", "statut": "start", "marker-color": "#ff0000"}}, {"type": "Feature", "geometry": {"type": "Point", "coordinates": [2.411194, 48.755714]}, "properties": {"alarme": "VEHICULE DELOCALISE", "numparc": 7423, "type": "EXPLOITATION", "duree": "00:01:16", "horodatage": "2023-05-14 21:20:40", "statut": "start", "marker-color": "#ff0000"}}, {"type": "Feature", "geometry": {"type": "Point", "coordinates": [2.36871, 48.768711]}, "properties": {"alarme": "VEHICULE DELOCALISE", "numparc": 7441, "type": "EXPLOITATION", "duree": "00:02:47", "horodatage": "2023-05-14 19:10:32", "statut": "end", "marker-color": "#2fe184"}}, {"type": "Feature", "geometry": {"type": "Point", "coordinates": [2.410298, 48.745815]}, "properties": {"alarme": "VEHICULE DELOCALISE", "numparc": 7423, "type": "EXPLOITATION", "duree": "00:00:09", "horodatage": "2023-05-14 21:16:29", "statut": "end", "marker-color": "#2fe184"}}, {"type": "Feature", "geometry": {"type": "Point", "coordinates": [2.413838, 48.758629]}, "properties": {"alarme": "VEHICULE DELOCALISE", "numparc": 7423, "type": "EXPLOITATION", "duree": "00:01:16", "horodatage": "2023-05-14 21:21:56", "statut": "end", "marker-color": "#2fe184"}}]}