{"type": "FeatureCollection", "features": [{"type": "Feature", "geometry": {"type": "Point", "coordinates": [2.61635, 48.84383]}, "properties": {"alarme": "VEHICULE DELOCALISE", "numparc": 4972, "type": "EXPLOITATION", "duree": "00:00:17", "horodatage": "2023-05-20 19:27:01", "statut": "start", "marker-color": "#ff0000"}}, {"type": "Feature", "geometry": {"type": "Point", "coordinates": [2.526404, 48.843842]}, "properties": {"alarme": "VEHICULE DELOCALISE", "numparc": 4972, "type": "EXPLOITATION", "duree": "00:00:10", "horodatage": "2023-05-20 22:06:17", "statut": "start", "marker-color": "#ff0000"}}, {"type": "Feature", "geometry": {"type": "Point", "coordinates": [2.654816, 48.839054]}, "properties": {"alarme": "VEHICULE DELOCALISE", "numparc": 4972, "type": "EXPLOITATION", "duree": "00:12:18", "horodatage": "2023-05-20 23:17:51", "statut": "start", "marker-color": "#ff0000"}}, {"type": "Feature", "geometry": {"type": "Point", "coordinates": [2.61635, 48.84383]}, "properties": {"alarme": "VEHICULE DELOCALISE", "numparc": 4972, "type": "EXPLOITATION", "duree": "00:00:17", "horodatage": "2023-05-20 19:27:18", "statut": "end", "marker-color": "#2fe184"}}, {"type": "Feature", "geometry": {"type": "Point", "coordinates": [2.526398, 48.843845]}, "properties": {"alarme": "VEHICULE DELOCALISE", "numparc": 4972, "type": "EXPLOITATION", "duree": "00:00:10", "horodatage": "2023-05-20 22:06:27", "statut": "end", "marker-color": "#2fe184"}}, {"type": "Feature", "geometry": {"type": "Point", "coordinates": [2.654797, 48.839054]}, "properties": {"alarme": "VEHICULE DELOCALISE", "numparc": 4972, "type": "EXPLOITATION", "duree": "00:12:18", "horodatage": "2023-05-20 23:30:09", "statut": "end", "marker-color": "#2fe184"}}]}