{"type": "FeatureCollection", "features": [{"type": "Feature", "geometry": {"type": "Point", "coordinates": [2.427895, 48.878891]}, "properties": {"alarme": "DEFAUT LIAISON DATA SAEIV / AIGLE", "numparc": 1497, "type": "TECHNIQUE", "duree": "00:00:11", "horodatage": "2023-01-22 06:19:44", "statut": "start", "marker-color": "#ff0000"}}, {"type": "Feature", "geometry": {"type": "Point", "coordinates": [2.428053, 48.895145]}, "properties": {"alarme": "VEHICULE DELOCALISE", "numparc": 4950, "type": "EXPLOITATION", "duree": "00:03:22", "horodatage": "2023-01-22 06:30:39", "statut": "start", "marker-color": "#ff0000"}}, {"type": "Feature", "geometry": {"type": "Point", "coordinates": [2.427462, 48.895267]}, "properties": {"alarme": "VEHICULE DELOCALISE", "numparc": 1584, "type": "EXPLOITATION", "duree": "00:09:41", "horodatage": "2023-01-22 08:53:42", "statut": "start", "marker-color": "#ff0000"}}, {"type": "Feature", "geometry": {"type": "Point", "coordinates": [2.427287, 48.87899]}, "properties": {"alarme": "VEHICULE DELOCALISE", "numparc": 1584, "type": "EXPLOITATION", "duree": "00:16:23", "horodatage": "2023-01-22 20:42:22", "statut": "start", "marker-color": "#ff0000"}}, {"type": "Feature", "geometry": {"type": "Point", "coordinates": [2.428053, 48.895138]}, "properties": {"alarme": "VEHICULE DELOCALISE", "numparc": 4948, "type": "EXPLOITATION", "duree": "00:01:39", "horodatage": "2023-01-22 21:40:07", "statut": "start", "marker-color": "#ff0000"}}, {"type": "Feature", "geometry": {"type": "Point", "coordinates": [2.439789, 48.844593]}, "properties": {"alarme": "VEHICULE DELOCALISE", "numparc": 1584, "type": "EXPLOITATION", "duree": "00:00:44", "horodatage": "2023-01-22 22:02:10", "statut": "start", "marker-color": "#ff0000"}}, {"type": "Feature", "geometry": {"type": "Point", "coordinates": [2.427577, 48.879089]}, "properties": {"alarme": "VEHICULE DELOCALISE", "numparc": 1497, "type": "EXPLOITATION", "duree": "00:02:25", "horodatage": "2023-01-22 23:16:58", "statut": "start", "marker-color": "#ff0000"}}, {"type": "Feature", "geometry": {"type": "Point", "coordinates": [2.427895, 48.878891]}, "properties": {"alarme": "DEFAUT LIAISON DATA SAEIV / AIGLE", "numparc": 1497, "type": "TECHNIQUE", "duree": "00:00:11", "horodatage": "2023-01-22 06:19:55", "statut": "end", "marker-color": "#2fe184"}}, {"type": "Feature", "geometry": {"type": "Point", "coordinates": [2.437336, 48.891491]}, "properties": {"alarme": "VEHICULE DELOCALISE", "numparc": 4950, "type": "EXPLOITATION", "duree": "00:03:22", "horodatage": "2023-01-22 06:34:01", "statut": "end", "marker-color": "#2fe184"}}, {"type": "Feature", "geometry": {"type": "Point", "coordinates": [2.430674, 48.885155]}, "properties": {"alarme": "VEHICULE DELOCALISE", "numparc": 1584, "type": "EXPLOITATION", "duree": "00:09:41", "horodatage": "2023-01-22 09:03:23", "statut": "end", "marker-color": "#2fe184"}}, {"type": "Feature", "geometry": {"type": "Point", "coordinates": [2.427538, 48.878727]}, "properties": {"alarme": "VEHICULE DELOCALISE", "numparc": 1584, "type": "EXPLOITATION", "duree": "00:16:23", "horodatage": "2023-01-22 20:58:45", "statut": "end", "marker-color": "#2fe184"}}, {"type": "Feature", "geometry": {"type": "Point", "coordinates": [2.435137, 48.893772]}, "properties": {"alarme": "VEHICULE DELOCALISE", "numparc": 4948, "type": "EXPLOITATION", "duree": "00:01:39", "horodatage": "2023-01-22 21:41:46", "statut": "end", "marker-color": "#2fe184"}}, {"type": "Feature", "geometry": {"type": "Point", "coordinates": [2.437555, 48.844769]}, "properties": {"alarme": "VEHICULE DELOCALISE", "numparc": 1584, "type": "EXPLOITATION", "duree": "00:00:44", "horodatage": "2023-01-22 22:02:54", "statut": "end", "marker-color": "#2fe184"}}, {"type": "Feature", "geometry": {"type": "Point", "coordinates": [2.427652, 48.879139]}, "properties": {"alarme": "VEHICULE DELOCALISE", "numparc": 1497, "type": "EXPLOITATION", "duree": "00:02:25", "horodatage": "2023-01-22 23:19:23", "statut": "end", "marker-color": "#2fe184"}}]}