{"type": "FeatureCollection", "features": [{"type": "Feature", "geometry": {"type": "Point", "coordinates": [2.408828, 48.877975]}, "properties": {"alarme": "VEHICULE DELOCALISE", "numparc": 5644, "type": "EXPLOITATION", "duree": "00:01:06", "horodatage": "2021-10-13 07:18:57", "statut": "start", "marker-color": "#ff0000"}}, {"type": "Feature", "geometry": {"type": "Point", "coordinates": [2.402352, 48.891827]}, "properties": {"alarme": "VEHICULE DELOCALISE", "numparc": 5644, "type": "EXPLOITATION", "duree": "00:01:47", "horodatage": "2021-10-13 07:52:58", "statut": "start", "marker-color": "#ff0000"}}, {"type": "Feature", "geometry": {"type": "Point", "coordinates": [2.401612, 48.89415]}, "properties": {"alarme": "VEHICULE DELOCALISE", "numparc": 5673, "type": "EXPLOITATION", "duree": "00:00:39", "horodatage": "2021-10-13 09:30:36", "statut": "start", "marker-color": "#ff0000"}}, {"type": "Feature", "geometry": {"type": "Point", "coordinates": [2.411623, 48.880272]}, "properties": {"alarme": "VEHICULE DELOCALISE", "numparc": 5680, "type": "EXPLOITATION", "duree": "00:14:09", "horodatage": "2021-10-13 09:50:47", "statut": "start", "marker-color": "#ff0000"}}, {"type": "Feature", "geometry": {"type": "Point", "coordinates": [2.401871, 48.89344]}, "properties": {"alarme": "VEHICULE DELOCALISE", "numparc": 5680, "type": "EXPLOITATION", "duree": "00:00:25", "horodatage": "2021-10-13 10:05:38", "statut": "start", "marker-color": "#ff0000"}}, {"type": "Feature", "geometry": {"type": "Point", "coordinates": [2.401047, 48.89566]}, "properties": {"alarme": "VEHICULE DELOCALISE", "numparc": 5680, "type": "EXPLOITATION", "duree": "00:03:18", "horodatage": "2021-10-13 10:07:22", "statut": "start", "marker-color": "#ff0000"}}, {"type": "Feature", "geometry": {"type": "Point", "coordinates": [2.395256, 48.900383]}, "properties": {"alarme": "VEHICULE DELOCALISE", "numparc": 5680, "type": "EXPLOITATION", "duree": "00:01:41", "horodatage": "2021-10-13 10:11:20", "statut": "start", "marker-color": "#ff0000"}}, {"type": "Feature", "geometry": {"type": "Point", "coordinates": [2.391205, 48.904518]}, "properties": {"alarme": "VEHICULE DELOCALISE", "numparc": 5680, "type": "EXPLOITATION", "duree": "00:01:28", "horodatage": "2021-10-13 10:14:28", "statut": "start", "marker-color": "#ff0000"}}, {"type": "Feature", "geometry": {"type": "Point", "coordinates": [2.389254, 48.906574]}, "properties": {"alarme": "VEHICULE DELOCALISE", "numparc": 5680, "type": "EXPLOITATION", "duree": "00:01:30", "horodatage": "2021-10-13 10:16:56", "statut": "start", "marker-color": "#ff0000"}}, {"type": "Feature", "geometry": {"type": "Point", "coordinates": [2.386054, 48.909859]}, "properties": {"alarme": "VEHICULE DELOCALISE", "numparc": 5680, "type": "EXPLOITATION", "duree": "00:02:30", "horodatage": "2021-10-13 10:19:16", "statut": "start", "marker-color": "#ff0000"}}, {"type": "Feature", "geometry": {"type": "Point", "coordinates": [2.380216, 48.916306]}, "properties": {"alarme": "VEHICULE DELOCALISE", "numparc": 5680, "type": "EXPLOITATION", "duree": "00:00:18", "horodatage": "2021-10-13 10:22:58", "statut": "start", "marker-color": "#ff0000"}}, {"type": "Feature", "geometry": {"type": "Point", "coordinates": [2.379031, 48.918056]}, "properties": {"alarme": "VEHICULE DELOCALISE", "numparc": 5680, "type": "EXPLOITATION", "duree": "00:01:45", "horodatage": "2021-10-13 10:23:47", "statut": "start", "marker-color": "#ff0000"}}, {"type": "Feature", "geometry": {"type": "Point", "coordinates": [2.400526, 48.890732]}, "properties": {"alarme": "VEHICULE DELOCALISE", "numparc": 5644, "type": "EXPLOITATION", "duree": "00:10:01", "horodatage": "2021-10-13 17:29:52", "statut": "start", "marker-color": "#ff0000"}}, {"type": "Feature", "geometry": {"type": "Point", "coordinates": [2.351785, 48.928783]}, "properties": {"alarme": "VEHICULE DELOCALISE", "numparc": 5673, "type": "EXPLOITATION", "duree": "00:11:07", "horodatage": "2021-10-13 20:13:34", "statut": "start", "marker-color": "#ff0000"}}, {"type": "Feature", "geometry": {"type": "Point", "coordinates": [2.409926, 48.877293]}, "properties": {"alarme": "VEHICULE DELOCALISE", "numparc": 5673, "type": "EXPLOITATION", "duree": "00:17:22", "horodatage": "2021-10-13 21:39:19", "statut": "start", "marker-color": "#ff0000"}}, {"type": "Feature", "geometry": {"type": "Point", "coordinates": [2.40856, 48.877144]}, "properties": {"alarme": "VEHICULE DELOCALISE", "numparc": 5644, "type": "EXPLOITATION", "duree": "00:01:06", "horodatage": "2021-10-13 07:20:03", "statut": "end", "marker-color": "#2fe184"}}, {"type": "Feature", "geometry": {"type": "Point", "coordinates": [2.401112, 48.895599]}, "properties": {"alarme": "VEHICULE DELOCALISE", "numparc": 5644, "type": "EXPLOITATION", "duree": "00:01:47", "horodatage": "2021-10-13 07:54:45", "statut": "end", "marker-color": "#2fe184"}}, {"type": "Feature", "geometry": {"type": "Point", "coordinates": [2.40117, 48.89529]}, "properties": {"alarme": "VEHICULE DELOCALISE", "numparc": 5673, "type": "EXPLOITATION", "duree": "00:00:39", "horodatage": "2021-10-13 09:31:15", "statut": "end", "marker-color": "#2fe184"}}, {"type": "Feature", "geometry": {"type": "Point", "coordinates": [2.402504, 48.891556]}, "properties": {"alarme": "VEHICULE DELOCALISE", "numparc": 5680, "type": "EXPLOITATION", "duree": "00:14:09", "horodatage": "2021-10-13 10:04:56", "statut": "end", "marker-color": "#2fe184"}}, {"type": "Feature", "geometry": {"type": "Point", "coordinates": [2.401597, 48.894348]}, "properties": {"alarme": "VEHICULE DELOCALISE", "numparc": 5680, "type": "EXPLOITATION", "duree": "00:00:25", "horodatage": "2021-10-13 10:06:03", "statut": "end", "marker-color": "#2fe184"}}, {"type": "Feature", "geometry": {"type": "Point", "coordinates": [2.396896, 48.899342]}, "properties": {"alarme": "VEHICULE DELOCALISE", "numparc": 5680, "type": "EXPLOITATION", "duree": "00:03:18", "horodatage": "2021-10-13 10:10:40", "statut": "end", "marker-color": "#2fe184"}}, {"type": "Feature", "geometry": {"type": "Point", "coordinates": [2.392376, 48.903332]}, "properties": {"alarme": "VEHICULE DELOCALISE", "numparc": 5680, "type": "EXPLOITATION", "duree": "00:01:41", "horodatage": "2021-10-13 10:13:01", "statut": "end", "marker-color": "#2fe184"}}, {"type": "Feature", "geometry": {"type": "Point", "coordinates": [2.389959, 48.905754]}, "properties": {"alarme": "VEHICULE DELOCALISE", "numparc": 5680, "type": "EXPLOITATION", "duree": "00:01:28", "horodatage": "2021-10-13 10:15:56", "statut": "end", "marker-color": "#2fe184"}}, {"type": "Feature", "geometry": {"type": "Point", "coordinates": [2.387506, 48.908306]}, "properties": {"alarme": "VEHICULE DELOCALISE", "numparc": 5680, "type": "EXPLOITATION", "duree": "00:01:30", "horodatage": "2021-10-13 10:18:26", "statut": "end", "marker-color": "#2fe184"}}, {"type": "Feature", "geometry": {"type": "Point", "coordinates": [2.381556, 48.91452]}, "properties": {"alarme": "VEHICULE DELOCALISE", "numparc": 5680, "type": "EXPLOITATION", "duree": "00:02:30", "horodatage": "2021-10-13 10:21:46", "statut": "end", "marker-color": "#2fe184"}}, {"type": "Feature", "geometry": {"type": "Point", "coordinates": [2.37999, 48.916721]}, "properties": {"alarme": "VEHICULE DELOCALISE", "numparc": 5680, "type": "EXPLOITATION", "duree": "00:00:18", "horodatage": "2021-10-13 10:23:16", "statut": "end", "marker-color": "#2fe184"}}, {"type": "Feature", "geometry": {"type": "Point", "coordinates": [2.375502, 48.921665]}, "properties": {"alarme": "VEHICULE DELOCALISE", "numparc": 5680, "type": "EXPLOITATION", "duree": "00:01:45", "horodatage": "2021-10-13 10:25:32", "statut": "end", "marker-color": "#2fe184"}}, {"type": "Feature", "geometry": {"type": "Point", "coordinates": [2.403163, 48.881638]}, "properties": {"alarme": "VEHICULE DELOCALISE", "numparc": 5644, "type": "EXPLOITATION", "duree": "00:10:01", "horodatage": "2021-10-13 17:39:53", "statut": "end", "marker-color": "#2fe184"}}, {"type": "Feature", "geometry": {"type": "Point", "coordinates": [2.347359, 48.934307]}, "properties": {"alarme": "VEHICULE DELOCALISE", "numparc": 5673, "type": "EXPLOITATION", "duree": "00:11:07", "horodatage": "2021-10-13 20:24:41", "statut": "end", "marker-color": "#2fe184"}}, {"type": "Feature", "geometry": {"type": "Point", "coordinates": [2.370597, 48.910091]}, "properties": {"alarme": "VEHICULE DELOCALISE", "numparc": 5673, "type": "EXPLOITATION", "duree": "00:17:22", "horodatage": "2021-10-13 21:56:41", "statut": "end", "marker-color": "#2fe184"}}]}