{"type": "FeatureCollection", "features": [{"type": "Feature", "geometry": {"type": "Point", "coordinates": [2.296595, 48.721294]}, "properties": {"etat de la localisation": "Delocalise", "numparc": 4862, "duree": "00:02:14", "horodatage": "2023-05-28 06:15:04", "marker-color": "#FF565E"}}, {"type": "Feature", "geometry": {"type": "Point", "coordinates": [2.298077, 48.72245]}, "properties": {"etat de la localisation": "Mission inconnue", "numparc": 4864, "duree": "", "horodatage": "2023-05-28 06:15:42", "marker-color": "#FF9F56"}}, {"type": "Feature", "geometry": {"type": "Point", "coordinates": [2.297266, 48.721516]}, "properties": {"etat de la localisation": "Mission inconnue", "numparc": 4859, "duree": "", "horodatage": "2023-05-28 12:08:39", "marker-color": "#FF9F56"}}, {"type": "Feature", "geometry": {"type": "Point", "coordinates": [2.298252, 48.722507]}, "properties": {"etat de la localisation": "Mission inconnue", "numparc": 4860, "duree": "", "horodatage": "2023-05-28 12:11:49", "marker-color": "#FF9F56"}}, {"type": "Feature", "geometry": {"type": "Point", "coordinates": [2.298386, 48.722569]}, "properties": {"etat de la localisation": "Mission inconnue", "numparc": 4871, "duree": "", "horodatage": "2023-05-28 12:24:17", "marker-color": "#FF9F56"}}, {"type": "Feature", "geometry": {"type": "Point", "coordinates": [2.297261, 48.721504]}, "properties": {"etat de la localisation": "Hors service", "numparc": 4862, "duree": "", "horodatage": "2023-05-28 13:06:24", "marker-color": "#707070"}}, {"type": "Feature", "geometry": {"type": "Point", "coordinates": [2.297683, 48.721222]}, "properties": {"etat de la localisation": "Mission inconnue", "numparc": 4862, "duree": "", "horodatage": "2023-05-28 13:32:05", "marker-color": "#FF9F56"}}, {"type": "Feature", "geometry": {"type": "Point", "coordinates": [2.325588, 48.822384]}, "properties": {"etat de la localisation": "Mission suivante non connue", "numparc": 4862, "duree": "", "horodatage": "2023-05-28 16:17:51", "marker-color": "#7156FF"}}, {"type": "Feature", "geometry": {"type": "Point", "coordinates": [2.298451, 48.722637]}, "properties": {"etat de la localisation": "Hors service", "numparc": 4871, "duree": "", "horodatage": "2023-05-28 18:39:08", "marker-color": "#707070"}}, {"type": "Feature", "geometry": {"type": "Point", "coordinates": [2.30016, 48.739418]}, "properties": {"etat de la localisation": "Delocalise", "numparc": 4857, "duree": "00:01:05", "horodatage": "2023-05-28 19:42:50", "marker-color": "#FF565E"}}, {"type": "Feature", "geometry": {"type": "Point", "coordinates": [2.297757, 48.722347]}, "properties": {"etat de la localisation": "Hors service", "numparc": 4860, "duree": "", "horodatage": "2023-05-28 19:59:41", "marker-color": "#707070"}}, {"type": "Feature", "geometry": {"type": "Point", "coordinates": [2.297013, 48.721714]}, "properties": {"etat de la localisation": "Hors service", "numparc": 4859, "duree": "", "horodatage": "2023-05-28 20:05:03", "marker-color": "#707070"}}, {"type": "Feature", "geometry": {"type": "Point", "coordinates": [2.29894, 48.722839]}, "properties": {"etat de la localisation": "Hors service", "numparc": 4841, "duree": "", "horodatage": "2023-05-28 20:34:47", "marker-color": "#707070"}}, {"type": "Feature", "geometry": {"type": "Point", "coordinates": [2.298912, 48.722698]}, "properties": {"etat de la localisation": "Hors service", "numparc": 4862, "duree": "", "horodatage": "2023-05-28 21:15:39", "marker-color": "#707070"}}, {"type": "Feature", "geometry": {"type": "Point", "coordinates": [2.297007, 48.721985]}, "properties": {"etat de la localisation": "Hors service", "numparc": 4864, "duree": "", "horodatage": "2023-05-29 00:52:54", "marker-color": "#707070"}}, {"type": "Feature", "geometry": {"type": "Point", "coordinates": [2.297051, 48.721706]}, "properties": {"etat de la localisation": "Hors service", "numparc": 4868, "duree": "", "horodatage": "2023-05-29 01:19:52", "marker-color": "#707070"}}, {"type": "Feature", "geometry": {"type": "Point", "coordinates": [2.296833, 48.721519]}, "properties": {"etat de la localisation": "Hors service", "numparc": 4857, "duree": "", "horodatage": "2023-05-29 01:40:03", "marker-color": "#707070"}}, {"type": "Feature", "geometry": {"type": "Point", "coordinates": [2.297192, 48.721882]}, "properties": {"etat de la localisation": "Hors service", "numparc": 4858, "duree": "", "horodatage": "2023-05-29 01:53:41", "marker-color": "#707070"}}]}