{"type": "FeatureCollection", "features": [{"type": "Feature", "geometry": {"type": "Point", "coordinates": [2.40678, 48.850758]}, "properties": {"numparc": 7389, "etat de la localisation": "autre", "ID BDGEO": "3044", "horodatage": "2022-10-28 05:21:53", "distance (en metres)": 97.97, "station": "LAGNY SORTIE", "marker-color": "#818181"}}, {"type": "Feature", "geometry": {"type": "Point", "coordinates": [2.40678, 48.850758]}, "properties": {"numparc": 7389, "etat de la localisation": "autre", "ID BDGEO": "3044", "horodatage": "2022-10-28 05:22:56", "distance (en metres)": 97.97, "station": "LAGNY SORTIE", "marker-color": "#818181"}}, {"type": "Feature", "geometry": {"type": "Point", "coordinates": [2.40678, 48.850758]}, "properties": {"numparc": 7389, "etat de la localisation": "autre", "ID BDGEO": "3044", "horodatage": "2022-10-28 05:24:34", "distance (en metres)": 97.97, "station": "LAGNY SORTIE", "marker-color": "#818181"}}, {"type": "Feature", "geometry": {"type": "Point", "coordinates": [2.406868, 48.850269]}, "properties": {"numparc": 7368, "etat de la localisation": "autre", "ID BDGEO": "479", "horodatage": "2022-10-28 05:59:18", "distance (en metres)": 641.49, "station": "DOCTEUR NETTER", "marker-color": "#818181"}}, {"type": "Feature", "geometry": {"type": "Point", "coordinates": [2.406868, 48.850269]}, "properties": {"numparc": 7368, "etat de la localisation": "autre", "ID BDGEO": "479", "horodatage": "2022-10-28 06:36:14", "distance (en metres)": 641.49, "station": "DOCTEUR NETTER", "marker-color": "#818181"}}, {"type": "Feature", "geometry": {"type": "Point", "coordinates": [2.407116, 48.85041]}, "properties": {"numparc": 7366, "etat de la localisation": "autre", "ID BDGEO": "479", "horodatage": "2022-10-28 06:41:33", "distance (en metres)": 658.88, "station": "DOCTEUR NETTER", "marker-color": "#818181"}}, {"type": "Feature", "geometry": {"type": "Point", "coordinates": [2.410963, 48.844215]}, "properties": {"numparc": 7366, "etat de la localisation": "autre", "ID BDGEO": "3043", "horodatage": "2022-10-28 06:54:08", "distance (en metres)": 670.73, "station": "LAGNY ENTREE", "marker-color": "#818181"}}, {"type": "Feature", "geometry": {"type": "Point", "coordinates": [2.418989, 48.843918]}, "properties": {"numparc": 7366, "etat de la localisation": "autre", "ID BDGEO": "3043", "horodatage": "2022-10-28 06:56:17", "distance (en metres)": 1072.22, "station": "LAGNY ENTREE", "marker-color": "#818181"}}, {"type": "Feature", "geometry": {"type": "Point", "coordinates": [2.42744, 48.845524]}, "properties": {"numparc": 7366, "etat de la localisation": "autre", "ID BDGEO": "3043", "horodatage": "2022-10-28 06:58:56", "distance (en metres)": 1545.39, "station": "LAGNY ENTREE", "marker-color": "#818181"}}, {"type": "Feature", "geometry": {"type": "Point", "coordinates": [2.424039, 48.84589]}, "properties": {"numparc": 7368, "etat de la localisation": "autre", "ID BDGEO": "3043", "horodatage": "2022-10-28 07:05:40", "distance (en metres)": 1296.45, "station": "LAGNY ENTREE", "marker-color": "#818181"}}, {"type": "Feature", "geometry": {"type": "Point", "coordinates": [2.407173, 48.850155]}, "properties": {"numparc": 608, "etat de la localisation": "autre", "ID BDGEO": "479", "horodatage": "2022-10-28 09:05:21", "distance (en metres)": 631.13, "station": "DOCTEUR NETTER", "marker-color": "#818181"}}, {"type": "Feature", "geometry": {"type": "Point", "coordinates": [2.440724, 48.844234]}, "properties": {"numparc": 7365, "etat de la localisation": "autre", "ID BDGEO": "3044", "horodatage": "2022-10-28 10:19:31", "distance (en metres)": 2559.2, "station": "LAGNY SORTIE", "marker-color": "#818181"}}, {"type": "Feature", "geometry": {"type": "Point", "coordinates": [2.441016, 48.843929]}, "properties": {"numparc": 7365, "etat de la localisation": "autre", "ID BDGEO": "3044", "horodatage": "2022-10-28 10:20:29", "distance (en metres)": 2588.4, "station": "LAGNY SORTIE", "marker-color": "#818181"}}, {"type": "Feature", "geometry": {"type": "Point", "coordinates": [2.345126, 48.89753]}, "properties": {"numparc": 7368, "etat de la localisation": "autre", "ID BDGEO": "2666", "horodatage": "2022-10-28 13:32:47", "distance (en metres)": 2495.66, "station": "GARE DE L EST#", "marker-color": "#818181"}}, {"type": "Feature", "geometry": {"type": "Point", "coordinates": [2.345126, 48.89753]}, "properties": {"numparc": 7368, "etat de la localisation": "autre", "ID BDGEO": "2666", "horodatage": "2022-10-28 13:56:36", "distance (en metres)": 2495.66, "station": "GARE DE L EST#", "marker-color": "#818181"}}, {"type": "Feature", "geometry": {"type": "Point", "coordinates": [2.407381, 48.849571]}, "properties": {"numparc": 608, "etat de la localisation": "autre", "ID BDGEO": "479", "horodatage": "2022-10-28 14:47:26", "distance (en metres)": 569.01, "station": "DOCTEUR NETTER", "marker-color": "#818181"}}, {"type": "Feature", "geometry": {"type": "Point", "coordinates": [2.407512, 48.849781]}, "properties": {"numparc": 608, "etat de la localisation": "autre", "ID BDGEO": "479", "horodatage": "2022-10-28 14:54:17", "distance (en metres)": 593.6, "station": "DOCTEUR NETTER", "marker-color": "#818181"}}, {"type": "Feature", "geometry": {"type": "Point", "coordinates": [2.407389, 48.849617]}, "properties": {"numparc": 608, "etat de la localisation": "autre", "ID BDGEO": "479", "horodatage": "2022-10-28 15:18:09", "distance (en metres)": 574.12, "station": "DOCTEUR NETTER", "marker-color": "#818181"}}, {"type": "Feature", "geometry": {"type": "Point", "coordinates": [2.407553, 48.849792]}, "properties": {"numparc": 608, "etat de la localisation": "autre", "ID BDGEO": "479", "horodatage": "2022-10-28 15:20:54", "distance (en metres)": 595.38, "station": "DOCTEUR NETTER", "marker-color": "#818181"}}, {"type": "Feature", "geometry": {"type": "Point", "coordinates": [2.407371, 48.849781]}, "properties": {"numparc": 608, "etat de la localisation": "autre", "ID BDGEO": "479", "horodatage": "2022-10-28 15:22:06", "distance (en metres)": 591.93, "station": "DOCTEUR NETTER", "marker-color": "#818181"}}, {"type": "Feature", "geometry": {"type": "Point", "coordinates": [2.407389, 48.84959]}, "properties": {"numparc": 608, "etat de la localisation": "autre", "ID BDGEO": "479", "horodatage": "2022-10-28 15:23:20", "distance (en metres)": 571.2, "station": "DOCTEUR NETTER", "marker-color": "#818181"}}, {"type": "Feature", "geometry": {"type": "Point", "coordinates": [2.407586, 48.849754]}, "properties": {"numparc": 608, "etat de la localisation": "autre", "ID BDGEO": "479", "horodatage": "2022-10-28 15:27:49", "distance (en metres)": 591.63, "station": "DOCTEUR NETTER", "marker-color": "#818181"}}, {"type": "Feature", "geometry": {"type": "Point", "coordinates": [2.407586, 48.849754]}, "properties": {"numparc": 608, "etat de la localisation": "autre", "ID BDGEO": "479", "horodatage": "2022-10-28 15:28:30", "distance (en metres)": 591.63, "station": "DOCTEUR NETTER", "marker-color": "#818181"}}, {"type": "Feature", "geometry": {"type": "Point", "coordinates": [2.407604, 48.849758]}, "properties": {"numparc": 608, "etat de la localisation": "autre", "ID BDGEO": "479", "horodatage": "2022-10-28 15:33:58", "distance (en metres)": 592.28, "station": "DOCTEUR NETTER", "marker-color": "#818181"}}, {"type": "Feature", "geometry": {"type": "Point", "coordinates": [2.407302, 48.84977]}, "properties": {"numparc": 608, "etat de la localisation": "autre", "ID BDGEO": "479", "horodatage": "2022-10-28 15:40:28", "distance (en metres)": 589.92, "station": "DOCTEUR NETTER", "marker-color": "#818181"}}, {"type": "Feature", "geometry": {"type": "Point", "coordinates": [2.36056, 48.871212]}, "properties": {"numparc": 608, "etat de la localisation": "autre", "ID BDGEO": "2667", "horodatage": "2022-10-28 16:30:31", "distance (en metres)": 3147.83, "station": "PORTE DE CLIGNANCOURT#", "marker-color": "#818181"}}, {"type": "Feature", "geometry": {"type": "Point", "coordinates": [2.36235, 48.869205]}, "properties": {"numparc": 608, "etat de la localisation": "autre", "ID BDGEO": "2667", "horodatage": "2022-10-28 16:31:45", "distance (en metres)": 3403.49, "station": "PORTE DE CLIGNANCOURT#", "marker-color": "#818181"}}, {"type": "Feature", "geometry": {"type": "Point", "coordinates": [2.364955, 48.867401]}, "properties": {"numparc": 608, "etat de la localisation": "autre", "ID BDGEO": "2667", "horodatage": "2022-10-28 16:34:19", "distance (en metres)": 3662.22, "station": "PORTE DE CLIGNANCOURT#", "marker-color": "#818181"}}, {"type": "Feature", "geometry": {"type": "Point", "coordinates": [2.366016, 48.866211]}, "properties": {"numparc": 608, "etat de la localisation": "autre", "ID BDGEO": "3043", "horodatage": "2022-10-28 16:36:11", "distance (en metres)": 3532.88, "station": "LAGNY ENTREE", "marker-color": "#818181"}}, {"type": "Feature", "geometry": {"type": "Point", "coordinates": [2.368042, 48.865002]}, "properties": {"numparc": 608, "etat de la localisation": "autre", "ID BDGEO": "3043", "horodatage": "2022-10-28 16:37:14", "distance (en metres)": 3336.68, "station": "LAGNY ENTREE", "marker-color": "#818181"}}, {"type": "Feature", "geometry": {"type": "Point", "coordinates": [2.370346, 48.863621]}, "properties": {"numparc": 608, "etat de la localisation": "autre", "ID BDGEO": "3043", "horodatage": "2022-10-28 16:40:00", "distance (en metres)": 3113.86, "station": "LAGNY ENTREE", "marker-color": "#818181"}}, {"type": "Feature", "geometry": {"type": "Point", "coordinates": [2.374379, 48.861225]}, "properties": {"numparc": 608, "etat de la localisation": "autre", "ID BDGEO": "3043", "horodatage": "2022-10-28 16:43:07", "distance (en metres)": 2726.99, "station": "LAGNY ENTREE", "marker-color": "#818181"}}, {"type": "Feature", "geometry": {"type": "Point", "coordinates": [2.376565, 48.859921]}, "properties": {"numparc": 608, "etat de la localisation": "autre", "ID BDGEO": "3043", "horodatage": "2022-10-28 16:44:19", "distance (en metres)": 2518.35, "station": "LAGNY ENTREE", "marker-color": "#818181"}}, {"type": "Feature", "geometry": {"type": "Point", "coordinates": [2.378837, 48.858582]}, "properties": {"numparc": 608, "etat de la localisation": "autre", "ID BDGEO": "3043", "horodatage": "2022-10-28 16:45:29", "distance (en metres)": 2303.73, "station": "LAGNY ENTREE", "marker-color": "#818181"}}, {"type": "Feature", "geometry": {"type": "Point", "coordinates": [2.383051, 48.856056]}, "properties": {"numparc": 608, "etat de la localisation": "autre", "ID BDGEO": "3043", "horodatage": "2022-10-28 16:48:42", "distance (en metres)": 1909.13, "station": "LAGNY ENTREE", "marker-color": "#818181"}}, {"type": "Feature", "geometry": {"type": "Point", "coordinates": [2.385873, 48.854378]}, "properties": {"numparc": 608, "etat de la localisation": "autre", "ID BDGEO": "3043", "horodatage": "2022-10-28 16:49:42", "distance (en metres)": 1651.46, "station": "LAGNY ENTREE", "marker-color": "#818181"}}, {"type": "Feature", "geometry": {"type": "Point", "coordinates": [2.389885, 48.851994]}, "properties": {"numparc": 608, "etat de la localisation": "autre", "ID BDGEO": "3043", "horodatage": "2022-10-28 16:51:32", "distance (en metres)": 1299.91, "station": "LAGNY ENTREE", "marker-color": "#818181"}}, {"type": "Feature", "geometry": {"type": "Point", "coordinates": [2.391637, 48.850922]}, "properties": {"numparc": 608, "etat de la localisation": "autre", "ID BDGEO": "3043", "horodatage": "2022-10-28 16:52:40", "distance (en metres)": 1154.93, "station": "LAGNY ENTREE", "marker-color": "#818181"}}, {"type": "Feature", "geometry": {"type": "Point", "coordinates": [2.394885, 48.848949]}, "properties": {"numparc": 608, "etat de la localisation": "autre", "ID BDGEO": "3043", "horodatage": "2022-10-28 16:54:36", "distance (en metres)": 914.29, "station": "LAGNY ENTREE", "marker-color": "#818181"}}, {"type": "Feature", "geometry": {"type": "Point", "coordinates": [2.397179, 48.848118]}, "properties": {"numparc": 608, "etat de la localisation": "autre", "ID BDGEO": "3043", "horodatage": "2022-10-28 16:56:29", "distance (en metres)": 764.0, "station": "LAGNY ENTREE", "marker-color": "#818181"}}, {"type": "Feature", "geometry": {"type": "Point", "coordinates": [2.403049, 48.844883]}, "properties": {"numparc": 608, "etat de la localisation": "autre", "ID BDGEO": "3043", "horodatage": "2022-10-28 17:00:20", "distance (en metres)": 625.06, "station": "LAGNY ENTREE", "marker-color": "#818181"}}, {"type": "Feature", "geometry": {"type": "Point", "coordinates": [2.406693, 48.844597]}, "properties": {"numparc": 608, "etat de la localisation": "autre", "ID BDGEO": "3043", "horodatage": "2022-10-28 17:02:11", "distance (en metres)": 574.93, "station": "LAGNY ENTREE", "marker-color": "#818181"}}, {"type": "Feature", "geometry": {"type": "Point", "coordinates": [2.410925, 48.8442]}, "properties": {"numparc": 608, "etat de la localisation": "autre", "ID BDGEO": "3043", "horodatage": "2022-10-28 17:03:29", "distance (en metres)": 671.19, "station": "LAGNY ENTREE", "marker-color": "#818181"}}, {"type": "Feature", "geometry": {"type": "Point", "coordinates": [2.419027, 48.843929]}, "properties": {"numparc": 608, "etat de la localisation": "autre", "ID BDGEO": "3043", "horodatage": "2022-10-28 17:06:23", "distance (en metres)": 1073.68, "station": "LAGNY ENTREE", "marker-color": "#818181"}}, {"type": "Feature", "geometry": {"type": "Point", "coordinates": [2.424061, 48.84586]}, "properties": {"numparc": 608, "etat de la localisation": "autre", "ID BDGEO": "3043", "horodatage": "2022-10-28 17:08:29", "distance (en metres)": 1299.11, "station": "LAGNY ENTREE", "marker-color": "#818181"}}, {"type": "Feature", "geometry": {"type": "Point", "coordinates": [2.432196, 48.845119]}, "properties": {"numparc": 608, "etat de la localisation": "autre", "ID BDGEO": "3043", "horodatage": "2022-10-28 17:11:10", "distance (en metres)": 1891.65, "station": "LAGNY ENTREE", "marker-color": "#818181"}}, {"type": "Feature", "geometry": {"type": "Point", "coordinates": [2.437247, 48.844658]}, "properties": {"numparc": 608, "etat de la localisation": "autre", "ID BDGEO": "3043", "horodatage": "2022-10-28 17:13:10", "distance (en metres)": 2261.86, "station": "LAGNY ENTREE", "marker-color": "#818181"}}, {"type": "Feature", "geometry": {"type": "Point", "coordinates": [2.357922, 48.87566]}, "properties": {"numparc": 608, "etat de la localisation": "autre", "ID BDGEO": "2667", "horodatage": "2022-10-28 18:30:13", "distance (en metres)": 2616.95, "station": "PORTE DE CLIGNANCOURT#", "marker-color": "#818181"}}, {"type": "Feature", "geometry": {"type": "Point", "coordinates": [2.359352, 48.87566]}, "properties": {"numparc": 608, "etat de la localisation": "autre", "ID BDGEO": "2667", "horodatage": "2022-10-28 18:53:23", "distance (en metres)": 2656.65, "station": "PORTE DE CLIGNANCOURT#", "marker-color": "#818181"}}, {"type": "Feature", "geometry": {"type": "Point", "coordinates": [2.360569, 48.871216]}, "properties": {"numparc": 608, "etat de la localisation": "autre", "ID BDGEO": "2667", "horodatage": "2022-10-28 18:57:28", "distance (en metres)": 3147.67, "station": "PORTE DE CLIGNANCOURT#", "marker-color": "#818181"}}, {"type": "Feature", "geometry": {"type": "Point", "coordinates": [2.36238, 48.869186]}, "properties": {"numparc": 608, "etat de la localisation": "autre", "ID BDGEO": "2667", "horodatage": "2022-10-28 18:58:48", "distance (en metres)": 3406.28, "station": "PORTE DE CLIGNANCOURT#", "marker-color": "#818181"}}, {"type": "Feature", "geometry": {"type": "Point", "coordinates": [2.364968, 48.867386]}, "properties": {"numparc": 608, "etat de la localisation": "autre", "ID BDGEO": "2667", "horodatage": "2022-10-28 19:01:19", "distance (en metres)": 3664.16, "station": "PORTE DE CLIGNANCOURT#", "marker-color": "#818181"}}, {"type": "Feature", "geometry": {"type": "Point", "coordinates": [2.36596, 48.866219]}, "properties": {"numparc": 608, "etat de la localisation": "autre", "ID BDGEO": "3043", "horodatage": "2022-10-28 19:03:08", "distance (en metres)": 3536.82, "station": "LAGNY ENTREE", "marker-color": "#818181"}}, {"type": "Feature", "geometry": {"type": "Point", "coordinates": [2.370349, 48.863663]}, "properties": {"numparc": 608, "etat de la localisation": "autre", "ID BDGEO": "3043", "horodatage": "2022-10-28 19:06:38", "distance (en metres)": 3115.98, "station": "LAGNY ENTREE", "marker-color": "#818181"}}, {"type": "Feature", "geometry": {"type": "Point", "coordinates": [2.374393, 48.861248]}, "properties": {"numparc": 608, "etat de la localisation": "autre", "ID BDGEO": "3043", "horodatage": "2022-10-28 19:09:11", "distance (en metres)": 2727.27, "station": "LAGNY ENTREE", "marker-color": "#818181"}}, {"type": "Feature", "geometry": {"type": "Point", "coordinates": [2.376584, 48.859924]}, "properties": {"numparc": 608, "etat de la localisation": "autre", "ID BDGEO": "3043", "horodatage": "2022-10-28 19:10:34", "distance (en metres)": 2517.3, "station": "LAGNY ENTREE", "marker-color": "#818181"}}, {"type": "Feature", "geometry": {"type": "Point", "coordinates": [2.385897, 48.854378]}, "properties": {"numparc": 608, "etat de la localisation": "autre", "ID BDGEO": "3043", "horodatage": "2022-10-28 19:16:21", "distance (en metres)": 1649.8, "station": "LAGNY ENTREE", "marker-color": "#818181"}}, {"type": "Feature", "geometry": {"type": "Point", "coordinates": [2.389868, 48.851997]}, "properties": {"numparc": 608, "etat de la localisation": "autre", "ID BDGEO": "3043", "horodatage": "2022-10-28 19:17:49", "distance (en metres)": 1301.2, "station": "LAGNY ENTREE", "marker-color": "#818181"}}, {"type": "Feature", "geometry": {"type": "Point", "coordinates": [2.394918, 48.848946]}, "properties": {"numparc": 608, "etat de la localisation": "autre", "ID BDGEO": "3043", "horodatage": "2022-10-28 19:19:44", "distance (en metres)": 911.94, "station": "LAGNY ENTREE", "marker-color": "#818181"}}, {"type": "Feature", "geometry": {"type": "Point", "coordinates": [2.39699, 48.848152]}, "properties": {"numparc": 608, "etat de la localisation": "autre", "ID BDGEO": "3043", "horodatage": "2022-10-28 19:21:27", "distance (en metres)": 776.54, "station": "LAGNY ENTREE", "marker-color": "#818181"}}, {"type": "Feature", "geometry": {"type": "Point", "coordinates": [2.403055, 48.844852]}, "properties": {"numparc": 608, "etat de la localisation": "autre", "ID BDGEO": "3043", "horodatage": "2022-10-28 19:25:47", "distance (en metres)": 627.78, "station": "LAGNY ENTREE", "marker-color": "#818181"}}, {"type": "Feature", "geometry": {"type": "Point", "coordinates": [2.410916, 48.844215]}, "properties": {"numparc": 608, "etat de la localisation": "autre", "ID BDGEO": "3043", "horodatage": "2022-10-28 19:29:40", "distance (en metres)": 669.38, "station": "LAGNY ENTREE", "marker-color": "#818181"}}, {"type": "Feature", "geometry": {"type": "Point", "coordinates": [2.424066, 48.84586]}, "properties": {"numparc": 608, "etat de la localisation": "autre", "ID BDGEO": "3043", "horodatage": "2022-10-28 19:34:23", "distance (en metres)": 1299.45, "station": "LAGNY ENTREE", "marker-color": "#818181"}}, {"type": "Feature", "geometry": {"type": "Point", "coordinates": [2.42749, 48.845547]}, "properties": {"numparc": 608, "etat de la localisation": "autre", "ID BDGEO": "3043", "horodatage": "2022-10-28 19:35:22", "distance (en metres)": 1548.11, "station": "LAGNY ENTREE", "marker-color": "#818181"}}, {"type": "Feature", "geometry": {"type": "Point", "coordinates": [2.432177, 48.845169]}, "properties": {"numparc": 608, "etat de la localisation": "autre", "ID BDGEO": "3043", "horodatage": "2022-10-28 19:37:02", "distance (en metres)": 1888.83, "station": "LAGNY ENTREE", "marker-color": "#818181"}}, {"type": "Feature", "geometry": {"type": "Point", "coordinates": [2.406817, 48.849877]}, "properties": {"station": "LAGNY SORTIE", "ID BDGEO": "3044", "marker-color": "#56B3FF"}}, {"type": "Feature", "geometry": {"type": "Point", "coordinates": [2.406129, 48.844521]}, "properties": {"station": "DOCTEUR NETTER", "ID BDGEO": "479", "marker-color": "#56B3FF"}}, {"type": "Feature", "geometry": {"type": "Point", "coordinates": [2.407321, 48.849751]}, "properties": {"station": "LAGNY ENTREE", "ID BDGEO": "3043", "marker-color": "#56B3FF"}}, {"type": "Feature", "geometry": {"type": "Point", "coordinates": [2.355921, 48.876238]}, "properties": {"station": "GARE DE L EST#", "ID BDGEO": "2666", "marker-color": "#56B3FF"}}, {"type": "Feature", "geometry": {"type": "Point", "coordinates": [2.344942, 48.897593]}, "properties": {"station": "PORTE DE CLIGNANCOURT#", "ID BDGEO": "2667", "marker-color": "#56B3FF"}}]}