{"type": "FeatureCollection", "features": [{"type": "Feature", "geometry": {"type": "Point", "coordinates": [2.283961, 48.931198]}, "properties": {"alarme": "VEHICULE DELOCALISE", "numparc": 8942, "type": "EXPLOITATION", "duree": "00:15:02", "horodatage": "2022-06-18 11:02:26", "statut": "start", "marker-color": "#ff0000"}}, {"type": "Feature", "geometry": {"type": "Point", "coordinates": [2.252635, 48.923847]}, "properties": {"alarme": "VEHICULE DELOCALISE", "numparc": 8955, "type": "EXPLOITATION", "duree": "00:08:37", "horodatage": "2022-06-18 11:30:31", "statut": "start", "marker-color": "#ff0000"}}, {"type": "Feature", "geometry": {"type": "Point", "coordinates": [2.283666, 48.931427]}, "properties": {"alarme": "VEHICULE DELOCALISE", "numparc": 8949, "type": "EXPLOITATION", "duree": "00:03:21", "horodatage": "2022-06-18 15:24:47", "statut": "start", "marker-color": "#ff0000"}}, {"type": "Feature", "geometry": {"type": "Point", "coordinates": [2.282027, 48.929573]}, "properties": {"alarme": "VEHICULE DELOCALISE", "numparc": 8942, "type": "EXPLOITATION", "duree": "00:00:26", "horodatage": "2022-06-18 16:31:07", "statut": "start", "marker-color": "#ff0000"}}, {"type": "Feature", "geometry": {"type": "Point", "coordinates": [2.28428, 48.930466]}, "properties": {"alarme": "VEHICULE DELOCALISE", "numparc": 8942, "type": "EXPLOITATION", "duree": "00:01:45", "horodatage": "2022-06-18 16:33:48", "statut": "start", "marker-color": "#ff0000"}}, {"type": "Feature", "geometry": {"type": "Point", "coordinates": [2.283842, 48.931316]}, "properties": {"alarme": "VEHICULE DELOCALISE", "numparc": 8945, "type": "EXPLOITATION", "duree": "00:20:47", "horodatage": "2022-06-18 16:56:06", "statut": "start", "marker-color": "#ff0000"}}, {"type": "Feature", "geometry": {"type": "Point", "coordinates": [2.200007, 48.887161]}, "properties": {"alarme": "VEHICULE DELOCALISE", "numparc": 8938, "type": "EXPLOITATION", "duree": "00:00:54", "horodatage": "2022-06-18 19:25:28", "statut": "start", "marker-color": "#ff0000"}}, {"type": "Feature", "geometry": {"type": "Point", "coordinates": [2.197683, 48.887707]}, "properties": {"alarme": "VEHICULE DELOCALISE", "numparc": 8958, "type": "EXPLOITATION", "duree": "00:17:25", "horodatage": "2022-06-18 23:52:19", "statut": "start", "marker-color": "#ff0000"}}, {"type": "Feature", "geometry": {"type": "Point", "coordinates": [2.199378, 48.887272]}, "properties": {"alarme": "VEHICULE DELOCALISE", "numparc": 8958, "type": "EXPLOITATION", "duree": "00:00:21", "horodatage": "2022-06-19 00:19:07", "statut": "start", "marker-color": "#ff0000"}}, {"type": "Feature", "geometry": {"type": "Point", "coordinates": [2.19999, 48.887062]}, "properties": {"alarme": "VEHICULE DELOCALISE", "numparc": 8958, "type": "EXPLOITATION", "duree": "00:02:19", "horodatage": "2022-06-19 00:33:28", "statut": "start", "marker-color": "#ff0000"}}, {"type": "Feature", "geometry": {"type": "Point", "coordinates": [2.283935, 48.931141]}, "properties": {"alarme": "VEHICULE DELOCALISE", "numparc": 8956, "type": "EXPLOITATION", "duree": "00:17:40", "horodatage": "2022-06-19 01:44:29", "statut": "start", "marker-color": "#ff0000"}}, {"type": "Feature", "geometry": {"type": "Point", "coordinates": [2.282913, 48.929878]}, "properties": {"alarme": "VEHICULE DELOCALISE", "numparc": 8942, "type": "EXPLOITATION", "duree": "00:15:02", "horodatage": "2022-06-18 11:17:28", "statut": "end", "marker-color": "#2fe184"}}, {"type": "Feature", "geometry": {"type": "Point", "coordinates": [2.274315, 48.927158]}, "properties": {"alarme": "VEHICULE DELOCALISE", "numparc": 8955, "type": "EXPLOITATION", "duree": "00:08:37", "horodatage": "2022-06-18 11:39:08", "statut": "end", "marker-color": "#2fe184"}}, {"type": "Feature", "geometry": {"type": "Point", "coordinates": [2.248621, 48.932571]}, "properties": {"alarme": "VEHICULE DELOCALISE", "numparc": 8949, "type": "EXPLOITATION", "duree": "00:03:21", "horodatage": "2022-06-18 15:28:08", "statut": "end", "marker-color": "#2fe184"}}, {"type": "Feature", "geometry": {"type": "Point", "coordinates": [2.283798, 48.930073]}, "properties": {"alarme": "VEHICULE DELOCALISE", "numparc": 8942, "type": "EXPLOITATION", "duree": "00:00:26", "horodatage": "2022-06-18 16:31:33", "statut": "end", "marker-color": "#2fe184"}}, {"type": "Feature", "geometry": {"type": "Point", "coordinates": [2.28389, 48.93005]}, "properties": {"alarme": "VEHICULE DELOCALISE", "numparc": 8942, "type": "EXPLOITATION", "duree": "00:01:45", "horodatage": "2022-06-18 16:35:33", "statut": "end", "marker-color": "#2fe184"}}, {"type": "Feature", "geometry": {"type": "Point", "coordinates": [2.282927, 48.92992]}, "properties": {"alarme": "VEHICULE DELOCALISE", "numparc": 8945, "type": "EXPLOITATION", "duree": "00:20:47", "horodatage": "2022-06-18 17:16:53", "statut": "end", "marker-color": "#2fe184"}}, {"type": "Feature", "geometry": {"type": "Point", "coordinates": [2.200284, 48.887482]}, "properties": {"alarme": "VEHICULE DELOCALISE", "numparc": 8938, "type": "EXPLOITATION", "duree": "00:00:54", "horodatage": "2022-06-18 19:26:22", "statut": "end", "marker-color": "#2fe184"}}, {"type": "Feature", "geometry": {"type": "Point", "coordinates": [2.197136, 48.897667]}, "properties": {"alarme": "VEHICULE DELOCALISE", "numparc": 8958, "type": "EXPLOITATION", "duree": "00:17:25", "horodatage": "2022-06-19 00:09:44", "statut": "end", "marker-color": "#2fe184"}}, {"type": "Feature", "geometry": {"type": "Point", "coordinates": [2.199469, 48.887268]}, "properties": {"alarme": "VEHICULE DELOCALISE", "numparc": 8958, "type": "EXPLOITATION", "duree": "00:00:21", "horodatage": "2022-06-19 00:19:28", "statut": "end", "marker-color": "#2fe184"}}, {"type": "Feature", "geometry": {"type": "Point", "coordinates": [2.207321, 48.891018]}, "properties": {"alarme": "VEHICULE DELOCALISE", "numparc": 8958, "type": "EXPLOITATION", "duree": "00:02:19", "horodatage": "2022-06-19 00:35:47", "statut": "end", "marker-color": "#2fe184"}}, {"type": "Feature", "geometry": {"type": "Point", "coordinates": [2.282911, 48.929844]}, "properties": {"alarme": "VEHICULE DELOCALISE", "numparc": 8956, "type": "EXPLOITATION", "duree": "00:17:40", "horodatage": "2022-06-19 02:02:09", "statut": "end", "marker-color": "#2fe184"}}]}