{"type": "FeatureCollection", "features": [{"type": "Feature", "geometry": {"type": "Point", "coordinates": [2.298548, 48.721764]}, "properties": {"etat de la localisation": "Delocalise", "numparc": 4841, "duree": "00:01:00", "horodatage": "2022-04-26 04:58:38", "marker-color": "#FF565E"}}, {"type": "Feature", "geometry": {"type": "Point", "coordinates": [2.296969, 48.721859]}, "properties": {"etat de la localisation": "Hors service", "numparc": 4841, "duree": "", "horodatage": "2022-04-26 04:59:38", "marker-color": "#707070"}}, {"type": "Feature", "geometry": {"type": "Point", "coordinates": [2.29773, 48.722317]}, "properties": {"etat de la localisation": "Delocalise", "numparc": 4840, "duree": "00:12:01", "horodatage": "2022-04-26 05:05:41", "marker-color": "#FF565E"}}, {"type": "Feature", "geometry": {"type": "Point", "coordinates": [2.298093, 48.721428]}, "properties": {"etat de la localisation": "Hors service", "numparc": 4845, "duree": "", "horodatage": "2022-04-26 05:06:11", "marker-color": "#707070"}}, {"type": "Feature", "geometry": {"type": "Point", "coordinates": [2.297084, 48.721951]}, "properties": {"etat de la localisation": "Hors service", "numparc": 4840, "duree": "", "horodatage": "2022-04-26 05:17:42", "marker-color": "#707070"}}, {"type": "Feature", "geometry": {"type": "Point", "coordinates": [2.320015, 48.702785]}, "properties": {"etat de la localisation": "Mission inconnue", "numparc": 4842, "duree": "", "horodatage": "2022-04-26 06:40:33", "marker-color": "#FF9F56"}}, {"type": "Feature", "geometry": {"type": "Point", "coordinates": [2.296721, 48.721573]}, "properties": {"etat de la localisation": "Hors service", "numparc": 4849, "duree": "", "horodatage": "2022-04-26 06:42:16", "marker-color": "#707070"}}, {"type": "Feature", "geometry": {"type": "Point", "coordinates": [2.297991, 48.721481]}, "properties": {"etat de la localisation": "Hors service", "numparc": 4841, "duree": "", "horodatage": "2022-04-26 11:51:36", "marker-color": "#707070"}}, {"type": "Feature", "geometry": {"type": "Point", "coordinates": [2.298039, 48.721554]}, "properties": {"etat de la localisation": "Hors service", "numparc": 4849, "duree": "", "horodatage": "2022-04-26 13:09:37", "marker-color": "#707070"}}, {"type": "Feature", "geometry": {"type": "Point", "coordinates": [2.297598, 48.721729]}, "properties": {"etat de la localisation": "Hors service", "numparc": 4849, "duree": "", "horodatage": "2022-04-26 13:13:53", "marker-color": "#707070"}}, {"type": "Feature", "geometry": {"type": "Point", "coordinates": [2.321806, 48.704098]}, "properties": {"etat de la localisation": "Delocalise", "numparc": 4843, "duree": "00:03:21", "horodatage": "2022-04-26 17:16:38", "marker-color": "#FF565E"}}, {"type": "Feature", "geometry": {"type": "Point", "coordinates": [2.382412, 48.690849]}, "properties": {"etat de la localisation": "Hors service", "numparc": 4843, "duree": "", "horodatage": "2022-04-26 18:06:42", "marker-color": "#707070"}}, {"type": "Feature", "geometry": {"type": "Point", "coordinates": [2.297827, 48.721554]}, "properties": {"etat de la localisation": "Hors service", "numparc": 4878, "duree": "", "horodatage": "2022-04-26 18:46:30", "marker-color": "#707070"}}, {"type": "Feature", "geometry": {"type": "Point", "coordinates": [2.29717, 48.721649]}, "properties": {"etat de la localisation": "Hors service", "numparc": 4843, "duree": "", "horodatage": "2022-04-26 19:19:39", "marker-color": "#707070"}}, {"type": "Feature", "geometry": {"type": "Point", "coordinates": [2.299083, 48.722694]}, "properties": {"etat de la localisation": "Hors service", "numparc": 4854, "duree": "", "horodatage": "2022-04-26 19:47:14", "marker-color": "#707070"}}, {"type": "Feature", "geometry": {"type": "Point", "coordinates": [2.29836, 48.722099]}, "properties": {"etat de la localisation": "Hors service", "numparc": 4840, "duree": "", "horodatage": "2022-04-26 20:43:35", "marker-color": "#707070"}}, {"type": "Feature", "geometry": {"type": "Point", "coordinates": [2.297962, 48.72184]}, "properties": {"etat de la localisation": "Hors service", "numparc": 4891, "duree": "", "horodatage": "2022-04-26 21:26:12", "marker-color": "#707070"}}, {"type": "Feature", "geometry": {"type": "Point", "coordinates": [2.297993, 48.721626]}, "properties": {"etat de la localisation": "Hors service", "numparc": 4845, "duree": "", "horodatage": "2022-04-26 21:54:10", "marker-color": "#707070"}}, {"type": "Feature", "geometry": {"type": "Point", "coordinates": [2.29689, 48.721046]}, "properties": {"etat de la localisation": "Hors service", "numparc": 4841, "duree": "", "horodatage": "2022-04-26 22:29:58", "marker-color": "#707070"}}, {"type": "Feature", "geometry": {"type": "Point", "coordinates": [2.298548, 48.72176]}, "properties": {"etat de la localisation": "Mission inconnue", "numparc": 4844, "duree": "", "horodatage": "2022-04-27 00:57:26", "marker-color": "#FF9F56"}}, {"type": "Feature", "geometry": {"type": "Point", "coordinates": [2.297147, 48.721413]}, "properties": {"etat de la localisation": "Hors service", "numparc": 4853, "duree": "", "horodatage": "2022-04-27 00:58:27", "marker-color": "#707070"}}, {"type": "Feature", "geometry": {"type": "Point", "coordinates": [2.298548, 48.72176]}, "properties": {"etat de la localisation": "Hors service", "numparc": 4844, "duree": "", "horodatage": "2022-04-27 01:12:31", "marker-color": "#707070"}}, {"type": "Feature", "geometry": {"type": "Point", "coordinates": [2.297683, 48.722008]}, "properties": {"etat de la localisation": "Hors service", "numparc": 4842, "duree": "", "horodatage": "2022-04-27 01:20:58", "marker-color": "#707070"}}]}