{"type": "FeatureCollection", "features": [{"type": "Feature", "geometry": {"type": "Point", "coordinates": [2.406938, 48.849693]}, "properties": {"etat de la localisation": "Mission inconnue", "numparc": 615, "duree": "", "horodatage": "2021-09-03 05:45:21", "marker-color": "#FF9F56"}}, {"type": "Feature", "geometry": {"type": "Point", "coordinates": [2.406938, 48.849693]}, "properties": {"etat de la localisation": "Delocalise", "numparc": 615, "duree": "00:30:20", "horodatage": "2021-09-03 05:55:01", "marker-color": "#FF565E"}}, {"type": "Feature", "geometry": {"type": "Point", "coordinates": [2.406653, 48.849258]}, "properties": {"etat de la localisation": "Mission inconnue", "numparc": 611, "duree": "", "horodatage": "2021-09-03 06:21:16", "marker-color": "#FF9F56"}}, {"type": "Feature", "geometry": {"type": "Point", "coordinates": [2.407053, 48.848949]}, "properties": {"etat de la localisation": "Delocalise", "numparc": 608, "duree": "00:08:20", "horodatage": "2021-09-03 06:40:40", "marker-color": "#FF565E"}}, {"type": "Feature", "geometry": {"type": "Point", "coordinates": [2.407192, 48.849434]}, "properties": {"etat de la localisation": "Mission inconnue", "numparc": 604, "duree": "", "horodatage": "2021-09-03 06:49:00", "marker-color": "#FF9F56"}}, {"type": "Feature", "geometry": {"type": "Point", "coordinates": [2.408368, 48.850227]}, "properties": {"etat de la localisation": "Delocalise", "numparc": 671, "duree": "00:07:46", "horodatage": "2021-09-03 06:53:53", "marker-color": "#FF565E"}}, {"type": "Feature", "geometry": {"type": "Point", "coordinates": [2.407397, 48.849751]}, "properties": {"etat de la localisation": "Mission inconnue", "numparc": 606, "duree": "", "horodatage": "2021-09-03 07:32:16", "marker-color": "#FF9F56"}}, {"type": "Feature", "geometry": {"type": "Point", "coordinates": [2.407397, 48.849751]}, "properties": {"etat de la localisation": "Hors service", "numparc": 606, "duree": "", "horodatage": "2021-09-03 07:51:37", "marker-color": "#707070"}}, {"type": "Feature", "geometry": {"type": "Point", "coordinates": [2.407397, 48.849751]}, "properties": {"etat de la localisation": "Hors service", "numparc": 606, "duree": "", "horodatage": "2021-09-03 08:28:27", "marker-color": "#707070"}}, {"type": "Feature", "geometry": {"type": "Point", "coordinates": [2.349265, 48.86343]}, "properties": {"etat de la localisation": "Delocalise", "numparc": 619, "duree": "00:01:46", "horodatage": "2021-09-03 09:00:55", "marker-color": "#FF565E"}}, {"type": "Feature", "geometry": {"type": "Point", "coordinates": [2.372977, 48.848469]}, "properties": {"etat de la localisation": "Mission inconnue", "numparc": 610, "duree": "", "horodatage": "2021-09-03 09:02:14", "marker-color": "#FF9F56"}}, {"type": "Feature", "geometry": {"type": "Point", "coordinates": [2.345348, 48.864269]}, "properties": {"etat de la localisation": "Delocalise", "numparc": 615, "duree": "00:00:46", "horodatage": "2021-09-03 09:06:34", "marker-color": "#FF565E"}}, {"type": "Feature", "geometry": {"type": "Point", "coordinates": [2.39648, 48.843765]}, "properties": {"etat de la localisation": "Delocalise", "numparc": 615, "duree": "00:00:37", "horodatage": "2021-09-03 09:38:15", "marker-color": "#FF565E"}}, {"type": "Feature", "geometry": {"type": "Point", "coordinates": [2.412215, 48.841084]}, "properties": {"etat de la localisation": "Hors service", "numparc": 619, "duree": "", "horodatage": "2021-09-03 09:58:28", "marker-color": "#707070"}}, {"type": "Feature", "geometry": {"type": "Point", "coordinates": [2.396364, 48.843685]}, "properties": {"etat de la localisation": "Delocalise", "numparc": 598, "duree": "00:02:26", "horodatage": "2021-09-03 10:04:27", "marker-color": "#FF565E"}}, {"type": "Feature", "geometry": {"type": "Point", "coordinates": [2.352797, 48.860004]}, "properties": {"etat de la localisation": "Delocalise", "numparc": 610, "duree": "00:15:33", "horodatage": "2021-09-03 10:10:01", "marker-color": "#FF565E"}}, {"type": "Feature", "geometry": {"type": "Point", "coordinates": [2.39632, 48.843651]}, "properties": {"etat de la localisation": "Delocalise", "numparc": 612, "duree": "00:01:15", "horodatage": "2021-09-03 10:13:15", "marker-color": "#FF565E"}}, {"type": "Feature", "geometry": {"type": "Point", "coordinates": [2.408132, 48.849247]}, "properties": {"etat de la localisation": "Hors service", "numparc": 600, "duree": "", "horodatage": "2021-09-03 10:27:11", "marker-color": "#707070"}}, {"type": "Feature", "geometry": {"type": "Point", "coordinates": [2.407608, 48.84906]}, "properties": {"etat de la localisation": "Hors service", "numparc": 604, "duree": "", "horodatage": "2021-09-03 10:49:36", "marker-color": "#707070"}}, {"type": "Feature", "geometry": {"type": "Point", "coordinates": [2.407595, 48.849388]}, "properties": {"etat de la localisation": "Hors service", "numparc": 604, "duree": "", "horodatage": "2021-09-03 10:50:39", "marker-color": "#707070"}}, {"type": "Feature", "geometry": {"type": "Point", "coordinates": [2.408273, 48.849506]}, "properties": {"etat de la localisation": "Hors service", "numparc": 606, "duree": "", "horodatage": "2021-09-03 11:20:38", "marker-color": "#707070"}}, {"type": "Feature", "geometry": {"type": "Point", "coordinates": [2.345406, 48.864288]}, "properties": {"etat de la localisation": "Delocalise", "numparc": 619, "duree": "00:00:39", "horodatage": "2021-09-03 11:25:31", "marker-color": "#FF565E"}}, {"type": "Feature", "geometry": {"type": "Point", "coordinates": [2.349297, 48.86343]}, "properties": {"etat de la localisation": "Delocalise", "numparc": 611, "duree": "00:00:51", "horodatage": "2021-09-03 12:06:53", "marker-color": "#FF565E"}}, {"type": "Feature", "geometry": {"type": "Point", "coordinates": [2.399251, 48.840408]}, "properties": {"etat de la localisation": "Delocalise", "numparc": 615, "duree": "00:01:40", "horodatage": "2021-09-03 12:14:50", "marker-color": "#FF565E"}}, {"type": "Feature", "geometry": {"type": "Point", "coordinates": [2.396604, 48.84388]}, "properties": {"etat de la localisation": "Mission inconnue", "numparc": 615, "duree": "", "horodatage": "2021-09-03 12:16:30", "marker-color": "#FF9F56"}}, {"type": "Feature", "geometry": {"type": "Point", "coordinates": [2.407988, 48.84959]}, "properties": {"etat de la localisation": "Hors service", "numparc": 615, "duree": "", "horodatage": "2021-09-03 12:32:32", "marker-color": "#707070"}}, {"type": "Feature", "geometry": {"type": "Point", "coordinates": [2.324821, 48.875004]}, "properties": {"etat de la localisation": "Mission suivante non connue", "numparc": 616, "duree": "", "horodatage": "2021-09-03 12:48:52", "marker-color": "#7156FF"}}, {"type": "Feature", "geometry": {"type": "Point", "coordinates": [2.324805, 48.875164]}, "properties": {"etat de la localisation": "Mission suivante non connue", "numparc": 616, "duree": "", "horodatage": "2021-09-03 12:50:41", "marker-color": "#7156FF"}}, {"type": "Feature", "geometry": {"type": "Point", "coordinates": [2.324805, 48.875164]}, "properties": {"etat de la localisation": "Mission inconnue", "numparc": 616, "duree": "", "horodatage": "2021-09-03 12:51:03", "marker-color": "#FF9F56"}}, {"type": "Feature", "geometry": {"type": "Point", "coordinates": [2.326383, 48.875385]}, "properties": {"etat de la localisation": "Mission inconnue", "numparc": 616, "duree": "", "horodatage": "2021-09-03 13:08:39", "marker-color": "#FF9F56"}}, {"type": "Feature", "geometry": {"type": "Point", "coordinates": [2.408273, 48.849506]}, "properties": {"etat de la localisation": "Mission inconnue", "numparc": 606, "duree": "", "horodatage": "2021-09-03 13:59:51", "marker-color": "#FF9F56"}}, {"type": "Feature", "geometry": {"type": "Point", "coordinates": [2.407437, 48.849552]}, "properties": {"etat de la localisation": "Mission inconnue", "numparc": 616, "duree": "", "horodatage": "2021-09-03 14:04:13", "marker-color": "#FF9F56"}}, {"type": "Feature", "geometry": {"type": "Point", "coordinates": [2.407331, 48.850357]}, "properties": {"etat de la localisation": "Hors service", "numparc": 616, "duree": "", "horodatage": "2021-09-03 14:09:17", "marker-color": "#707070"}}, {"type": "Feature", "geometry": {"type": "Point", "coordinates": [2.352844, 48.860302]}, "properties": {"etat de la localisation": "Delocalise", "numparc": 682, "duree": "00:16:12", "horodatage": "2021-09-03 14:11:18", "marker-color": "#FF565E"}}, {"type": "Feature", "geometry": {"type": "Point", "coordinates": [2.404611, 48.84454]}, "properties": {"etat de la localisation": "Delocalise", "numparc": 598, "duree": "00:00:59", "horodatage": "2021-09-03 15:10:22", "marker-color": "#FF565E"}}, {"type": "Feature", "geometry": {"type": "Point", "coordinates": [2.411942, 48.841049]}, "properties": {"etat de la localisation": "Mission suivante non connue", "numparc": 612, "duree": "", "horodatage": "2021-09-03 15:14:47", "marker-color": "#7156FF"}}, {"type": "Feature", "geometry": {"type": "Point", "coordinates": [2.411942, 48.841049]}, "properties": {"etat de la localisation": "Mission inconnue", "numparc": 612, "duree": "", "horodatage": "2021-09-03 15:15:14", "marker-color": "#FF9F56"}}, {"type": "Feature", "geometry": {"type": "Point", "coordinates": [2.369585, 48.852356]}, "properties": {"etat de la localisation": "Mission inconnue", "numparc": 606, "duree": "", "horodatage": "2021-09-03 15:15:19", "marker-color": "#FF9F56"}}, {"type": "Feature", "geometry": {"type": "Point", "coordinates": [2.407165, 48.850132]}, "properties": {"etat de la localisation": "Mission inconnue", "numparc": 616, "duree": "", "horodatage": "2021-09-03 15:32:23", "marker-color": "#FF9F56"}}, {"type": "Feature", "geometry": {"type": "Point", "coordinates": [2.324973, 48.875336]}, "properties": {"etat de la localisation": "Mission suivante non connue", "numparc": 606, "duree": "", "horodatage": "2021-09-03 15:46:32", "marker-color": "#7156FF"}}, {"type": "Feature", "geometry": {"type": "Point", "coordinates": [2.3765, 48.846931]}, "properties": {"etat de la localisation": "Delocalise", "numparc": 616, "duree": "00:20:28", "horodatage": "2021-09-03 15:48:27", "marker-color": "#FF565E"}}, {"type": "Feature", "geometry": {"type": "Point", "coordinates": [2.377051, 48.846539]}, "properties": {"etat de la localisation": "Mission inconnue", "numparc": 612, "duree": "", "horodatage": "2021-09-03 15:52:55", "marker-color": "#FF9F56"}}, {"type": "Feature", "geometry": {"type": "Point", "coordinates": [2.329777, 48.872326]}, "properties": {"etat de la localisation": "Deviation programmee", "numparc": 619, "duree": "", "horodatage": "2021-09-03 15:52:55", "marker-color": "#56FF93"}}, {"type": "Feature", "geometry": {"type": "Point", "coordinates": [2.327948, 48.873329]}, "properties": {"etat de la localisation": "Delocalise", "numparc": 619, "duree": "00:00:00", "horodatage": "2021-09-03 15:55:08", "marker-color": "#FF565E"}}, {"type": "Feature", "geometry": {"type": "Point", "coordinates": [2.32486, 48.874851]}, "properties": {"etat de la localisation": "Mission suivante non connue", "numparc": 619, "duree": "", "horodatage": "2021-09-03 15:58:00", "marker-color": "#7156FF"}}, {"type": "Feature", "geometry": {"type": "Point", "coordinates": [2.40797, 48.849579]}, "properties": {"etat de la localisation": "Mission inconnue", "numparc": 615, "duree": "", "horodatage": "2021-09-03 16:00:45", "marker-color": "#FF9F56"}}, {"type": "Feature", "geometry": {"type": "Point", "coordinates": [2.324763, 48.875122]}, "properties": {"etat de la localisation": "Mission suivante non connue", "numparc": 619, "duree": "", "horodatage": "2021-09-03 16:02:07", "marker-color": "#7156FF"}}, {"type": "Feature", "geometry": {"type": "Point", "coordinates": [2.40797, 48.849579]}, "properties": {"etat de la localisation": "Delocalise", "numparc": 615, "duree": "00:06:24", "horodatage": "2021-09-03 16:09:39", "marker-color": "#FF565E"}}, {"type": "Feature", "geometry": {"type": "Point", "coordinates": [2.407636, 48.849339]}, "properties": {"etat de la localisation": "Hors service", "numparc": 612, "duree": "", "horodatage": "2021-09-03 16:16:46", "marker-color": "#707070"}}, {"type": "Feature", "geometry": {"type": "Point", "coordinates": [2.410737, 48.845863]}, "properties": {"etat de la localisation": "Delocalise", "numparc": 616, "duree": "00:06:51", "horodatage": "2021-09-03 16:28:38", "marker-color": "#FF565E"}}, {"type": "Feature", "geometry": {"type": "Point", "coordinates": [2.408199, 48.849236]}, "properties": {"etat de la localisation": "Mission inconnue", "numparc": 600, "duree": "", "horodatage": "2021-09-03 16:39:37", "marker-color": "#FF9F56"}}, {"type": "Feature", "geometry": {"type": "Point", "coordinates": [2.40758, 48.849358]}, "properties": {"etat de la localisation": "Hors service", "numparc": 682, "duree": "", "horodatage": "2021-09-03 17:31:11", "marker-color": "#707070"}}, {"type": "Feature", "geometry": {"type": "Point", "coordinates": [2.407482, 48.849396]}, "properties": {"etat de la localisation": "Hors service", "numparc": 608, "duree": "", "horodatage": "2021-09-03 18:50:55", "marker-color": "#707070"}}, {"type": "Feature", "geometry": {"type": "Point", "coordinates": [2.368331, 48.855793]}, "properties": {"etat de la localisation": "Mission inconnue", "numparc": 604, "duree": "", "horodatage": "2021-09-03 18:56:18", "marker-color": "#FF9F56"}}, {"type": "Feature", "geometry": {"type": "Point", "coordinates": [2.324849, 48.875275]}, "properties": {"etat de la localisation": "Mission suivante non connue", "numparc": 611, "duree": "", "horodatage": "2021-09-03 19:17:57", "marker-color": "#7156FF"}}, {"type": "Feature", "geometry": {"type": "Point", "coordinates": [2.324849, 48.875275]}, "properties": {"etat de la localisation": "Mission inconnue", "numparc": 611, "duree": "", "horodatage": "2021-09-03 19:18:23", "marker-color": "#FF9F56"}}, {"type": "Feature", "geometry": {"type": "Point", "coordinates": [2.370609, 48.850006]}, "properties": {"etat de la localisation": "Mission inconnue", "numparc": 604, "duree": "", "horodatage": "2021-09-03 19:24:32", "marker-color": "#FF9F56"}}, {"type": "Feature", "geometry": {"type": "Point", "coordinates": [2.324828, 48.875183]}, "properties": {"etat de la localisation": "Mission suivante non connue", "numparc": 604, "duree": "", "horodatage": "2021-09-03 19:55:14", "marker-color": "#7156FF"}}, {"type": "Feature", "geometry": {"type": "Point", "coordinates": [2.40743, 48.849533]}, "properties": {"etat de la localisation": "Hors service", "numparc": 606, "duree": "", "horodatage": "2021-09-03 20:06:06", "marker-color": "#707070"}}, {"type": "Feature", "geometry": {"type": "Point", "coordinates": [2.40743, 48.849358]}, "properties": {"etat de la localisation": "Hors service", "numparc": 619, "duree": "", "horodatage": "2021-09-03 20:12:13", "marker-color": "#707070"}}, {"type": "Feature", "geometry": {"type": "Point", "coordinates": [2.406938, 48.850208]}, "properties": {"etat de la localisation": "Mission inconnue", "numparc": 608, "duree": "", "horodatage": "2021-09-03 20:12:44", "marker-color": "#FF9F56"}}, {"type": "Feature", "geometry": {"type": "Point", "coordinates": [2.407484, 48.849358]}, "properties": {"etat de la localisation": "Hors service", "numparc": 607, "duree": "", "horodatage": "2021-09-03 20:14:36", "marker-color": "#707070"}}, {"type": "Feature", "geometry": {"type": "Point", "coordinates": [2.406938, 48.850208]}, "properties": {"etat de la localisation": "Hors service", "numparc": 608, "duree": "", "horodatage": "2021-09-03 20:14:56", "marker-color": "#707070"}}, {"type": "Feature", "geometry": {"type": "Point", "coordinates": [2.41191, 48.841]}, "properties": {"etat de la localisation": "Mission suivante non connue", "numparc": 611, "duree": "", "horodatage": "2021-09-03 20:33:37", "marker-color": "#7156FF"}}, {"type": "Feature", "geometry": {"type": "Point", "coordinates": [2.407533, 48.849091]}, "properties": {"etat de la localisation": "Hors service", "numparc": 605, "duree": "", "horodatage": "2021-09-03 20:34:39", "marker-color": "#707070"}}, {"type": "Feature", "geometry": {"type": "Point", "coordinates": [2.407532, 48.849499]}, "properties": {"etat de la localisation": "Hors service", "numparc": 613, "duree": "", "horodatage": "2021-09-03 20:49:38", "marker-color": "#707070"}}, {"type": "Feature", "geometry": {"type": "Point", "coordinates": [2.407623, 48.849472]}, "properties": {"etat de la localisation": "Hors service", "numparc": 610, "duree": "", "horodatage": "2021-09-03 21:00:08", "marker-color": "#707070"}}, {"type": "Feature", "geometry": {"type": "Point", "coordinates": [2.412065, 48.841045]}, "properties": {"etat de la localisation": "Mission suivante non connue", "numparc": 604, "duree": "", "horodatage": "2021-09-03 21:02:08", "marker-color": "#7156FF"}}, {"type": "Feature", "geometry": {"type": "Point", "coordinates": [2.347905, 48.864162]}, "properties": {"etat de la localisation": "Mission inconnue", "numparc": 611, "duree": "", "horodatage": "2021-09-03 21:14:36", "marker-color": "#FF9F56"}}, {"type": "Feature", "geometry": {"type": "Point", "coordinates": [2.407472, 48.849495]}, "properties": {"etat de la localisation": "Hors service", "numparc": 671, "duree": "", "horodatage": "2021-09-03 21:21:27", "marker-color": "#707070"}}, {"type": "Feature", "geometry": {"type": "Point", "coordinates": [2.328795, 48.872894]}, "properties": {"etat de la localisation": "Delocalise", "numparc": 611, "duree": "00:01:01", "horodatage": "2021-09-03 21:23:44", "marker-color": "#FF565E"}}, {"type": "Feature", "geometry": {"type": "Point", "coordinates": [2.326816, 48.873905]}, "properties": {"etat de la localisation": "Delocalise", "numparc": 611, "duree": "00:00:45", "horodatage": "2021-09-03 21:26:09", "marker-color": "#FF565E"}}, {"type": "Feature", "geometry": {"type": "Point", "coordinates": [2.407464, 48.849487]}, "properties": {"etat de la localisation": "Hors service", "numparc": 598, "duree": "", "horodatage": "2021-09-03 22:18:35", "marker-color": "#707070"}}, {"type": "Feature", "geometry": {"type": "Point", "coordinates": [2.407582, 48.849495]}, "properties": {"etat de la localisation": "Hors service", "numparc": 611, "duree": "", "horodatage": "2021-09-03 22:42:39", "marker-color": "#707070"}}, {"type": "Feature", "geometry": {"type": "Point", "coordinates": [2.40748, 48.849449]}, "properties": {"etat de la localisation": "Hors service", "numparc": 616, "duree": "", "horodatage": "2021-09-03 22:48:38", "marker-color": "#707070"}}, {"type": "Feature", "geometry": {"type": "Point", "coordinates": [2.407504, 48.849506]}, "properties": {"etat de la localisation": "Hors service", "numparc": 615, "duree": "", "horodatage": "2021-09-03 22:56:48", "marker-color": "#707070"}}, {"type": "Feature", "geometry": {"type": "Point", "coordinates": [2.405728, 48.845478]}, "properties": {"etat de la localisation": "Delocalise", "numparc": 600, "duree": "00:00:32", "horodatage": "2021-09-03 23:26:49", "marker-color": "#FF565E"}}, {"type": "Feature", "geometry": {"type": "Point", "coordinates": [2.407524, 48.849342]}, "properties": {"etat de la localisation": "Hors service", "numparc": 600, "duree": "", "horodatage": "2021-09-03 23:29:07", "marker-color": "#707070"}}, {"type": "Feature", "geometry": {"type": "Point", "coordinates": [2.40739, 48.849529]}, "properties": {"etat de la localisation": "Hors service", "numparc": 604, "duree": "", "horodatage": "2021-09-03 23:31:34", "marker-color": "#707070"}}]}