{"type": "FeatureCollection", "features": [{"type": "Feature", "geometry": {"type": "Point", "coordinates": [2.387706, 48.754772]}, "properties": {"etat de la localisation": "Delocalise", "numparc": 6922, "duree": "00:24:37", "horodatage": "2022-01-15 05:06:02", "marker-color": "#FF565E"}}, {"type": "Feature", "geometry": {"type": "Point", "coordinates": [2.387856, 48.754814]}, "properties": {"etat de la localisation": "Delocalise", "numparc": 6915, "duree": "00:21:27", "horodatage": "2022-01-15 05:21:16", "marker-color": "#FF565E"}}, {"type": "Feature", "geometry": {"type": "Point", "coordinates": [2.387717, 48.754353]}, "properties": {"etat de la localisation": "Delocalise", "numparc": 6909, "duree": "00:08:39", "horodatage": "2022-01-15 05:27:18", "marker-color": "#FF565E"}}, {"type": "Feature", "geometry": {"type": "Point", "coordinates": [2.325273, 48.822102]}, "properties": {"etat de la localisation": "Mission suivante non connue", "numparc": 6909, "duree": "", "horodatage": "2022-01-15 05:58:24", "marker-color": "#7156FF"}}, {"type": "Feature", "geometry": {"type": "Point", "coordinates": [2.324662, 48.822292]}, "properties": {"etat de la localisation": "Hors service", "numparc": 6922, "duree": "", "horodatage": "2022-01-15 06:38:49", "marker-color": "#707070"}}, {"type": "Feature", "geometry": {"type": "Point", "coordinates": [2.387823, 48.754982]}, "properties": {"etat de la localisation": "Delocalise", "numparc": 6913, "duree": "00:24:29", "horodatage": "2022-01-15 06:50:28", "marker-color": "#FF565E"}}, {"type": "Feature", "geometry": {"type": "Point", "coordinates": [2.324683, 48.822243]}, "properties": {"etat de la localisation": "Hors service", "numparc": 6915, "duree": "", "horodatage": "2022-01-15 06:51:48", "marker-color": "#707070"}}, {"type": "Feature", "geometry": {"type": "Point", "coordinates": [2.387792, 48.754025]}, "properties": {"etat de la localisation": "Delocalise", "numparc": 6916, "duree": "00:14:47", "horodatage": "2022-01-15 06:57:58", "marker-color": "#FF565E"}}, {"type": "Feature", "geometry": {"type": "Point", "coordinates": [2.324708, 48.822296]}, "properties": {"etat de la localisation": "Hors service", "numparc": 6909, "duree": "", "horodatage": "2022-01-15 07:12:48", "marker-color": "#707070"}}, {"type": "Feature", "geometry": {"type": "Point", "coordinates": [2.324712, 48.822285]}, "properties": {"etat de la localisation": "Hors service", "numparc": 6916, "duree": "", "horodatage": "2022-01-15 07:56:30", "marker-color": "#707070"}}, {"type": "Feature", "geometry": {"type": "Point", "coordinates": [2.324732, 48.822258]}, "properties": {"etat de la localisation": "Hors service", "numparc": 6922, "duree": "", "horodatage": "2022-01-15 08:04:31", "marker-color": "#707070"}}, {"type": "Feature", "geometry": {"type": "Point", "coordinates": [2.324728, 48.822292]}, "properties": {"etat de la localisation": "Hors service", "numparc": 6915, "duree": "", "horodatage": "2022-01-15 08:16:26", "marker-color": "#707070"}}, {"type": "Feature", "geometry": {"type": "Point", "coordinates": [2.387849, 48.753815]}, "properties": {"etat de la localisation": "Delocalise", "numparc": 6906, "duree": "00:24:17", "horodatage": "2022-01-15 08:19:10", "marker-color": "#FF565E"}}, {"type": "Feature", "geometry": {"type": "Point", "coordinates": [2.324778, 48.822254]}, "properties": {"etat de la localisation": "Hors service", "numparc": 6909, "duree": "", "horodatage": "2022-01-15 08:47:07", "marker-color": "#707070"}}, {"type": "Feature", "geometry": {"type": "Point", "coordinates": [2.324796, 48.822247]}, "properties": {"etat de la localisation": "Hors service", "numparc": 6916, "duree": "", "horodatage": "2022-01-15 09:17:49", "marker-color": "#707070"}}, {"type": "Feature", "geometry": {"type": "Point", "coordinates": [2.324683, 48.822262]}, "properties": {"etat de la localisation": "Hors service", "numparc": 6922, "duree": "", "horodatage": "2022-01-15 09:27:24", "marker-color": "#707070"}}, {"type": "Feature", "geometry": {"type": "Point", "coordinates": [2.324697, 48.8223]}, "properties": {"etat de la localisation": "Hors service", "numparc": 6915, "duree": "", "horodatage": "2022-01-15 09:40:21", "marker-color": "#707070"}}, {"type": "Feature", "geometry": {"type": "Point", "coordinates": [2.324665, 48.822247]}, "properties": {"etat de la localisation": "Hors service", "numparc": 6913, "duree": "", "horodatage": "2022-01-15 09:55:14", "marker-color": "#707070"}}, {"type": "Feature", "geometry": {"type": "Point", "coordinates": [2.324756, 48.822281]}, "properties": {"etat de la localisation": "Hors service", "numparc": 6906, "duree": "", "horodatage": "2022-01-15 10:07:09", "marker-color": "#707070"}}, {"type": "Feature", "geometry": {"type": "Point", "coordinates": [2.324764, 48.822289]}, "properties": {"etat de la localisation": "Hors service", "numparc": 6909, "duree": "", "horodatage": "2022-01-15 10:23:06", "marker-color": "#707070"}}, {"type": "Feature", "geometry": {"type": "Point", "coordinates": [2.324754, 48.822266]}, "properties": {"etat de la localisation": "Hors service", "numparc": 6916, "duree": "", "horodatage": "2022-01-15 10:52:40", "marker-color": "#707070"}}, {"type": "Feature", "geometry": {"type": "Point", "coordinates": [2.324697, 48.822254]}, "properties": {"etat de la localisation": "Hors service", "numparc": 6922, "duree": "", "horodatage": "2022-01-15 11:02:02", "marker-color": "#707070"}}, {"type": "Feature", "geometry": {"type": "Point", "coordinates": [2.324788, 48.822269]}, "properties": {"etat de la localisation": "Hors service", "numparc": 6915, "duree": "", "horodatage": "2022-01-15 11:13:58", "marker-color": "#707070"}}, {"type": "Feature", "geometry": {"type": "Point", "coordinates": [2.324747, 48.822254]}, "properties": {"etat de la localisation": "Hors service", "numparc": 6913, "duree": "", "horodatage": "2022-01-15 11:27:24", "marker-color": "#707070"}}, {"type": "Feature", "geometry": {"type": "Point", "coordinates": [2.324692, 48.8223]}, "properties": {"etat de la localisation": "Hors service", "numparc": 6909, "duree": "", "horodatage": "2022-01-15 11:52:42", "marker-color": "#707070"}}, {"type": "Feature", "geometry": {"type": "Point", "coordinates": [2.324723, 48.822254]}, "properties": {"etat de la localisation": "Hors service", "numparc": 6916, "duree": "", "horodatage": "2022-01-15 12:26:02", "marker-color": "#707070"}}, {"type": "Feature", "geometry": {"type": "Point", "coordinates": [2.324726, 48.822266]}, "properties": {"etat de la localisation": "Hors service", "numparc": 6922, "duree": "", "horodatage": "2022-01-15 12:50:06", "marker-color": "#707070"}}, {"type": "Feature", "geometry": {"type": "Point", "coordinates": [2.324769, 48.822273]}, "properties": {"etat de la localisation": "Hors service", "numparc": 6915, "duree": "", "horodatage": "2022-01-15 12:54:00", "marker-color": "#707070"}}, {"type": "Feature", "geometry": {"type": "Point", "coordinates": [2.324729, 48.822266]}, "properties": {"etat de la localisation": "Hors service", "numparc": 6913, "duree": "", "horodatage": "2022-01-15 13:00:43", "marker-color": "#707070"}}, {"type": "Feature", "geometry": {"type": "Point", "coordinates": [2.324763, 48.822254]}, "properties": {"etat de la localisation": "Hors service", "numparc": 6906, "duree": "", "horodatage": "2022-01-15 13:18:01", "marker-color": "#707070"}}, {"type": "Feature", "geometry": {"type": "Point", "coordinates": [2.324745, 48.822266]}, "properties": {"etat de la localisation": "Hors service", "numparc": 6909, "duree": "", "horodatage": "2022-01-15 13:23:29", "marker-color": "#707070"}}, {"type": "Feature", "geometry": {"type": "Point", "coordinates": [2.328192, 48.761158]}, "properties": {"etat de la localisation": "Mission inconnue", "numparc": 6914, "duree": "", "horodatage": "2022-01-15 13:46:15", "marker-color": "#FF9F56"}}, {"type": "Feature", "geometry": {"type": "Point", "coordinates": [2.330038, 48.756664]}, "properties": {"etat de la localisation": "Delocalise", "numparc": 6922, "duree": "00:20:32", "horodatage": "2022-01-15 13:48:48", "marker-color": "#FF565E"}}, {"type": "Feature", "geometry": {"type": "Point", "coordinates": [2.324752, 48.822247]}, "properties": {"etat de la localisation": "Hors service", "numparc": 6916, "duree": "", "horodatage": "2022-01-15 14:00:41", "marker-color": "#707070"}}, {"type": "Feature", "geometry": {"type": "Point", "coordinates": [2.387468, 48.753963]}, "properties": {"etat de la localisation": "Hors service", "numparc": 6922, "duree": "", "horodatage": "2022-01-15 14:09:20", "marker-color": "#707070"}}, {"type": "Feature", "geometry": {"type": "Point", "coordinates": [2.32483, 48.822205]}, "properties": {"etat de la localisation": "Hors service", "numparc": 6914, "duree": "", "horodatage": "2022-01-15 14:31:22", "marker-color": "#707070"}}, {"type": "Feature", "geometry": {"type": "Point", "coordinates": [2.324854, 48.822227]}, "properties": {"etat de la localisation": "Hors service", "numparc": 6915, "duree": "", "horodatage": "2022-01-15 14:31:24", "marker-color": "#707070"}}, {"type": "Feature", "geometry": {"type": "Point", "coordinates": [2.326322, 48.810078]}, "properties": {"etat de la localisation": "Mission inconnue", "numparc": 6917, "duree": "", "horodatage": "2022-01-15 14:35:31", "marker-color": "#FF9F56"}}, {"type": "Feature", "geometry": {"type": "Point", "coordinates": [2.3247, 48.822262]}, "properties": {"etat de la localisation": "Hors service", "numparc": 6913, "duree": "", "horodatage": "2022-01-15 14:39:24", "marker-color": "#707070"}}, {"type": "Feature", "geometry": {"type": "Point", "coordinates": [2.324713, 48.822273]}, "properties": {"etat de la localisation": "Hors service", "numparc": 6906, "duree": "", "horodatage": "2022-01-15 15:00:47", "marker-color": "#707070"}}, {"type": "Feature", "geometry": {"type": "Point", "coordinates": [2.32474, 48.8223]}, "properties": {"etat de la localisation": "Hors service", "numparc": 6909, "duree": "", "horodatage": "2022-01-15 15:02:07", "marker-color": "#707070"}}, {"type": "Feature", "geometry": {"type": "Point", "coordinates": [2.324742, 48.822308]}, "properties": {"etat de la localisation": "Hors service", "numparc": 6910, "duree": "", "horodatage": "2022-01-15 15:29:58", "marker-color": "#707070"}}, {"type": "Feature", "geometry": {"type": "Point", "coordinates": [2.324803, 48.822243]}, "properties": {"etat de la localisation": "Hors service", "numparc": 6916, "duree": "", "horodatage": "2022-01-15 15:43:24", "marker-color": "#707070"}}, {"type": "Feature", "geometry": {"type": "Point", "coordinates": [2.324709, 48.822273]}, "properties": {"etat de la localisation": "Hors service", "numparc": 6917, "duree": "", "horodatage": "2022-01-15 15:59:29", "marker-color": "#707070"}}, {"type": "Feature", "geometry": {"type": "Point", "coordinates": [2.32476, 48.822289]}, "properties": {"etat de la localisation": "Hors service", "numparc": 6914, "duree": "", "horodatage": "2022-01-15 16:04:49", "marker-color": "#707070"}}, {"type": "Feature", "geometry": {"type": "Point", "coordinates": [2.324734, 48.822289]}, "properties": {"etat de la localisation": "Hors service", "numparc": 6915, "duree": "", "horodatage": "2022-01-15 16:14:04", "marker-color": "#707070"}}, {"type": "Feature", "geometry": {"type": "Point", "coordinates": [2.324702, 48.82225]}, "properties": {"etat de la localisation": "Hors service", "numparc": 6924, "duree": "", "horodatage": "2022-01-15 16:16:48", "marker-color": "#707070"}}, {"type": "Feature", "geometry": {"type": "Point", "coordinates": [2.324805, 48.822311]}, "properties": {"etat de la localisation": "Hors service", "numparc": 6913, "duree": "", "horodatage": "2022-01-15 16:27:17", "marker-color": "#707070"}}, {"type": "Feature", "geometry": {"type": "Point", "coordinates": [2.324716, 48.822266]}, "properties": {"etat de la localisation": "Hors service", "numparc": 6906, "duree": "", "horodatage": "2022-01-15 16:32:49", "marker-color": "#707070"}}, {"type": "Feature", "geometry": {"type": "Point", "coordinates": [2.324845, 48.822262]}, "properties": {"etat de la localisation": "Hors service", "numparc": 6909, "duree": "", "horodatage": "2022-01-15 16:40:39", "marker-color": "#707070"}}, {"type": "Feature", "geometry": {"type": "Point", "coordinates": [2.324722, 48.82225]}, "properties": {"etat de la localisation": "Hors service", "numparc": 6925, "duree": "", "horodatage": "2022-01-15 17:02:10", "marker-color": "#707070"}}, {"type": "Feature", "geometry": {"type": "Point", "coordinates": [2.324751, 48.822258]}, "properties": {"etat de la localisation": "Hors service", "numparc": 6910, "duree": "", "horodatage": "2022-01-15 17:04:50", "marker-color": "#707070"}}, {"type": "Feature", "geometry": {"type": "Point", "coordinates": [2.324705, 48.822266]}, "properties": {"etat de la localisation": "Hors service", "numparc": 6916, "duree": "", "horodatage": "2022-01-15 17:18:08", "marker-color": "#707070"}}, {"type": "Feature", "geometry": {"type": "Point", "coordinates": [2.324684, 48.822262]}, "properties": {"etat de la localisation": "Hors service", "numparc": 6917, "duree": "", "horodatage": "2022-01-15 17:30:08", "marker-color": "#707070"}}, {"type": "Feature", "geometry": {"type": "Point", "coordinates": [2.324797, 48.82225]}, "properties": {"etat de la localisation": "Hors service", "numparc": 6924, "duree": "", "horodatage": "2022-01-15 17:51:25", "marker-color": "#707070"}}, {"type": "Feature", "geometry": {"type": "Point", "coordinates": [2.324821, 48.822243]}, "properties": {"etat de la localisation": "Hors service", "numparc": 6913, "duree": "", "horodatage": "2022-01-15 18:02:08", "marker-color": "#707070"}}, {"type": "Feature", "geometry": {"type": "Point", "coordinates": [2.387446, 48.753998]}, "properties": {"etat de la localisation": "Hors service", "numparc": 6914, "duree": "", "horodatage": "2022-01-15 18:07:38", "marker-color": "#707070"}}, {"type": "Feature", "geometry": {"type": "Point", "coordinates": [2.324734, 48.822327]}, "properties": {"etat de la localisation": "Hors service", "numparc": 6906, "duree": "", "horodatage": "2022-01-15 18:15:26", "marker-color": "#707070"}}, {"type": "Feature", "geometry": {"type": "Point", "coordinates": [2.387422, 48.753914]}, "properties": {"etat de la localisation": "Hors service", "numparc": 6909, "duree": "", "horodatage": "2022-01-15 18:44:50", "marker-color": "#707070"}}, {"type": "Feature", "geometry": {"type": "Point", "coordinates": [2.324691, 48.822247]}, "properties": {"etat de la localisation": "Hors service", "numparc": 6925, "duree": "", "horodatage": "2022-01-15 18:46:10", "marker-color": "#707070"}}, {"type": "Feature", "geometry": {"type": "Point", "coordinates": [2.387839, 48.754044]}, "properties": {"etat de la localisation": "Mission inconnue", "numparc": 6931, "duree": "", "horodatage": "2022-01-15 19:05:03", "marker-color": "#FF9F56"}}, {"type": "Feature", "geometry": {"type": "Point", "coordinates": [2.324745, 48.822269]}, "properties": {"etat de la localisation": "Hors service", "numparc": 6915, "duree": "", "horodatage": "2022-01-15 19:10:09", "marker-color": "#707070"}}, {"type": "Feature", "geometry": {"type": "Point", "coordinates": [2.324704, 48.822289]}, "properties": {"etat de la localisation": "Hors service", "numparc": 6917, "duree": "", "horodatage": "2022-01-15 19:15:30", "marker-color": "#707070"}}, {"type": "Feature", "geometry": {"type": "Point", "coordinates": [2.38781, 48.754898]}, "properties": {"etat de la localisation": "Delocalise", "numparc": 6914, "duree": "00:03:08", "horodatage": "2022-01-15 19:37:28", "marker-color": "#FF565E"}}, {"type": "Feature", "geometry": {"type": "Point", "coordinates": [2.326462, 48.761276]}, "properties": {"etat de la localisation": "Mission suivante non connue", "numparc": 6910, "duree": "", "horodatage": "2022-01-15 19:39:27", "marker-color": "#7156FF"}}, {"type": "Feature", "geometry": {"type": "Point", "coordinates": [2.38781, 48.754898]}, "properties": {"etat de la localisation": "Mission inconnue", "numparc": 6914, "duree": "", "horodatage": "2022-01-15 19:40:36", "marker-color": "#FF9F56"}}, {"type": "Feature", "geometry": {"type": "Point", "coordinates": [2.387449, 48.75399]}, "properties": {"etat de la localisation": "Hors service", "numparc": 6913, "duree": "", "horodatage": "2022-01-15 19:45:09", "marker-color": "#707070"}}, {"type": "Feature", "geometry": {"type": "Point", "coordinates": [2.324733, 48.822285]}, "properties": {"etat de la localisation": "Hors service", "numparc": 6906, "duree": "", "horodatage": "2022-01-15 19:57:03", "marker-color": "#707070"}}, {"type": "Feature", "geometry": {"type": "Point", "coordinates": [2.324745, 48.822247]}, "properties": {"etat de la localisation": "Hors service", "numparc": 6931, "duree": "", "horodatage": "2022-01-15 20:04:50", "marker-color": "#707070"}}, {"type": "Feature", "geometry": {"type": "Point", "coordinates": [2.387823, 48.754112]}, "properties": {"etat de la localisation": "Hors service", "numparc": 6915, "duree": "", "horodatage": "2022-01-15 20:05:40", "marker-color": "#707070"}}, {"type": "Feature", "geometry": {"type": "Point", "coordinates": [2.387399, 48.753952]}, "properties": {"etat de la localisation": "Hors service", "numparc": 6916, "duree": "", "horodatage": "2022-01-15 20:09:52", "marker-color": "#707070"}}, {"type": "Feature", "geometry": {"type": "Point", "coordinates": [2.387465, 48.75396]}, "properties": {"etat de la localisation": "Hors service", "numparc": 6917, "duree": "", "horodatage": "2022-01-15 20:13:38", "marker-color": "#707070"}}, {"type": "Feature", "geometry": {"type": "Point", "coordinates": [2.324721, 48.822262]}, "properties": {"etat de la localisation": "Hors service", "numparc": 6925, "duree": "", "horodatage": "2022-01-15 20:19:38", "marker-color": "#707070"}}, {"type": "Feature", "geometry": {"type": "Point", "coordinates": [2.324453, 48.821815]}, "properties": {"etat de la localisation": "Hors service", "numparc": 6925, "duree": "", "horodatage": "2022-01-15 20:41:22", "marker-color": "#707070"}}, {"type": "Feature", "geometry": {"type": "Point", "coordinates": [2.387448, 48.753941]}, "properties": {"etat de la localisation": "Hors service", "numparc": 6906, "duree": "", "horodatage": "2022-01-15 20:48:56", "marker-color": "#707070"}}, {"type": "Feature", "geometry": {"type": "Point", "coordinates": [2.38745, 48.753941]}, "properties": {"etat de la localisation": "Hors service", "numparc": 6910, "duree": "", "horodatage": "2022-01-15 20:55:32", "marker-color": "#707070"}}, {"type": "Feature", "geometry": {"type": "Point", "coordinates": [2.324716, 48.822292]}, "properties": {"etat de la localisation": "Hors service", "numparc": 6914, "duree": "", "horodatage": "2022-01-15 21:04:28", "marker-color": "#707070"}}, {"type": "Feature", "geometry": {"type": "Point", "coordinates": [2.387192, 48.753864]}, "properties": {"etat de la localisation": "Hors service", "numparc": 6924, "duree": "", "horodatage": "2022-01-15 21:26:14", "marker-color": "#707070"}}, {"type": "Feature", "geometry": {"type": "Point", "coordinates": [2.324761, 48.822266]}, "properties": {"etat de la localisation": "Hors service", "numparc": 6931, "duree": "", "horodatage": "2022-01-15 22:15:07", "marker-color": "#707070"}}, {"type": "Feature", "geometry": {"type": "Point", "coordinates": [2.387473, 48.75399]}, "properties": {"etat de la localisation": "Hors service", "numparc": 6925, "duree": "", "horodatage": "2022-01-15 22:22:08", "marker-color": "#707070"}}, {"type": "Feature", "geometry": {"type": "Point", "coordinates": [2.324768, 48.822247]}, "properties": {"etat de la localisation": "Hors service", "numparc": 6914, "duree": "", "horodatage": "2022-01-15 22:52:26", "marker-color": "#707070"}}, {"type": "Feature", "geometry": {"type": "Point", "coordinates": [2.324767, 48.822266]}, "properties": {"etat de la localisation": "Hors service", "numparc": 6931, "duree": "", "horodatage": "2022-01-15 23:40:29", "marker-color": "#707070"}}, {"type": "Feature", "geometry": {"type": "Point", "coordinates": [2.324749, 48.822289]}, "properties": {"etat de la localisation": "Hors service", "numparc": 6914, "duree": "", "horodatage": "2022-01-16 00:12:34", "marker-color": "#707070"}}, {"type": "Feature", "geometry": {"type": "Point", "coordinates": [2.324685, 48.821629]}, "properties": {"etat de la localisation": "Hors service", "numparc": 6931, "duree": "", "horodatage": "2022-01-16 01:17:12", "marker-color": "#707070"}}, {"type": "Feature", "geometry": {"type": "Point", "coordinates": [2.324757, 48.822292]}, "properties": {"etat de la localisation": "Hors service", "numparc": 6914, "duree": "", "horodatage": "2022-01-16 01:30:34", "marker-color": "#707070"}}, {"type": "Feature", "geometry": {"type": "Point", "coordinates": [2.387651, 48.754105]}, "properties": {"etat de la localisation": "Hors service", "numparc": 6931, "duree": "", "horodatage": "2022-01-16 01:57:22", "marker-color": "#707070"}}, {"type": "Feature", "geometry": {"type": "Point", "coordinates": [2.387447, 48.75396]}, "properties": {"etat de la localisation": "Hors service", "numparc": 6914, "duree": "", "horodatage": "2022-01-16 02:10:15", "marker-color": "#707070"}}]}