{"type": "FeatureCollection", "features": [{"type": "Feature", "geometry": {"type": "Point", "coordinates": [2.373681, 48.843628]}, "properties": {"numparc": 637, "etat de la localisation": "autre", "ID BDGEO": "263", "horodatage": "2022-05-07 06:55:03", "distance (en metres)": 56.66, "station": "GARE DE LYON", "marker-color": "#818181"}}, {"type": "Feature", "geometry": {"type": "Point", "coordinates": [2.222398, 48.843193]}, "properties": {"numparc": 637, "etat de la localisation": "autre", "ID BDGEO": "155", "horodatage": "2022-05-07 08:01:03", "distance (en metres)": 64.97, "station": "PARC DE SAINT-CLOUD", "marker-color": "#818181"}}, {"type": "Feature", "geometry": {"type": "Point", "coordinates": [2.222398, 48.843193]}, "properties": {"numparc": 637, "etat de la localisation": "autre", "ID BDGEO": "155", "horodatage": "2022-05-07 08:12:39", "distance (en metres)": 64.97, "station": "PARC DE SAINT-CLOUD", "marker-color": "#818181"}}, {"type": "Feature", "geometry": {"type": "Point", "coordinates": [2.222398, 48.843193]}, "properties": {"numparc": 637, "etat de la localisation": "autre", "ID BDGEO": "155", "horodatage": "2022-05-07 08:18:04", "distance (en metres)": 64.97, "station": "PARC DE SAINT-CLOUD", "marker-color": "#818181"}}, {"type": "Feature", "geometry": {"type": "Point", "coordinates": [2.373508, 48.843685]}, "properties": {"numparc": 637, "etat de la localisation": "autre", "ID BDGEO": "263", "horodatage": "2022-05-07 09:16:43", "distance (en metres)": 43.91, "station": "GARE DE LYON", "marker-color": "#818181"}}, {"type": "Feature", "geometry": {"type": "Point", "coordinates": [2.350744, 48.857746]}, "properties": {"numparc": 637, "etat de la localisation": "autre", "ID BDGEO": "146", "horodatage": "2022-05-07 09:38:43", "distance (en metres)": 71.66, "station": "HOTEL DE VILLE", "marker-color": "#818181"}}, {"type": "Feature", "geometry": {"type": "Point", "coordinates": [2.222562, 48.843586]}, "properties": {"numparc": 637, "etat de la localisation": "autre", "ID BDGEO": "155", "horodatage": "2022-05-07 10:22:14", "distance (en metres)": 110.21, "station": "PARC DE SAINT-CLOUD", "marker-color": "#818181"}}, {"type": "Feature", "geometry": {"type": "Point", "coordinates": [2.222452, 48.843254]}, "properties": {"numparc": 637, "etat de la localisation": "autre", "ID BDGEO": "155", "horodatage": "2022-05-07 10:22:52", "distance (en metres)": 72.7, "station": "PARC DE SAINT-CLOUD", "marker-color": "#818181"}}, {"type": "Feature", "geometry": {"type": "Point", "coordinates": [2.222251, 48.843128]}, "properties": {"numparc": 637, "etat de la localisation": "autre", "ID BDGEO": "155", "horodatage": "2022-05-07 10:37:52", "distance (en metres)": 55.11, "station": "PARC DE SAINT-CLOUD", "marker-color": "#818181"}}, {"type": "Feature", "geometry": {"type": "Point", "coordinates": [2.259357, 48.837326]}, "properties": {"numparc": 637, "etat de la localisation": "autre", "ID BDGEO": "82", "horodatage": "2022-05-07 10:59:25", "distance (en metres)": 43.45, "station": "PORTE DE SAINT CLOUD-MURAT", "marker-color": "#818181"}}, {"type": "Feature", "geometry": {"type": "Point", "coordinates": [2.352008, 48.855556]}, "properties": {"numparc": 637, "etat de la localisation": "autre", "ID BDGEO": "88", "horodatage": "2022-05-07 11:32:37", "distance (en metres)": 141.24, "station": "HOTEL DE VILLE", "marker-color": "#818181"}}, {"type": "Feature", "geometry": {"type": "Point", "coordinates": [2.373595, 48.84375]}, "properties": {"numparc": 637, "etat de la localisation": "autre", "ID BDGEO": "263", "horodatage": "2022-05-07 11:42:09", "distance (en metres)": 42.46, "station": "GARE DE LYON", "marker-color": "#818181"}}, {"type": "Feature", "geometry": {"type": "Point", "coordinates": [2.350719, 48.857651]}, "properties": {"numparc": 637, "etat de la localisation": "autre", "ID BDGEO": "146", "horodatage": "2022-05-07 12:19:51", "distance (en metres)": 74.8, "station": "HOTEL DE VILLE", "marker-color": "#818181"}}, {"type": "Feature", "geometry": {"type": "Point", "coordinates": [2.222586, 48.843578]}, "properties": {"numparc": 637, "etat de la localisation": "autre", "ID BDGEO": "155", "horodatage": "2022-05-07 13:19:19", "distance (en metres)": 109.95, "station": "PARC DE SAINT-CLOUD", "marker-color": "#818181"}}, {"type": "Feature", "geometry": {"type": "Point", "coordinates": [2.222448, 48.843349]}, "properties": {"numparc": 637, "etat de la localisation": "autre", "ID BDGEO": "155", "horodatage": "2022-05-07 13:20:18", "distance (en metres)": 82.62, "station": "PARC DE SAINT-CLOUD", "marker-color": "#818181"}}, {"type": "Feature", "geometry": {"type": "Point", "coordinates": [2.222448, 48.843349]}, "properties": {"numparc": 637, "etat de la localisation": "autre", "ID BDGEO": "155", "horodatage": "2022-05-07 13:24:21", "distance (en metres)": 82.62, "station": "PARC DE SAINT-CLOUD", "marker-color": "#818181"}}, {"type": "Feature", "geometry": {"type": "Point", "coordinates": [2.352036, 48.855526]}, "properties": {"numparc": 637, "etat de la localisation": "autre", "ID BDGEO": "88", "horodatage": "2022-05-07 14:19:30", "distance (en metres)": 144.65, "station": "HOTEL DE VILLE", "marker-color": "#818181"}}, {"type": "Feature", "geometry": {"type": "Point", "coordinates": [2.373592, 48.843716]}, "properties": {"numparc": 637, "etat de la localisation": "autre", "ID BDGEO": "263", "horodatage": "2022-05-07 14:29:28", "distance (en metres)": 45.03, "station": "GARE DE LYON", "marker-color": "#818181"}}, {"type": "Feature", "geometry": {"type": "Point", "coordinates": [2.373639, 48.843678]}, "properties": {"numparc": 637, "etat de la localisation": "autre", "ID BDGEO": "263", "horodatage": "2022-05-07 14:32:42", "distance (en metres)": 50.49, "station": "GARE DE LYON", "marker-color": "#818181"}}, {"type": "Feature", "geometry": {"type": "Point", "coordinates": [2.350759, 48.857716]}, "properties": {"numparc": 637, "etat de la localisation": "autre", "ID BDGEO": "146", "horodatage": "2022-05-07 14:53:22", "distance (en metres)": 74.03, "station": "HOTEL DE VILLE", "marker-color": "#818181"}}, {"type": "Feature", "geometry": {"type": "Point", "coordinates": [2.222495, 48.843575]}, "properties": {"numparc": 637, "etat de la localisation": "autre", "ID BDGEO": "155", "horodatage": "2022-05-07 15:47:17", "distance (en metres)": 107.58, "station": "PARC DE SAINT-CLOUD", "marker-color": "#818181"}}, {"type": "Feature", "geometry": {"type": "Point", "coordinates": [2.337854, 48.859268]}, "properties": {"numparc": 637, "etat de la localisation": "autre", "ID BDGEO": "154", "horodatage": "2022-05-07 16:46:59", "distance (en metres)": 44.03, "station": "PONT DES ARTS", "marker-color": "#818181"}}, {"type": "Feature", "geometry": {"type": "Point", "coordinates": [2.351849, 48.855579]}, "properties": {"numparc": 637, "etat de la localisation": "autre", "ID BDGEO": "88", "horodatage": "2022-05-07 16:55:49", "distance (en metres)": 129.82, "station": "HOTEL DE VILLE", "marker-color": "#818181"}}, {"type": "Feature", "geometry": {"type": "Point", "coordinates": [2.407494, 48.849453]}, "properties": {"numparc": 637, "etat de la localisation": "autre", "ID BDGEO": "276", "horodatage": "2022-05-07 17:24:22", "distance (en metres)": 67.69, "station": "LAGNY SORTIE", "marker-color": "#818181"}}, {"type": "Feature", "geometry": {"type": "Point", "coordinates": [2.350734, 48.857697]}, "properties": {"numparc": 637, "etat de la localisation": "autre", "ID BDGEO": "146", "horodatage": "2022-05-07 20:33:33", "distance (en metres)": 73.31, "station": "HOTEL DE VILLE", "marker-color": "#818181"}}, {"type": "Feature", "geometry": {"type": "Point", "coordinates": [2.264285, 48.840393]}, "properties": {"numparc": 637, "etat de la localisation": "autre", "ID BDGEO": "107", "horodatage": "2022-05-07 21:19:05", "distance (en metres)": 164.12, "station": "VERSAILLES-EXELMANS", "marker-color": "#818181"}}, {"type": "Feature", "geometry": {"type": "Point", "coordinates": [2.351943, 48.85553]}, "properties": {"numparc": 637, "etat de la localisation": "autre", "ID BDGEO": "88", "horodatage": "2022-05-07 22:28:30", "distance (en metres)": 138.51, "station": "HOTEL DE VILLE", "marker-color": "#818181"}}, {"type": "Feature", "geometry": {"type": "Point", "coordinates": [2.37354, 48.843708]}, "properties": {"numparc": 637, "etat de la localisation": "autre", "ID BDGEO": "263", "horodatage": "2022-05-07 22:40:48", "distance (en metres)": 43.22, "station": "GARE DE LYON", "marker-color": "#818181"}}, {"type": "Feature", "geometry": {"type": "Point", "coordinates": [2.350788, 48.857735]}, "properties": {"numparc": 637, "etat de la localisation": "autre", "ID BDGEO": "146", "horodatage": "2022-05-07 23:04:50", "distance (en metres)": 75.13, "station": "HOTEL DE VILLE", "marker-color": "#818181"}}, {"type": "Feature", "geometry": {"type": "Point", "coordinates": [2.222405, 48.843315]}, "properties": {"numparc": 637, "etat de la localisation": "autre", "ID BDGEO": "155", "horodatage": "2022-05-08 00:00:46", "distance (en metres)": 78.04, "station": "PARC DE SAINT-CLOUD", "marker-color": "#818181"}}, {"type": "Feature", "geometry": {"type": "Point", "coordinates": [2.222431, 48.843029]}, "properties": {"numparc": 637, "etat de la localisation": "autre", "ID BDGEO": "155", "horodatage": "2022-05-08 00:01:44", "distance (en metres)": 49.31, "station": "PARC DE SAINT-CLOUD", "marker-color": "#818181"}}, {"type": "Feature", "geometry": {"type": "Point", "coordinates": [2.222431, 48.843029]}, "properties": {"numparc": 637, "etat de la localisation": "autre", "ID BDGEO": "155", "horodatage": "2022-05-08 00:13:48", "distance (en metres)": 49.31, "station": "PARC DE SAINT-CLOUD", "marker-color": "#818181"}}, {"type": "Feature", "geometry": {"type": "Point", "coordinates": [2.40746, 48.84943]}, "properties": {"numparc": 637, "etat de la localisation": "autre", "ID BDGEO": "276", "horodatage": "2022-05-08 01:17:43", "distance (en metres)": 67.69, "station": "LAGNY SORTIE", "marker-color": "#818181"}}, {"type": "Feature", "geometry": {"type": "Point", "coordinates": [2.373176, 48.844014]}, "properties": {"station": "GARE DE LYON", "ID BDGEO": "263", "marker-color": "#56B3FF"}}, {"type": "Feature", "geometry": {"type": "Point", "coordinates": [2.2221, 48.842643]}, "properties": {"station": "PARC DE SAINT-CLOUD", "ID BDGEO": "155", "marker-color": "#56B3FF"}}, {"type": "Feature", "geometry": {"type": "Point", "coordinates": [2.34984, 48.857994]}, "properties": {"station": "HOTEL DE VILLE", "ID BDGEO": "146", "marker-color": "#56B3FF"}}, {"type": "Feature", "geometry": {"type": "Point", "coordinates": [2.258764, 48.837307]}, "properties": {"station": "PORTE DE SAINT CLOUD-MURAT", "ID BDGEO": "82", "marker-color": "#56B3FF"}}, {"type": "Feature", "geometry": {"type": "Point", "coordinates": [2.350303, 48.856152]}, "properties": {"station": "HOTEL DE VILLE", "ID BDGEO": "88", "marker-color": "#56B3FF"}}, {"type": "Feature", "geometry": {"type": "Point", "coordinates": [2.338426, 48.859145]}, "properties": {"station": "PONT DES ARTS", "ID BDGEO": "154", "marker-color": "#56B3FF"}}, {"type": "Feature", "geometry": {"type": "Point", "coordinates": [2.406817, 48.849868]}, "properties": {"station": "LAGNY SORTIE", "ID BDGEO": "276", "marker-color": "#56B3FF"}}, {"type": "Feature", "geometry": {"type": "Point", "coordinates": [2.266083, 48.841275]}, "properties": {"station": "VERSAILLES-EXELMANS", "ID BDGEO": "107", "marker-color": "#56B3FF"}}]}