{"type": "FeatureCollection", "features": [{"type": "Feature", "geometry": {"type": "Point", "coordinates": [2.357612, 48.875717]}, "properties": {"etat de la localisation": "Mission suivante non connue", "numparc": 604, "duree": "", "horodatage": "2021-09-13 02:52:07", "marker-color": "#7156FF"}}, {"type": "Feature", "geometry": {"type": "Point", "coordinates": [2.357857, 48.87582]}, "properties": {"etat de la localisation": "Mission suivante non connue", "numparc": 674, "duree": "", "horodatage": "2021-09-13 03:07:00", "marker-color": "#7156FF"}}, {"type": "Feature", "geometry": {"type": "Point", "coordinates": [2.357944, 48.875912]}, "properties": {"etat de la localisation": "Mission suivante non connue", "numparc": 605, "duree": "", "horodatage": "2021-09-13 03:17:05", "marker-color": "#7156FF"}}, {"type": "Feature", "geometry": {"type": "Point", "coordinates": [2.369543, 48.852055]}, "properties": {"etat de la localisation": "Delocalise", "numparc": 604, "duree": "00:01:05", "horodatage": "2021-09-13 03:19:39", "marker-color": "#FF565E"}}, {"type": "Feature", "geometry": {"type": "Point", "coordinates": [2.369596, 48.852123]}, "properties": {"etat de la localisation": "Delocalise", "numparc": 605, "duree": "00:01:08", "horodatage": "2021-09-13 03:45:18", "marker-color": "#FF565E"}}, {"type": "Feature", "geometry": {"type": "Point", "coordinates": [2.357879, 48.875874]}, "properties": {"etat de la localisation": "Mission suivante non connue", "numparc": 604, "duree": "", "horodatage": "2021-09-13 04:10:06", "marker-color": "#7156FF"}}, {"type": "Feature", "geometry": {"type": "Point", "coordinates": [2.357944, 48.875874]}, "properties": {"etat de la localisation": "Mission suivante non connue", "numparc": 674, "duree": "", "horodatage": "2021-09-13 04:26:01", "marker-color": "#7156FF"}}, {"type": "Feature", "geometry": {"type": "Point", "coordinates": [2.357998, 48.875999]}, "properties": {"etat de la localisation": "Mission suivante non connue", "numparc": 605, "duree": "", "horodatage": "2021-09-13 04:35:57", "marker-color": "#7156FF"}}, {"type": "Feature", "geometry": {"type": "Point", "coordinates": [2.369532, 48.852081]}, "properties": {"etat de la localisation": "Delocalise", "numparc": 604, "duree": "00:01:10", "horodatage": "2021-09-13 04:42:28", "marker-color": "#FF565E"}}, {"type": "Feature", "geometry": {"type": "Point", "coordinates": [2.369481, 48.852074]}, "properties": {"etat de la localisation": "Delocalise", "numparc": 674, "duree": "00:02:05", "horodatage": "2021-09-13 04:55:18", "marker-color": "#FF565E"}}, {"type": "Feature", "geometry": {"type": "Point", "coordinates": [2.369551, 48.852016]}, "properties": {"etat de la localisation": "Delocalise", "numparc": 605, "duree": "00:02:10", "horodatage": "2021-09-13 05:01:10", "marker-color": "#FF565E"}}, {"type": "Feature", "geometry": {"type": "Point", "coordinates": [2.406502, 48.848743]}, "properties": {"etat de la localisation": "Hors service", "numparc": 604, "duree": "", "horodatage": "2021-09-13 05:52:33", "marker-color": "#707070"}}, {"type": "Feature", "geometry": {"type": "Point", "coordinates": [2.407523, 48.849339]}, "properties": {"etat de la localisation": "Hors service", "numparc": 674, "duree": "", "horodatage": "2021-09-13 06:02:28", "marker-color": "#707070"}}, {"type": "Feature", "geometry": {"type": "Point", "coordinates": [2.407604, 48.849533]}, "properties": {"etat de la localisation": "Hors service", "numparc": 605, "duree": "", "horodatage": "2021-09-13 06:09:18", "marker-color": "#707070"}}, {"type": "Feature", "geometry": {"type": "Point", "coordinates": [2.405952, 48.849937]}, "properties": {"etat de la localisation": "Mission inconnue", "numparc": 604, "duree": "", "horodatage": "2021-09-13 06:18:50", "marker-color": "#FF9F56"}}, {"type": "Feature", "geometry": {"type": "Point", "coordinates": [2.407194, 48.849316]}, "properties": {"etat de la localisation": "Mission inconnue", "numparc": 641, "duree": "", "horodatage": "2021-09-14 00:03:58", "marker-color": "#FF9F56"}}, {"type": "Feature", "geometry": {"type": "Point", "coordinates": [2.407194, 48.849316]}, "properties": {"etat de la localisation": "Delocalise", "numparc": 641, "duree": "00:27:39", "horodatage": "2021-09-14 00:04:02", "marker-color": "#FF565E"}}, {"type": "Feature", "geometry": {"type": "Point", "coordinates": [2.369612, 48.852093]}, "properties": {"etat de la localisation": "Delocalise", "numparc": 641, "duree": "00:01:04", "horodatage": "2021-09-14 01:55:41", "marker-color": "#FF565E"}}]}