{"type": "FeatureCollection", "features": [{"type": "Feature", "geometry": {"type": "Point", "coordinates": [2.427168, 48.878338]}, "properties": {"etat de la localisation": "Mission inconnue", "numparc": 4935, "duree": "", "horodatage": "2021-07-31 15:58:48", "marker-color": "#FF9F56"}}, {"type": "Feature", "geometry": {"type": "Point", "coordinates": [2.269199, 48.88192]}, "properties": {"etat de la localisation": "Mission inconnue", "numparc": 5653, "duree": "", "horodatage": "2021-07-31 16:23:25", "marker-color": "#FF9F56"}}, {"type": "Feature", "geometry": {"type": "Point", "coordinates": [2.23807, 48.90657]}, "properties": {"etat de la localisation": "Hors service", "numparc": 5653, "duree": "", "horodatage": "2021-07-31 16:48:59", "marker-color": "#707070"}}, {"type": "Feature", "geometry": {"type": "Point", "coordinates": [2.427112, 48.879063]}, "properties": {"etat de la localisation": "Hors service", "numparc": 4935, "duree": "", "horodatage": "2021-07-31 20:40:57", "marker-color": "#707070"}}]}