{"type": "FeatureCollection", "features": [{"type": "Feature", "geometry": {"type": "Point", "coordinates": [2.327839, 48.875671]}, "properties": {"alarme": "VEHICULE DELOCALISE", "numparc": 1362, "type": "EXPLOITATION", "duree": "00:27:07", "horodatage": "2023-04-30 09:11:05", "statut": "start", "marker-color": "#ff0000"}}, {"type": "Feature", "geometry": {"type": "Point", "coordinates": [2.348893, 48.877045]}, "properties": {"alarme": "VEHICULE DELOCALISE", "numparc": 1362, "type": "EXPLOITATION", "duree": "00:27:07", "horodatage": "2023-04-30 09:38:12", "statut": "end", "marker-color": "#2fe184"}}]}