{"type": "FeatureCollection", "features": [{"type": "Feature", "geometry": {"type": "Point", "coordinates": [2.442434, 48.772915]}, "properties": {"numparc": 2831, "etat de la localisation": "autre", "ID BDGEO": "297", "horodatage": "2022-10-20 07:07:20", "distance (en metres)": 75.13, "station": "CENTRE DE BUS DE CRETEIL DEPART", "marker-color": "#818181"}}, {"type": "Feature", "geometry": {"type": "Point", "coordinates": [2.440916, 48.787674]}, "properties": {"numparc": 2831, "etat de la localisation": "Deviation programmee", "ID BDGEO": "298", "horodatage": "2022-10-20 08:37:26", "distance (en metres)": 203.13, "station": "PETITES HAIES", "marker-color": "#56FF93"}}, {"type": "Feature", "geometry": {"type": "Point", "coordinates": [2.422157, 48.814785]}, "properties": {"numparc": 2831, "etat de la localisation": "autre", "ID BDGEO": "274", "horodatage": "2022-10-20 09:01:44", "distance (en metres)": 60.41, "station": "ECOLE VETERINAIRE-METRO", "marker-color": "#818181"}}, {"type": "Feature", "geometry": {"type": "Point", "coordinates": [2.422143, 48.814781]}, "properties": {"numparc": 2831, "etat de la localisation": "autre", "ID BDGEO": "274", "horodatage": "2022-10-20 10:18:28", "distance (en metres)": 61.19, "station": "ECOLE VETERINAIRE-METRO", "marker-color": "#818181"}}, {"type": "Feature", "geometry": {"type": "Point", "coordinates": [2.441167, 48.772354]}, "properties": {"numparc": 2817, "etat de la localisation": "autre", "ID BDGEO": "297", "horodatage": "2022-10-20 10:20:52", "distance (en metres)": 154.84, "station": "CENTRE DE BUS DE CRETEIL DEPART", "marker-color": "#818181"}}, {"type": "Feature", "geometry": {"type": "Point", "coordinates": [2.443103, 48.78931]}, "properties": {"numparc": 2831, "etat de la localisation": "autre", "ID BDGEO": "273", "horodatage": "2022-10-20 10:46:14", "distance (en metres)": 44.79, "station": "MONTAIGUT", "marker-color": "#818181"}}, {"type": "Feature", "geometry": {"type": "Point", "coordinates": [2.457773, 48.782345]}, "properties": {"numparc": 2831, "etat de la localisation": "autre", "ID BDGEO": "293", "horodatage": "2022-10-20 10:52:23", "distance (en metres)": 47.64, "station": "LYCEE SAINT-EXUPERY", "marker-color": "#818181"}}, {"type": "Feature", "geometry": {"type": "Point", "coordinates": [2.442861, 48.773251]}, "properties": {"numparc": 2817, "etat de la localisation": "autre", "ID BDGEO": "297", "horodatage": "2022-10-20 10:57:16", "distance (en metres)": 86.54, "station": "CENTRE DE BUS DE CRETEIL DEPART", "marker-color": "#818181"}}, {"type": "Feature", "geometry": {"type": "Point", "coordinates": [2.440972, 48.787643]}, "properties": {"numparc": 2831, "etat de la localisation": "Deviation programmee", "ID BDGEO": "298", "horodatage": "2022-10-20 11:19:01", "distance (en metres)": 207.68, "station": "PETITES HAIES", "marker-color": "#56FF93"}}, {"type": "Feature", "geometry": {"type": "Point", "coordinates": [2.421872, 48.814812]}, "properties": {"numparc": 2831, "etat de la localisation": "autre", "ID BDGEO": "274", "horodatage": "2022-10-20 11:38:14", "distance (en metres)": 80.9, "station": "ECOLE VETERINAIRE-METRO", "marker-color": "#818181"}}, {"type": "Feature", "geometry": {"type": "Point", "coordinates": [2.457734, 48.782349]}, "properties": {"numparc": 2831, "etat de la localisation": "autre", "ID BDGEO": "293", "horodatage": "2022-10-20 12:11:43", "distance (en metres)": 50.46, "station": "LYCEE SAINT-EXUPERY", "marker-color": "#818181"}}, {"type": "Feature", "geometry": {"type": "Point", "coordinates": [2.421252, 48.815071]}, "properties": {"numparc": 2831, "etat de la localisation": "autre", "ID BDGEO": "274", "horodatage": "2022-10-20 12:56:20", "distance (en metres)": 133.91, "station": "ECOLE VETERINAIRE-METRO", "marker-color": "#818181"}}, {"type": "Feature", "geometry": {"type": "Point", "coordinates": [2.443079, 48.789307]}, "properties": {"numparc": 2831, "etat de la localisation": "autre", "ID BDGEO": "273", "horodatage": "2022-10-20 13:23:35", "distance (en metres)": 43.1, "station": "MONTAIGUT", "marker-color": "#818181"}}, {"type": "Feature", "geometry": {"type": "Point", "coordinates": [2.434935, 48.791458]}, "properties": {"numparc": 2831, "etat de la localisation": "autre", "ID BDGEO": "303", "horodatage": "2022-10-20 14:03:31", "distance (en metres)": 101.42, "station": "LE VERT DE MAISONS RER", "marker-color": "#818181"}}, {"type": "Feature", "geometry": {"type": "Point", "coordinates": [2.421345, 48.815037]}, "properties": {"numparc": 2831, "etat de la localisation": "autre", "ID BDGEO": "265", "horodatage": "2022-10-20 14:13:15", "distance (en metres)": 66.76, "station": "ECOLE VETERINAIRE DE MAISONS-ALFORT#", "marker-color": "#818181"}}, {"type": "Feature", "geometry": {"type": "Point", "coordinates": [2.443148, 48.771858]}, "properties": {"numparc": 2831, "etat de la localisation": "autre", "ID BDGEO": "297", "horodatage": "2022-10-20 14:31:06", "distance (en metres)": 74.01, "station": "CENTRE DE BUS DE CRETEIL DEPART", "marker-color": "#818181"}}, {"type": "Feature", "geometry": {"type": "Point", "coordinates": [2.442641, 48.772556]}, "properties": {"numparc": 2831, "etat de la localisation": "autre", "ID BDGEO": "297", "horodatage": "2022-10-20 14:36:05", "distance (en metres)": 45.92, "station": "CENTRE DE BUS DE CRETEIL DEPART", "marker-color": "#818181"}}, {"type": "Feature", "geometry": {"type": "Point", "coordinates": [2.442647, 48.77256]}, "properties": {"numparc": 2831, "etat de la localisation": "autre", "ID BDGEO": "297", "horodatage": "2022-10-20 14:37:04", "distance (en metres)": 45.53, "station": "CENTRE DE BUS DE CRETEIL DEPART", "marker-color": "#818181"}}, {"type": "Feature", "geometry": {"type": "Point", "coordinates": [2.442653, 48.772575]}, "properties": {"numparc": 2831, "etat de la localisation": "autre", "ID BDGEO": "297", "horodatage": "2022-10-20 14:37:43", "distance (en metres)": 45.3, "station": "CENTRE DE BUS DE CRETEIL DEPART", "marker-color": "#818181"}}, {"type": "Feature", "geometry": {"type": "Point", "coordinates": [2.44306, 48.771481]}, "properties": {"numparc": 2831, "etat de la localisation": "autre", "ID BDGEO": "297", "horodatage": "2022-10-20 14:39:23", "distance (en metres)": 116.48, "station": "CENTRE DE BUS DE CRETEIL DEPART", "marker-color": "#818181"}}, {"type": "Feature", "geometry": {"type": "Point", "coordinates": [2.44393, 48.779655]}, "properties": {"numparc": 2832, "etat de la localisation": "Delocalise", "ID BDGEO": "277", "horodatage": "2022-10-20 15:21:43", "distance (en metres)": 776.63, "station": "PREFECTURE DU VDM", "marker-color": "#FF565E"}}, {"type": "Feature", "geometry": {"type": "Point", "coordinates": [2.442861, 48.773251]}, "properties": {"numparc": 2817, "etat de la localisation": "autre", "ID BDGEO": "277", "horodatage": "2022-10-20 15:46:37", "distance (en metres)": 1352.32, "station": "PREFECTURE DU VDM", "marker-color": "#818181"}}, {"type": "Feature", "geometry": {"type": "Point", "coordinates": [2.440931, 48.787708]}, "properties": {"numparc": 2832, "etat de la localisation": "Deviation programmee", "ID BDGEO": "298", "horodatage": "2022-10-20 15:55:07", "distance (en metres)": 203.75, "station": "PETITES HAIES", "marker-color": "#56FF93"}}, {"type": "Feature", "geometry": {"type": "Point", "coordinates": [2.42118, 48.815125]}, "properties": {"numparc": 2832, "etat de la localisation": "autre", "ID BDGEO": "274", "horodatage": "2022-10-20 16:15:24", "distance (en metres)": 141.24, "station": "ECOLE VETERINAIRE-METRO", "marker-color": "#818181"}}, {"type": "Feature", "geometry": {"type": "Point", "coordinates": [2.42118, 48.815125]}, "properties": {"numparc": 2832, "etat de la localisation": "autre", "ID BDGEO": "274", "horodatage": "2022-10-20 16:20:35", "distance (en metres)": 141.24, "station": "ECOLE VETERINAIRE-METRO", "marker-color": "#818181"}}, {"type": "Feature", "geometry": {"type": "Point", "coordinates": [2.440903, 48.78767]}, "properties": {"numparc": 2817, "etat de la localisation": "Deviation programmee", "ID BDGEO": "298", "horodatage": "2022-10-20 16:21:08", "distance (en metres)": 202.24, "station": "PETITES HAIES", "marker-color": "#56FF93"}}, {"type": "Feature", "geometry": {"type": "Point", "coordinates": [2.443058, 48.789352]}, "properties": {"numparc": 2832, "etat de la localisation": "autre", "ID BDGEO": "273", "horodatage": "2022-10-20 16:45:47", "distance (en metres)": 41.12, "station": "MONTAIGUT", "marker-color": "#818181"}}, {"type": "Feature", "geometry": {"type": "Point", "coordinates": [2.426099, 48.806114]}, "properties": {"numparc": 2817, "etat de la localisation": "autre", "ID BDGEO": "294", "horodatage": "2022-10-20 16:52:19", "distance (en metres)": 44.28, "station": "PROFESSEUR CADIOT", "marker-color": "#818181"}}, {"type": "Feature", "geometry": {"type": "Point", "coordinates": [2.443076, 48.789307]}, "properties": {"numparc": 2817, "etat de la localisation": "autre", "ID BDGEO": "273", "horodatage": "2022-10-20 17:05:56", "distance (en metres)": 42.87, "station": "MONTAIGUT", "marker-color": "#818181"}}, {"type": "Feature", "geometry": {"type": "Point", "coordinates": [2.473175, 48.78075]}, "properties": {"numparc": 2817, "etat de la localisation": "autre", "ID BDGEO": "317", "horodatage": "2022-10-20 17:20:25", "distance (en metres)": 43.38, "station": "CRETEIL-LA GAITE.", "marker-color": "#818181"}}, {"type": "Feature", "geometry": {"type": "Point", "coordinates": [2.440942, 48.78767]}, "properties": {"numparc": 2832, "etat de la localisation": "Deviation programmee", "ID BDGEO": "298", "horodatage": "2022-10-20 17:34:55", "distance (en metres)": 205.08, "station": "PETITES HAIES", "marker-color": "#56FF93"}}, {"type": "Feature", "geometry": {"type": "Point", "coordinates": [2.440904, 48.787674]}, "properties": {"numparc": 2817, "etat de la localisation": "Deviation programmee", "ID BDGEO": "298", "horodatage": "2022-10-20 17:58:09", "distance (en metres)": 202.25, "station": "PETITES HAIES", "marker-color": "#56FF93"}}, {"type": "Feature", "geometry": {"type": "Point", "coordinates": [2.421282, 48.815083]}, "properties": {"numparc": 2832, "etat de la localisation": "autre", "ID BDGEO": "274", "horodatage": "2022-10-20 18:01:37", "distance (en metres)": 132.47, "station": "ECOLE VETERINAIRE-METRO", "marker-color": "#818181"}}, {"type": "Feature", "geometry": {"type": "Point", "coordinates": [2.421282, 48.815083]}, "properties": {"numparc": 2832, "etat de la localisation": "autre", "ID BDGEO": "274", "horodatage": "2022-10-20 18:06:48", "distance (en metres)": 132.47, "station": "ECOLE VETERINAIRE-METRO", "marker-color": "#818181"}}, {"type": "Feature", "geometry": {"type": "Point", "coordinates": [2.421282, 48.815083]}, "properties": {"numparc": 2832, "etat de la localisation": "autre", "ID BDGEO": "274", "horodatage": "2022-10-20 18:07:24", "distance (en metres)": 132.47, "station": "ECOLE VETERINAIRE-METRO", "marker-color": "#818181"}}, {"type": "Feature", "geometry": {"type": "Point", "coordinates": [2.421282, 48.815083]}, "properties": {"numparc": 2832, "etat de la localisation": "autre", "ID BDGEO": "274", "horodatage": "2022-10-20 18:10:12", "distance (en metres)": 132.47, "station": "ECOLE VETERINAIRE-METRO", "marker-color": "#818181"}}, {"type": "Feature", "geometry": {"type": "Point", "coordinates": [2.421451, 48.815025]}, "properties": {"numparc": 2817, "etat de la localisation": "autre", "ID BDGEO": "274", "horodatage": "2022-10-20 18:19:52", "distance (en metres)": 118.56, "station": "ECOLE VETERINAIRE-METRO", "marker-color": "#818181"}}, {"type": "Feature", "geometry": {"type": "Point", "coordinates": [2.443098, 48.789307]}, "properties": {"numparc": 2817, "etat de la localisation": "autre", "ID BDGEO": "273", "horodatage": "2022-10-20 18:51:52", "distance (en metres)": 44.48, "station": "MONTAIGUT", "marker-color": "#818181"}}, {"type": "Feature", "geometry": {"type": "Point", "coordinates": [2.440936, 48.787724]}, "properties": {"numparc": 2832, "etat de la localisation": "Deviation programmee", "ID BDGEO": "298", "horodatage": "2022-10-20 19:14:39", "distance (en metres)": 203.92, "station": "PETITES HAIES", "marker-color": "#56FF93"}}, {"type": "Feature", "geometry": {"type": "Point", "coordinates": [2.421213, 48.815113]}, "properties": {"numparc": 2832, "etat de la localisation": "autre", "ID BDGEO": "274", "horodatage": "2022-10-20 19:33:28", "distance (en metres)": 138.51, "station": "ECOLE VETERINAIRE-METRO", "marker-color": "#818181"}}, {"type": "Feature", "geometry": {"type": "Point", "coordinates": [2.421213, 48.815113]}, "properties": {"numparc": 2832, "etat de la localisation": "autre", "ID BDGEO": "274", "horodatage": "2022-10-20 19:33:46", "distance (en metres)": 138.51, "station": "ECOLE VETERINAIRE-METRO", "marker-color": "#818181"}}, {"type": "Feature", "geometry": {"type": "Point", "coordinates": [2.421547, 48.814945]}, "properties": {"numparc": 2832, "etat de la localisation": "autre", "ID BDGEO": "274", "horodatage": "2022-10-20 19:34:47", "distance (en metres)": 108.49, "station": "ECOLE VETERINAIRE-METRO", "marker-color": "#818181"}}, {"type": "Feature", "geometry": {"type": "Point", "coordinates": [2.421547, 48.814945]}, "properties": {"numparc": 2832, "etat de la localisation": "autre", "ID BDGEO": "274", "horodatage": "2022-10-20 19:34:55", "distance (en metres)": 108.49, "station": "ECOLE VETERINAIRE-METRO", "marker-color": "#818181"}}, {"type": "Feature", "geometry": {"type": "Point", "coordinates": [2.440934, 48.787712]}, "properties": {"numparc": 2817, "etat de la localisation": "Deviation programmee", "ID BDGEO": "298", "horodatage": "2022-10-20 19:37:43", "distance (en metres)": 203.91, "station": "PETITES HAIES", "marker-color": "#56FF93"}}, {"type": "Feature", "geometry": {"type": "Point", "coordinates": [2.436075, 48.787224]}, "properties": {"numparc": 2817, "etat de la localisation": "Deviation programmee", "ID BDGEO": "298", "horodatage": "2022-10-20 19:44:56", "distance (en metres)": 171.82, "station": "PETITES HAIES", "marker-color": "#56FF93"}}, {"type": "Feature", "geometry": {"type": "Point", "coordinates": [2.421547, 48.814945]}, "properties": {"numparc": 2832, "etat de la localisation": "autre", "ID BDGEO": "274", "horodatage": "2022-10-20 19:53:52", "distance (en metres)": 108.49, "station": "ECOLE VETERINAIRE-METRO", "marker-color": "#818181"}}, {"type": "Feature", "geometry": {"type": "Point", "coordinates": [2.421035, 48.815212]}, "properties": {"numparc": 2817, "etat de la localisation": "autre", "ID BDGEO": "274", "horodatage": "2022-10-20 19:58:53", "distance (en metres)": 155.12, "station": "ECOLE VETERINAIRE-METRO", "marker-color": "#818181"}}, {"type": "Feature", "geometry": {"type": "Point", "coordinates": [2.443137, 48.789272]}, "properties": {"numparc": 2817, "etat de la localisation": "autre", "ID BDGEO": "273", "horodatage": "2022-10-20 20:38:32", "distance (en metres)": 47.96, "station": "MONTAIGUT", "marker-color": "#818181"}}, {"type": "Feature", "geometry": {"type": "Point", "coordinates": [2.421462, 48.815006]}, "properties": {"numparc": 2832, "etat de la localisation": "autre", "ID BDGEO": "274", "horodatage": "2022-10-20 20:58:12", "distance (en metres)": 116.93, "station": "ECOLE VETERINAIRE-METRO", "marker-color": "#818181"}}, {"type": "Feature", "geometry": {"type": "Point", "coordinates": [2.421462, 48.815006]}, "properties": {"numparc": 2832, "etat de la localisation": "autre", "ID BDGEO": "274", "horodatage": "2022-10-20 21:02:46", "distance (en metres)": 116.93, "station": "ECOLE VETERINAIRE-METRO", "marker-color": "#818181"}}, {"type": "Feature", "geometry": {"type": "Point", "coordinates": [2.440937, 48.787746]}, "properties": {"numparc": 2817, "etat de la localisation": "Deviation programmee", "ID BDGEO": "298", "horodatage": "2022-10-20 21:02:47", "distance (en metres)": 203.73, "station": "PETITES HAIES", "marker-color": "#56FF93"}}, {"type": "Feature", "geometry": {"type": "Point", "coordinates": [2.433486, 48.797161]}, "properties": {"numparc": 2817, "etat de la localisation": "autre", "ID BDGEO": "311", "horodatage": "2022-10-20 21:10:45", "distance (en metres)": 45.59, "station": "GENERAL GALLIENI", "marker-color": "#818181"}}, {"type": "Feature", "geometry": {"type": "Point", "coordinates": [2.422249, 48.814762]}, "properties": {"numparc": 2817, "etat de la localisation": "autre", "ID BDGEO": "274", "horodatage": "2022-10-20 21:18:09", "distance (en metres)": 53.22, "station": "ECOLE VETERINAIRE-METRO", "marker-color": "#818181"}}, {"type": "Feature", "geometry": {"type": "Point", "coordinates": [2.439219, 48.787956]}, "properties": {"numparc": 2817, "etat de la localisation": "autre", "ID BDGEO": "268", "horodatage": "2022-10-20 21:50:48", "distance (en metres)": 140.44, "station": "PETITES HAIES", "marker-color": "#818181"}}, {"type": "Feature", "geometry": {"type": "Point", "coordinates": [2.443075, 48.789284]}, "properties": {"numparc": 2817, "etat de la localisation": "autre", "ID BDGEO": "273", "horodatage": "2022-10-20 21:52:46", "distance (en metres)": 43.26, "station": "MONTAIGUT", "marker-color": "#818181"}}, {"type": "Feature", "geometry": {"type": "Point", "coordinates": [2.421416, 48.814995]}, "properties": {"numparc": 2832, "etat de la localisation": "autre", "ID BDGEO": "274", "horodatage": "2022-10-20 22:03:06", "distance (en metres)": 119.47, "station": "ECOLE VETERINAIRE-METRO", "marker-color": "#818181"}}, {"type": "Feature", "geometry": {"type": "Point", "coordinates": [2.421416, 48.814995]}, "properties": {"numparc": 2832, "etat de la localisation": "autre", "ID BDGEO": "274", "horodatage": "2022-10-20 22:17:21", "distance (en metres)": 119.47, "station": "ECOLE VETERINAIRE-METRO", "marker-color": "#818181"}}, {"type": "Feature", "geometry": {"type": "Point", "coordinates": [2.469209, 48.780163]}, "properties": {"numparc": 2832, "etat de la localisation": "autre", "ID BDGEO": "314", "horodatage": "2022-10-20 22:49:36", "distance (en metres)": 363.11, "station": "CRETEIL-LA GAITE #", "marker-color": "#818181"}}, {"type": "Feature", "geometry": {"type": "Point", "coordinates": [2.442696, 48.77285]}, "properties": {"numparc": 2817, "etat de la localisation": "autre", "ID BDGEO": "297", "horodatage": "2022-10-20 22:50:32", "distance (en metres)": 55.6, "station": "CENTRE DE BUS DE CRETEIL DEPART", "marker-color": "#818181"}}, {"type": "Feature", "geometry": {"type": "Point", "coordinates": [2.46927, 48.780209]}, "properties": {"numparc": 2832, "etat de la localisation": "autre", "ID BDGEO": "369", "horodatage": "2022-10-20 22:53:41", "distance (en metres)": 365.92, "station": "LA GAITE#", "marker-color": "#818181"}}, {"type": "Feature", "geometry": {"type": "Point", "coordinates": [2.442908, 48.773102]}, "properties": {"numparc": 2832, "etat de la localisation": "autre", "ID BDGEO": "297", "horodatage": "2022-10-20 23:08:20", "distance (en metres)": 69.86, "station": "CENTRE DE BUS DE CRETEIL DEPART", "marker-color": "#818181"}}, {"type": "Feature", "geometry": {"type": "Point", "coordinates": [2.442696, 48.77285]}, "properties": {"numparc": 2817, "etat de la localisation": "autre", "ID BDGEO": "297", "horodatage": "2022-10-21 00:45:20", "distance (en metres)": 55.6, "station": "CENTRE DE BUS DE CRETEIL DEPART", "marker-color": "#818181"}}, {"type": "Feature", "geometry": {"type": "Point", "coordinates": [2.443265, 48.772519]}, "properties": {"station": "CENTRE DE BUS DE CRETEIL DEPART", "ID BDGEO": "297", "marker-color": "#56B3FF"}}, {"type": "Feature", "geometry": {"type": "Point", "coordinates": [2.438169, 48.78792]}, "properties": {"station": "PETITES HAIES", "ID BDGEO": "298", "marker-color": "#56B3FF"}}, {"type": "Feature", "geometry": {"type": "Point", "coordinates": [2.42291, 48.814563]}, "properties": {"station": "ECOLE VETERINAIRE-METRO", "ID BDGEO": "274", "marker-color": "#56B3FF"}}, {"type": "Feature", "geometry": {"type": "Point", "coordinates": [2.442497, 48.789363]}, "properties": {"station": "MONTAIGUT", "ID BDGEO": "273", "marker-color": "#56B3FF"}}, {"type": "Feature", "geometry": {"type": "Point", "coordinates": [2.458382, 48.782194]}, "properties": {"station": "LYCEE SAINT-EXUPERY", "ID BDGEO": "293", "marker-color": "#56B3FF"}}, {"type": "Feature", "geometry": {"type": "Point", "coordinates": [2.43514, 48.790556]}, "properties": {"station": "LE VERT DE MAISONS RER", "ID BDGEO": "303", "marker-color": "#56B3FF"}}, {"type": "Feature", "geometry": {"type": "Point", "coordinates": [2.422162, 48.81477]}, "properties": {"station": "ECOLE VETERINAIRE DE MAISONS-ALFORT#", "ID BDGEO": "265", "marker-color": "#56B3FF"}}, {"type": "Feature", "geometry": {"type": "Point", "coordinates": [2.452767, 48.783512]}, "properties": {"station": "PREFECTURE DU VDM", "ID BDGEO": "277", "marker-color": "#56B3FF"}}, {"type": "Feature", "geometry": {"type": "Point", "coordinates": [2.425863, 48.806481]}, "properties": {"station": "PROFESSEUR CADIOT", "ID BDGEO": "294", "marker-color": "#56B3FF"}}, {"type": "Feature", "geometry": {"type": "Point", "coordinates": [2.473679, 48.780955]}, "properties": {"station": "CRETEIL-LA GAITE.", "ID BDGEO": "317", "marker-color": "#56B3FF"}}, {"type": "Feature", "geometry": {"type": "Point", "coordinates": [2.43329, 48.79755]}, "properties": {"station": "GENERAL GALLIENI", "ID BDGEO": "311", "marker-color": "#56B3FF"}}, {"type": "Feature", "geometry": {"type": "Point", "coordinates": [2.437311, 48.787831]}, "properties": {"station": "PETITES HAIES", "ID BDGEO": "268", "marker-color": "#56B3FF"}}, {"type": "Feature", "geometry": {"type": "Point", "coordinates": [2.473965, 48.78108]}, "properties": {"station": "CRETEIL-LA GAITE #", "ID BDGEO": "314", "marker-color": "#56B3FF"}}, {"type": "Feature", "geometry": {"type": "Point", "coordinates": [2.474033, 48.781197]}, "properties": {"station": "LA GAITE#", "ID BDGEO": "369", "marker-color": "#56B3FF"}}]}