{"type": "FeatureCollection", "features": [{"type": "Feature", "geometry": {"type": "Point", "coordinates": [2.329103, 48.822773]}, "properties": {"alarme": "DEFAUT LIAISON DATA SAEIV / AIGLE", "numparc": 1385, "type": "TECHNIQUE", "duree": "00:04:41", "horodatage": "2023-04-06 05:52:37", "statut": "start", "marker-color": "#ff0000"}}, {"type": "Feature", "geometry": {"type": "Point", "coordinates": [2.329982, 48.823174]}, "properties": {"alarme": "VEHICULE DELOCALISE", "numparc": 1401, "type": "EXPLOITATION", "duree": "00:00:01", "horodatage": "2023-04-06 18:05:47", "statut": "start", "marker-color": "#ff0000"}}, {"type": "Feature", "geometry": {"type": "Point", "coordinates": [2.329679, 48.8228]}, "properties": {"alarme": "DEFAUT LIAISON DATA SAEIV / AIGLE", "numparc": 1413, "type": "TECHNIQUE", "duree": "00:00:06", "horodatage": "2023-04-06 18:13:31", "statut": "start", "marker-color": "#ff0000"}}, {"type": "Feature", "geometry": {"type": "Point", "coordinates": [2.30084, 48.825291]}, "properties": {"alarme": "VEHICULE DELOCALISE", "numparc": 1421, "type": "EXPLOITATION", "duree": "00:02:50", "horodatage": "2023-04-06 20:27:58", "statut": "start", "marker-color": "#ff0000"}}, {"type": "Feature", "geometry": {"type": "Point", "coordinates": [2.329144, 48.822872]}, "properties": {"alarme": "DEFAUT LIAISON DATA SAEIV / AIGLE", "numparc": 1385, "type": "TECHNIQUE", "duree": "00:04:41", "horodatage": "2023-04-06 05:57:18", "statut": "end", "marker-color": "#2fe184"}}, {"type": "Feature", "geometry": {"type": "Point", "coordinates": [2.329982, 48.823174]}, "properties": {"alarme": "VEHICULE DELOCALISE", "numparc": 1401, "type": "EXPLOITATION", "duree": "00:00:01", "horodatage": "2023-04-06 18:05:47", "statut": "end", "marker-color": "#2fe184"}}, {"type": "Feature", "geometry": {"type": "Point", "coordinates": [2.329679, 48.8228]}, "properties": {"alarme": "DEFAUT LIAISON DATA SAEIV / AIGLE", "numparc": 1413, "type": "TECHNIQUE", "duree": "00:00:06", "horodatage": "2023-04-06 18:13:37", "statut": "end", "marker-color": "#2fe184"}}, {"type": "Feature", "geometry": {"type": "Point", "coordinates": [2.30459, 48.827129]}, "properties": {"alarme": "VEHICULE DELOCALISE", "numparc": 1421, "type": "EXPLOITATION", "duree": "00:02:50", "horodatage": "2023-04-06 20:30:48", "statut": "end", "marker-color": "#2fe184"}}]}