{"type": "FeatureCollection", "features": [{"type": "Feature", "geometry": {"type": "Point", "coordinates": [2.387249, 48.75565]}, "properties": {"numparc": 5740, "etat de la localisation": "autre", "ID BDGEO": "135", "horodatage": "2023-03-03 15:42:27", "distance (en metres)": 6464.64, "station": "PYRAMIDE DE JUVISY", "marker-color": "#818181"}}, {"type": "Feature", "geometry": {"type": "Point", "coordinates": [2.377197, 48.691044]}, "properties": {"numparc": 5740, "etat de la localisation": "autre", "ID BDGEO": "151", "horodatage": "2023-03-03 17:49:20", "distance (en metres)": 115.74, "station": "MARCHE DE JUVISY", "marker-color": "#818181"}}, {"type": "Feature", "geometry": {"type": "Point", "coordinates": [2.377084, 48.69109]}, "properties": {"numparc": 5740, "etat de la localisation": "autre", "ID BDGEO": "151", "horodatage": "2023-03-03 19:29:28", "distance (en metres)": 108.52, "station": "MARCHE DE JUVISY", "marker-color": "#818181"}}, {"type": "Feature", "geometry": {"type": "Point", "coordinates": [2.344026, 48.672249]}, "properties": {"numparc": 5740, "etat de la localisation": "autre", "ID BDGEO": "133", "horodatage": "2023-03-03 20:31:21", "distance (en metres)": 121.19, "station": "BILLOIR", "marker-color": "#818181"}}, {"type": "Feature", "geometry": {"type": "Point", "coordinates": [2.338384, 48.676113]}, "properties": {"numparc": 5740, "etat de la localisation": "autre", "ID BDGEO": "861", "horodatage": "2023-03-03 20:34:47", "distance (en metres)": 3674.16, "station": "JUVISY-RER#", "marker-color": "#818181"}}, {"type": "Feature", "geometry": {"type": "Point", "coordinates": [2.338361, 48.676048]}, "properties": {"numparc": 5740, "etat de la localisation": "autre", "ID BDGEO": "861", "horodatage": "2023-03-03 20:36:46", "distance (en metres)": 3679.03, "station": "JUVISY-RER#", "marker-color": "#818181"}}, {"type": "Feature", "geometry": {"type": "Point", "coordinates": [2.350892, 48.67577]}, "properties": {"numparc": 5740, "etat de la localisation": "autre", "ID BDGEO": "861", "horodatage": "2023-03-03 20:45:14", "distance (en metres)": 2917.88, "station": "JUVISY-RER#", "marker-color": "#818181"}}, {"type": "Feature", "geometry": {"type": "Point", "coordinates": [2.342861, 48.681107]}, "properties": {"numparc": 5740, "etat de la localisation": "autre", "ID BDGEO": "861", "horodatage": "2023-03-03 20:50:24", "distance (en metres)": 3141.64, "station": "JUVISY-RER#", "marker-color": "#818181"}}, {"type": "Feature", "geometry": {"type": "Point", "coordinates": [2.345047, 48.683601]}, "properties": {"numparc": 5740, "etat de la localisation": "autre", "ID BDGEO": "861", "horodatage": "2023-03-03 20:51:26", "distance (en metres)": 2896.39, "station": "JUVISY-RER#", "marker-color": "#818181"}}, {"type": "Feature", "geometry": {"type": "Point", "coordinates": [2.347183, 48.685558]}, "properties": {"numparc": 5740, "etat de la localisation": "autre", "ID BDGEO": "861", "horodatage": "2023-03-03 20:52:38", "distance (en metres)": 2685.07, "station": "JUVISY-RER#", "marker-color": "#818181"}}, {"type": "Feature", "geometry": {"type": "Point", "coordinates": [2.353815, 48.687012]}, "properties": {"numparc": 5740, "etat de la localisation": "autre", "ID BDGEO": "861", "horodatage": "2023-03-03 20:54:13", "distance (en metres)": 2173.55, "station": "JUVISY-RER#", "marker-color": "#818181"}}, {"type": "Feature", "geometry": {"type": "Point", "coordinates": [2.359011, 48.688694]}, "properties": {"numparc": 5740, "etat de la localisation": "autre", "ID BDGEO": "861", "horodatage": "2023-03-03 20:55:30", "distance (en metres)": 1761.34, "station": "JUVISY-RER#", "marker-color": "#818181"}}, {"type": "Feature", "geometry": {"type": "Point", "coordinates": [2.362516, 48.691189]}, "properties": {"numparc": 5740, "etat de la localisation": "autre", "ID BDGEO": "861", "horodatage": "2023-03-03 20:56:59", "distance (en metres)": 1474.99, "station": "JUVISY-RER#", "marker-color": "#818181"}}, {"type": "Feature", "geometry": {"type": "Point", "coordinates": [2.372056, 48.698658]}, "properties": {"numparc": 5740, "etat de la localisation": "autre", "ID BDGEO": "126", "horodatage": "2023-03-03 21:00:46", "distance (en metres)": 86.93, "station": "PYRAMIDE DE JUVISY", "marker-color": "#818181"}}, {"type": "Feature", "geometry": {"type": "Point", "coordinates": [2.387374, 48.754017]}, "properties": {"numparc": 5740, "etat de la localisation": "autre", "ID BDGEO": "149", "horodatage": "2023-03-03 21:12:59", "distance (en metres)": 142.18, "station": "DEPOT THIAIS SORTIE", "marker-color": "#818181"}}, {"type": "Feature", "geometry": {"type": "Point", "coordinates": [2.387374, 48.754017]}, "properties": {"numparc": 5740, "etat de la localisation": "autre", "ID BDGEO": "149", "horodatage": "2023-03-03 21:16:33", "distance (en metres)": 142.18, "station": "DEPOT THIAIS SORTIE", "marker-color": "#818181"}}, {"type": "Feature", "geometry": {"type": "Point", "coordinates": [2.372301, 48.698354]}, "properties": {"station": "PYRAMIDE DE JUVISY", "ID BDGEO": "135", "marker-color": "#56B3FF"}}, {"type": "Feature", "geometry": {"type": "Point", "coordinates": [2.37671, 48.692034]}, "properties": {"station": "MARCHE DE JUVISY", "ID BDGEO": "151", "marker-color": "#56B3FF"}}, {"type": "Feature", "geometry": {"type": "Point", "coordinates": [2.345072, 48.673092]}, "properties": {"station": "BILLOIR", "ID BDGEO": "133", "marker-color": "#56B3FF"}}, {"type": "Feature", "geometry": {"type": "Point", "coordinates": [2.382602, 48.691591]}, "properties": {"station": "JUVISY-RER#", "ID BDGEO": "861", "marker-color": "#56B3FF"}}, {"type": "Feature", "geometry": {"type": "Point", "coordinates": [2.3715, 48.697968]}, "properties": {"station": "PYRAMIDE DE JUVISY", "ID BDGEO": "126", "marker-color": "#56B3FF"}}, {"type": "Feature", "geometry": {"type": "Point", "coordinates": [2.38679, 48.755236]}, "properties": {"station": "DEPOT THIAIS SORTIE", "ID BDGEO": "149", "marker-color": "#56B3FF"}}]}