{"type": "FeatureCollection", "features": [{"type": "Feature", "geometry": {"type": "Point", "coordinates": [2.317511, 48.876747]}, "properties": {"etat de la localisation": "Delocalise", "numparc": 672, "duree": "00:02:36", "horodatage": "2021-11-07 07:40:11", "marker-color": "#FF565E"}}, {"type": "Feature", "geometry": {"type": "Point", "coordinates": [2.407978, 48.850071]}, "properties": {"etat de la localisation": "Delocalise", "numparc": 669, "duree": "00:05:52", "horodatage": "2021-11-07 07:46:49", "marker-color": "#FF565E"}}, {"type": "Feature", "geometry": {"type": "Point", "coordinates": [2.405078, 48.876492]}, "properties": {"etat de la localisation": "Delocalise", "numparc": 672, "duree": "00:00:17", "horodatage": "2021-11-07 08:40:28", "marker-color": "#FF565E"}}, {"type": "Feature", "geometry": {"type": "Point", "coordinates": [2.389415, 48.875252]}, "properties": {"etat de la localisation": "Delocalise", "numparc": 672, "duree": "00:00:29", "horodatage": "2021-11-07 08:44:02", "marker-color": "#FF565E"}}, {"type": "Feature", "geometry": {"type": "Point", "coordinates": [2.407441, 48.850639]}, "properties": {"etat de la localisation": "Delocalise", "numparc": 675, "duree": "00:03:09", "horodatage": "2021-11-07 08:45:18", "marker-color": "#FF565E"}}, {"type": "Feature", "geometry": {"type": "Point", "coordinates": [2.295586, 48.892513]}, "properties": {"etat de la localisation": "Delocalise", "numparc": 672, "duree": "00:00:31", "horodatage": "2021-11-07 09:47:09", "marker-color": "#FF565E"}}, {"type": "Feature", "geometry": {"type": "Point", "coordinates": [2.364357, 48.866646]}, "properties": {"etat de la localisation": "Delocalise", "numparc": 672, "duree": "00:01:49", "horodatage": "2021-11-07 10:14:43", "marker-color": "#FF565E"}}, {"type": "Feature", "geometry": {"type": "Point", "coordinates": [2.380025, 48.869705]}, "properties": {"etat de la localisation": "Delocalise", "numparc": 672, "duree": "00:01:15", "horodatage": "2021-11-07 10:22:30", "marker-color": "#FF565E"}}, {"type": "Feature", "geometry": {"type": "Point", "coordinates": [2.381803, 48.874069]}, "properties": {"etat de la localisation": "Delocalise", "numparc": 672, "duree": "00:00:33", "horodatage": "2021-11-07 10:26:42", "marker-color": "#FF565E"}}, {"type": "Feature", "geometry": {"type": "Point", "coordinates": [2.364296, 48.866741]}, "properties": {"etat de la localisation": "Delocalise", "numparc": 675, "duree": "00:02:58", "horodatage": "2021-11-07 10:32:32", "marker-color": "#FF565E"}}, {"type": "Feature", "geometry": {"type": "Point", "coordinates": [2.40765, 48.87664]}, "properties": {"etat de la localisation": "Mission inconnue", "numparc": 675, "duree": "", "horodatage": "2021-11-07 11:20:11", "marker-color": "#FF9F56"}}, {"type": "Feature", "geometry": {"type": "Point", "coordinates": [2.40765, 48.87664]}, "properties": {"etat de la localisation": "Mission inconnue", "numparc": 675, "duree": "", "horodatage": "2021-11-07 11:20:18", "marker-color": "#FF9F56"}}, {"type": "Feature", "geometry": {"type": "Point", "coordinates": [2.408889, 48.876938]}, "properties": {"etat de la localisation": "Mission suivante non connue", "numparc": 675, "duree": "", "horodatage": "2021-11-07 11:24:54", "marker-color": "#7156FF"}}, {"type": "Feature", "geometry": {"type": "Point", "coordinates": [2.409257, 48.876324]}, "properties": {"etat de la localisation": "Delocalise", "numparc": 675, "duree": "00:10:54", "horodatage": "2021-11-07 11:24:59", "marker-color": "#FF565E"}}, {"type": "Feature", "geometry": {"type": "Point", "coordinates": [2.407502, 48.849514]}, "properties": {"etat de la localisation": "Hors service", "numparc": 675, "duree": "", "horodatage": "2021-11-07 11:35:53", "marker-color": "#707070"}}, {"type": "Feature", "geometry": {"type": "Point", "coordinates": [2.406437, 48.851364]}, "properties": {"etat de la localisation": "Mission inconnue", "numparc": 675, "duree": "", "horodatage": "2021-11-07 11:39:29", "marker-color": "#FF9F56"}}, {"type": "Feature", "geometry": {"type": "Point", "coordinates": [2.362177, 48.868103]}, "properties": {"etat de la localisation": "Mission inconnue", "numparc": 675, "duree": "", "horodatage": "2021-11-07 11:56:17", "marker-color": "#FF9F56"}}, {"type": "Feature", "geometry": {"type": "Point", "coordinates": [2.364227, 48.86692]}, "properties": {"etat de la localisation": "Delocalise", "numparc": 669, "duree": "00:02:44", "horodatage": "2021-11-07 12:19:09", "marker-color": "#FF565E"}}, {"type": "Feature", "geometry": {"type": "Point", "coordinates": [2.364111, 48.866791]}, "properties": {"etat de la localisation": "Delocalise", "numparc": 672, "duree": "00:01:49", "horodatage": "2021-11-07 12:53:26", "marker-color": "#FF565E"}}, {"type": "Feature", "geometry": {"type": "Point", "coordinates": [2.364369, 48.86676]}, "properties": {"etat de la localisation": "Delocalise", "numparc": 675, "duree": "00:05:48", "horodatage": "2021-11-07 13:15:58", "marker-color": "#FF565E"}}, {"type": "Feature", "geometry": {"type": "Point", "coordinates": [2.408419, 48.877003]}, "properties": {"etat de la localisation": "Hors service", "numparc": 672, "duree": "", "horodatage": "2021-11-07 13:22:45", "marker-color": "#707070"}}, {"type": "Feature", "geometry": {"type": "Point", "coordinates": [2.364177, 48.866856]}, "properties": {"etat de la localisation": "Delocalise", "numparc": 671, "duree": "00:03:47", "horodatage": "2021-11-07 13:43:34", "marker-color": "#FF565E"}}, {"type": "Feature", "geometry": {"type": "Point", "coordinates": [2.408051, 48.876644]}, "properties": {"etat de la localisation": "Hors service", "numparc": 671, "duree": "", "horodatage": "2021-11-07 14:31:37", "marker-color": "#707070"}}, {"type": "Feature", "geometry": {"type": "Point", "coordinates": [2.364307, 48.866791]}, "properties": {"etat de la localisation": "Delocalise", "numparc": 669, "duree": "00:02:02", "horodatage": "2021-11-07 15:04:08", "marker-color": "#FF565E"}}, {"type": "Feature", "geometry": {"type": "Point", "coordinates": [2.377242, 48.872219]}, "properties": {"etat de la localisation": "Deviation programmee", "numparc": 669, "duree": "", "horodatage": "2021-11-07 16:17:30", "marker-color": "#56FF93"}}, {"type": "Feature", "geometry": {"type": "Point", "coordinates": [2.377235, 48.872211]}, "properties": {"etat de la localisation": "Deviation programmee", "numparc": 680, "duree": "", "horodatage": "2021-11-07 16:31:34", "marker-color": "#56FF93"}}, {"type": "Feature", "geometry": {"type": "Point", "coordinates": [2.364117, 48.866798]}, "properties": {"etat de la localisation": "Delocalise", "numparc": 671, "duree": "00:01:51", "horodatage": "2021-11-07 16:34:13", "marker-color": "#FF565E"}}, {"type": "Feature", "geometry": {"type": "Point", "coordinates": [2.397009, 48.874878]}, "properties": {"etat de la localisation": "Delocalise", "numparc": 675, "duree": "00:01:12", "horodatage": "2021-11-07 16:43:13", "marker-color": "#FF565E"}}, {"type": "Feature", "geometry": {"type": "Point", "coordinates": [2.408754, 48.876896]}, "properties": {"etat de la localisation": "Hors service", "numparc": 669, "duree": "", "horodatage": "2021-11-07 19:04:15", "marker-color": "#707070"}}, {"type": "Feature", "geometry": {"type": "Point", "coordinates": [2.407646, 48.849339]}, "properties": {"etat de la localisation": "Hors service", "numparc": 672, "duree": "", "horodatage": "2021-11-07 19:43:51", "marker-color": "#707070"}}, {"type": "Feature", "geometry": {"type": "Point", "coordinates": [2.405206, 48.872959]}, "properties": {"etat de la localisation": "Mission inconnue", "numparc": 669, "duree": "", "horodatage": "2021-11-07 19:55:28", "marker-color": "#FF9F56"}}, {"type": "Feature", "geometry": {"type": "Point", "coordinates": [2.407381, 48.848785]}, "properties": {"etat de la localisation": "Hors service", "numparc": 669, "duree": "", "horodatage": "2021-11-07 20:14:31", "marker-color": "#707070"}}, {"type": "Feature", "geometry": {"type": "Point", "coordinates": [2.29621, 48.891575]}, "properties": {"etat de la localisation": "Hors service", "numparc": 680, "duree": "", "horodatage": "2021-11-07 20:27:38", "marker-color": "#707070"}}, {"type": "Feature", "geometry": {"type": "Point", "coordinates": [2.408104, 48.876545]}, "properties": {"etat de la localisation": "Hors service", "numparc": 680, "duree": "", "horodatage": "2021-11-07 21:53:43", "marker-color": "#707070"}}, {"type": "Feature", "geometry": {"type": "Point", "coordinates": [2.407203, 48.849251]}, "properties": {"etat de la localisation": "Mission inconnue", "numparc": 670, "duree": "", "horodatage": "2021-11-07 22:47:40", "marker-color": "#FF9F56"}}, {"type": "Feature", "geometry": {"type": "Point", "coordinates": [2.407203, 48.849251]}, "properties": {"etat de la localisation": "Delocalise", "numparc": 670, "duree": "00:00:23", "horodatage": "2021-11-07 22:47:44", "marker-color": "#FF565E"}}, {"type": "Feature", "geometry": {"type": "Point", "coordinates": [2.407203, 48.849251]}, "properties": {"etat de la localisation": "Hors service", "numparc": 670, "duree": "", "horodatage": "2021-11-07 22:48:07", "marker-color": "#707070"}}, {"type": "Feature", "geometry": {"type": "Point", "coordinates": [2.407203, 48.849251]}, "properties": {"etat de la localisation": "Mission inconnue", "numparc": 670, "duree": "", "horodatage": "2021-11-07 22:49:15", "marker-color": "#FF9F56"}}, {"type": "Feature", "geometry": {"type": "Point", "coordinates": [2.407203, 48.849251]}, "properties": {"etat de la localisation": "Delocalise", "numparc": 670, "duree": "00:02:16", "horodatage": "2021-11-07 22:49:18", "marker-color": "#FF565E"}}, {"type": "Feature", "geometry": {"type": "Point", "coordinates": [2.407203, 48.849251]}, "properties": {"etat de la localisation": "Hors service", "numparc": 670, "duree": "", "horodatage": "2021-11-07 22:51:34", "marker-color": "#707070"}}, {"type": "Feature", "geometry": {"type": "Point", "coordinates": [2.316362, 48.878418]}, "properties": {"etat de la localisation": "Delocalise", "numparc": 675, "duree": "00:04:16", "horodatage": "2021-11-07 23:01:24", "marker-color": "#FF565E"}}, {"type": "Feature", "geometry": {"type": "Point", "coordinates": [2.296107, 48.891476]}, "properties": {"etat de la localisation": "Hors service", "numparc": 680, "duree": "", "horodatage": "2021-11-07 23:20:46", "marker-color": "#707070"}}, {"type": "Feature", "geometry": {"type": "Point", "coordinates": [2.406307, 48.849926]}, "properties": {"etat de la localisation": "Hors service", "numparc": 671, "duree": "", "horodatage": "2021-11-07 23:56:37", "marker-color": "#707070"}}, {"type": "Feature", "geometry": {"type": "Point", "coordinates": [2.408059, 48.876614]}, "properties": {"etat de la localisation": "Hors service", "numparc": 673, "duree": "", "horodatage": "2021-11-08 00:10:44", "marker-color": "#707070"}}, {"type": "Feature", "geometry": {"type": "Point", "coordinates": [2.408428, 48.876556]}, "properties": {"etat de la localisation": "Hors service", "numparc": 680, "duree": "", "horodatage": "2021-11-08 00:27:15", "marker-color": "#707070"}}, {"type": "Feature", "geometry": {"type": "Point", "coordinates": [2.30276, 48.892635]}, "properties": {"etat de la localisation": "Delocalise", "numparc": 673, "duree": "00:00:37", "horodatage": "2021-11-08 00:40:24", "marker-color": "#FF565E"}}, {"type": "Feature", "geometry": {"type": "Point", "coordinates": [2.40758, 48.850677]}, "properties": {"etat de la localisation": "Hors service", "numparc": 675, "duree": "", "horodatage": "2021-11-08 00:40:42", "marker-color": "#707070"}}, {"type": "Feature", "geometry": {"type": "Point", "coordinates": [2.407179, 48.849682]}, "properties": {"etat de la localisation": "Hors service", "numparc": 673, "duree": "", "horodatage": "2021-11-08 01:04:58", "marker-color": "#707070"}}, {"type": "Feature", "geometry": {"type": "Point", "coordinates": [2.407199, 48.849716]}, "properties": {"etat de la localisation": "Hors service", "numparc": 680, "duree": "", "horodatage": "2021-11-08 01:25:24", "marker-color": "#707070"}}]}