{"type": "FeatureCollection", "features": [{"type": "Feature", "geometry": {"type": "Point", "coordinates": [2.441224, 48.772572]}, "properties": {"etat de la localisation": "Mission inconnue", "numparc": 2867, "duree": "", "horodatage": "2022-08-02 05:21:45", "marker-color": "#FF9F56"}}, {"type": "Feature", "geometry": {"type": "Point", "coordinates": [2.442935, 48.77306]}, "properties": {"etat de la localisation": "Delocalise", "numparc": 2856, "duree": "00:15:01", "horodatage": "2022-08-02 05:58:32", "marker-color": "#FF565E"}}, {"type": "Feature", "geometry": {"type": "Point", "coordinates": [2.442936, 48.77306]}, "properties": {"etat de la localisation": "Hors service", "numparc": 2856, "duree": "", "horodatage": "2022-08-02 06:13:33", "marker-color": "#707070"}}, {"type": "Feature", "geometry": {"type": "Point", "coordinates": [2.442936, 48.77306]}, "properties": {"etat de la localisation": "Delocalise", "numparc": 2856, "duree": "00:03:48", "horodatage": "2022-08-02 06:14:51", "marker-color": "#FF565E"}}, {"type": "Feature", "geometry": {"type": "Point", "coordinates": [2.398283, 48.817871]}, "properties": {"etat de la localisation": "Hors service", "numparc": 2856, "duree": "", "horodatage": "2022-08-02 06:29:52", "marker-color": "#707070"}}, {"type": "Feature", "geometry": {"type": "Point", "coordinates": [2.375903, 48.831589]}, "properties": {"etat de la localisation": "Delocalise", "numparc": 2861, "duree": "00:09:36", "horodatage": "2022-08-02 07:03:12", "marker-color": "#FF565E"}}, {"type": "Feature", "geometry": {"type": "Point", "coordinates": [2.39804, 48.818054]}, "properties": {"etat de la localisation": "Hors service", "numparc": 2856, "duree": "", "horodatage": "2022-08-02 07:08:05", "marker-color": "#707070"}}, {"type": "Feature", "geometry": {"type": "Point", "coordinates": [2.407831, 48.804955]}, "properties": {"etat de la localisation": "Mission suivante non connue", "numparc": 2856, "duree": "", "horodatage": "2022-08-02 07:11:36", "marker-color": "#7156FF"}}, {"type": "Feature", "geometry": {"type": "Point", "coordinates": [2.398286, 48.817944]}, "properties": {"etat de la localisation": "Hors service", "numparc": 2856, "duree": "", "horodatage": "2022-08-02 07:26:40", "marker-color": "#707070"}}, {"type": "Feature", "geometry": {"type": "Point", "coordinates": [2.376884, 48.830219]}, "properties": {"etat de la localisation": "Hors service", "numparc": 2856, "duree": "", "horodatage": "2022-08-02 07:44:55", "marker-color": "#707070"}}, {"type": "Feature", "geometry": {"type": "Point", "coordinates": [2.376884, 48.830219]}, "properties": {"etat de la localisation": "Delocalise", "numparc": 2856, "duree": "00:04:29", "horodatage": "2022-08-02 07:46:22", "marker-color": "#FF565E"}}, {"type": "Feature", "geometry": {"type": "Point", "coordinates": [2.395544, 48.820183]}, "properties": {"etat de la localisation": "Hors service", "numparc": 2856, "duree": "", "horodatage": "2022-08-02 08:01:23", "marker-color": "#707070"}}, {"type": "Feature", "geometry": {"type": "Point", "coordinates": [2.39843, 48.818466]}, "properties": {"etat de la localisation": "Delocalise", "numparc": 2856, "duree": "00:01:41", "horodatage": "2022-08-02 08:02:43", "marker-color": "#FF565E"}}, {"type": "Feature", "geometry": {"type": "Point", "coordinates": [2.377147, 48.830215]}, "properties": {"etat de la localisation": "Hors service", "numparc": 2856, "duree": "", "horodatage": "2022-08-02 08:17:44", "marker-color": "#707070"}}, {"type": "Feature", "geometry": {"type": "Point", "coordinates": [2.377792, 48.829742]}, "properties": {"etat de la localisation": "Delocalise", "numparc": 2856, "duree": "00:07:36", "horodatage": "2022-08-02 08:18:22", "marker-color": "#FF565E"}}, {"type": "Feature", "geometry": {"type": "Point", "coordinates": [2.379304, 48.832012]}, "properties": {"etat de la localisation": "Hors service", "numparc": 2856, "duree": "", "horodatage": "2022-08-02 08:33:23", "marker-color": "#707070"}}, {"type": "Feature", "geometry": {"type": "Point", "coordinates": [2.376964, 48.830124]}, "properties": {"etat de la localisation": "Hors service", "numparc": 2856, "duree": "", "horodatage": "2022-08-02 08:56:41", "marker-color": "#707070"}}, {"type": "Feature", "geometry": {"type": "Point", "coordinates": [2.377925, 48.829483]}, "properties": {"etat de la localisation": "Delocalise", "numparc": 2856, "duree": "00:01:12", "horodatage": "2022-08-02 09:02:41", "marker-color": "#FF565E"}}, {"type": "Feature", "geometry": {"type": "Point", "coordinates": [2.395533, 48.82019]}, "properties": {"etat de la localisation": "Hors service", "numparc": 2856, "duree": "", "horodatage": "2022-08-02 09:17:44", "marker-color": "#707070"}}, {"type": "Feature", "geometry": {"type": "Point", "coordinates": [2.398407, 48.818424]}, "properties": {"etat de la localisation": "Delocalise", "numparc": 2856, "duree": "00:01:18", "horodatage": "2022-08-02 09:18:32", "marker-color": "#FF565E"}}, {"type": "Feature", "geometry": {"type": "Point", "coordinates": [2.377668, 48.831043]}, "properties": {"etat de la localisation": "Delocalise", "numparc": 2867, "duree": "00:00:37", "horodatage": "2022-08-02 09:30:52", "marker-color": "#FF565E"}}, {"type": "Feature", "geometry": {"type": "Point", "coordinates": [2.37709, 48.830074]}, "properties": {"etat de la localisation": "Hors service", "numparc": 2856, "duree": "", "horodatage": "2022-08-02 09:33:34", "marker-color": "#707070"}}, {"type": "Feature", "geometry": {"type": "Point", "coordinates": [2.37709, 48.830074]}, "properties": {"etat de la localisation": "Delocalise", "numparc": 2856, "duree": "00:02:17", "horodatage": "2022-08-02 09:34:05", "marker-color": "#FF565E"}}, {"type": "Feature", "geometry": {"type": "Point", "coordinates": [2.395552, 48.820194]}, "properties": {"etat de la localisation": "Hors service", "numparc": 2856, "duree": "", "horodatage": "2022-08-02 09:49:09", "marker-color": "#707070"}}, {"type": "Feature", "geometry": {"type": "Point", "coordinates": [2.398343, 48.818359]}, "properties": {"etat de la localisation": "Mission inconnue", "numparc": 2856, "duree": "", "horodatage": "2022-08-02 09:52:13", "marker-color": "#FF9F56"}}, {"type": "Feature", "geometry": {"type": "Point", "coordinates": [2.377019, 48.830162]}, "properties": {"etat de la localisation": "Hors service", "numparc": 2856, "duree": "", "horodatage": "2022-08-02 10:07:18", "marker-color": "#707070"}}, {"type": "Feature", "geometry": {"type": "Point", "coordinates": [2.441783, 48.772099]}, "properties": {"etat de la localisation": "Hors service", "numparc": 2867, "duree": "", "horodatage": "2022-08-02 11:42:43", "marker-color": "#707070"}}, {"type": "Feature", "geometry": {"type": "Point", "coordinates": [2.377496, 48.831043]}, "properties": {"etat de la localisation": "Delocalise", "numparc": 2861, "duree": "00:00:48", "horodatage": "2022-08-02 12:34:28", "marker-color": "#FF565E"}}, {"type": "Feature", "geometry": {"type": "Point", "coordinates": [2.442119, 48.772381]}, "properties": {"etat de la localisation": "Delocalise", "numparc": 2863, "duree": "00:18:29", "horodatage": "2022-08-02 13:07:21", "marker-color": "#FF565E"}}, {"type": "Feature", "geometry": {"type": "Point", "coordinates": [2.443335, 48.772293]}, "properties": {"etat de la localisation": "Delocalise", "numparc": 2866, "duree": "00:30:25", "horodatage": "2022-08-02 13:08:20", "marker-color": "#FF565E"}}, {"type": "Feature", "geometry": {"type": "Point", "coordinates": [2.443197, 48.771751]}, "properties": {"etat de la localisation": "Hors service", "numparc": 2861, "duree": "", "horodatage": "2022-08-02 13:37:23", "marker-color": "#707070"}}, {"type": "Feature", "geometry": {"type": "Point", "coordinates": [2.441901, 48.772064]}, "properties": {"etat de la localisation": "Hors service", "numparc": 2859, "duree": "", "horodatage": "2022-08-02 13:44:27", "marker-color": "#707070"}}, {"type": "Feature", "geometry": {"type": "Point", "coordinates": [2.443105, 48.771866]}, "properties": {"etat de la localisation": "Hors service", "numparc": 2862, "duree": "", "horodatage": "2022-08-02 13:58:04", "marker-color": "#707070"}}, {"type": "Feature", "geometry": {"type": "Point", "coordinates": [2.378335, 48.828632]}, "properties": {"etat de la localisation": "Delocalise", "numparc": 2863, "duree": "00:01:28", "horodatage": "2022-08-02 14:31:32", "marker-color": "#FF565E"}}, {"type": "Feature", "geometry": {"type": "Point", "coordinates": [2.378339, 48.828613]}, "properties": {"etat de la localisation": "Delocalise", "numparc": 2863, "duree": "00:04:16", "horodatage": "2022-08-02 15:32:33", "marker-color": "#FF565E"}}, {"type": "Feature", "geometry": {"type": "Point", "coordinates": [2.44314, 48.771702]}, "properties": {"etat de la localisation": "Hors service", "numparc": 2866, "duree": "", "horodatage": "2022-08-02 16:16:40", "marker-color": "#707070"}}, {"type": "Feature", "geometry": {"type": "Point", "coordinates": [2.378309, 48.828609]}, "properties": {"etat de la localisation": "Delocalise", "numparc": 2863, "duree": "00:11:59", "horodatage": "2022-08-02 16:24:42", "marker-color": "#FF565E"}}, {"type": "Feature", "geometry": {"type": "Point", "coordinates": [2.441413, 48.773006]}, "properties": {"etat de la localisation": "Delocalise", "numparc": 2856, "duree": "00:15:03", "horodatage": "2022-08-02 16:44:56", "marker-color": "#FF565E"}}, {"type": "Feature", "geometry": {"type": "Point", "coordinates": [2.439611, 48.773937]}, "properties": {"etat de la localisation": "Hors service", "numparc": 2856, "duree": "", "horodatage": "2022-08-02 16:59:59", "marker-color": "#707070"}}, {"type": "Feature", "geometry": {"type": "Point", "coordinates": [2.439611, 48.773937]}, "properties": {"etat de la localisation": "Delocalise", "numparc": 2856, "duree": "00:05:12", "horodatage": "2022-08-02 17:00:37", "marker-color": "#FF565E"}}, {"type": "Feature", "geometry": {"type": "Point", "coordinates": [2.389186, 48.82473]}, "properties": {"etat de la localisation": "Hors service", "numparc": 2856, "duree": "", "horodatage": "2022-08-02 17:15:38", "marker-color": "#707070"}}, {"type": "Feature", "geometry": {"type": "Point", "coordinates": [2.378342, 48.828659]}, "properties": {"etat de la localisation": "Delocalise", "numparc": 2863, "duree": "00:24:32", "horodatage": "2022-08-02 17:30:52", "marker-color": "#FF565E"}}, {"type": "Feature", "geometry": {"type": "Point", "coordinates": [2.377773, 48.829437]}, "properties": {"etat de la localisation": "Hors service", "numparc": 2867, "duree": "", "horodatage": "2022-08-02 17:31:49", "marker-color": "#707070"}}, {"type": "Feature", "geometry": {"type": "Point", "coordinates": [2.396377, 48.819576]}, "properties": {"etat de la localisation": "Hors service", "numparc": 2856, "duree": "", "horodatage": "2022-08-02 17:41:25", "marker-color": "#707070"}}, {"type": "Feature", "geometry": {"type": "Point", "coordinates": [2.396372, 48.819588]}, "properties": {"etat de la localisation": "Delocalise", "numparc": 2856, "duree": "00:00:03", "horodatage": "2022-08-02 17:42:40", "marker-color": "#FF565E"}}, {"type": "Feature", "geometry": {"type": "Point", "coordinates": [2.377664, 48.829651]}, "properties": {"etat de la localisation": "Hors service", "numparc": 2856, "duree": "", "horodatage": "2022-08-02 17:57:42", "marker-color": "#707070"}}, {"type": "Feature", "geometry": {"type": "Point", "coordinates": [2.377664, 48.82962]}, "properties": {"etat de la localisation": "Delocalise", "numparc": 2856, "duree": "00:00:20", "horodatage": "2022-08-02 18:19:08", "marker-color": "#FF565E"}}, {"type": "Feature", "geometry": {"type": "Point", "coordinates": [2.395628, 48.820187]}, "properties": {"etat de la localisation": "Hors service", "numparc": 2856, "duree": "", "horodatage": "2022-08-02 18:34:10", "marker-color": "#707070"}}, {"type": "Feature", "geometry": {"type": "Point", "coordinates": [2.403166, 48.811359]}, "properties": {"etat de la localisation": "Delocalise", "numparc": 2856, "duree": "00:02:45", "horodatage": "2022-08-02 18:39:03", "marker-color": "#FF565E"}}, {"type": "Feature", "geometry": {"type": "Point", "coordinates": [2.377345, 48.829945]}, "properties": {"etat de la localisation": "Hors service", "numparc": 2867, "duree": "", "horodatage": "2022-08-02 18:49:35", "marker-color": "#707070"}}, {"type": "Feature", "geometry": {"type": "Point", "coordinates": [2.40285, 48.814571]}, "properties": {"etat de la localisation": "Hors service", "numparc": 2856, "duree": "", "horodatage": "2022-08-02 18:54:06", "marker-color": "#707070"}}, {"type": "Feature", "geometry": {"type": "Point", "coordinates": [2.377768, 48.829586]}, "properties": {"etat de la localisation": "Delocalise", "numparc": 2856, "duree": "00:00:26", "horodatage": "2022-08-02 19:31:54", "marker-color": "#FF565E"}}, {"type": "Feature", "geometry": {"type": "Point", "coordinates": [2.39826, 48.817898]}, "properties": {"etat de la localisation": "Hors service", "numparc": 2856, "duree": "", "horodatage": "2022-08-02 19:46:55", "marker-color": "#707070"}}, {"type": "Feature", "geometry": {"type": "Point", "coordinates": [2.37757, 48.82935]}, "properties": {"etat de la localisation": "Hors service", "numparc": 2867, "duree": "", "horodatage": "2022-08-02 20:08:48", "marker-color": "#707070"}}, {"type": "Feature", "geometry": {"type": "Point", "coordinates": [2.395741, 48.820118]}, "properties": {"etat de la localisation": "Hors service", "numparc": 2856, "duree": "", "horodatage": "2022-08-02 20:14:58", "marker-color": "#707070"}}, {"type": "Feature", "geometry": {"type": "Point", "coordinates": [2.395741, 48.820118]}, "properties": {"etat de la localisation": "Delocalise", "numparc": 2856, "duree": "00:00:04", "horodatage": "2022-08-02 20:15:26", "marker-color": "#FF565E"}}, {"type": "Feature", "geometry": {"type": "Point", "coordinates": [2.442971, 48.772942]}, "properties": {"etat de la localisation": "Hors service", "numparc": 2863, "duree": "", "horodatage": "2022-08-02 20:20:43", "marker-color": "#707070"}}, {"type": "Feature", "geometry": {"type": "Point", "coordinates": [2.377851, 48.829594]}, "properties": {"etat de la localisation": "Hors service", "numparc": 2856, "duree": "", "horodatage": "2022-08-02 20:30:27", "marker-color": "#707070"}}, {"type": "Feature", "geometry": {"type": "Point", "coordinates": [2.403121, 48.811371]}, "properties": {"etat de la localisation": "Hors service", "numparc": 2856, "duree": "", "horodatage": "2022-08-02 20:49:27", "marker-color": "#707070"}}, {"type": "Feature", "geometry": {"type": "Point", "coordinates": [2.407548, 48.804935]}, "properties": {"etat de la localisation": "Delocalise", "numparc": 2856, "duree": "00:01:59", "horodatage": "2022-08-02 21:03:45", "marker-color": "#FF565E"}}, {"type": "Feature", "geometry": {"type": "Point", "coordinates": [2.377034, 48.830124]}, "properties": {"etat de la localisation": "Hors service", "numparc": 2856, "duree": "", "horodatage": "2022-08-02 21:18:46", "marker-color": "#707070"}}, {"type": "Feature", "geometry": {"type": "Point", "coordinates": [2.395623, 48.820171]}, "properties": {"etat de la localisation": "Hors service", "numparc": 2856, "duree": "", "horodatage": "2022-08-02 21:49:40", "marker-color": "#707070"}}, {"type": "Feature", "geometry": {"type": "Point", "coordinates": [2.383749, 48.82914]}, "properties": {"etat de la localisation": "Hors service", "numparc": 2856, "duree": "", "horodatage": "2022-08-02 22:11:43", "marker-color": "#707070"}}, {"type": "Feature", "geometry": {"type": "Point", "coordinates": [2.377301, 48.830807]}, "properties": {"etat de la localisation": "Delocalise", "numparc": 2856, "duree": "00:00:37", "horodatage": "2022-08-02 22:31:24", "marker-color": "#FF565E"}}, {"type": "Feature", "geometry": {"type": "Point", "coordinates": [2.402216, 48.814137]}, "properties": {"etat de la localisation": "Hors service", "numparc": 2856, "duree": "", "horodatage": "2022-08-02 22:46:26", "marker-color": "#707070"}}, {"type": "Feature", "geometry": {"type": "Point", "coordinates": [2.443166, 48.771938]}, "properties": {"etat de la localisation": "Hors service", "numparc": 2867, "duree": "", "horodatage": "2022-08-02 22:48:31", "marker-color": "#707070"}}, {"type": "Feature", "geometry": {"type": "Point", "coordinates": [2.443345, 48.772266]}, "properties": {"etat de la localisation": "Mission inconnue", "numparc": 2867, "duree": "", "horodatage": "2022-08-03 00:19:50", "marker-color": "#FF9F56"}}, {"type": "Feature", "geometry": {"type": "Point", "coordinates": [2.443346, 48.772266]}, "properties": {"etat de la localisation": "Hors service", "numparc": 2867, "duree": "", "horodatage": "2022-08-03 00:21:12", "marker-color": "#707070"}}]}