{"type": "FeatureCollection", "features": [{"type": "Feature", "geometry": {"type": "Point", "coordinates": [2.189045, 48.903149]}, "properties": {"etat de la localisation": "Hors service", "numparc": 2884, "duree": "", "horodatage": "2023-05-06 02:35:15", "marker-color": "#707070"}}, {"type": "Feature", "geometry": {"type": "Point", "coordinates": [2.188412, 48.902672]}, "properties": {"etat de la localisation": "Delocalise", "numparc": 2871, "duree": "00:05:39", "horodatage": "2023-05-06 05:09:24", "marker-color": "#FF565E"}}, {"type": "Feature", "geometry": {"type": "Point", "coordinates": [2.18826, 48.902916]}, "properties": {"etat de la localisation": "Delocalise", "numparc": 2885, "duree": "00:02:28", "horodatage": "2023-05-06 05:27:42", "marker-color": "#FF565E"}}, {"type": "Feature", "geometry": {"type": "Point", "coordinates": [2.095932, 48.896904]}, "properties": {"etat de la localisation": "Mission suivante non connue", "numparc": 2886, "duree": "", "horodatage": "2023-05-06 05:45:42", "marker-color": "#7156FF"}}, {"type": "Feature", "geometry": {"type": "Point", "coordinates": [2.095932, 48.896904]}, "properties": {"etat de la localisation": "Mission suivante non connue", "numparc": 2886, "duree": "", "horodatage": "2023-05-06 05:46:29", "marker-color": "#7156FF"}}, {"type": "Feature", "geometry": {"type": "Point", "coordinates": [2.095914, 48.896881]}, "properties": {"etat de la localisation": "Mission suivante non connue", "numparc": 2885, "duree": "", "horodatage": "2023-05-06 06:03:09", "marker-color": "#7156FF"}}, {"type": "Feature", "geometry": {"type": "Point", "coordinates": [2.095914, 48.896881]}, "properties": {"etat de la localisation": "Mission suivante non connue", "numparc": 2885, "duree": "", "horodatage": "2023-05-06 06:04:05", "marker-color": "#7156FF"}}, {"type": "Feature", "geometry": {"type": "Point", "coordinates": [2.209543, 48.901337]}, "properties": {"etat de la localisation": "Hors service", "numparc": 5775, "duree": "", "horodatage": "2023-05-06 06:29:49", "marker-color": "#707070"}}, {"type": "Feature", "geometry": {"type": "Point", "coordinates": [2.095908, 48.896923]}, "properties": {"etat de la localisation": "Mission suivante non connue", "numparc": 2882, "duree": "", "horodatage": "2023-05-06 06:46:53", "marker-color": "#7156FF"}}, {"type": "Feature", "geometry": {"type": "Point", "coordinates": [2.212834, 48.893188]}, "properties": {"etat de la localisation": "Deviation programmee", "numparc": 2871, "duree": "", "horodatage": "2023-05-06 07:39:14", "marker-color": "#56FF93"}}, {"type": "Feature", "geometry": {"type": "Point", "coordinates": [2.095926, 48.896931]}, "properties": {"etat de la localisation": "Mission suivante non connue", "numparc": 2887, "duree": "", "horodatage": "2023-05-06 07:45:08", "marker-color": "#7156FF"}}, {"type": "Feature", "geometry": {"type": "Point", "coordinates": [2.095926, 48.896931]}, "properties": {"etat de la localisation": "Mission suivante non connue", "numparc": 2887, "duree": "", "horodatage": "2023-05-06 07:45:36", "marker-color": "#7156FF"}}, {"type": "Feature", "geometry": {"type": "Point", "coordinates": [2.095893, 48.897041]}, "properties": {"etat de la localisation": "Mission suivante non connue", "numparc": 2885, "duree": "", "horodatage": "2023-05-06 08:01:05", "marker-color": "#7156FF"}}, {"type": "Feature", "geometry": {"type": "Point", "coordinates": [2.095893, 48.897041]}, "properties": {"etat de la localisation": "Mission suivante non connue", "numparc": 2885, "duree": "", "horodatage": "2023-05-06 08:01:39", "marker-color": "#7156FF"}}, {"type": "Feature", "geometry": {"type": "Point", "coordinates": [2.210737, 48.889641]}, "properties": {"etat de la localisation": "Deviation programmee", "numparc": 5775, "duree": "", "horodatage": "2023-05-06 08:03:46", "marker-color": "#56FF93"}}, {"type": "Feature", "geometry": {"type": "Point", "coordinates": [2.209737, 48.901192]}, "properties": {"etat de la localisation": "Mission suivante non connue", "numparc": 2886, "duree": "", "horodatage": "2023-05-06 08:23:21", "marker-color": "#7156FF"}}, {"type": "Feature", "geometry": {"type": "Point", "coordinates": [2.095911, 48.897018]}, "properties": {"etat de la localisation": "Mission suivante non connue", "numparc": 2882, "duree": "", "horodatage": "2023-05-06 08:44:47", "marker-color": "#7156FF"}}, {"type": "Feature", "geometry": {"type": "Point", "coordinates": [2.210755, 48.889587]}, "properties": {"etat de la localisation": "Deviation programmee", "numparc": 2885, "duree": "", "horodatage": "2023-05-06 08:47:54", "marker-color": "#56FF93"}}, {"type": "Feature", "geometry": {"type": "Point", "coordinates": [2.212831, 48.893135]}, "properties": {"etat de la localisation": "Deviation programmee", "numparc": 2885, "duree": "", "horodatage": "2023-05-06 09:24:18", "marker-color": "#56FF93"}}, {"type": "Feature", "geometry": {"type": "Point", "coordinates": [2.210707, 48.889637]}, "properties": {"etat de la localisation": "Deviation programmee", "numparc": 2882, "duree": "", "horodatage": "2023-05-06 09:34:06", "marker-color": "#56FF93"}}, {"type": "Feature", "geometry": {"type": "Point", "coordinates": [2.095899, 48.897041]}, "properties": {"etat de la localisation": "Mission suivante non connue", "numparc": 2887, "duree": "", "horodatage": "2023-05-06 09:40:09", "marker-color": "#7156FF"}}, {"type": "Feature", "geometry": {"type": "Point", "coordinates": [2.095922, 48.896889]}, "properties": {"etat de la localisation": "Mission suivante non connue", "numparc": 2885, "duree": "", "horodatage": "2023-05-06 10:02:26", "marker-color": "#7156FF"}}, {"type": "Feature", "geometry": {"type": "Point", "coordinates": [2.210714, 48.889626]}, "properties": {"etat de la localisation": "Deviation programmee", "numparc": 5775, "duree": "", "horodatage": "2023-05-06 10:03:11", "marker-color": "#56FF93"}}, {"type": "Feature", "geometry": {"type": "Point", "coordinates": [2.209785, 48.901237]}, "properties": {"etat de la localisation": "Mission inconnue", "numparc": 2870, "duree": "", "horodatage": "2023-05-06 10:04:08", "marker-color": "#FF9F56"}}, {"type": "Feature", "geometry": {"type": "Point", "coordinates": [2.209785, 48.901237]}, "properties": {"etat de la localisation": "Mission suivante non connue", "numparc": 2870, "duree": "", "horodatage": "2023-05-06 10:04:12", "marker-color": "#7156FF"}}, {"type": "Feature", "geometry": {"type": "Point", "coordinates": [2.209785, 48.901237]}, "properties": {"etat de la localisation": "Mission suivante non connue", "numparc": 2870, "duree": "", "horodatage": "2023-05-06 10:04:34", "marker-color": "#7156FF"}}, {"type": "Feature", "geometry": {"type": "Point", "coordinates": [2.209785, 48.901237]}, "properties": {"etat de la localisation": "Mission suivante non connue", "numparc": 2870, "duree": "", "horodatage": "2023-05-06 10:04:51", "marker-color": "#7156FF"}}, {"type": "Feature", "geometry": {"type": "Point", "coordinates": [2.209785, 48.901237]}, "properties": {"etat de la localisation": "Mission suivante non connue", "numparc": 2870, "duree": "", "horodatage": "2023-05-06 10:05:08", "marker-color": "#7156FF"}}, {"type": "Feature", "geometry": {"type": "Point", "coordinates": [2.209785, 48.901237]}, "properties": {"etat de la localisation": "Mission suivante non connue", "numparc": 2870, "duree": "", "horodatage": "2023-05-06 10:05:27", "marker-color": "#7156FF"}}, {"type": "Feature", "geometry": {"type": "Point", "coordinates": [2.209785, 48.901237]}, "properties": {"etat de la localisation": "Mission suivante non connue", "numparc": 2870, "duree": "", "horodatage": "2023-05-06 10:05:44", "marker-color": "#7156FF"}}, {"type": "Feature", "geometry": {"type": "Point", "coordinates": [2.209785, 48.901237]}, "properties": {"etat de la localisation": "Mission suivante non connue", "numparc": 2870, "duree": "", "horodatage": "2023-05-06 10:06:01", "marker-color": "#7156FF"}}, {"type": "Feature", "geometry": {"type": "Point", "coordinates": [2.209785, 48.901237]}, "properties": {"etat de la localisation": "Mission suivante non connue", "numparc": 2870, "duree": "", "horodatage": "2023-05-06 10:06:18", "marker-color": "#7156FF"}}, {"type": "Feature", "geometry": {"type": "Point", "coordinates": [2.209785, 48.901237]}, "properties": {"etat de la localisation": "Mission suivante non connue", "numparc": 2870, "duree": "", "horodatage": "2023-05-06 10:06:38", "marker-color": "#7156FF"}}, {"type": "Feature", "geometry": {"type": "Point", "coordinates": [2.209785, 48.901237]}, "properties": {"etat de la localisation": "Mission suivante non connue", "numparc": 2870, "duree": "", "horodatage": "2023-05-06 10:06:57", "marker-color": "#7156FF"}}, {"type": "Feature", "geometry": {"type": "Point", "coordinates": [2.209785, 48.901237]}, "properties": {"etat de la localisation": "Mission suivante non connue", "numparc": 2870, "duree": "", "horodatage": "2023-05-06 10:07:14", "marker-color": "#7156FF"}}, {"type": "Feature", "geometry": {"type": "Point", "coordinates": [2.209785, 48.901237]}, "properties": {"etat de la localisation": "Mission suivante non connue", "numparc": 2870, "duree": "", "horodatage": "2023-05-06 10:07:30", "marker-color": "#7156FF"}}, {"type": "Feature", "geometry": {"type": "Point", "coordinates": [2.20998, 48.901215]}, "properties": {"etat de la localisation": "Mission suivante non connue", "numparc": 2870, "duree": "", "horodatage": "2023-05-06 10:07:54", "marker-color": "#7156FF"}}, {"type": "Feature", "geometry": {"type": "Point", "coordinates": [2.095938, 48.896927]}, "properties": {"etat de la localisation": "Mission suivante non connue", "numparc": 2871, "duree": "", "horodatage": "2023-05-06 10:20:21", "marker-color": "#7156FF"}}, {"type": "Feature", "geometry": {"type": "Point", "coordinates": [2.209716, 48.901314]}, "properties": {"etat de la localisation": "Hors service", "numparc": 5775, "duree": "", "horodatage": "2023-05-06 10:35:02", "marker-color": "#707070"}}, {"type": "Feature", "geometry": {"type": "Point", "coordinates": [2.210726, 48.889618]}, "properties": {"etat de la localisation": "Deviation programmee", "numparc": 2887, "duree": "", "horodatage": "2023-05-06 10:36:40", "marker-color": "#56FF93"}}, {"type": "Feature", "geometry": {"type": "Point", "coordinates": [2.095932, 48.896904]}, "properties": {"etat de la localisation": "Mission suivante non connue", "numparc": 2882, "duree": "", "horodatage": "2023-05-06 10:49:51", "marker-color": "#7156FF"}}, {"type": "Feature", "geometry": {"type": "Point", "coordinates": [2.210712, 48.889629]}, "properties": {"etat de la localisation": "Deviation programmee", "numparc": 2885, "duree": "", "horodatage": "2023-05-06 10:52:52", "marker-color": "#56FF93"}}, {"type": "Feature", "geometry": {"type": "Point", "coordinates": [2.210729, 48.889618]}, "properties": {"etat de la localisation": "Deviation programmee", "numparc": 2871, "duree": "", "horodatage": "2023-05-06 11:00:42", "marker-color": "#56FF93"}}, {"type": "Feature", "geometry": {"type": "Point", "coordinates": [2.095905, 48.897026]}, "properties": {"etat de la localisation": "Mission suivante non connue", "numparc": 5775, "duree": "", "horodatage": "2023-05-06 11:21:31", "marker-color": "#7156FF"}}, {"type": "Feature", "geometry": {"type": "Point", "coordinates": [2.095905, 48.897026]}, "properties": {"etat de la localisation": "Mission suivante non connue", "numparc": 5775, "duree": "", "horodatage": "2023-05-06 11:22:38", "marker-color": "#7156FF"}}, {"type": "Feature", "geometry": {"type": "Point", "coordinates": [2.095914, 48.896999]}, "properties": {"etat de la localisation": "Mission suivante non connue", "numparc": 2887, "duree": "", "horodatage": "2023-05-06 11:55:00", "marker-color": "#7156FF"}}, {"type": "Feature", "geometry": {"type": "Point", "coordinates": [2.210731, 48.889618]}, "properties": {"etat de la localisation": "Deviation programmee", "numparc": 2887, "duree": "", "horodatage": "2023-05-06 12:46:53", "marker-color": "#56FF93"}}, {"type": "Feature", "geometry": {"type": "Point", "coordinates": [2.095909, 48.896935]}, "properties": {"etat de la localisation": "Mission suivante non connue", "numparc": 5775, "duree": "", "horodatage": "2023-05-06 13:35:32", "marker-color": "#7156FF"}}, {"type": "Feature", "geometry": {"type": "Point", "coordinates": [2.210742, 48.889595]}, "properties": {"etat de la localisation": "Deviation programmee", "numparc": 2882, "duree": "", "horodatage": "2023-05-06 13:42:46", "marker-color": "#56FF93"}}, {"type": "Feature", "geometry": {"type": "Point", "coordinates": [2.210739, 48.889618]}, "properties": {"etat de la localisation": "Deviation programmee", "numparc": 2886, "duree": "", "horodatage": "2023-05-06 14:39:01", "marker-color": "#56FF93"}}, {"type": "Feature", "geometry": {"type": "Point", "coordinates": [2.095937, 48.896877]}, "properties": {"etat de la localisation": "Mission suivante non connue", "numparc": 2882, "duree": "", "horodatage": "2023-05-06 15:05:19", "marker-color": "#7156FF"}}, {"type": "Feature", "geometry": {"type": "Point", "coordinates": [2.209872, 48.901253]}, "properties": {"etat de la localisation": "Hors service", "numparc": 2885, "duree": "", "horodatage": "2023-05-06 15:35:45", "marker-color": "#707070"}}, {"type": "Feature", "geometry": {"type": "Point", "coordinates": [2.210686, 48.889652]}, "properties": {"etat de la localisation": "Deviation programmee", "numparc": 5775, "duree": "", "horodatage": "2023-05-06 16:32:37", "marker-color": "#56FF93"}}, {"type": "Feature", "geometry": {"type": "Point", "coordinates": [2.095936, 48.896885]}, "properties": {"etat de la localisation": "Mission suivante non connue", "numparc": 2871, "duree": "", "horodatage": "2023-05-06 16:48:31", "marker-color": "#7156FF"}}, {"type": "Feature", "geometry": {"type": "Point", "coordinates": [2.210713, 48.889641]}, "properties": {"etat de la localisation": "Deviation programmee", "numparc": 2887, "duree": "", "horodatage": "2023-05-06 17:09:15", "marker-color": "#56FF93"}}, {"type": "Feature", "geometry": {"type": "Point", "coordinates": [2.095936, 48.896877]}, "properties": {"etat de la localisation": "Mission suivante non connue", "numparc": 2887, "duree": "", "horodatage": "2023-05-06 18:35:04", "marker-color": "#7156FF"}}, {"type": "Feature", "geometry": {"type": "Point", "coordinates": [2.210717, 48.889629]}, "properties": {"etat de la localisation": "Deviation programmee", "numparc": 5775, "duree": "", "horodatage": "2023-05-06 18:44:52", "marker-color": "#56FF93"}}, {"type": "Feature", "geometry": {"type": "Point", "coordinates": [2.210702, 48.889641]}, "properties": {"etat de la localisation": "Deviation programmee", "numparc": 2887, "duree": "", "horodatage": "2023-05-06 19:20:37", "marker-color": "#56FF93"}}, {"type": "Feature", "geometry": {"type": "Point", "coordinates": [2.210724, 48.889626]}, "properties": {"etat de la localisation": "Deviation programmee", "numparc": 2885, "duree": "", "horodatage": "2023-05-06 19:31:19", "marker-color": "#56FF93"}}, {"type": "Feature", "geometry": {"type": "Point", "coordinates": [2.189732, 48.903278]}, "properties": {"etat de la localisation": "Hors service", "numparc": 2887, "duree": "", "horodatage": "2023-05-06 19:43:09", "marker-color": "#707070"}}, {"type": "Feature", "geometry": {"type": "Point", "coordinates": [2.106396, 48.884285]}, "properties": {"etat de la localisation": "Delocalise", "numparc": 5775, "duree": "00:01:01", "horodatage": "2023-05-06 19:59:57", "marker-color": "#FF565E"}}, {"type": "Feature", "geometry": {"type": "Point", "coordinates": [2.189581, 48.903095]}, "properties": {"etat de la localisation": "Hors service", "numparc": 2870, "duree": "", "horodatage": "2023-05-06 20:17:19", "marker-color": "#707070"}}, {"type": "Feature", "geometry": {"type": "Point", "coordinates": [2.188806, 48.90308]}, "properties": {"etat de la localisation": "Hors service", "numparc": 2882, "duree": "", "horodatage": "2023-05-06 20:32:08", "marker-color": "#707070"}}, {"type": "Feature", "geometry": {"type": "Point", "coordinates": [2.210727, 48.889618]}, "properties": {"etat de la localisation": "Deviation programmee", "numparc": 2871, "duree": "", "horodatage": "2023-05-06 21:44:58", "marker-color": "#56FF93"}}, {"type": "Feature", "geometry": {"type": "Point", "coordinates": [2.095908, 48.897018]}, "properties": {"etat de la localisation": "Mission suivante non connue", "numparc": 5775, "duree": "", "horodatage": "2023-05-06 22:03:40", "marker-color": "#7156FF"}}, {"type": "Feature", "geometry": {"type": "Point", "coordinates": [2.095939, 48.896946]}, "properties": {"etat de la localisation": "Mission suivante non connue", "numparc": 2886, "duree": "", "horodatage": "2023-05-06 22:28:02", "marker-color": "#7156FF"}}, {"type": "Feature", "geometry": {"type": "Point", "coordinates": [2.095929, 48.897015]}, "properties": {"etat de la localisation": "Mission suivante non connue", "numparc": 2871, "duree": "", "horodatage": "2023-05-06 23:04:31", "marker-color": "#7156FF"}}, {"type": "Feature", "geometry": {"type": "Point", "coordinates": [2.209572, 48.901333]}, "properties": {"etat de la localisation": "Hors service", "numparc": 5775, "duree": "", "horodatage": "2023-05-06 23:17:55", "marker-color": "#707070"}}, {"type": "Feature", "geometry": {"type": "Point", "coordinates": [2.210739, 48.889599]}, "properties": {"etat de la localisation": "Deviation programmee", "numparc": 2885, "duree": "", "horodatage": "2023-05-06 23:22:56", "marker-color": "#56FF93"}}, {"type": "Feature", "geometry": {"type": "Point", "coordinates": [2.095929, 48.896881]}, "properties": {"etat de la localisation": "Mission suivante non connue", "numparc": 2885, "duree": "", "horodatage": "2023-05-07 00:40:48", "marker-color": "#7156FF"}}, {"type": "Feature", "geometry": {"type": "Point", "coordinates": [2.095929, 48.896881]}, "properties": {"etat de la localisation": "Mission suivante non connue", "numparc": 2885, "duree": "", "horodatage": "2023-05-07 00:41:01", "marker-color": "#7156FF"}}, {"type": "Feature", "geometry": {"type": "Point", "coordinates": [2.209766, 48.901268]}, "properties": {"etat de la localisation": "Hors service", "numparc": 5940, "duree": "", "horodatage": "2023-05-07 00:52:38", "marker-color": "#707070"}}, {"type": "Feature", "geometry": {"type": "Point", "coordinates": [2.21074, 48.889606]}, "properties": {"etat de la localisation": "Deviation programmee", "numparc": 2886, "duree": "", "horodatage": "2023-05-07 00:59:11", "marker-color": "#56FF93"}}, {"type": "Feature", "geometry": {"type": "Point", "coordinates": [2.209623, 48.901371]}, "properties": {"etat de la localisation": "Hors service", "numparc": 5775, "duree": "", "horodatage": "2023-05-07 01:13:48", "marker-color": "#707070"}}, {"type": "Feature", "geometry": {"type": "Point", "coordinates": [2.188419, 48.90247]}, "properties": {"etat de la localisation": "Hors service", "numparc": 2886, "duree": "", "horodatage": "2023-05-07 01:16:15", "marker-color": "#707070"}}, {"type": "Feature", "geometry": {"type": "Point", "coordinates": [2.095944, 48.896908]}, "properties": {"etat de la localisation": "Mission suivante non connue", "numparc": 2885, "duree": "", "horodatage": "2023-05-07 02:22:12", "marker-color": "#7156FF"}}]}