{"type": "FeatureCollection", "features": [{"type": "Feature", "geometry": {"type": "Point", "coordinates": [2.354891, 48.835339]}, "properties": {"etat de la localisation": "Mission inconnue", "numparc": 1701, "duree": "", "horodatage": "2023-03-29 10:58:50", "marker-color": "#FF9F56"}}, {"type": "Feature", "geometry": {"type": "Point", "coordinates": [2.354891, 48.835339]}, "properties": {"etat de la localisation": "Mission inconnue", "numparc": 1701, "duree": "", "horodatage": "2023-03-29 10:59:02", "marker-color": "#FF9F56"}}, {"type": "Feature", "geometry": {"type": "Point", "coordinates": [2.354872, 48.835342]}, "properties": {"etat de la localisation": "Mission inconnue", "numparc": 1701, "duree": "", "horodatage": "2023-03-29 10:59:35", "marker-color": "#FF9F56"}}, {"type": "Feature", "geometry": {"type": "Point", "coordinates": [2.354872, 48.835342]}, "properties": {"etat de la localisation": "Hors service", "numparc": 1701, "duree": "", "horodatage": "2023-03-29 11:02:23", "marker-color": "#707070"}}]}