{"type": "FeatureCollection", "features": [{"type": "Feature", "geometry": {"type": "Point", "coordinates": [2.303097, 48.762646]}, "properties": {"alarme": "VEHICULE DELOCALISE", "numparc": 9237, "type": "EXPLOITATION", "duree": "00:12:16", "horodatage": "2022-07-15 05:02:23", "statut": "start", "marker-color": "#ff0000"}}, {"type": "Feature", "geometry": {"type": "Point", "coordinates": [2.303209, 48.762642]}, "properties": {"alarme": "VEHICULE DELOCALISE", "numparc": 9253, "type": "EXPLOITATION", "duree": "00:01:05", "horodatage": "2022-07-15 05:30:47", "statut": "start", "marker-color": "#ff0000"}}, {"type": "Feature", "geometry": {"type": "Point", "coordinates": [2.30332, 48.762695]}, "properties": {"alarme": "VEHICULE DELOCALISE", "numparc": 9247, "type": "EXPLOITATION", "duree": "00:18:37", "horodatage": "2022-07-15 06:13:18", "statut": "start", "marker-color": "#ff0000"}}, {"type": "Feature", "geometry": {"type": "Point", "coordinates": [2.303205, 48.762684]}, "properties": {"alarme": "VEHICULE DELOCALISE", "numparc": 9231, "type": "EXPLOITATION", "duree": "00:15:38", "horodatage": "2022-07-15 06:28:48", "statut": "start", "marker-color": "#ff0000"}}, {"type": "Feature", "geometry": {"type": "Point", "coordinates": [2.303226, 48.762669]}, "properties": {"alarme": "VEHICULE DELOCALISE", "numparc": 9243, "type": "EXPLOITATION", "duree": "00:19:35", "horodatage": "2022-07-15 06:39:08", "statut": "start", "marker-color": "#ff0000"}}, {"type": "Feature", "geometry": {"type": "Point", "coordinates": [2.303209, 48.762657]}, "properties": {"alarme": "VEHICULE DELOCALISE", "numparc": 9241, "type": "EXPLOITATION", "duree": "00:18:39", "horodatage": "2022-07-15 06:51:31", "statut": "start", "marker-color": "#ff0000"}}, {"type": "Feature", "geometry": {"type": "Point", "coordinates": [2.400044, 48.629601]}, "properties": {"alarme": "DEFAUT LIAISON DATA SAEIV / AIGLE", "numparc": 9258, "type": "TECHNIQUE", "duree": "00:10:16", "horodatage": "2022-07-15 07:11:45", "statut": "start", "marker-color": "#ff0000"}}, {"type": "Feature", "geometry": {"type": "Point", "coordinates": [2.303358, 48.762703]}, "properties": {"alarme": "VEHICULE DELOCALISE", "numparc": 9237, "type": "EXPLOITATION", "duree": "00:01:40", "horodatage": "2022-07-15 07:14:26", "statut": "start", "marker-color": "#ff0000"}}, {"type": "Feature", "geometry": {"type": "Point", "coordinates": [2.358957, 48.620682]}, "properties": {"alarme": "DEFAUT LIAISON DATA SAEIV / AIGLE", "numparc": 9258, "type": "TECHNIQUE", "duree": "00:00:41", "horodatage": "2022-07-15 07:23:19", "statut": "start", "marker-color": "#ff0000"}}, {"type": "Feature", "geometry": {"type": "Point", "coordinates": [2.410682, 48.765919]}, "properties": {"alarme": "VEHICULE DELOCALISE", "numparc": 9241, "type": "EXPLOITATION", "duree": "00:01:11", "horodatage": "2022-07-15 07:44:46", "statut": "start", "marker-color": "#ff0000"}}, {"type": "Feature", "geometry": {"type": "Point", "coordinates": [2.303357, 48.762703]}, "properties": {"alarme": "VEHICULE DELOCALISE", "numparc": 9253, "type": "EXPLOITATION", "duree": "00:15:00", "horodatage": "2022-07-15 07:46:54", "statut": "start", "marker-color": "#ff0000"}}, {"type": "Feature", "geometry": {"type": "Point", "coordinates": [2.303245, 48.762653]}, "properties": {"alarme": "VEHICULE DELOCALISE", "numparc": 9247, "type": "EXPLOITATION", "duree": "00:10:20", "horodatage": "2022-07-15 08:31:21", "statut": "start", "marker-color": "#ff0000"}}, {"type": "Feature", "geometry": {"type": "Point", "coordinates": [2.303168, 48.762661]}, "properties": {"alarme": "VEHICULE DELOCALISE", "numparc": 9231, "type": "EXPLOITATION", "duree": "00:05:14", "horodatage": "2022-07-15 08:46:27", "statut": "start", "marker-color": "#ff0000"}}, {"type": "Feature", "geometry": {"type": "Point", "coordinates": [2.303261, 48.762661]}, "properties": {"alarme": "VEHICULE DELOCALISE", "numparc": 9243, "type": "EXPLOITATION", "duree": "00:16:25", "horodatage": "2022-07-15 08:57:43", "statut": "start", "marker-color": "#ff0000"}}, {"type": "Feature", "geometry": {"type": "Point", "coordinates": [2.303269, 48.762669]}, "properties": {"alarme": "VEHICULE DELOCALISE", "numparc": 9265, "type": "EXPLOITATION", "duree": "00:01:55", "horodatage": "2022-07-15 09:03:18", "statut": "start", "marker-color": "#ff0000"}}, {"type": "Feature", "geometry": {"type": "Point", "coordinates": [2.358749, 48.620937]}, "properties": {"alarme": "DEFAUT LIAISON DATA SAEIV / AIGLE", "numparc": 9258, "type": "TECHNIQUE", "duree": "00:30:47", "horodatage": "2022-07-15 09:06:14", "statut": "start", "marker-color": "#ff0000"}}, {"type": "Feature", "geometry": {"type": "Point", "coordinates": [2.303257, 48.762688]}, "properties": {"alarme": "VEHICULE DELOCALISE", "numparc": 9241, "type": "EXPLOITATION", "duree": "00:08:28", "horodatage": "2022-07-15 09:17:31", "statut": "start", "marker-color": "#ff0000"}}, {"type": "Feature", "geometry": {"type": "Point", "coordinates": [2.303219, 48.762669]}, "properties": {"alarme": "VEHICULE DELOCALISE", "numparc": 9237, "type": "EXPLOITATION", "duree": "00:07:50", "horodatage": "2022-07-15 09:24:32", "statut": "start", "marker-color": "#ff0000"}}, {"type": "Feature", "geometry": {"type": "Point", "coordinates": [2.364336, 48.623798]}, "properties": {"alarme": "DEFAUT LIAISON DATA SAEIV / AIGLE", "numparc": 9258, "type": "TECHNIQUE", "duree": "00:04:38", "horodatage": "2022-07-15 09:50:11", "statut": "start", "marker-color": "#ff0000"}}, {"type": "Feature", "geometry": {"type": "Point", "coordinates": [2.303279, 48.762684]}, "properties": {"alarme": "VEHICULE DELOCALISE", "numparc": 9246, "type": "EXPLOITATION", "duree": "00:12:33", "horodatage": "2022-07-15 09:58:46", "statut": "start", "marker-color": "#ff0000"}}, {"type": "Feature", "geometry": {"type": "Point", "coordinates": [2.303253, 48.762703]}, "properties": {"alarme": "VEHICULE DELOCALISE", "numparc": 9253, "type": "EXPLOITATION", "duree": "00:17:07", "horodatage": "2022-07-15 10:04:45", "statut": "start", "marker-color": "#ff0000"}}, {"type": "Feature", "geometry": {"type": "Point", "coordinates": [2.303234, 48.762676]}, "properties": {"alarme": "VEHICULE DELOCALISE", "numparc": 9247, "type": "EXPLOITATION", "duree": "00:12:21", "horodatage": "2022-07-15 10:49:40", "statut": "start", "marker-color": "#ff0000"}}, {"type": "Feature", "geometry": {"type": "Point", "coordinates": [2.303344, 48.762711]}, "properties": {"alarme": "VEHICULE DELOCALISE", "numparc": 9231, "type": "EXPLOITATION", "duree": "00:12:10", "horodatage": "2022-07-15 10:58:13", "statut": "start", "marker-color": "#ff0000"}}, {"type": "Feature", "geometry": {"type": "Point", "coordinates": [2.303254, 48.762669]}, "properties": {"alarme": "VEHICULE DELOCALISE", "numparc": 9243, "type": "EXPLOITATION", "duree": "00:17:57", "horodatage": "2022-07-15 11:12:15", "statut": "start", "marker-color": "#ff0000"}}, {"type": "Feature", "geometry": {"type": "Point", "coordinates": [2.303266, 48.762684]}, "properties": {"alarme": "VEHICULE DELOCALISE", "numparc": 9265, "type": "EXPLOITATION", "duree": "00:08:16", "horodatage": "2022-07-15 11:16:40", "statut": "start", "marker-color": "#ff0000"}}, {"type": "Feature", "geometry": {"type": "Point", "coordinates": [2.303296, 48.762688]}, "properties": {"alarme": "VEHICULE DELOCALISE", "numparc": 9241, "type": "EXPLOITATION", "duree": "00:12:00", "horodatage": "2022-07-15 11:37:45", "statut": "start", "marker-color": "#ff0000"}}, {"type": "Feature", "geometry": {"type": "Point", "coordinates": [2.303198, 48.762665]}, "properties": {"alarme": "VEHICULE DELOCALISE", "numparc": 9237, "type": "EXPLOITATION", "duree": "00:18:45", "horodatage": "2022-07-15 11:43:19", "statut": "start", "marker-color": "#ff0000"}}, {"type": "Feature", "geometry": {"type": "Point", "coordinates": [2.303225, 48.76265]}, "properties": {"alarme": "VEHICULE DELOCALISE", "numparc": 9246, "type": "EXPLOITATION", "duree": "00:09:24", "horodatage": "2022-07-15 12:23:04", "statut": "start", "marker-color": "#ff0000"}}, {"type": "Feature", "geometry": {"type": "Point", "coordinates": [2.303263, 48.762653]}, "properties": {"alarme": "VEHICULE DELOCALISE", "numparc": 9239, "type": "EXPLOITATION", "duree": "00:13:48", "horodatage": "2022-07-15 12:24:40", "statut": "start", "marker-color": "#ff0000"}}, {"type": "Feature", "geometry": {"type": "Point", "coordinates": [2.303218, 48.76265]}, "properties": {"alarme": "VEHICULE DELOCALISE", "numparc": 9253, "type": "EXPLOITATION", "duree": "00:18:07", "horodatage": "2022-07-15 12:28:55", "statut": "start", "marker-color": "#ff0000"}}, {"type": "Feature", "geometry": {"type": "Point", "coordinates": [2.303359, 48.762703]}, "properties": {"alarme": "VEHICULE DELOCALISE", "numparc": 9275, "type": "EXPLOITATION", "duree": "00:16:53", "horodatage": "2022-07-15 12:52:53", "statut": "start", "marker-color": "#ff0000"}}, {"type": "Feature", "geometry": {"type": "Point", "coordinates": [2.303221, 48.762665]}, "properties": {"alarme": "VEHICULE DELOCALISE", "numparc": 9247, "type": "EXPLOITATION", "duree": "00:07:43", "horodatage": "2022-07-15 13:14:22", "statut": "start", "marker-color": "#ff0000"}}, {"type": "Feature", "geometry": {"type": "Point", "coordinates": [2.30322, 48.76268]}, "properties": {"alarme": "VEHICULE DELOCALISE", "numparc": 9231, "type": "EXPLOITATION", "duree": "00:18:26", "horodatage": "2022-07-15 13:15:26", "statut": "start", "marker-color": "#ff0000"}}, {"type": "Feature", "geometry": {"type": "Point", "coordinates": [2.303281, 48.762684]}, "properties": {"alarme": "VEHICULE DELOCALISE", "numparc": 9243, "type": "EXPLOITATION", "duree": "00:20:30", "horodatage": "2022-07-15 13:30:00", "statut": "start", "marker-color": "#ff0000"}}, {"type": "Feature", "geometry": {"type": "Point", "coordinates": [2.303182, 48.762638]}, "properties": {"alarme": "VEHICULE DELOCALISE", "numparc": 9241, "type": "EXPLOITATION", "duree": "00:14:22", "horodatage": "2022-07-15 13:58:07", "statut": "start", "marker-color": "#ff0000"}}, {"type": "Feature", "geometry": {"type": "Point", "coordinates": [2.303202, 48.762657]}, "properties": {"alarme": "VEHICULE DELOCALISE", "numparc": 9232, "type": "EXPLOITATION", "duree": "00:16:05", "horodatage": "2022-07-15 14:02:41", "statut": "start", "marker-color": "#ff0000"}}, {"type": "Feature", "geometry": {"type": "Point", "coordinates": [2.30586, 48.763065]}, "properties": {"alarme": "VEHICULE DELOCALISE", "numparc": 9265, "type": "EXPLOITATION", "duree": "00:01:08", "horodatage": "2022-07-15 14:04:45", "statut": "start", "marker-color": "#ff0000"}}, {"type": "Feature", "geometry": {"type": "Point", "coordinates": [2.303214, 48.762653]}, "properties": {"alarme": "VEHICULE DELOCALISE", "numparc": 9237, "type": "EXPLOITATION", "duree": "00:15:12", "horodatage": "2022-07-15 14:09:21", "statut": "start", "marker-color": "#ff0000"}}, {"type": "Feature", "geometry": {"type": "Point", "coordinates": [2.303238, 48.762688]}, "properties": {"alarme": "VEHICULE DELOCALISE", "numparc": 9269, "type": "EXPLOITATION", "duree": "00:11:00", "horodatage": "2022-07-15 14:19:16", "statut": "start", "marker-color": "#ff0000"}}, {"type": "Feature", "geometry": {"type": "Point", "coordinates": [2.303243, 48.762669]}, "properties": {"alarme": "VEHICULE DELOCALISE", "numparc": 9266, "type": "EXPLOITATION", "duree": "00:17:56", "horodatage": "2022-07-15 14:33:29", "statut": "start", "marker-color": "#ff0000"}}, {"type": "Feature", "geometry": {"type": "Point", "coordinates": [2.303214, 48.762691]}, "properties": {"alarme": "VEHICULE DELOCALISE", "numparc": 9246, "type": "EXPLOITATION", "duree": "00:16:47", "horodatage": "2022-07-15 14:37:46", "statut": "start", "marker-color": "#ff0000"}}, {"type": "Feature", "geometry": {"type": "Point", "coordinates": [2.30315, 48.762634]}, "properties": {"alarme": "VEHICULE DELOCALISE", "numparc": 9239, "type": "EXPLOITATION", "duree": "00:08:36", "horodatage": "2022-07-15 14:53:14", "statut": "start", "marker-color": "#ff0000"}}, {"type": "Feature", "geometry": {"type": "Point", "coordinates": [2.305888, 48.763092]}, "properties": {"alarme": "VEHICULE DELOCALISE", "numparc": 9253, "type": "EXPLOITATION", "duree": "00:01:07", "horodatage": "2022-07-15 15:07:37", "statut": "start", "marker-color": "#ff0000"}}, {"type": "Feature", "geometry": {"type": "Point", "coordinates": [2.471498, 48.804855]}, "properties": {"alarme": "VEHICULE DELOCALISE", "numparc": 9265, "type": "EXPLOITATION", "duree": "00:01:51", "horodatage": "2022-07-15 15:19:21", "statut": "start", "marker-color": "#ff0000"}}, {"type": "Feature", "geometry": {"type": "Point", "coordinates": [2.303191, 48.762646]}, "properties": {"alarme": "VEHICULE DELOCALISE", "numparc": 9275, "type": "EXPLOITATION", "duree": "00:12:04", "horodatage": "2022-07-15 15:20:07", "statut": "start", "marker-color": "#ff0000"}}, {"type": "Feature", "geometry": {"type": "Point", "coordinates": [2.467489, 48.799477]}, "properties": {"alarme": "VEHICULE DELOCALISE", "numparc": 9265, "type": "EXPLOITATION", "duree": "00:01:24", "horodatage": "2022-07-15 15:22:04", "statut": "start", "marker-color": "#ff0000"}}, {"type": "Feature", "geometry": {"type": "Point", "coordinates": [2.303333, 48.762711]}, "properties": {"alarme": "VEHICULE DELOCALISE", "numparc": 9247, "type": "EXPLOITATION", "duree": "00:18:29", "horodatage": "2022-07-15 15:22:27", "statut": "start", "marker-color": "#ff0000"}}, {"type": "Feature", "geometry": {"type": "Point", "coordinates": [2.303316, 48.762718]}, "properties": {"alarme": "VEHICULE DELOCALISE", "numparc": 9231, "type": "EXPLOITATION", "duree": "00:20:45", "horodatage": "2022-07-15 15:38:40", "statut": "start", "marker-color": "#ff0000"}}, {"type": "Feature", "geometry": {"type": "Point", "coordinates": [2.303228, 48.762669]}, "properties": {"alarme": "VEHICULE DELOCALISE", "numparc": 9243, "type": "EXPLOITATION", "duree": "00:14:32", "horodatage": "2022-07-15 15:58:20", "statut": "start", "marker-color": "#ff0000"}}, {"type": "Feature", "geometry": {"type": "Point", "coordinates": [2.303223, 48.762669]}, "properties": {"alarme": "VEHICULE DELOCALISE", "numparc": 9249, "type": "EXPLOITATION", "duree": "00:17:44", "horodatage": "2022-07-15 16:06:57", "statut": "start", "marker-color": "#ff0000"}}, {"type": "Feature", "geometry": {"type": "Point", "coordinates": [2.30317, 48.762653]}, "properties": {"alarme": "VEHICULE DELOCALISE", "numparc": 9241, "type": "EXPLOITATION", "duree": "00:18:56", "horodatage": "2022-07-15 16:22:46", "statut": "start", "marker-color": "#ff0000"}}, {"type": "Feature", "geometry": {"type": "Point", "coordinates": [2.303316, 48.762703]}, "properties": {"alarme": "VEHICULE DELOCALISE", "numparc": 9232, "type": "EXPLOITATION", "duree": "00:15:46", "horodatage": "2022-07-15 16:28:12", "statut": "start", "marker-color": "#ff0000"}}, {"type": "Feature", "geometry": {"type": "Point", "coordinates": [2.303214, 48.762669]}, "properties": {"alarme": "VEHICULE DELOCALISE", "numparc": 9237, "type": "EXPLOITATION", "duree": "00:15:01", "horodatage": "2022-07-15 16:32:20", "statut": "start", "marker-color": "#ff0000"}}, {"type": "Feature", "geometry": {"type": "Point", "coordinates": [2.30328, 48.762714]}, "properties": {"alarme": "VEHICULE DELOCALISE", "numparc": 9269, "type": "EXPLOITATION", "duree": "00:09:55", "horodatage": "2022-07-15 16:45:08", "statut": "start", "marker-color": "#ff0000"}}, {"type": "Feature", "geometry": {"type": "Point", "coordinates": [2.351667, 48.769253]}, "properties": {"alarme": "VEHICULE DELOCALISE", "numparc": 9265, "type": "EXPLOITATION", "duree": "00:01:05", "horodatage": "2022-07-15 16:48:06", "statut": "start", "marker-color": "#ff0000"}}, {"type": "Feature", "geometry": {"type": "Point", "coordinates": [2.303208, 48.762661]}, "properties": {"alarme": "VEHICULE DELOCALISE", "numparc": 9266, "type": "EXPLOITATION", "duree": "00:14:00", "horodatage": "2022-07-15 16:58:04", "statut": "start", "marker-color": "#ff0000"}}, {"type": "Feature", "geometry": {"type": "Point", "coordinates": [2.303241, 48.762669]}, "properties": {"alarme": "VEHICULE DELOCALISE", "numparc": 9246, "type": "EXPLOITATION", "duree": "00:15:33", "horodatage": "2022-07-15 17:02:20", "statut": "start", "marker-color": "#ff0000"}}, {"type": "Feature", "geometry": {"type": "Point", "coordinates": [2.303194, 48.762657]}, "properties": {"alarme": "VEHICULE DELOCALISE", "numparc": 9239, "type": "EXPLOITATION", "duree": "00:09:48", "horodatage": "2022-07-15 17:14:00", "statut": "start", "marker-color": "#ff0000"}}, {"type": "Feature", "geometry": {"type": "Point", "coordinates": [2.303352, 48.762726]}, "properties": {"alarme": "VEHICULE DELOCALISE", "numparc": 9253, "type": "EXPLOITATION", "duree": "00:14:09", "horodatage": "2022-07-15 17:15:07", "statut": "start", "marker-color": "#ff0000"}}, {"type": "Feature", "geometry": {"type": "Point", "coordinates": [2.303276, 48.762657]}, "properties": {"alarme": "VEHICULE DELOCALISE", "numparc": 9275, "type": "EXPLOITATION", "duree": "00:14:12", "horodatage": "2022-07-15 17:40:23", "statut": "start", "marker-color": "#ff0000"}}, {"type": "Feature", "geometry": {"type": "Point", "coordinates": [2.303202, 48.762661]}, "properties": {"alarme": "VEHICULE DELOCALISE", "numparc": 9247, "type": "EXPLOITATION", "duree": "00:09:16", "horodatage": "2022-07-15 17:51:48", "statut": "start", "marker-color": "#ff0000"}}, {"type": "Feature", "geometry": {"type": "Point", "coordinates": [2.303226, 48.762684]}, "properties": {"alarme": "VEHICULE DELOCALISE", "numparc": 9231, "type": "EXPLOITATION", "duree": "00:16:04", "horodatage": "2022-07-15 18:07:29", "statut": "start", "marker-color": "#ff0000"}}, {"type": "Feature", "geometry": {"type": "Point", "coordinates": [2.303139, 48.76265]}, "properties": {"alarme": "VEHICULE DELOCALISE", "numparc": 9243, "type": "EXPLOITATION", "duree": "00:18:09", "horodatage": "2022-07-15 18:20:02", "statut": "start", "marker-color": "#ff0000"}}, {"type": "Feature", "geometry": {"type": "Point", "coordinates": [2.303293, 48.762718]}, "properties": {"alarme": "VEHICULE DELOCALISE", "numparc": 9249, "type": "EXPLOITATION", "duree": "00:24:41", "horodatage": "2022-07-15 18:32:50", "statut": "start", "marker-color": "#ff0000"}}, {"type": "Feature", "geometry": {"type": "Point", "coordinates": [2.303263, 48.762634]}, "properties": {"alarme": "VEHICULE DELOCALISE", "numparc": 9241, "type": "EXPLOITATION", "duree": "00:12:02", "horodatage": "2022-07-15 18:54:22", "statut": "start", "marker-color": "#ff0000"}}, {"type": "Feature", "geometry": {"type": "Point", "coordinates": [2.303159, 48.762638]}, "properties": {"alarme": "VEHICULE DELOCALISE", "numparc": 9237, "type": "EXPLOITATION", "duree": "00:16:05", "horodatage": "2022-07-15 18:57:08", "statut": "start", "marker-color": "#ff0000"}}, {"type": "Feature", "geometry": {"type": "Point", "coordinates": [2.303219, 48.762669]}, "properties": {"alarme": "VEHICULE DELOCALISE", "numparc": 9266, "type": "EXPLOITATION", "duree": "00:07:55", "horodatage": "2022-07-15 19:31:04", "statut": "start", "marker-color": "#ff0000"}}, {"type": "Feature", "geometry": {"type": "Point", "coordinates": [2.303174, 48.76265]}, "properties": {"alarme": "VEHICULE DELOCALISE", "numparc": 9246, "type": "EXPLOITATION", "duree": "00:12:42", "horodatage": "2022-07-15 19:32:21", "statut": "start", "marker-color": "#ff0000"}}, {"type": "Feature", "geometry": {"type": "Point", "coordinates": [2.303127, 48.7626]}, "properties": {"alarme": "VEHICULE DELOCALISE", "numparc": 9253, "type": "EXPLOITATION", "duree": "00:13:38", "horodatage": "2022-07-15 19:40:54", "statut": "start", "marker-color": "#ff0000"}}, {"type": "Feature", "geometry": {"type": "Point", "coordinates": [2.303207, 48.762661]}, "properties": {"alarme": "VEHICULE DELOCALISE", "numparc": 9247, "type": "EXPLOITATION", "duree": "00:16:13", "horodatage": "2022-07-15 20:19:13", "statut": "start", "marker-color": "#ff0000"}}, {"type": "Feature", "geometry": {"type": "Point", "coordinates": [2.303187, 48.762676]}, "properties": {"alarme": "VEHICULE DELOCALISE", "numparc": 9266, "type": "EXPLOITATION", "duree": "00:10:30", "horodatage": "2022-07-15 21:53:08", "statut": "start", "marker-color": "#ff0000"}}, {"type": "Feature", "geometry": {"type": "Point", "coordinates": [2.303217, 48.76268]}, "properties": {"alarme": "VEHICULE DELOCALISE", "numparc": 9253, "type": "EXPLOITATION", "duree": "00:17:18", "horodatage": "2022-07-15 21:59:40", "statut": "start", "marker-color": "#ff0000"}}, {"type": "Feature", "geometry": {"type": "Point", "coordinates": [2.303201, 48.762669]}, "properties": {"alarme": "VEHICULE DELOCALISE", "numparc": 9247, "type": "EXPLOITATION", "duree": "00:16:40", "horodatage": "2022-07-15 22:53:31", "statut": "start", "marker-color": "#ff0000"}}, {"type": "Feature", "geometry": {"type": "Point", "coordinates": [2.347004, 48.770077]}, "properties": {"alarme": "DEFAUT LIAISON DATA SAEIV / AIGLE", "numparc": 9272, "type": "TECHNIQUE", "duree": "00:00:46", "horodatage": "2022-07-15 23:38:32", "statut": "start", "marker-color": "#ff0000"}}, {"type": "Feature", "geometry": {"type": "Point", "coordinates": [2.327906, 48.755634]}, "properties": {"alarme": "DEFAUT LIAISON DATA SAEIV / AIGLE", "numparc": 9272, "type": "TECHNIQUE", "duree": "00:34:43", "horodatage": "2022-07-15 23:45:07", "statut": "start", "marker-color": "#ff0000"}}, {"type": "Feature", "geometry": {"type": "Point", "coordinates": [2.303254, 48.762657]}, "properties": {"alarme": "VEHICULE DELOCALISE", "numparc": 9272, "type": "EXPLOITATION", "duree": "00:17:08", "horodatage": "2022-07-15 23:50:52", "statut": "start", "marker-color": "#ff0000"}}, {"type": "Feature", "geometry": {"type": "Point", "coordinates": [2.303222, 48.762653]}, "properties": {"alarme": "VEHICULE DELOCALISE", "numparc": 9266, "type": "EXPLOITATION", "duree": "00:16:52", "horodatage": "2022-07-16 00:20:00", "statut": "start", "marker-color": "#ff0000"}}, {"type": "Feature", "geometry": {"type": "Point", "coordinates": [2.352115, 48.768864]}, "properties": {"alarme": "DEFAUT LIAISON DATA SAEIV / AIGLE", "numparc": 9272, "type": "TECHNIQUE", "duree": "00:00:45", "horodatage": "2022-07-16 00:24:25", "statut": "start", "marker-color": "#ff0000"}}, {"type": "Feature", "geometry": {"type": "Point", "coordinates": [2.360564, 48.760681]}, "properties": {"alarme": "DEFAUT LIAISON DATA SAEIV / AIGLE", "numparc": 9272, "type": "TECHNIQUE", "duree": "00:00:45", "horodatage": "2022-07-16 00:27:25", "statut": "start", "marker-color": "#ff0000"}}, {"type": "Feature", "geometry": {"type": "Point", "coordinates": [2.375265, 48.754417]}, "properties": {"alarme": "DEFAUT LIAISON DATA SAEIV / AIGLE", "numparc": 9272, "type": "TECHNIQUE", "duree": "00:07:31", "horodatage": "2022-07-16 00:31:53", "statut": "start", "marker-color": "#ff0000"}}, {"type": "Feature", "geometry": {"type": "Point", "coordinates": [2.427185, 48.770695]}, "properties": {"alarme": "DEFAUT LIAISON DATA SAEIV / AIGLE", "numparc": 9272, "type": "TECHNIQUE", "duree": "00:28:56", "horodatage": "2022-07-16 00:41:40", "statut": "start", "marker-color": "#ff0000"}}, {"type": "Feature", "geometry": {"type": "Point", "coordinates": [2.447427, 48.783852]}, "properties": {"alarme": "VEHICULE DELOCALISE", "numparc": 9253, "type": "EXPLOITATION", "duree": "00:01:01", "horodatage": "2022-07-16 00:42:05", "statut": "start", "marker-color": "#ff0000"}}, {"type": "Feature", "geometry": {"type": "Point", "coordinates": [2.455463, 48.791279]}, "properties": {"alarme": "VEHICULE DELOCALISE", "numparc": 9253, "type": "EXPLOITATION", "duree": "00:03:31", "horodatage": "2022-07-16 00:43:34", "statut": "start", "marker-color": "#ff0000"}}, {"type": "Feature", "geometry": {"type": "Point", "coordinates": [2.303216, 48.762657]}, "properties": {"alarme": "VEHICULE DELOCALISE", "numparc": 9247, "type": "EXPLOITATION", "duree": "00:01:29", "horodatage": "2022-07-16 01:09:59", "statut": "start", "marker-color": "#ff0000"}}, {"type": "Feature", "geometry": {"type": "Point", "coordinates": [2.42754, 48.770782]}, "properties": {"alarme": "DEFAUT LIAISON DATA SAEIV / AIGLE", "numparc": 9272, "type": "TECHNIQUE", "duree": "00:01:20", "horodatage": "2022-07-16 01:11:38", "statut": "start", "marker-color": "#ff0000"}}, {"type": "Feature", "geometry": {"type": "Point", "coordinates": [2.404101, 48.763893]}, "properties": {"alarme": "DEFAUT LIAISON DATA SAEIV / AIGLE", "numparc": 9272, "type": "TECHNIQUE", "duree": "00:07:11", "horodatage": "2022-07-16 01:16:35", "statut": "start", "marker-color": "#ff0000"}}, {"type": "Feature", "geometry": {"type": "Point", "coordinates": [2.303145, 48.762638]}, "properties": {"alarme": "VEHICULE DELOCALISE", "numparc": 9251, "type": "EXPLOITATION", "duree": "00:04:51", "horodatage": "2022-07-16 01:18:23", "statut": "start", "marker-color": "#ff0000"}}, {"type": "Feature", "geometry": {"type": "Point", "coordinates": [2.305249, 48.763]}, "properties": {"alarme": "VEHICULE DELOCALISE", "numparc": 9237, "type": "EXPLOITATION", "duree": "00:12:16", "horodatage": "2022-07-15 05:14:39", "statut": "end", "marker-color": "#2fe184"}}, {"type": "Feature", "geometry": {"type": "Point", "coordinates": [2.304027, 48.762596]}, "properties": {"alarme": "VEHICULE DELOCALISE", "numparc": 9253, "type": "EXPLOITATION", "duree": "00:01:05", "horodatage": "2022-07-15 05:31:52", "statut": "end", "marker-color": "#2fe184"}}, {"type": "Feature", "geometry": {"type": "Point", "coordinates": [2.31006, 48.763008]}, "properties": {"alarme": "VEHICULE DELOCALISE", "numparc": 9247, "type": "EXPLOITATION", "duree": "00:18:37", "horodatage": "2022-07-15 06:31:55", "statut": "end", "marker-color": "#2fe184"}}, {"type": "Feature", "geometry": {"type": "Point", "coordinates": [2.305163, 48.762997]}, "properties": {"alarme": "VEHICULE DELOCALISE", "numparc": 9231, "type": "EXPLOITATION", "duree": "00:15:38", "horodatage": "2022-07-15 06:44:26", "statut": "end", "marker-color": "#2fe184"}}, {"type": "Feature", "geometry": {"type": "Point", "coordinates": [2.310075, 48.763012]}, "properties": {"alarme": "VEHICULE DELOCALISE", "numparc": 9243, "type": "EXPLOITATION", "duree": "00:19:35", "horodatage": "2022-07-15 06:58:43", "statut": "end", "marker-color": "#2fe184"}}, {"type": "Feature", "geometry": {"type": "Point", "coordinates": [2.305134, 48.762993]}, "properties": {"alarme": "VEHICULE DELOCALISE", "numparc": 9241, "type": "EXPLOITATION", "duree": "00:18:39", "horodatage": "2022-07-15 07:10:10", "statut": "end", "marker-color": "#2fe184"}}, {"type": "Feature", "geometry": {"type": "Point", "coordinates": [2.359024, 48.620823]}, "properties": {"alarme": "DEFAUT LIAISON DATA SAEIV / AIGLE", "numparc": 9258, "type": "TECHNIQUE", "duree": "00:10:16", "horodatage": "2022-07-15 07:22:01", "statut": "end", "marker-color": "#2fe184"}}, {"type": "Feature", "geometry": {"type": "Point", "coordinates": [2.303854, 48.762566]}, "properties": {"alarme": "VEHICULE DELOCALISE", "numparc": 9237, "type": "EXPLOITATION", "duree": "00:01:40", "horodatage": "2022-07-15 07:16:06", "statut": "end", "marker-color": "#2fe184"}}, {"type": "Feature", "geometry": {"type": "Point", "coordinates": [2.358937, 48.620686]}, "properties": {"alarme": "DEFAUT LIAISON DATA SAEIV / AIGLE", "numparc": 9258, "type": "TECHNIQUE", "duree": "00:00:41", "horodatage": "2022-07-15 07:24:00", "statut": "end", "marker-color": "#2fe184"}}, {"type": "Feature", "geometry": {"type": "Point", "coordinates": [2.417147, 48.767715]}, "properties": {"alarme": "VEHICULE DELOCALISE", "numparc": 9241, "type": "EXPLOITATION", "duree": "00:01:11", "horodatage": "2022-07-15 07:45:57", "statut": "end", "marker-color": "#2fe184"}}, {"type": "Feature", "geometry": {"type": "Point", "coordinates": [2.310106, 48.762985]}, "properties": {"alarme": "VEHICULE DELOCALISE", "numparc": 9253, "type": "EXPLOITATION", "duree": "00:15:00", "horodatage": "2022-07-15 08:01:54", "statut": "end", "marker-color": "#2fe184"}}, {"type": "Feature", "geometry": {"type": "Point", "coordinates": [2.310077, 48.762997]}, "properties": {"alarme": "VEHICULE DELOCALISE", "numparc": 9247, "type": "EXPLOITATION", "duree": "00:10:20", "horodatage": "2022-07-15 08:41:41", "statut": "end", "marker-color": "#2fe184"}}, {"type": "Feature", "geometry": {"type": "Point", "coordinates": [2.304766, 48.762905]}, "properties": {"alarme": "VEHICULE DELOCALISE", "numparc": 9231, "type": "EXPLOITATION", "duree": "00:05:14", "horodatage": "2022-07-15 08:51:41", "statut": "end", "marker-color": "#2fe184"}}, {"type": "Feature", "geometry": {"type": "Point", "coordinates": [2.310134, 48.762989]}, "properties": {"alarme": "VEHICULE DELOCALISE", "numparc": 9243, "type": "EXPLOITATION", "duree": "00:16:25", "horodatage": "2022-07-15 09:14:08", "statut": "end", "marker-color": "#2fe184"}}, {"type": "Feature", "geometry": {"type": "Point", "coordinates": [2.304042, 48.7626]}, "properties": {"alarme": "VEHICULE DELOCALISE", "numparc": 9265, "type": "EXPLOITATION", "duree": "00:01:55", "horodatage": "2022-07-15 09:05:13", "statut": "end", "marker-color": "#2fe184"}}, {"type": "Feature", "geometry": {"type": "Point", "coordinates": [2.358104, 48.620888]}, "properties": {"alarme": "DEFAUT LIAISON DATA SAEIV / AIGLE", "numparc": 9258, "type": "TECHNIQUE", "duree": "00:30:47", "horodatage": "2022-07-15 09:37:01", "statut": "end", "marker-color": "#2fe184"}}, {"type": "Feature", "geometry": {"type": "Point", "coordinates": [2.303926, 48.762627]}, "properties": {"alarme": "VEHICULE DELOCALISE", "numparc": 9241, "type": "EXPLOITATION", "duree": "00:08:28", "horodatage": "2022-07-15 09:25:59", "statut": "end", "marker-color": "#2fe184"}}, {"type": "Feature", "geometry": {"type": "Point", "coordinates": [2.303988, 48.762585]}, "properties": {"alarme": "VEHICULE DELOCALISE", "numparc": 9237, "type": "EXPLOITATION", "duree": "00:07:50", "horodatage": "2022-07-15 09:32:22", "statut": "end", "marker-color": "#2fe184"}}, {"type": "Feature", "geometry": {"type": "Point", "coordinates": [2.400276, 48.631256]}, "properties": {"alarme": "DEFAUT LIAISON DATA SAEIV / AIGLE", "numparc": 9258, "type": "TECHNIQUE", "duree": "00:04:38", "horodatage": "2022-07-15 09:54:49", "statut": "end", "marker-color": "#2fe184"}}, {"type": "Feature", "geometry": {"type": "Point", "coordinates": [2.310111, 48.762985]}, "properties": {"alarme": "VEHICULE DELOCALISE", "numparc": 9246, "type": "EXPLOITATION", "duree": "00:12:33", "horodatage": "2022-07-15 10:11:19", "statut": "end", "marker-color": "#2fe184"}}, {"type": "Feature", "geometry": {"type": "Point", "coordinates": [2.310325, 48.762947]}, "properties": {"alarme": "VEHICULE DELOCALISE", "numparc": 9253, "type": "EXPLOITATION", "duree": "00:17:07", "horodatage": "2022-07-15 10:21:52", "statut": "end", "marker-color": "#2fe184"}}, {"type": "Feature", "geometry": {"type": "Point", "coordinates": [2.304971, 48.762951]}, "properties": {"alarme": "VEHICULE DELOCALISE", "numparc": 9247, "type": "EXPLOITATION", "duree": "00:12:21", "horodatage": "2022-07-15 11:02:01", "statut": "end", "marker-color": "#2fe184"}}, {"type": "Feature", "geometry": {"type": "Point", "coordinates": [2.304582, 48.762833]}, "properties": {"alarme": "VEHICULE DELOCALISE", "numparc": 9231, "type": "EXPLOITATION", "duree": "00:12:10", "horodatage": "2022-07-15 11:10:23", "statut": "end", "marker-color": "#2fe184"}}, {"type": "Feature", "geometry": {"type": "Point", "coordinates": [2.304803, 48.762943]}, "properties": {"alarme": "VEHICULE DELOCALISE", "numparc": 9243, "type": "EXPLOITATION", "duree": "00:17:57", "horodatage": "2022-07-15 11:30:12", "statut": "end", "marker-color": "#2fe184"}}, {"type": "Feature", "geometry": {"type": "Point", "coordinates": [2.3037, 48.762524]}, "properties": {"alarme": "VEHICULE DELOCALISE", "numparc": 9265, "type": "EXPLOITATION", "duree": "00:08:16", "horodatage": "2022-07-15 11:24:56", "statut": "end", "marker-color": "#2fe184"}}, {"type": "Feature", "geometry": {"type": "Point", "coordinates": [2.305192, 48.763012]}, "properties": {"alarme": "VEHICULE DELOCALISE", "numparc": 9241, "type": "EXPLOITATION", "duree": "00:12:00", "horodatage": "2022-07-15 11:49:45", "statut": "end", "marker-color": "#2fe184"}}, {"type": "Feature", "geometry": {"type": "Point", "coordinates": [2.310005, 48.762981]}, "properties": {"alarme": "VEHICULE DELOCALISE", "numparc": 9237, "type": "EXPLOITATION", "duree": "00:18:45", "horodatage": "2022-07-15 12:02:04", "statut": "end", "marker-color": "#2fe184"}}, {"type": "Feature", "geometry": {"type": "Point", "coordinates": [2.310367, 48.76292]}, "properties": {"alarme": "VEHICULE DELOCALISE", "numparc": 9246, "type": "EXPLOITATION", "duree": "00:09:24", "horodatage": "2022-07-15 12:32:28", "statut": "end", "marker-color": "#2fe184"}}, {"type": "Feature", "geometry": {"type": "Point", "coordinates": [2.310005, 48.763012]}, "properties": {"alarme": "VEHICULE DELOCALISE", "numparc": 9239, "type": "EXPLOITATION", "duree": "00:13:48", "horodatage": "2022-07-15 12:38:28", "statut": "end", "marker-color": "#2fe184"}}, {"type": "Feature", "geometry": {"type": "Point", "coordinates": [2.305176, 48.762997]}, "properties": {"alarme": "VEHICULE DELOCALISE", "numparc": 9253, "type": "EXPLOITATION", "duree": "00:18:07", "horodatage": "2022-07-15 12:47:02", "statut": "end", "marker-color": "#2fe184"}}, {"type": "Feature", "geometry": {"type": "Point", "coordinates": [2.310058, 48.762989]}, "properties": {"alarme": "VEHICULE DELOCALISE", "numparc": 9275, "type": "EXPLOITATION", "duree": "00:16:53", "horodatage": "2022-07-15 13:09:46", "statut": "end", "marker-color": "#2fe184"}}, {"type": "Feature", "geometry": {"type": "Point", "coordinates": [2.305072, 48.762981]}, "properties": {"alarme": "VEHICULE DELOCALISE", "numparc": 9247, "type": "EXPLOITATION", "duree": "00:07:43", "horodatage": "2022-07-15 13:22:05", "statut": "end", "marker-color": "#2fe184"}}, {"type": "Feature", "geometry": {"type": "Point", "coordinates": [2.305188, 48.762989]}, "properties": {"alarme": "VEHICULE DELOCALISE", "numparc": 9231, "type": "EXPLOITATION", "duree": "00:18:26", "horodatage": "2022-07-15 13:33:52", "statut": "end", "marker-color": "#2fe184"}}, {"type": "Feature", "geometry": {"type": "Point", "coordinates": [2.310033, 48.76297]}, "properties": {"alarme": "VEHICULE DELOCALISE", "numparc": 9243, "type": "EXPLOITATION", "duree": "00:20:30", "horodatage": "2022-07-15 13:50:30", "statut": "end", "marker-color": "#2fe184"}}, {"type": "Feature", "geometry": {"type": "Point", "coordinates": [2.305096, 48.762962]}, "properties": {"alarme": "VEHICULE DELOCALISE", "numparc": 9241, "type": "EXPLOITATION", "duree": "00:14:22", "horodatage": "2022-07-15 14:12:29", "statut": "end", "marker-color": "#2fe184"}}, {"type": "Feature", "geometry": {"type": "Point", "coordinates": [2.310078, 48.762962]}, "properties": {"alarme": "VEHICULE DELOCALISE", "numparc": 9232, "type": "EXPLOITATION", "duree": "00:16:05", "horodatage": "2022-07-15 14:18:46", "statut": "end", "marker-color": "#2fe184"}}, {"type": "Feature", "geometry": {"type": "Point", "coordinates": [2.31005, 48.762951]}, "properties": {"alarme": "VEHICULE DELOCALISE", "numparc": 9265, "type": "EXPLOITATION", "duree": "00:01:08", "horodatage": "2022-07-15 14:05:53", "statut": "end", "marker-color": "#2fe184"}}, {"type": "Feature", "geometry": {"type": "Point", "coordinates": [2.310003, 48.76297]}, "properties": {"alarme": "VEHICULE DELOCALISE", "numparc": 9237, "type": "EXPLOITATION", "duree": "00:15:12", "horodatage": "2022-07-15 14:24:33", "statut": "end", "marker-color": "#2fe184"}}, {"type": "Feature", "geometry": {"type": "Point", "coordinates": [2.3101, 48.763]}, "properties": {"alarme": "VEHICULE DELOCALISE", "numparc": 9269, "type": "EXPLOITATION", "duree": "00:11:00", "horodatage": "2022-07-15 14:30:16", "statut": "end", "marker-color": "#2fe184"}}, {"type": "Feature", "geometry": {"type": "Point", "coordinates": [2.309998, 48.763054]}, "properties": {"alarme": "VEHICULE DELOCALISE", "numparc": 9266, "type": "EXPLOITATION", "duree": "00:17:56", "horodatage": "2022-07-15 14:51:25", "statut": "end", "marker-color": "#2fe184"}}, {"type": "Feature", "geometry": {"type": "Point", "coordinates": [2.305157, 48.763004]}, "properties": {"alarme": "VEHICULE DELOCALISE", "numparc": 9246, "type": "EXPLOITATION", "duree": "00:16:47", "horodatage": "2022-07-15 14:54:33", "statut": "end", "marker-color": "#2fe184"}}, {"type": "Feature", "geometry": {"type": "Point", "coordinates": [2.310003, 48.763012]}, "properties": {"alarme": "VEHICULE DELOCALISE", "numparc": 9239, "type": "EXPLOITATION", "duree": "00:08:36", "horodatage": "2022-07-15 15:01:50", "statut": "end", "marker-color": "#2fe184"}}, {"type": "Feature", "geometry": {"type": "Point", "coordinates": [2.310051, 48.763012]}, "properties": {"alarme": "VEHICULE DELOCALISE", "numparc": 9253, "type": "EXPLOITATION", "duree": "00:01:07", "horodatage": "2022-07-15 15:08:44", "statut": "end", "marker-color": "#2fe184"}}, {"type": "Feature", "geometry": {"type": "Point", "coordinates": [2.471732, 48.800541]}, "properties": {"alarme": "VEHICULE DELOCALISE", "numparc": 9265, "type": "EXPLOITATION", "duree": "00:01:51", "horodatage": "2022-07-15 15:21:12", "statut": "end", "marker-color": "#2fe184"}}, {"type": "Feature", "geometry": {"type": "Point", "coordinates": [2.309922, 48.763027]}, "properties": {"alarme": "VEHICULE DELOCALISE", "numparc": 9275, "type": "EXPLOITATION", "duree": "00:12:04", "horodatage": "2022-07-15 15:32:11", "statut": "end", "marker-color": "#2fe184"}}, {"type": "Feature", "geometry": {"type": "Point", "coordinates": [2.463798, 48.797119]}, "properties": {"alarme": "VEHICULE DELOCALISE", "numparc": 9265, "type": "EXPLOITATION", "duree": "00:01:24", "horodatage": "2022-07-15 15:23:28", "statut": "end", "marker-color": "#2fe184"}}, {"type": "Feature", "geometry": {"type": "Point", "coordinates": [2.304893, 48.76297]}, "properties": {"alarme": "VEHICULE DELOCALISE", "numparc": 9247, "type": "EXPLOITATION", "duree": "00:18:29", "horodatage": "2022-07-15 15:40:56", "statut": "end", "marker-color": "#2fe184"}}, {"type": "Feature", "geometry": {"type": "Point", "coordinates": [2.304914, 48.762932]}, "properties": {"alarme": "VEHICULE DELOCALISE", "numparc": 9231, "type": "EXPLOITATION", "duree": "00:20:45", "horodatage": "2022-07-15 15:59:25", "statut": "end", "marker-color": "#2fe184"}}, {"type": "Feature", "geometry": {"type": "Point", "coordinates": [2.310041, 48.762955]}, "properties": {"alarme": "VEHICULE DELOCALISE", "numparc": 9243, "type": "EXPLOITATION", "duree": "00:14:32", "horodatage": "2022-07-15 16:12:52", "statut": "end", "marker-color": "#2fe184"}}, {"type": "Feature", "geometry": {"type": "Point", "coordinates": [2.309922, 48.763]}, "properties": {"alarme": "VEHICULE DELOCALISE", "numparc": 9249, "type": "EXPLOITATION", "duree": "00:17:44", "horodatage": "2022-07-15 16:24:41", "statut": "end", "marker-color": "#2fe184"}}, {"type": "Feature", "geometry": {"type": "Point", "coordinates": [2.304999, 48.762951]}, "properties": {"alarme": "VEHICULE DELOCALISE", "numparc": 9241, "type": "EXPLOITATION", "duree": "00:18:56", "horodatage": "2022-07-15 16:41:42", "statut": "end", "marker-color": "#2fe184"}}, {"type": "Feature", "geometry": {"type": "Point", "coordinates": [2.305176, 48.762917]}, "properties": {"alarme": "VEHICULE DELOCALISE", "numparc": 9232, "type": "EXPLOITATION", "duree": "00:15:46", "horodatage": "2022-07-15 16:43:58", "statut": "end", "marker-color": "#2fe184"}}, {"type": "Feature", "geometry": {"type": "Point", "coordinates": [2.305227, 48.762993]}, "properties": {"alarme": "VEHICULE DELOCALISE", "numparc": 9237, "type": "EXPLOITATION", "duree": "00:15:01", "horodatage": "2022-07-15 16:47:21", "statut": "end", "marker-color": "#2fe184"}}, {"type": "Feature", "geometry": {"type": "Point", "coordinates": [2.310045, 48.762997]}, "properties": {"alarme": "VEHICULE DELOCALISE", "numparc": 9269, "type": "EXPLOITATION", "duree": "00:09:55", "horodatage": "2022-07-15 16:55:03", "statut": "end", "marker-color": "#2fe184"}}, {"type": "Feature", "geometry": {"type": "Point", "coordinates": [2.35744, 48.763615]}, "properties": {"alarme": "VEHICULE DELOCALISE", "numparc": 9265, "type": "EXPLOITATION", "duree": "00:01:05", "horodatage": "2022-07-15 16:49:11", "statut": "end", "marker-color": "#2fe184"}}, {"type": "Feature", "geometry": {"type": "Point", "coordinates": [2.304994, 48.762959]}, "properties": {"alarme": "VEHICULE DELOCALISE", "numparc": 9266, "type": "EXPLOITATION", "duree": "00:14:00", "horodatage": "2022-07-15 17:12:04", "statut": "end", "marker-color": "#2fe184"}}, {"type": "Feature", "geometry": {"type": "Point", "coordinates": [2.305083, 48.762978]}, "properties": {"alarme": "VEHICULE DELOCALISE", "numparc": 9246, "type": "EXPLOITATION", "duree": "00:15:33", "horodatage": "2022-07-15 17:17:53", "statut": "end", "marker-color": "#2fe184"}}, {"type": "Feature", "geometry": {"type": "Point", "coordinates": [2.305105, 48.762981]}, "properties": {"alarme": "VEHICULE DELOCALISE", "numparc": 9239, "type": "EXPLOITATION", "duree": "00:09:48", "horodatage": "2022-07-15 17:23:48", "statut": "end", "marker-color": "#2fe184"}}, {"type": "Feature", "geometry": {"type": "Point", "coordinates": [2.305234, 48.763008]}, "properties": {"alarme": "VEHICULE DELOCALISE", "numparc": 9253, "type": "EXPLOITATION", "duree": "00:14:09", "horodatage": "2022-07-15 17:29:16", "statut": "end", "marker-color": "#2fe184"}}, {"type": "Feature", "geometry": {"type": "Point", "coordinates": [2.310134, 48.762993]}, "properties": {"alarme": "VEHICULE DELOCALISE", "numparc": 9275, "type": "EXPLOITATION", "duree": "00:14:12", "horodatage": "2022-07-15 17:54:35", "statut": "end", "marker-color": "#2fe184"}}, {"type": "Feature", "geometry": {"type": "Point", "coordinates": [2.304061, 48.762604]}, "properties": {"alarme": "VEHICULE DELOCALISE", "numparc": 9247, "type": "EXPLOITATION", "duree": "00:09:16", "horodatage": "2022-07-15 18:01:04", "statut": "end", "marker-color": "#2fe184"}}, {"type": "Feature", "geometry": {"type": "Point", "coordinates": [2.309986, 48.763027]}, "properties": {"alarme": "VEHICULE DELOCALISE", "numparc": 9231, "type": "EXPLOITATION", "duree": "00:16:04", "horodatage": "2022-07-15 18:23:33", "statut": "end", "marker-color": "#2fe184"}}, {"type": "Feature", "geometry": {"type": "Point", "coordinates": [2.304949, 48.762962]}, "properties": {"alarme": "VEHICULE DELOCALISE", "numparc": 9243, "type": "EXPLOITATION", "duree": "00:18:09", "horodatage": "2022-07-15 18:38:11", "statut": "end", "marker-color": "#2fe184"}}, {"type": "Feature", "geometry": {"type": "Point", "coordinates": [2.31004, 48.763023]}, "properties": {"alarme": "VEHICULE DELOCALISE", "numparc": 9249, "type": "EXPLOITATION", "duree": "00:24:41", "horodatage": "2022-07-15 18:57:31", "statut": "end", "marker-color": "#2fe184"}}, {"type": "Feature", "geometry": {"type": "Point", "coordinates": [2.304962, 48.762936]}, "properties": {"alarme": "VEHICULE DELOCALISE", "numparc": 9241, "type": "EXPLOITATION", "duree": "00:12:02", "horodatage": "2022-07-15 19:06:24", "statut": "end", "marker-color": "#2fe184"}}, {"type": "Feature", "geometry": {"type": "Point", "coordinates": [2.304864, 48.762932]}, "properties": {"alarme": "VEHICULE DELOCALISE", "numparc": 9237, "type": "EXPLOITATION", "duree": "00:16:05", "horodatage": "2022-07-15 19:13:13", "statut": "end", "marker-color": "#2fe184"}}, {"type": "Feature", "geometry": {"type": "Point", "coordinates": [2.305053, 48.762985]}, "properties": {"alarme": "VEHICULE DELOCALISE", "numparc": 9266, "type": "EXPLOITATION", "duree": "00:07:55", "horodatage": "2022-07-15 19:38:59", "statut": "end", "marker-color": "#2fe184"}}, {"type": "Feature", "geometry": {"type": "Point", "coordinates": [2.305064, 48.762978]}, "properties": {"alarme": "VEHICULE DELOCALISE", "numparc": 9246, "type": "EXPLOITATION", "duree": "00:12:42", "horodatage": "2022-07-15 19:45:03", "statut": "end", "marker-color": "#2fe184"}}, {"type": "Feature", "geometry": {"type": "Point", "coordinates": [2.309998, 48.763027]}, "properties": {"alarme": "VEHICULE DELOCALISE", "numparc": 9253, "type": "EXPLOITATION", "duree": "00:13:38", "horodatage": "2022-07-15 19:54:32", "statut": "end", "marker-color": "#2fe184"}}, {"type": "Feature", "geometry": {"type": "Point", "coordinates": [2.310034, 48.763027]}, "properties": {"alarme": "VEHICULE DELOCALISE", "numparc": 9247, "type": "EXPLOITATION", "duree": "00:16:13", "horodatage": "2022-07-15 20:35:26", "statut": "end", "marker-color": "#2fe184"}}, {"type": "Feature", "geometry": {"type": "Point", "coordinates": [2.305195, 48.763035]}, "properties": {"alarme": "VEHICULE DELOCALISE", "numparc": 9266, "type": "EXPLOITATION", "duree": "00:10:30", "horodatage": "2022-07-15 22:03:38", "statut": "end", "marker-color": "#2fe184"}}, {"type": "Feature", "geometry": {"type": "Point", "coordinates": [2.310122, 48.763023]}, "properties": {"alarme": "VEHICULE DELOCALISE", "numparc": 9253, "type": "EXPLOITATION", "duree": "00:17:18", "horodatage": "2022-07-15 22:16:58", "statut": "end", "marker-color": "#2fe184"}}, {"type": "Feature", "geometry": {"type": "Point", "coordinates": [2.305192, 48.763]}, "properties": {"alarme": "VEHICULE DELOCALISE", "numparc": 9247, "type": "EXPLOITATION", "duree": "00:16:40", "horodatage": "2022-07-15 23:10:11", "statut": "end", "marker-color": "#2fe184"}}, {"type": "Feature", "geometry": {"type": "Point", "coordinates": [2.344802, 48.763615]}, "properties": {"alarme": "DEFAUT LIAISON DATA SAEIV / AIGLE", "numparc": 9272, "type": "TECHNIQUE", "duree": "00:00:46", "horodatage": "2022-07-15 23:39:18", "statut": "end", "marker-color": "#2fe184"}}, {"type": "Feature", "geometry": {"type": "Point", "coordinates": [2.339738, 48.75367]}, "properties": {"alarme": "DEFAUT LIAISON DATA SAEIV / AIGLE", "numparc": 9272, "type": "TECHNIQUE", "duree": "00:34:43", "horodatage": "2022-07-16 00:19:50", "statut": "end", "marker-color": "#2fe184"}}, {"type": "Feature", "geometry": {"type": "Point", "coordinates": [2.303963, 48.76263]}, "properties": {"alarme": "VEHICULE DELOCALISE", "numparc": 9272, "type": "EXPLOITATION", "duree": "00:17:08", "horodatage": "2022-07-16 00:08:00", "statut": "end", "marker-color": "#2fe184"}}, {"type": "Feature", "geometry": {"type": "Point", "coordinates": [2.310045, 48.762993]}, "properties": {"alarme": "VEHICULE DELOCALISE", "numparc": 9266, "type": "EXPLOITATION", "duree": "00:16:52", "horodatage": "2022-07-16 00:36:52", "statut": "end", "marker-color": "#2fe184"}}, {"type": "Feature", "geometry": {"type": "Point", "coordinates": [2.356464, 48.764477]}, "properties": {"alarme": "DEFAUT LIAISON DATA SAEIV / AIGLE", "numparc": 9272, "type": "TECHNIQUE", "duree": "00:00:45", "horodatage": "2022-07-16 00:25:10", "statut": "end", "marker-color": "#2fe184"}}, {"type": "Feature", "geometry": {"type": "Point", "coordinates": [2.365363, 48.759354]}, "properties": {"alarme": "DEFAUT LIAISON DATA SAEIV / AIGLE", "numparc": 9272, "type": "TECHNIQUE", "duree": "00:00:45", "horodatage": "2022-07-16 00:28:10", "statut": "end", "marker-color": "#2fe184"}}, {"type": "Feature", "geometry": {"type": "Point", "coordinates": [2.416326, 48.767464]}, "properties": {"alarme": "DEFAUT LIAISON DATA SAEIV / AIGLE", "numparc": 9272, "type": "TECHNIQUE", "duree": "00:07:31", "horodatage": "2022-07-16 00:39:24", "statut": "end", "marker-color": "#2fe184"}}, {"type": "Feature", "geometry": {"type": "Point", "coordinates": [2.434994, 48.773071]}, "properties": {"alarme": "DEFAUT LIAISON DATA SAEIV / AIGLE", "numparc": 9272, "type": "TECHNIQUE", "duree": "00:28:56", "horodatage": "2022-07-16 01:10:36", "statut": "end", "marker-color": "#2fe184"}}, {"type": "Feature", "geometry": {"type": "Point", "coordinates": [2.452863, 48.790173]}, "properties": {"alarme": "VEHICULE DELOCALISE", "numparc": 9253, "type": "EXPLOITATION", "duree": "00:01:01", "horodatage": "2022-07-16 00:43:06", "statut": "end", "marker-color": "#2fe184"}}, {"type": "Feature", "geometry": {"type": "Point", "coordinates": [2.471662, 48.803837]}, "properties": {"alarme": "VEHICULE DELOCALISE", "numparc": 9253, "type": "EXPLOITATION", "duree": "00:03:31", "horodatage": "2022-07-16 00:47:05", "statut": "end", "marker-color": "#2fe184"}}, {"type": "Feature", "geometry": {"type": "Point", "coordinates": [2.305049, 48.762962]}, "properties": {"alarme": "VEHICULE DELOCALISE", "numparc": 9247, "type": "EXPLOITATION", "duree": "00:01:29", "horodatage": "2022-07-16 01:11:28", "statut": "end", "marker-color": "#2fe184"}}, {"type": "Feature", "geometry": {"type": "Point", "coordinates": [2.421536, 48.769035]}, "properties": {"alarme": "DEFAUT LIAISON DATA SAEIV / AIGLE", "numparc": 9272, "type": "TECHNIQUE", "duree": "00:01:20", "horodatage": "2022-07-16 01:12:58", "statut": "end", "marker-color": "#2fe184"}}, {"type": "Feature", "geometry": {"type": "Point", "coordinates": [2.361398, 48.760235]}, "properties": {"alarme": "DEFAUT LIAISON DATA SAEIV / AIGLE", "numparc": 9272, "type": "TECHNIQUE", "duree": "00:07:11", "horodatage": "2022-07-16 01:23:46", "statut": "end", "marker-color": "#2fe184"}}, {"type": "Feature", "geometry": {"type": "Point", "coordinates": [2.305214, 48.763]}, "properties": {"alarme": "VEHICULE DELOCALISE", "numparc": 9251, "type": "EXPLOITATION", "duree": "00:04:51", "horodatage": "2022-07-16 01:23:14", "statut": "end", "marker-color": "#2fe184"}}, {"type": "Feature", "geometry": {"type": "Point", "coordinates": [2.386046, 48.754608]}, "properties": {"alarme": "DEFAUT LIAISON DATA SAEIV / AIGLE", "numparc": 9272, "type": "TECHNIQUE", "duree": "24:00:00", "horodatage": "2022-07-16 01:30:20", "statut": "start", "marker-color": "#000000"}}]}