{"type": "FeatureCollection", "features": [{"type": "Feature", "geometry": {"type": "Point", "coordinates": [2.387743, 48.754513]}, "properties": {"etat de la localisation": "Mission inconnue", "numparc": 5727, "duree": "", "horodatage": "2022-12-21 05:40:58", "marker-color": "#FF9F56"}}, {"type": "Feature", "geometry": {"type": "Point", "coordinates": [2.387801, 48.754543]}, "properties": {"etat de la localisation": "Mission inconnue", "numparc": 5735, "duree": "", "horodatage": "2022-12-21 05:53:54", "marker-color": "#FF9F56"}}, {"type": "Feature", "geometry": {"type": "Point", "coordinates": [2.387743, 48.754513]}, "properties": {"etat de la localisation": "Hors service", "numparc": 5727, "duree": "", "horodatage": "2022-12-21 05:56:02", "marker-color": "#707070"}}, {"type": "Feature", "geometry": {"type": "Point", "coordinates": [2.387801, 48.754543]}, "properties": {"etat de la localisation": "Mission inconnue", "numparc": 5735, "duree": "", "horodatage": "2022-12-21 06:03:39", "marker-color": "#FF9F56"}}, {"type": "Feature", "geometry": {"type": "Point", "coordinates": [2.367375, 48.787464]}, "properties": {"etat de la localisation": "Delocalise", "numparc": 5740, "duree": "00:00:11", "horodatage": "2022-12-21 06:19:03", "marker-color": "#FF565E"}}, {"type": "Feature", "geometry": {"type": "Point", "coordinates": [2.367557, 48.787724]}, "properties": {"etat de la localisation": "Mission suivante non connue", "numparc": 5732, "duree": "", "horodatage": "2022-12-21 06:50:49", "marker-color": "#7156FF"}}, {"type": "Feature", "geometry": {"type": "Point", "coordinates": [2.302162, 48.756069]}, "properties": {"etat de la localisation": "Mission suivante non connue", "numparc": 5727, "duree": "", "horodatage": "2022-12-21 07:35:06", "marker-color": "#7156FF"}}, {"type": "Feature", "geometry": {"type": "Point", "coordinates": [2.302162, 48.756069]}, "properties": {"etat de la localisation": "Mission inconnue", "numparc": 5727, "duree": "", "horodatage": "2022-12-21 07:35:17", "marker-color": "#FF9F56"}}, {"type": "Feature", "geometry": {"type": "Point", "coordinates": [2.30204, 48.755985]}, "properties": {"etat de la localisation": "Mission suivante non connue", "numparc": 5732, "duree": "", "horodatage": "2022-12-21 07:41:31", "marker-color": "#7156FF"}}, {"type": "Feature", "geometry": {"type": "Point", "coordinates": [2.368026, 48.787865]}, "properties": {"etat de la localisation": "Mission suivante non connue", "numparc": 5732, "duree": "", "horodatage": "2022-12-21 08:23:02", "marker-color": "#7156FF"}}, {"type": "Feature", "geometry": {"type": "Point", "coordinates": [2.367517, 48.787735]}, "properties": {"etat de la localisation": "Mission inconnue", "numparc": 5732, "duree": "", "horodatage": "2022-12-21 08:24:02", "marker-color": "#FF9F56"}}, {"type": "Feature", "geometry": {"type": "Point", "coordinates": [2.36788, 48.787575]}, "properties": {"etat de la localisation": "Mission suivante non connue", "numparc": 5732, "duree": "", "horodatage": "2022-12-21 09:11:21", "marker-color": "#7156FF"}}, {"type": "Feature", "geometry": {"type": "Point", "coordinates": [2.387396, 48.753975]}, "properties": {"etat de la localisation": "Hors service", "numparc": 5727, "duree": "", "horodatage": "2022-12-21 09:17:57", "marker-color": "#707070"}}, {"type": "Feature", "geometry": {"type": "Point", "coordinates": [2.388314, 48.754486]}, "properties": {"etat de la localisation": "Hors service", "numparc": 5727, "duree": "", "horodatage": "2022-12-21 09:23:51", "marker-color": "#707070"}}, {"type": "Feature", "geometry": {"type": "Point", "coordinates": [2.387671, 48.754471]}, "properties": {"etat de la localisation": "Hors service", "numparc": 5732, "duree": "", "horodatage": "2022-12-21 09:33:42", "marker-color": "#707070"}}, {"type": "Feature", "geometry": {"type": "Point", "coordinates": [2.339811, 48.772778]}, "properties": {"etat de la localisation": "Mission suivante non connue", "numparc": 5721, "duree": "", "horodatage": "2022-12-21 09:34:42", "marker-color": "#7156FF"}}, {"type": "Feature", "geometry": {"type": "Point", "coordinates": [2.387346, 48.753967]}, "properties": {"etat de la localisation": "Hors service", "numparc": 5712, "duree": "", "horodatage": "2022-12-21 10:01:30", "marker-color": "#707070"}}, {"type": "Feature", "geometry": {"type": "Point", "coordinates": [2.387442, 48.753998]}, "properties": {"etat de la localisation": "Hors service", "numparc": 5735, "duree": "", "horodatage": "2022-12-21 10:32:05", "marker-color": "#707070"}}, {"type": "Feature", "geometry": {"type": "Point", "coordinates": [2.387496, 48.753975]}, "properties": {"etat de la localisation": "Hors service", "numparc": 5740, "duree": "", "horodatage": "2022-12-21 10:40:29", "marker-color": "#707070"}}, {"type": "Feature", "geometry": {"type": "Point", "coordinates": [2.387419, 48.753986]}, "properties": {"etat de la localisation": "Hors service", "numparc": 5734, "duree": "", "horodatage": "2022-12-21 10:56:45", "marker-color": "#707070"}}, {"type": "Feature", "geometry": {"type": "Point", "coordinates": [2.388082, 48.754501]}, "properties": {"etat de la localisation": "Mission inconnue", "numparc": 5734, "duree": "", "horodatage": "2022-12-21 12:58:18", "marker-color": "#FF9F56"}}, {"type": "Feature", "geometry": {"type": "Point", "coordinates": [2.388088, 48.754509]}, "properties": {"etat de la localisation": "Hors service", "numparc": 5724, "duree": "", "horodatage": "2022-12-21 13:21:16", "marker-color": "#707070"}}, {"type": "Feature", "geometry": {"type": "Point", "coordinates": [2.387999, 48.754478]}, "properties": {"etat de la localisation": "Hors service", "numparc": 5717, "duree": "", "horodatage": "2022-12-21 14:11:32", "marker-color": "#707070"}}, {"type": "Feature", "geometry": {"type": "Point", "coordinates": [2.367581, 48.787739]}, "properties": {"etat de la localisation": "Hors service", "numparc": 5721, "duree": "", "horodatage": "2022-12-21 15:05:31", "marker-color": "#707070"}}, {"type": "Feature", "geometry": {"type": "Point", "coordinates": [2.337118, 48.769699]}, "properties": {"etat de la localisation": "Mission inconnue", "numparc": 5740, "duree": "", "horodatage": "2022-12-21 15:43:57", "marker-color": "#FF9F56"}}, {"type": "Feature", "geometry": {"type": "Point", "coordinates": [2.337334, 48.769173]}, "properties": {"etat de la localisation": "Delocalise", "numparc": 5740, "duree": "00:00:00", "horodatage": "2022-12-21 15:48:31", "marker-color": "#FF565E"}}, {"type": "Feature", "geometry": {"type": "Point", "coordinates": [2.367482, 48.787544]}, "properties": {"etat de la localisation": "Mission inconnue", "numparc": 5721, "duree": "", "horodatage": "2022-12-21 17:17:21", "marker-color": "#FF9F56"}}, {"type": "Feature", "geometry": {"type": "Point", "coordinates": [2.364241, 48.784512]}, "properties": {"etat de la localisation": "Delocalise", "numparc": 5721, "duree": "00:01:50", "horodatage": "2022-12-21 17:24:16", "marker-color": "#FF565E"}}, {"type": "Feature", "geometry": {"type": "Point", "coordinates": [2.388088, 48.754524]}, "properties": {"etat de la localisation": "Hors service", "numparc": 5724, "duree": "", "horodatage": "2022-12-21 17:31:36", "marker-color": "#707070"}}, {"type": "Feature", "geometry": {"type": "Point", "coordinates": [2.388091, 48.754513]}, "properties": {"etat de la localisation": "Mission inconnue", "numparc": 5724, "duree": "", "horodatage": "2022-12-21 17:38:06", "marker-color": "#FF9F56"}}, {"type": "Feature", "geometry": {"type": "Point", "coordinates": [2.388091, 48.754513]}, "properties": {"etat de la localisation": "Hors service", "numparc": 5724, "duree": "", "horodatage": "2022-12-21 17:53:09", "marker-color": "#707070"}}, {"type": "Feature", "geometry": {"type": "Point", "coordinates": [2.3022, 48.756084]}, "properties": {"etat de la localisation": "Mission suivante non connue", "numparc": 5732, "duree": "", "horodatage": "2022-12-21 17:57:40", "marker-color": "#7156FF"}}, {"type": "Feature", "geometry": {"type": "Point", "coordinates": [2.339235, 48.772808]}, "properties": {"etat de la localisation": "Mission suivante non connue", "numparc": 5721, "duree": "", "horodatage": "2022-12-21 18:37:50", "marker-color": "#7156FF"}}, {"type": "Feature", "geometry": {"type": "Point", "coordinates": [2.367347, 48.787445]}, "properties": {"etat de la localisation": "Delocalise", "numparc": 5735, "duree": "00:00:10", "horodatage": "2022-12-21 18:40:17", "marker-color": "#FF565E"}}, {"type": "Feature", "geometry": {"type": "Point", "coordinates": [2.387614, 48.754436]}, "properties": {"etat de la localisation": "Hors service", "numparc": 5721, "duree": "", "horodatage": "2022-12-21 19:01:37", "marker-color": "#707070"}}, {"type": "Feature", "geometry": {"type": "Point", "coordinates": [2.387357, 48.75399]}, "properties": {"etat de la localisation": "Hors service", "numparc": 5744, "duree": "", "horodatage": "2022-12-21 19:13:38", "marker-color": "#707070"}}, {"type": "Feature", "geometry": {"type": "Point", "coordinates": [2.367556, 48.787823]}, "properties": {"etat de la localisation": "Hors service", "numparc": 5722, "duree": "", "horodatage": "2022-12-21 19:34:39", "marker-color": "#707070"}}, {"type": "Feature", "geometry": {"type": "Point", "coordinates": [2.339618, 48.772835]}, "properties": {"etat de la localisation": "Mission suivante non connue", "numparc": 5725, "duree": "", "horodatage": "2022-12-21 20:26:52", "marker-color": "#7156FF"}}, {"type": "Feature", "geometry": {"type": "Point", "coordinates": [2.339618, 48.772835]}, "properties": {"etat de la localisation": "Mission inconnue", "numparc": 5725, "duree": "", "horodatage": "2022-12-21 20:26:55", "marker-color": "#FF9F56"}}, {"type": "Feature", "geometry": {"type": "Point", "coordinates": [2.387327, 48.754025]}, "properties": {"etat de la localisation": "Hors service", "numparc": 5740, "duree": "", "horodatage": "2022-12-21 20:28:13", "marker-color": "#707070"}}, {"type": "Feature", "geometry": {"type": "Point", "coordinates": [2.388007, 48.75391]}, "properties": {"etat de la localisation": "Mission inconnue", "numparc": 5727, "duree": "", "horodatage": "2022-12-21 20:29:30", "marker-color": "#FF9F56"}}, {"type": "Feature", "geometry": {"type": "Point", "coordinates": [2.387966, 48.753899]}, "properties": {"etat de la localisation": "Hors service", "numparc": 5727, "duree": "", "horodatage": "2022-12-21 20:31:14", "marker-color": "#707070"}}, {"type": "Feature", "geometry": {"type": "Point", "coordinates": [2.387438, 48.75399]}, "properties": {"etat de la localisation": "Hors service", "numparc": 5725, "duree": "", "horodatage": "2022-12-21 20:43:29", "marker-color": "#707070"}}, {"type": "Feature", "geometry": {"type": "Point", "coordinates": [2.306636, 48.757454]}, "properties": {"etat de la localisation": "Delocalise", "numparc": 5732, "duree": "00:14:49", "horodatage": "2022-12-21 22:34:59", "marker-color": "#FF565E"}}, {"type": "Feature", "geometry": {"type": "Point", "coordinates": [2.387842, 48.754501]}, "properties": {"etat de la localisation": "Hors service", "numparc": 5732, "duree": "", "horodatage": "2022-12-21 22:49:48", "marker-color": "#707070"}}, {"type": "Feature", "geometry": {"type": "Point", "coordinates": [2.387892, 48.754486]}, "properties": {"etat de la localisation": "Hors service", "numparc": 5737, "duree": "", "horodatage": "2022-12-21 23:16:12", "marker-color": "#707070"}}, {"type": "Feature", "geometry": {"type": "Point", "coordinates": [2.387965, 48.753899]}, "properties": {"etat de la localisation": "Mission inconnue", "numparc": 5727, "duree": "", "horodatage": "2022-12-21 23:40:14", "marker-color": "#FF9F56"}}, {"type": "Feature", "geometry": {"type": "Point", "coordinates": [2.387965, 48.753899]}, "properties": {"etat de la localisation": "Hors service", "numparc": 5727, "duree": "", "horodatage": "2022-12-21 23:55:17", "marker-color": "#707070"}}, {"type": "Feature", "geometry": {"type": "Point", "coordinates": [2.387965, 48.753899]}, "properties": {"etat de la localisation": "Mission inconnue", "numparc": 5727, "duree": "", "horodatage": "2022-12-22 00:42:47", "marker-color": "#FF9F56"}}, {"type": "Feature", "geometry": {"type": "Point", "coordinates": [2.387965, 48.753899]}, "properties": {"etat de la localisation": "Hors service", "numparc": 5727, "duree": "", "horodatage": "2022-12-22 00:50:44", "marker-color": "#707070"}}, {"type": "Feature", "geometry": {"type": "Point", "coordinates": [2.387351, 48.754005]}, "properties": {"etat de la localisation": "Hors service", "numparc": 5712, "duree": "", "horodatage": "2022-12-22 01:09:28", "marker-color": "#707070"}}, {"type": "Feature", "geometry": {"type": "Point", "coordinates": [2.387703, 48.754494]}, "properties": {"etat de la localisation": "Hors service", "numparc": 5735, "duree": "", "horodatage": "2022-12-22 01:19:46", "marker-color": "#707070"}}, {"type": "Feature", "geometry": {"type": "Point", "coordinates": [2.388048, 48.754539]}, "properties": {"etat de la localisation": "Hors service", "numparc": 5716, "duree": "", "horodatage": "2022-12-22 01:36:46", "marker-color": "#707070"}}]}