{"type": "FeatureCollection", "features": [{"type": "Feature", "geometry": {"type": "Point", "coordinates": [2.659229, 48.842224]}, "properties": {"numparc": 5886, "etat de la localisation": "autre", "ID BDGEO": "14", "horodatage": "2023-01-22 15:08:09", "distance (en metres)": 52.4, "station": "DEPOT DE BUSSY SORTIE", "marker-color": "#818181"}}, {"type": "Feature", "geometry": {"type": "Point", "coordinates": [2.659347, 48.841759]}, "properties": {"station": "DEPOT DE BUSSY SORTIE", "ID BDGEO": "14", "marker-color": "#56B3FF"}}]}