{"type": "FeatureCollection", "features": [{"type": "Feature", "geometry": {"type": "Point", "coordinates": [2.659399, 48.842346]}, "properties": {"etat de la localisation": "Delocalise", "numparc": 5889, "duree": "00:06:32", "horodatage": "2022-12-27 05:04:13", "marker-color": "#FF565E"}}, {"type": "Feature", "geometry": {"type": "Point", "coordinates": [2.66053, 48.842228]}, "properties": {"etat de la localisation": "Delocalise", "numparc": 5888, "duree": "00:06:24", "horodatage": "2022-12-27 05:10:57", "marker-color": "#FF565E"}}, {"type": "Feature", "geometry": {"type": "Point", "coordinates": [2.660507, 48.842365]}, "properties": {"etat de la localisation": "Delocalise", "numparc": 5874, "duree": "00:02:28", "horodatage": "2022-12-27 05:35:56", "marker-color": "#FF565E"}}, {"type": "Feature", "geometry": {"type": "Point", "coordinates": [2.660482, 48.841957]}, "properties": {"etat de la localisation": "Delocalise", "numparc": 5892, "duree": "00:03:44", "horodatage": "2022-12-27 05:56:25", "marker-color": "#FF565E"}}, {"type": "Feature", "geometry": {"type": "Point", "coordinates": [2.583235, 48.874935]}, "properties": {"etat de la localisation": "Delocalise", "numparc": 5890, "duree": "00:00:00", "horodatage": "2022-12-27 07:48:57", "marker-color": "#FF565E"}}, {"type": "Feature", "geometry": {"type": "Point", "coordinates": [2.618997, 48.840847]}, "properties": {"etat de la localisation": "Mission inconnue", "numparc": 5888, "duree": "", "horodatage": "2022-12-27 07:58:35", "marker-color": "#FF9F56"}}, {"type": "Feature", "geometry": {"type": "Point", "coordinates": [2.583224, 48.844273]}, "properties": {"etat de la localisation": "Delocalise", "numparc": 5890, "duree": "00:00:18", "horodatage": "2022-12-27 08:22:58", "marker-color": "#FF565E"}}, {"type": "Feature", "geometry": {"type": "Point", "coordinates": [2.660527, 48.842175]}, "properties": {"etat de la localisation": "Hors service", "numparc": 5890, "duree": "", "horodatage": "2022-12-27 09:16:34", "marker-color": "#707070"}}, {"type": "Feature", "geometry": {"type": "Point", "coordinates": [2.582544, 48.842735]}, "properties": {"etat de la localisation": "Delocalise", "numparc": 5888, "duree": "00:00:01", "horodatage": "2022-12-27 09:30:17", "marker-color": "#FF565E"}}, {"type": "Feature", "geometry": {"type": "Point", "coordinates": [2.659514, 48.843025]}, "properties": {"etat de la localisation": "Hors service", "numparc": 5889, "duree": "", "horodatage": "2022-12-27 11:21:31", "marker-color": "#707070"}}, {"type": "Feature", "geometry": {"type": "Point", "coordinates": [2.65949, 48.843018]}, "properties": {"etat de la localisation": "Hors service", "numparc": 5874, "duree": "", "horodatage": "2022-12-27 11:58:29", "marker-color": "#707070"}}, {"type": "Feature", "geometry": {"type": "Point", "coordinates": [2.582045, 48.843605]}, "properties": {"etat de la localisation": "Hors service", "numparc": 5888, "duree": "", "horodatage": "2022-12-27 12:10:49", "marker-color": "#707070"}}, {"type": "Feature", "geometry": {"type": "Point", "coordinates": [2.583613, 48.874386]}, "properties": {"etat de la localisation": "Hors service", "numparc": 5888, "duree": "", "horodatage": "2022-12-27 12:38:20", "marker-color": "#707070"}}, {"type": "Feature", "geometry": {"type": "Point", "coordinates": [2.659057, 48.842861]}, "properties": {"etat de la localisation": "Mission inconnue", "numparc": 5894, "duree": "", "horodatage": "2022-12-27 12:53:58", "marker-color": "#FF9F56"}}, {"type": "Feature", "geometry": {"type": "Point", "coordinates": [2.58245, 48.842571]}, "properties": {"etat de la localisation": "Mission suivante non connue", "numparc": 5894, "duree": "", "horodatage": "2022-12-27 13:16:41", "marker-color": "#7156FF"}}, {"type": "Feature", "geometry": {"type": "Point", "coordinates": [2.627836, 48.838757]}, "properties": {"etat de la localisation": "Mission suivante non connue", "numparc": 5888, "duree": "", "horodatage": "2022-12-27 13:24:49", "marker-color": "#7156FF"}}, {"type": "Feature", "geometry": {"type": "Point", "coordinates": [2.660692, 48.842045]}, "properties": {"etat de la localisation": "Delocalise", "numparc": 5868, "duree": "00:03:10", "horodatage": "2022-12-27 16:38:35", "marker-color": "#FF565E"}}, {"type": "Feature", "geometry": {"type": "Point", "coordinates": [2.595321, 48.852814]}, "properties": {"etat de la localisation": "Mission inconnue", "numparc": 5865, "duree": "", "horodatage": "2022-12-27 18:09:14", "marker-color": "#FF9F56"}}, {"type": "Feature", "geometry": {"type": "Point", "coordinates": [2.658811, 48.842518]}, "properties": {"etat de la localisation": "Hors service", "numparc": 5888, "duree": "", "horodatage": "2022-12-27 18:36:57", "marker-color": "#707070"}}, {"type": "Feature", "geometry": {"type": "Point", "coordinates": [2.65924, 48.842175]}, "properties": {"etat de la localisation": "Hors service", "numparc": 5868, "duree": "", "horodatage": "2022-12-27 19:07:25", "marker-color": "#707070"}}, {"type": "Feature", "geometry": {"type": "Point", "coordinates": [2.658708, 48.842899]}, "properties": {"etat de la localisation": "Hors service", "numparc": 5893, "duree": "", "horodatage": "2022-12-27 19:54:33", "marker-color": "#707070"}}, {"type": "Feature", "geometry": {"type": "Point", "coordinates": [2.660727, 48.842007]}, "properties": {"etat de la localisation": "Hors service", "numparc": 5894, "duree": "", "horodatage": "2022-12-27 20:14:27", "marker-color": "#707070"}}, {"type": "Feature", "geometry": {"type": "Point", "coordinates": [2.658809, 48.84251]}, "properties": {"etat de la localisation": "Mission inconnue", "numparc": 5888, "duree": "", "horodatage": "2022-12-27 20:20:46", "marker-color": "#FF9F56"}}, {"type": "Feature", "geometry": {"type": "Point", "coordinates": [2.658809, 48.84251]}, "properties": {"etat de la localisation": "Hors service", "numparc": 5888, "duree": "", "horodatage": "2022-12-27 20:22:14", "marker-color": "#707070"}}, {"type": "Feature", "geometry": {"type": "Point", "coordinates": [2.659204, 48.842216]}, "properties": {"etat de la localisation": "Hors service", "numparc": 5892, "duree": "", "horodatage": "2022-12-27 21:05:55", "marker-color": "#707070"}}, {"type": "Feature", "geometry": {"type": "Point", "coordinates": [2.66067, 48.84203]}, "properties": {"etat de la localisation": "Mission inconnue", "numparc": 5892, "duree": "", "horodatage": "2022-12-27 22:03:22", "marker-color": "#FF9F56"}}, {"type": "Feature", "geometry": {"type": "Point", "coordinates": [2.660547, 48.842167]}, "properties": {"etat de la localisation": "Hors service", "numparc": 5889, "duree": "", "horodatage": "2022-12-27 22:08:22", "marker-color": "#707070"}}, {"type": "Feature", "geometry": {"type": "Point", "coordinates": [2.660709, 48.842094]}, "properties": {"etat de la localisation": "Hors service", "numparc": 5892, "duree": "", "horodatage": "2022-12-27 22:18:28", "marker-color": "#707070"}}, {"type": "Feature", "geometry": {"type": "Point", "coordinates": [2.668516, 48.822319]}, "properties": {"etat de la localisation": "Hors service", "numparc": 5865, "duree": "", "horodatage": "2022-12-27 22:29:29", "marker-color": "#707070"}}, {"type": "Feature", "geometry": {"type": "Point", "coordinates": [2.659518, 48.842831]}, "properties": {"etat de la localisation": "Hors service", "numparc": 5900, "duree": "", "horodatage": "2022-12-27 22:57:32", "marker-color": "#707070"}}, {"type": "Feature", "geometry": {"type": "Point", "coordinates": [2.668518, 48.822319]}, "properties": {"etat de la localisation": "Mission inconnue", "numparc": 5865, "duree": "", "horodatage": "2022-12-27 22:58:01", "marker-color": "#FF9F56"}}, {"type": "Feature", "geometry": {"type": "Point", "coordinates": [2.668518, 48.822319]}, "properties": {"etat de la localisation": "Hors service", "numparc": 5865, "duree": "", "horodatage": "2022-12-27 23:06:07", "marker-color": "#707070"}}]}