{"type": "FeatureCollection", "features": [{"type": "Feature", "geometry": {"type": "Point", "coordinates": [2.459451, 48.895359]}, "properties": {"numparc": 1529, "etat de la localisation": "autre", "ID BDGEO": "1347", "horodatage": "2022-10-29 06:38:05", "distance (en metres)": 127.25, "station": "NOISY-LE-SEC RER.", "marker-color": "#818181"}}, {"type": "Feature", "geometry": {"type": "Point", "coordinates": [2.457124, 48.893547]}, "properties": {"numparc": 1529, "etat de la localisation": "autre", "ID BDGEO": "1346", "horodatage": "2022-10-29 06:39:12", "distance (en metres)": 292.5, "station": "GAMBETTA", "marker-color": "#818181"}}, {"type": "Feature", "geometry": {"type": "Point", "coordinates": [2.45487, 48.891739]}, "properties": {"numparc": 1529, "etat de la localisation": "autre", "ID BDGEO": "1345", "horodatage": "2022-10-29 06:40:13", "distance (en metres)": 351.92, "station": "MARCEAU", "marker-color": "#818181"}}, {"type": "Feature", "geometry": {"type": "Point", "coordinates": [2.453144, 48.890381]}, "properties": {"numparc": 1529, "etat de la localisation": "autre", "ID BDGEO": "1344", "horodatage": "2022-10-29 06:42:26", "distance (en metres)": 365.75, "station": "SALENGRO-AUFFRET", "marker-color": "#818181"}}, {"type": "Feature", "geometry": {"type": "Point", "coordinates": [2.453457, 48.889816]}, "properties": {"numparc": 1529, "etat de la localisation": "autre", "ID BDGEO": "1344", "horodatage": "2022-10-29 06:43:07", "distance (en metres)": 315.11, "station": "SALENGRO-AUFFRET", "marker-color": "#818181"}}, {"type": "Feature", "geometry": {"type": "Point", "coordinates": [2.437255, 48.872166]}, "properties": {"numparc": 1529, "etat de la localisation": "autre", "ID BDGEO": "3795", "horodatage": "2022-10-29 07:15:39", "distance (en metres)": 97.92, "station": "VERT BOIS", "marker-color": "#818181"}}, {"type": "Feature", "geometry": {"type": "Point", "coordinates": [2.452738, 48.876987]}, "properties": {"numparc": 1529, "etat de la localisation": "autre", "ID BDGEO": "5339", "horodatage": "2022-10-29 07:19:44", "distance (en metres)": 85.43, "station": "FERNAND LAMAZE", "marker-color": "#818181"}}, {"type": "Feature", "geometry": {"type": "Point", "coordinates": [2.475791, 48.87822]}, "properties": {"numparc": 1529, "etat de la localisation": "autre", "ID BDGEO": "5306", "horodatage": "2022-10-29 07:24:44", "distance (en metres)": 55.13, "station": "NANTEUIL", "marker-color": "#818181"}}, {"type": "Feature", "geometry": {"type": "Point", "coordinates": [2.457946, 48.881077]}, "properties": {"numparc": 1529, "etat de la localisation": "autre", "ID BDGEO": "3799", "horodatage": "2022-10-29 07:33:28", "distance (en metres)": 52.87, "station": "ECOLE BOISSIERE", "marker-color": "#818181"}}, {"type": "Feature", "geometry": {"type": "Point", "coordinates": [2.457709, 48.885437]}, "properties": {"numparc": 1529, "etat de la localisation": "autre", "ID BDGEO": "3781", "horodatage": "2022-10-29 07:35:30", "distance (en metres)": 68.52, "station": "ECOLE PAUL LANGEVIN", "marker-color": "#818181"}}, {"type": "Feature", "geometry": {"type": "Point", "coordinates": [2.457345, 48.888577]}, "properties": {"numparc": 1529, "etat de la localisation": "autre", "ID BDGEO": "3780", "horodatage": "2022-10-29 07:37:51", "distance (en metres)": 118.76, "station": "SALENGRO-AUFFRET", "marker-color": "#818181"}}, {"type": "Feature", "geometry": {"type": "Point", "coordinates": [2.459518, 48.895454]}, "properties": {"numparc": 1529, "etat de la localisation": "autre", "ID BDGEO": "1347", "horodatage": "2022-10-29 07:41:55", "distance (en metres)": 117.52, "station": "NOISY-LE-SEC RER.", "marker-color": "#818181"}}, {"type": "Feature", "geometry": {"type": "Point", "coordinates": [2.459419, 48.895367]}, "properties": {"numparc": 1529, "etat de la localisation": "autre", "ID BDGEO": "1347", "horodatage": "2022-10-29 07:42:17", "distance (en metres)": 128.76, "station": "NOISY-LE-SEC RER.", "marker-color": "#818181"}}, {"type": "Feature", "geometry": {"type": "Point", "coordinates": [2.457802, 48.885323]}, "properties": {"numparc": 1529, "etat de la localisation": "autre", "ID BDGEO": "3805", "horodatage": "2022-10-29 07:53:39", "distance (en metres)": 2185.16, "station": "LOUISE MICHEL#", "marker-color": "#818181"}}, {"type": "Feature", "geometry": {"type": "Point", "coordinates": [2.457945, 48.881065]}, "properties": {"numparc": 1529, "etat de la localisation": "autre", "ID BDGEO": "3799", "horodatage": "2022-10-29 08:50:51", "distance (en metres)": 51.74, "station": "ECOLE BOISSIERE", "marker-color": "#818181"}}, {"type": "Feature", "geometry": {"type": "Point", "coordinates": [2.457326, 48.888584]}, "properties": {"numparc": 1529, "etat de la localisation": "autre", "ID BDGEO": "3780", "horodatage": "2022-10-29 08:54:30", "distance (en metres)": 118.69, "station": "SALENGRO-AUFFRET", "marker-color": "#818181"}}, {"type": "Feature", "geometry": {"type": "Point", "coordinates": [2.459474, 48.890835]}, "properties": {"numparc": 1529, "etat de la localisation": "autre", "ID BDGEO": "1348", "horodatage": "2022-10-29 08:55:25", "distance (en metres)": 349.07, "station": "SAINT-JEAN", "marker-color": "#818181"}}, {"type": "Feature", "geometry": {"type": "Point", "coordinates": [2.46119, 48.893433]}, "properties": {"numparc": 1529, "etat de la localisation": "autre", "ID BDGEO": "3779", "horodatage": "2022-10-29 08:56:46", "distance (en metres)": 257.66, "station": "NOISY-LE-SEC RER", "marker-color": "#818181"}}, {"type": "Feature", "geometry": {"type": "Point", "coordinates": [2.459435, 48.89534]}, "properties": {"numparc": 1529, "etat de la localisation": "autre", "ID BDGEO": "1347", "horodatage": "2022-10-29 08:59:59", "distance (en metres)": 129.39, "station": "NOISY-LE-SEC RER.", "marker-color": "#818181"}}, {"type": "Feature", "geometry": {"type": "Point", "coordinates": [2.457091, 48.893566]}, "properties": {"numparc": 1529, "etat de la localisation": "autre", "ID BDGEO": "1346", "horodatage": "2022-10-29 09:09:45", "distance (en metres)": 294.99, "station": "GAMBETTA", "marker-color": "#818181"}}, {"type": "Feature", "geometry": {"type": "Point", "coordinates": [2.454812, 48.891724]}, "properties": {"numparc": 1529, "etat de la localisation": "autre", "ID BDGEO": "1345", "horodatage": "2022-10-29 09:10:46", "distance (en metres)": 355.59, "station": "MARCEAU", "marker-color": "#818181"}}, {"type": "Feature", "geometry": {"type": "Point", "coordinates": [2.453457, 48.889828]}, "properties": {"numparc": 1529, "etat de la localisation": "autre", "ID BDGEO": "1344", "horodatage": "2022-10-29 09:11:59", "distance (en metres)": 315.65, "station": "SALENGRO-AUFFRET", "marker-color": "#818181"}}, {"type": "Feature", "geometry": {"type": "Point", "coordinates": [2.456475, 48.887695]}, "properties": {"numparc": 1529, "etat de la localisation": "autre", "ID BDGEO": "1344", "horodatage": "2022-10-29 09:13:59", "distance (en metres)": 119.1, "station": "SALENGRO-AUFFRET", "marker-color": "#818181"}}, {"type": "Feature", "geometry": {"type": "Point", "coordinates": [2.45761, 48.885521]}, "properties": {"numparc": 1529, "etat de la localisation": "autre", "ID BDGEO": "1343", "horodatage": "2022-10-29 09:15:12", "distance (en metres)": 46.73, "station": "ECOLE PAUL LANGEVIN", "marker-color": "#818181"}}, {"type": "Feature", "geometry": {"type": "Point", "coordinates": [2.475611, 48.877785]}, "properties": {"numparc": 1529, "etat de la localisation": "autre", "ID BDGEO": "3776", "horodatage": "2022-10-29 09:25:04", "distance (en metres)": 117.45, "station": "NANTEUIL", "marker-color": "#818181"}}, {"type": "Feature", "geometry": {"type": "Point", "coordinates": [2.4516, 48.877068]}, "properties": {"numparc": 1529, "etat de la localisation": "autre", "ID BDGEO": "3771", "horodatage": "2022-10-29 09:29:35", "distance (en metres)": 67.03, "station": "FERNAND LAMAZE", "marker-color": "#818181"}}, {"type": "Feature", "geometry": {"type": "Point", "coordinates": [2.441347, 48.871891]}, "properties": {"numparc": 1529, "etat de la localisation": "autre", "ID BDGEO": "3768", "horodatage": "2022-10-29 09:31:56", "distance (en metres)": 124.31, "station": "OSERAIES", "marker-color": "#818181"}}, {"type": "Feature", "geometry": {"type": "Point", "coordinates": [2.443111, 48.871845]}, "properties": {"numparc": 1529, "etat de la localisation": "autre", "ID BDGEO": "3794", "horodatage": "2022-10-29 09:55:25", "distance (en metres)": 136.48, "station": "OSERAIES", "marker-color": "#818181"}}, {"type": "Feature", "geometry": {"type": "Point", "coordinates": [2.475803, 48.878208]}, "properties": {"numparc": 1529, "etat de la localisation": "autre", "ID BDGEO": "5306", "horodatage": "2022-10-29 10:05:03", "distance (en metres)": 54.14, "station": "NANTEUIL", "marker-color": "#818181"}}, {"type": "Feature", "geometry": {"type": "Point", "coordinates": [2.457906, 48.881027]}, "properties": {"numparc": 1529, "etat de la localisation": "autre", "ID BDGEO": "3799", "horodatage": "2022-10-29 10:15:02", "distance (en metres)": 46.63, "station": "ECOLE BOISSIERE", "marker-color": "#818181"}}, {"type": "Feature", "geometry": {"type": "Point", "coordinates": [2.457719, 48.885406]}, "properties": {"numparc": 1529, "etat de la localisation": "autre", "ID BDGEO": "3781", "horodatage": "2022-10-29 10:17:51", "distance (en metres)": 71.72, "station": "ECOLE PAUL LANGEVIN", "marker-color": "#818181"}}, {"type": "Feature", "geometry": {"type": "Point", "coordinates": [2.457351, 48.888565]}, "properties": {"numparc": 1529, "etat de la localisation": "autre", "ID BDGEO": "3780", "horodatage": "2022-10-29 10:21:19", "distance (en metres)": 117.95, "station": "SALENGRO-AUFFRET", "marker-color": "#818181"}}, {"type": "Feature", "geometry": {"type": "Point", "coordinates": [2.459498, 48.890793]}, "properties": {"numparc": 1529, "etat de la localisation": "autre", "ID BDGEO": "1348", "horodatage": "2022-10-29 10:22:47", "distance (en metres)": 353.99, "station": "SAINT-JEAN", "marker-color": "#818181"}}, {"type": "Feature", "geometry": {"type": "Point", "coordinates": [2.461204, 48.893402]}, "properties": {"numparc": 1529, "etat de la localisation": "autre", "ID BDGEO": "3779", "horodatage": "2022-10-29 10:24:22", "distance (en metres)": 261.18, "station": "NOISY-LE-SEC RER", "marker-color": "#818181"}}, {"type": "Feature", "geometry": {"type": "Point", "coordinates": [2.459454, 48.895351]}, "properties": {"numparc": 1529, "etat de la localisation": "autre", "ID BDGEO": "1347", "horodatage": "2022-10-29 10:28:45", "distance (en metres)": 127.52, "station": "NOISY-LE-SEC RER.", "marker-color": "#818181"}}, {"type": "Feature", "geometry": {"type": "Point", "coordinates": [2.459454, 48.895351]}, "properties": {"numparc": 1529, "etat de la localisation": "autre", "ID BDGEO": "1347", "horodatage": "2022-10-29 10:28:52", "distance (en metres)": 127.52, "station": "NOISY-LE-SEC RER.", "marker-color": "#818181"}}, {"type": "Feature", "geometry": {"type": "Point", "coordinates": [2.457108, 48.893547]}, "properties": {"numparc": 1529, "etat de la localisation": "autre", "ID BDGEO": "1346", "horodatage": "2022-10-29 10:30:52", "distance (en metres)": 293.67, "station": "GAMBETTA", "marker-color": "#818181"}}, {"type": "Feature", "geometry": {"type": "Point", "coordinates": [2.454806, 48.891705]}, "properties": {"numparc": 1529, "etat de la localisation": "autre", "ID BDGEO": "1345", "horodatage": "2022-10-29 10:32:08", "distance (en metres)": 355.49, "station": "MARCEAU", "marker-color": "#818181"}}, {"type": "Feature", "geometry": {"type": "Point", "coordinates": [2.453492, 48.889816]}, "properties": {"numparc": 1529, "etat de la localisation": "autre", "ID BDGEO": "1344", "horodatage": "2022-10-29 10:34:21", "distance (en metres)": 312.81, "station": "SALENGRO-AUFFRET", "marker-color": "#818181"}}, {"type": "Feature", "geometry": {"type": "Point", "coordinates": [2.456373, 48.887585]}, "properties": {"numparc": 1529, "etat de la localisation": "autre", "ID BDGEO": "1344", "horodatage": "2022-10-29 10:35:52", "distance (en metres)": 133.48, "station": "SALENGRO-AUFFRET", "marker-color": "#818181"}}, {"type": "Feature", "geometry": {"type": "Point", "coordinates": [2.457636, 48.885532]}, "properties": {"numparc": 1529, "etat de la localisation": "autre", "ID BDGEO": "1343", "horodatage": "2022-10-29 10:37:31", "distance (en metres)": 46.83, "station": "ECOLE PAUL LANGEVIN", "marker-color": "#818181"}}, {"type": "Feature", "geometry": {"type": "Point", "coordinates": [2.457982, 48.881065]}, "properties": {"numparc": 1529, "etat de la localisation": "autre", "ID BDGEO": "3797", "horodatage": "2022-10-29 10:41:53", "distance (en metres)": 52.61, "station": "ECOLE BOISSIERE", "marker-color": "#818181"}}, {"type": "Feature", "geometry": {"type": "Point", "coordinates": [2.475593, 48.877792]}, "properties": {"numparc": 1529, "etat de la localisation": "autre", "ID BDGEO": "3776", "horodatage": "2022-10-29 10:48:53", "distance (en metres)": 116.5, "station": "NANTEUIL", "marker-color": "#818181"}}, {"type": "Feature", "geometry": {"type": "Point", "coordinates": [2.437236, 48.872162]}, "properties": {"numparc": 1529, "etat de la localisation": "autre", "ID BDGEO": "3795", "horodatage": "2022-10-29 11:15:59", "distance (en metres)": 96.93, "station": "VERT BOIS", "marker-color": "#818181"}}, {"type": "Feature", "geometry": {"type": "Point", "coordinates": [2.443096, 48.871876]}, "properties": {"numparc": 1529, "etat de la localisation": "autre", "ID BDGEO": "3794", "horodatage": "2022-10-29 11:18:13", "distance (en metres)": 135.61, "station": "OSERAIES", "marker-color": "#818181"}}, {"type": "Feature", "geometry": {"type": "Point", "coordinates": [2.452744, 48.877022]}, "properties": {"numparc": 1529, "etat de la localisation": "autre", "ID BDGEO": "5339", "horodatage": "2022-10-29 11:21:00", "distance (en metres)": 85.7, "station": "FERNAND LAMAZE", "marker-color": "#818181"}}, {"type": "Feature", "geometry": {"type": "Point", "coordinates": [2.475793, 48.878208]}, "properties": {"numparc": 1529, "etat de la localisation": "autre", "ID BDGEO": "5306", "horodatage": "2022-10-29 11:28:45", "distance (en metres)": 53.94, "station": "NANTEUIL", "marker-color": "#818181"}}, {"type": "Feature", "geometry": {"type": "Point", "coordinates": [2.469332, 48.88187]}, "properties": {"numparc": 1529, "etat de la localisation": "autre", "ID BDGEO": "3786", "horodatage": "2022-10-29 11:30:29", "distance (en metres)": 44.39, "station": "SAUSSAIE BEAUCLAIR-DOMUS", "marker-color": "#818181"}}, {"type": "Feature", "geometry": {"type": "Point", "coordinates": [2.457674, 48.885445]}, "properties": {"numparc": 1529, "etat de la localisation": "autre", "ID BDGEO": "3781", "horodatage": "2022-10-29 11:39:00", "distance (en metres)": 66.36, "station": "ECOLE PAUL LANGEVIN", "marker-color": "#818181"}}, {"type": "Feature", "geometry": {"type": "Point", "coordinates": [2.457343, 48.888577]}, "properties": {"numparc": 1529, "etat de la localisation": "autre", "ID BDGEO": "3780", "horodatage": "2022-10-29 11:41:39", "distance (en metres)": 118.68, "station": "SALENGRO-AUFFRET", "marker-color": "#818181"}}, {"type": "Feature", "geometry": {"type": "Point", "coordinates": [2.459487, 48.890831]}, "properties": {"numparc": 1529, "etat de la localisation": "autre", "ID BDGEO": "1348", "horodatage": "2022-10-29 11:43:16", "distance (en metres)": 349.9, "station": "SAINT-JEAN", "marker-color": "#818181"}}, {"type": "Feature", "geometry": {"type": "Point", "coordinates": [2.461161, 48.893421]}, "properties": {"numparc": 1529, "etat de la localisation": "autre", "ID BDGEO": "3779", "horodatage": "2022-10-29 11:44:50", "distance (en metres)": 257.96, "station": "NOISY-LE-SEC RER", "marker-color": "#818181"}}, {"type": "Feature", "geometry": {"type": "Point", "coordinates": [2.459591, 48.895473]}, "properties": {"numparc": 1529, "etat de la localisation": "autre", "ID BDGEO": "1347", "horodatage": "2022-10-29 11:48:02", "distance (en metres)": 111.84, "station": "NOISY-LE-SEC RER.", "marker-color": "#818181"}}, {"type": "Feature", "geometry": {"type": "Point", "coordinates": [2.457113, 48.893604]}, "properties": {"numparc": 1529, "etat de la localisation": "autre", "ID BDGEO": "1346", "horodatage": "2022-10-29 11:49:45", "distance (en metres)": 293.61, "station": "GAMBETTA", "marker-color": "#818181"}}, {"type": "Feature", "geometry": {"type": "Point", "coordinates": [2.454809, 48.891769]}, "properties": {"numparc": 1529, "etat de la localisation": "autre", "ID BDGEO": "1345", "horodatage": "2022-10-29 11:51:05", "distance (en metres)": 357.11, "station": "MARCEAU", "marker-color": "#818181"}}, {"type": "Feature", "geometry": {"type": "Point", "coordinates": [2.45349, 48.88982]}, "properties": {"numparc": 1529, "etat de la localisation": "autre", "ID BDGEO": "1344", "horodatage": "2022-10-29 11:53:34", "distance (en metres)": 313.12, "station": "SALENGRO-AUFFRET", "marker-color": "#818181"}}, {"type": "Feature", "geometry": {"type": "Point", "coordinates": [2.456366, 48.8876]}, "properties": {"numparc": 1529, "etat de la localisation": "autre", "ID BDGEO": "1344", "horodatage": "2022-10-29 11:55:39", "distance (en metres)": 132.33, "station": "SALENGRO-AUFFRET", "marker-color": "#818181"}}, {"type": "Feature", "geometry": {"type": "Point", "coordinates": [2.457652, 48.885559]}, "properties": {"numparc": 1529, "etat de la localisation": "autre", "ID BDGEO": "1343", "horodatage": "2022-10-29 11:57:34", "distance (en metres)": 45.26, "station": "ECOLE PAUL LANGEVIN", "marker-color": "#818181"}}, {"type": "Feature", "geometry": {"type": "Point", "coordinates": [2.475614, 48.877823]}, "properties": {"numparc": 1529, "etat de la localisation": "autre", "ID BDGEO": "3776", "horodatage": "2022-10-29 12:08:00", "distance (en metres)": 113.25, "station": "NANTEUIL", "marker-color": "#818181"}}, {"type": "Feature", "geometry": {"type": "Point", "coordinates": [2.436291, 48.872601]}, "properties": {"numparc": 1529, "etat de la localisation": "autre", "ID BDGEO": "3767", "horodatage": "2022-10-29 12:19:31", "distance (en metres)": 81.97, "station": "VERT BOIS", "marker-color": "#818181"}}, {"type": "Feature", "geometry": {"type": "Point", "coordinates": [2.43177, 48.875648]}, "properties": {"numparc": 1529, "etat de la localisation": "autre", "ID BDGEO": "3803", "horodatage": "2022-10-29 12:21:59", "distance (en metres)": 524.9, "station": "LILAS SORTIE", "marker-color": "#818181"}}, {"type": "Feature", "geometry": {"type": "Point", "coordinates": [2.46091, 48.895983]}, "properties": {"station": "NOISY-LE-SEC RER.", "ID BDGEO": "1347", "marker-color": "#56B3FF"}}, {"type": "Feature", "geometry": {"type": "Point", "coordinates": [2.461122, 48.893448]}, "properties": {"station": "GAMBETTA", "ID BDGEO": "1346", "marker-color": "#56B3FF"}}, {"type": "Feature", "geometry": {"type": "Point", "coordinates": [2.459522, 48.890925]}, "properties": {"station": "MARCEAU", "ID BDGEO": "1345", "marker-color": "#56B3FF"}}, {"type": "Feature", "geometry": {"type": "Point", "coordinates": [2.457349, 48.888599]}, "properties": {"station": "SALENGRO-AUFFRET", "ID BDGEO": "1344", "marker-color": "#56B3FF"}}, {"type": "Feature", "geometry": {"type": "Point", "coordinates": [2.436085, 48.872594]}, "properties": {"station": "VERT BOIS", "ID BDGEO": "3795", "marker-color": "#56B3FF"}}, {"type": "Feature", "geometry": {"type": "Point", "coordinates": [2.451572, 48.877038]}, "properties": {"station": "FERNAND LAMAZE", "ID BDGEO": "5339", "marker-color": "#56B3FF"}}, {"type": "Feature", "geometry": {"type": "Point", "coordinates": [2.475596, 48.877741]}, "properties": {"station": "NANTEUIL", "ID BDGEO": "5306", "marker-color": "#56B3FF"}}, {"type": "Feature", "geometry": {"type": "Point", "coordinates": [2.45759, 48.880663]}, "properties": {"station": "ECOLE BOISSIERE", "ID BDGEO": "3799", "marker-color": "#56B3FF"}}, {"type": "Feature", "geometry": {"type": "Point", "coordinates": [2.457166, 48.885939]}, "properties": {"station": "ECOLE PAUL LANGEVIN", "ID BDGEO": "3781", "marker-color": "#56B3FF"}}, {"type": "Feature", "geometry": {"type": "Point", "coordinates": [2.456434, 48.887692]}, "properties": {"station": "SALENGRO-AUFFRET", "ID BDGEO": "3780", "marker-color": "#56B3FF"}}, {"type": "Feature", "geometry": {"type": "Point", "coordinates": [2.431718, 48.875734]}, "properties": {"station": "LOUISE MICHEL#", "ID BDGEO": "3805", "marker-color": "#56B3FF"}}, {"type": "Feature", "geometry": {"type": "Point", "coordinates": [2.457129, 48.893569]}, "properties": {"station": "SAINT-JEAN", "ID BDGEO": "1348", "marker-color": "#56B3FF"}}, {"type": "Feature", "geometry": {"type": "Point", "coordinates": [2.459737, 48.895544]}, "properties": {"station": "NOISY-LE-SEC RER", "ID BDGEO": "3779", "marker-color": "#56B3FF"}}, {"type": "Feature", "geometry": {"type": "Point", "coordinates": [2.457247, 48.885867]}, "properties": {"station": "ECOLE PAUL LANGEVIN", "ID BDGEO": "1343", "marker-color": "#56B3FF"}}, {"type": "Feature", "geometry": {"type": "Point", "coordinates": [2.475476, 48.878837]}, "properties": {"station": "NANTEUIL", "ID BDGEO": "3776", "marker-color": "#56B3FF"}}, {"type": "Feature", "geometry": {"type": "Point", "coordinates": [2.452513, 48.87701]}, "properties": {"station": "FERNAND LAMAZE", "ID BDGEO": "3771", "marker-color": "#56B3FF"}}, {"type": "Feature", "geometry": {"type": "Point", "coordinates": [2.443046, 48.87186]}, "properties": {"station": "OSERAIES", "ID BDGEO": "3768", "marker-color": "#56B3FF"}}, {"type": "Feature", "geometry": {"type": "Point", "coordinates": [2.441247, 48.871781]}, "properties": {"station": "OSERAIES", "ID BDGEO": "3794", "marker-color": "#56B3FF"}}, {"type": "Feature", "geometry": {"type": "Point", "coordinates": [2.457603, 48.880663]}, "properties": {"station": "ECOLE BOISSIERE", "ID BDGEO": "3797", "marker-color": "#56B3FF"}}, {"type": "Feature", "geometry": {"type": "Point", "coordinates": [2.468753, 48.88199]}, "properties": {"station": "SAUSSAIE BEAUCLAIR-DOMUS", "ID BDGEO": "3786", "marker-color": "#56B3FF"}}, {"type": "Feature", "geometry": {"type": "Point", "coordinates": [2.437202, 48.872171]}, "properties": {"station": "VERT BOIS", "ID BDGEO": "3767", "marker-color": "#56B3FF"}}, {"type": "Feature", "geometry": {"type": "Point", "coordinates": [2.427023, 48.879189]}, "properties": {"station": "LILAS SORTIE", "ID BDGEO": "3803", "marker-color": "#56B3FF"}}]}