{"type": "FeatureCollection", "features": [{"type": "Feature", "geometry": {"type": "Point", "coordinates": [2.289659, 48.892979]}, "properties": {"alarme": "DEFAUT LIAISON DATA SAEIV / AIGLE", "numparc": 1471, "type": "TECHNIQUE", "duree": "00:00:11", "horodatage": "2022-04-30 12:26:38", "statut": "start", "marker-color": "#ff0000"}}, {"type": "Feature", "geometry": {"type": "Point", "coordinates": [2.254623, 48.843441]}, "properties": {"alarme": "DEFAUT LIAISON DATA SAEIV / AIGLE", "numparc": 1478, "type": "TECHNIQUE", "duree": "00:01:25", "horodatage": "2022-04-30 17:09:49", "statut": "start", "marker-color": "#ff0000"}}, {"type": "Feature", "geometry": {"type": "Point", "coordinates": [2.289321, 48.893147]}, "properties": {"alarme": "DEFAUT LIAISON DATA SAEIV / AIGLE", "numparc": 1471, "type": "TECHNIQUE", "duree": "00:00:11", "horodatage": "2022-04-30 12:26:49", "statut": "end", "marker-color": "#2fe184"}}, {"type": "Feature", "geometry": {"type": "Point", "coordinates": [2.255124, 48.845673]}, "properties": {"alarme": "DEFAUT LIAISON DATA SAEIV / AIGLE", "numparc": 1478, "type": "TECHNIQUE", "duree": "00:01:25", "horodatage": "2022-04-30 17:11:14", "statut": "end", "marker-color": "#2fe184"}}]}