{"type": "FeatureCollection", "features": [{"type": "Feature", "geometry": {"type": "Point", "coordinates": [2.627641, 48.842148]}, "properties": {"alarme": "DEFAUT LIAISON DATA SAEIV / AIGLE", "numparc": 5896, "type": "TECHNIQUE", "duree": "00:00:20", "horodatage": "2022-02-25 14:58:44", "statut": "start", "marker-color": "#ff0000"}}, {"type": "Feature", "geometry": {"type": "Point", "coordinates": [2.621995, 48.803818]}, "properties": {"alarme": "VEHICULE DELOCALISE", "numparc": 5896, "type": "EXPLOITATION", "duree": "00:00:47", "horodatage": "2022-02-25 15:53:15", "statut": "start", "marker-color": "#ff0000"}}, {"type": "Feature", "geometry": {"type": "Point", "coordinates": [2.607386, 48.79987]}, "properties": {"alarme": "DEFAUT LIAISON DATA SAEIV / AIGLE", "numparc": 5896, "type": "TECHNIQUE", "duree": "00:00:07", "horodatage": "2022-02-25 16:52:56", "statut": "start", "marker-color": "#ff0000"}}, {"type": "Feature", "geometry": {"type": "Point", "coordinates": [2.625254, 48.838947]}, "properties": {"alarme": "DEFAUT LIAISON DATA SAEIV / AIGLE", "numparc": 5896, "type": "TECHNIQUE", "duree": "00:00:20", "horodatage": "2022-02-25 14:59:04", "statut": "end", "marker-color": "#2fe184"}}, {"type": "Feature", "geometry": {"type": "Point", "coordinates": [2.620413, 48.801807]}, "properties": {"alarme": "VEHICULE DELOCALISE", "numparc": 5896, "type": "EXPLOITATION", "duree": "00:00:47", "horodatage": "2022-02-25 15:54:02", "statut": "end", "marker-color": "#2fe184"}}, {"type": "Feature", "geometry": {"type": "Point", "coordinates": [2.607386, 48.79987]}, "properties": {"alarme": "DEFAUT LIAISON DATA SAEIV / AIGLE", "numparc": 5896, "type": "TECHNIQUE", "duree": "00:00:07", "horodatage": "2022-02-25 16:53:03", "statut": "end", "marker-color": "#2fe184"}}]}