{"type": "FeatureCollection", "features": [{"type": "Feature", "geometry": {"type": "Point", "coordinates": [2.326029, 48.882217]}, "properties": {"alarme": "VEHICULE DELOCALISE", "numparc": 5657, "type": "EXPLOITATION", "duree": "00:09:58", "horodatage": "2022-01-12 16:54:13", "statut": "start", "marker-color": "#ff0000"}}, {"type": "Feature", "geometry": {"type": "Point", "coordinates": [2.325895, 48.882355]}, "properties": {"alarme": "VEHICULE DELOCALISE", "numparc": 5657, "type": "EXPLOITATION", "duree": "00:06:39", "horodatage": "2022-01-12 20:07:26", "statut": "start", "marker-color": "#ff0000"}}, {"type": "Feature", "geometry": {"type": "Point", "coordinates": [2.326641, 48.87542]}, "properties": {"alarme": "VEHICULE DELOCALISE", "numparc": 5657, "type": "EXPLOITATION", "duree": "00:09:58", "horodatage": "2022-01-12 17:04:11", "statut": "end", "marker-color": "#2fe184"}}, {"type": "Feature", "geometry": {"type": "Point", "coordinates": [2.327944, 48.873219]}, "properties": {"alarme": "VEHICULE DELOCALISE", "numparc": 5657, "type": "EXPLOITATION", "duree": "00:06:39", "horodatage": "2022-01-12 20:14:05", "statut": "end", "marker-color": "#2fe184"}}]}