{"type": "FeatureCollection", "features": [{"type": "Feature", "geometry": {"type": "Point", "coordinates": [2.095916, 48.896923]}, "properties": {"etat de la localisation": "Mission suivante non connue", "numparc": 2878, "duree": "", "horodatage": "2023-02-06 05:04:36", "marker-color": "#7156FF"}}, {"type": "Feature", "geometry": {"type": "Point", "coordinates": [2.188059, 48.902855]}, "properties": {"etat de la localisation": "Delocalise", "numparc": 2884, "duree": "00:04:05", "horodatage": "2023-02-06 05:12:56", "marker-color": "#FF565E"}}, {"type": "Feature", "geometry": {"type": "Point", "coordinates": [2.188292, 48.902905]}, "properties": {"etat de la localisation": "Delocalise", "numparc": 2898, "duree": "00:04:28", "horodatage": "2023-02-06 05:32:27", "marker-color": "#FF565E"}}, {"type": "Feature", "geometry": {"type": "Point", "coordinates": [2.188272, 48.902878]}, "properties": {"etat de la localisation": "Delocalise", "numparc": 5770, "duree": "00:01:16", "horodatage": "2023-02-06 05:33:15", "marker-color": "#FF565E"}}, {"type": "Feature", "geometry": {"type": "Point", "coordinates": [2.209749, 48.901249]}, "properties": {"etat de la localisation": "Mission suivante non connue", "numparc": 2878, "duree": "", "horodatage": "2023-02-06 05:47:13", "marker-color": "#7156FF"}}, {"type": "Feature", "geometry": {"type": "Point", "coordinates": [2.188272, 48.902878]}, "properties": {"etat de la localisation": "Hors service", "numparc": 5770, "duree": "", "horodatage": "2023-02-06 05:48:14", "marker-color": "#707070"}}, {"type": "Feature", "geometry": {"type": "Point", "coordinates": [2.138703, 48.867577]}, "properties": {"etat de la localisation": "Delocalise", "numparc": 5770, "duree": "00:00:37", "horodatage": "2023-02-06 05:49:36", "marker-color": "#FF565E"}}, {"type": "Feature", "geometry": {"type": "Point", "coordinates": [2.190261, 48.903412]}, "properties": {"etat de la localisation": "Delocalise", "numparc": 2870, "duree": "00:08:16", "horodatage": "2023-02-06 05:52:16", "marker-color": "#FF565E"}}, {"type": "Feature", "geometry": {"type": "Point", "coordinates": [2.188456, 48.902966]}, "properties": {"etat de la localisation": "Mission inconnue", "numparc": 5766, "duree": "", "horodatage": "2023-02-06 05:56:47", "marker-color": "#FF9F56"}}, {"type": "Feature", "geometry": {"type": "Point", "coordinates": [2.188456, 48.902966]}, "properties": {"etat de la localisation": "Mission inconnue", "numparc": 5766, "duree": "", "horodatage": "2023-02-06 05:56:47", "marker-color": "#FF9F56"}}, {"type": "Feature", "geometry": {"type": "Point", "coordinates": [2.095922, 48.896889]}, "properties": {"etat de la localisation": "Hors service", "numparc": 5770, "duree": "", "horodatage": "2023-02-06 06:04:36", "marker-color": "#707070"}}, {"type": "Feature", "geometry": {"type": "Point", "coordinates": [2.095919, 48.89703]}, "properties": {"etat de la localisation": "Mission suivante non connue", "numparc": 2887, "duree": "", "horodatage": "2023-02-06 06:11:29", "marker-color": "#7156FF"}}, {"type": "Feature", "geometry": {"type": "Point", "coordinates": [2.095927, 48.896908]}, "properties": {"etat de la localisation": "Mission suivante non connue", "numparc": 2887, "duree": "", "horodatage": "2023-02-06 06:12:27", "marker-color": "#7156FF"}}, {"type": "Feature", "geometry": {"type": "Point", "coordinates": [2.188922, 48.903076]}, "properties": {"etat de la localisation": "Mission inconnue", "numparc": 2897, "duree": "", "horodatage": "2023-02-06 06:15:00", "marker-color": "#FF9F56"}}, {"type": "Feature", "geometry": {"type": "Point", "coordinates": [2.189004, 48.903107]}, "properties": {"etat de la localisation": "Mission inconnue", "numparc": 2869, "duree": "", "horodatage": "2023-02-06 06:18:49", "marker-color": "#FF9F56"}}, {"type": "Feature", "geometry": {"type": "Point", "coordinates": [2.116459, 48.876854]}, "properties": {"etat de la localisation": "Hors service", "numparc": 5770, "duree": "", "horodatage": "2023-02-06 06:23:32", "marker-color": "#707070"}}, {"type": "Feature", "geometry": {"type": "Point", "coordinates": [2.188512, 48.902992]}, "properties": {"etat de la localisation": "Delocalise", "numparc": 2874, "duree": "00:04:41", "horodatage": "2023-02-06 06:27:44", "marker-color": "#FF565E"}}, {"type": "Feature", "geometry": {"type": "Point", "coordinates": [2.188922, 48.903076]}, "properties": {"etat de la localisation": "Hors service", "numparc": 2897, "duree": "", "horodatage": "2023-02-06 06:30:04", "marker-color": "#707070"}}, {"type": "Feature", "geometry": {"type": "Point", "coordinates": [2.188922, 48.882824]}, "properties": {"etat de la localisation": "Hors service", "numparc": 5770, "duree": "", "horodatage": "2023-02-06 06:39:02", "marker-color": "#707070"}}, {"type": "Feature", "geometry": {"type": "Point", "coordinates": [2.196429, 48.885529]}, "properties": {"etat de la localisation": "Delocalise", "numparc": 5770, "duree": "00:01:58", "horodatage": "2023-02-06 06:40:40", "marker-color": "#FF565E"}}, {"type": "Feature", "geometry": {"type": "Point", "coordinates": [2.220669, 48.89653]}, "properties": {"etat de la localisation": "Hors service", "numparc": 5770, "duree": "", "horodatage": "2023-02-06 06:55:41", "marker-color": "#707070"}}, {"type": "Feature", "geometry": {"type": "Point", "coordinates": [2.220671, 48.896545]}, "properties": {"etat de la localisation": "Delocalise", "numparc": 5770, "duree": "00:00:43", "horodatage": "2023-02-06 06:56:08", "marker-color": "#FF565E"}}, {"type": "Feature", "geometry": {"type": "Point", "coordinates": [2.209779, 48.901234]}, "properties": {"etat de la localisation": "Hors service", "numparc": 2869, "duree": "", "horodatage": "2023-02-06 07:00:46", "marker-color": "#707070"}}, {"type": "Feature", "geometry": {"type": "Point", "coordinates": [2.209783, 48.901272]}, "properties": {"etat de la localisation": "Hors service", "numparc": 5770, "duree": "", "horodatage": "2023-02-06 07:11:08", "marker-color": "#707070"}}, {"type": "Feature", "geometry": {"type": "Point", "coordinates": [2.09593, 48.896999]}, "properties": {"etat de la localisation": "Mission suivante non connue", "numparc": 2874, "duree": "", "horodatage": "2023-02-06 07:12:07", "marker-color": "#7156FF"}}, {"type": "Feature", "geometry": {"type": "Point", "coordinates": [2.09593, 48.896999]}, "properties": {"etat de la localisation": "Mission suivante non connue", "numparc": 2874, "duree": "", "horodatage": "2023-02-06 07:12:31", "marker-color": "#7156FF"}}, {"type": "Feature", "geometry": {"type": "Point", "coordinates": [2.213691, 48.8992]}, "properties": {"etat de la localisation": "Mission inconnue", "numparc": 2869, "duree": "", "horodatage": "2023-02-06 07:18:09", "marker-color": "#FF9F56"}}, {"type": "Feature", "geometry": {"type": "Point", "coordinates": [2.210593, 48.889553]}, "properties": {"etat de la localisation": "Hors service", "numparc": 5770, "duree": "", "horodatage": "2023-02-06 07:26:33", "marker-color": "#707070"}}, {"type": "Feature", "geometry": {"type": "Point", "coordinates": [2.207748, 48.887543]}, "properties": {"etat de la localisation": "Delocalise", "numparc": 5770, "duree": "00:01:05", "horodatage": "2023-02-06 07:28:29", "marker-color": "#FF565E"}}, {"type": "Feature", "geometry": {"type": "Point", "coordinates": [2.106896, 48.883568]}, "properties": {"etat de la localisation": "Mission suivante non connue", "numparc": 2869, "duree": "", "horodatage": "2023-02-06 07:42:52", "marker-color": "#7156FF"}}, {"type": "Feature", "geometry": {"type": "Point", "coordinates": [2.16717, 48.874672]}, "properties": {"etat de la localisation": "Hors service", "numparc": 5770, "duree": "", "horodatage": "2023-02-06 07:43:29", "marker-color": "#707070"}}, {"type": "Feature", "geometry": {"type": "Point", "coordinates": [2.16717, 48.874672]}, "properties": {"etat de la localisation": "Delocalise", "numparc": 5770, "duree": "00:00:35", "horodatage": "2023-02-06 07:44:04", "marker-color": "#FF565E"}}, {"type": "Feature", "geometry": {"type": "Point", "coordinates": [2.09594, 48.896866]}, "properties": {"etat de la localisation": "Mission suivante non connue", "numparc": 2884, "duree": "", "horodatage": "2023-02-06 07:45:25", "marker-color": "#7156FF"}}, {"type": "Feature", "geometry": {"type": "Point", "coordinates": [2.09594, 48.896866]}, "properties": {"etat de la localisation": "Mission suivante non connue", "numparc": 2884, "duree": "", "horodatage": "2023-02-06 07:46:44", "marker-color": "#7156FF"}}, {"type": "Feature", "geometry": {"type": "Point", "coordinates": [2.09594, 48.896866]}, "properties": {"etat de la localisation": "Mission suivante non connue", "numparc": 2884, "duree": "", "horodatage": "2023-02-06 07:47:10", "marker-color": "#7156FF"}}, {"type": "Feature", "geometry": {"type": "Point", "coordinates": [2.115755, 48.877491]}, "properties": {"etat de la localisation": "Hors service", "numparc": 5770, "duree": "", "horodatage": "2023-02-06 07:59:03", "marker-color": "#707070"}}, {"type": "Feature", "geometry": {"type": "Point", "coordinates": [2.189984, 48.903343]}, "properties": {"etat de la localisation": "Delocalise", "numparc": 2875, "duree": "00:08:54", "horodatage": "2023-02-06 08:00:16", "marker-color": "#FF565E"}}, {"type": "Feature", "geometry": {"type": "Point", "coordinates": [2.109783, 48.88023]}, "properties": {"etat de la localisation": "Delocalise", "numparc": 5770, "duree": "00:00:22", "horodatage": "2023-02-06 08:00:30", "marker-color": "#FF565E"}}, {"type": "Feature", "geometry": {"type": "Point", "coordinates": [2.095919, 48.896889]}, "properties": {"etat de la localisation": "Hors service", "numparc": 5770, "duree": "", "horodatage": "2023-02-06 08:15:30", "marker-color": "#707070"}}, {"type": "Feature", "geometry": {"type": "Point", "coordinates": [2.116406, 48.87685]}, "properties": {"etat de la localisation": "Hors service", "numparc": 5770, "duree": "", "horodatage": "2023-02-06 08:34:59", "marker-color": "#707070"}}, {"type": "Feature", "geometry": {"type": "Point", "coordinates": [2.124473, 48.871178]}, "properties": {"etat de la localisation": "Delocalise", "numparc": 5770, "duree": "00:00:29", "horodatage": "2023-02-06 08:38:00", "marker-color": "#FF565E"}}, {"type": "Feature", "geometry": {"type": "Point", "coordinates": [2.146548, 48.86805]}, "properties": {"etat de la localisation": "Hors service", "numparc": 5770, "duree": "", "horodatage": "2023-02-06 08:53:00", "marker-color": "#707070"}}, {"type": "Feature", "geometry": {"type": "Point", "coordinates": [2.188756, 48.882759]}, "properties": {"etat de la localisation": "Hors service", "numparc": 5770, "duree": "", "horodatage": "2023-02-06 09:08:32", "marker-color": "#707070"}}, {"type": "Feature", "geometry": {"type": "Point", "coordinates": [2.188756, 48.882759]}, "properties": {"etat de la localisation": "Delocalise", "numparc": 5770, "duree": "00:00:09", "horodatage": "2023-02-06 09:09:18", "marker-color": "#FF565E"}}, {"type": "Feature", "geometry": {"type": "Point", "coordinates": [2.212647, 48.894012]}, "properties": {"etat de la localisation": "Hors service", "numparc": 5770, "duree": "", "horodatage": "2023-02-06 09:24:18", "marker-color": "#707070"}}, {"type": "Feature", "geometry": {"type": "Point", "coordinates": [2.212647, 48.894012]}, "properties": {"etat de la localisation": "Delocalise", "numparc": 5770, "duree": "00:00:45", "horodatage": "2023-02-06 09:24:43", "marker-color": "#FF565E"}}, {"type": "Feature", "geometry": {"type": "Point", "coordinates": [2.212647, 48.894012]}, "properties": {"etat de la localisation": "Deviation programmee", "numparc": 5770, "duree": "", "horodatage": "2023-02-06 09:25:28", "marker-color": "#56FF93"}}, {"type": "Feature", "geometry": {"type": "Point", "coordinates": [2.209545, 48.901279]}, "properties": {"etat de la localisation": "Hors service", "numparc": 5770, "duree": "", "horodatage": "2023-02-06 09:39:42", "marker-color": "#707070"}}, {"type": "Feature", "geometry": {"type": "Point", "coordinates": [2.188279, 48.902733]}, "properties": {"etat de la localisation": "Hors service", "numparc": 2887, "duree": "", "horodatage": "2023-02-06 09:56:05", "marker-color": "#707070"}}, {"type": "Feature", "geometry": {"type": "Point", "coordinates": [2.215068, 48.891434]}, "properties": {"etat de la localisation": "Hors service", "numparc": 5770, "duree": "", "horodatage": "2023-02-06 10:06:00", "marker-color": "#707070"}}, {"type": "Feature", "geometry": {"type": "Point", "coordinates": [2.210562, 48.88958]}, "properties": {"etat de la localisation": "Delocalise", "numparc": 5770, "duree": "00:00:27", "horodatage": "2023-02-06 10:08:03", "marker-color": "#FF565E"}}, {"type": "Feature", "geometry": {"type": "Point", "coordinates": [2.09594, 48.896976]}, "properties": {"etat de la localisation": "Mission suivante non connue", "numparc": 2869, "duree": "", "horodatage": "2023-02-06 10:11:27", "marker-color": "#7156FF"}}, {"type": "Feature", "geometry": {"type": "Point", "coordinates": [2.09594, 48.896976]}, "properties": {"etat de la localisation": "Mission suivante non connue", "numparc": 2869, "duree": "", "horodatage": "2023-02-06 10:12:17", "marker-color": "#7156FF"}}, {"type": "Feature", "geometry": {"type": "Point", "coordinates": [2.18999, 48.903336]}, "properties": {"etat de la localisation": "Hors service", "numparc": 2878, "duree": "", "horodatage": "2023-02-06 10:19:00", "marker-color": "#707070"}}, {"type": "Feature", "geometry": {"type": "Point", "coordinates": [2.217947, 48.8964]}, "properties": {"etat de la localisation": "Deviation programmee", "numparc": 2875, "duree": "", "horodatage": "2023-02-06 10:21:52", "marker-color": "#56FF93"}}, {"type": "Feature", "geometry": {"type": "Point", "coordinates": [2.175733, 48.878246]}, "properties": {"etat de la localisation": "Hors service", "numparc": 5770, "duree": "", "horodatage": "2023-02-06 10:23:02", "marker-color": "#707070"}}, {"type": "Feature", "geometry": {"type": "Point", "coordinates": [2.167265, 48.874737]}, "properties": {"etat de la localisation": "Delocalise", "numparc": 5770, "duree": "00:00:01", "horodatage": "2023-02-06 10:23:40", "marker-color": "#FF565E"}}, {"type": "Feature", "geometry": {"type": "Point", "coordinates": [2.109767, 48.880276]}, "properties": {"etat de la localisation": "Hors service", "numparc": 5770, "duree": "", "horodatage": "2023-02-06 10:38:41", "marker-color": "#707070"}}, {"type": "Feature", "geometry": {"type": "Point", "coordinates": [2.095918, 48.896885]}, "properties": {"etat de la localisation": "Hors service", "numparc": 5770, "duree": "", "horodatage": "2023-02-06 10:54:12", "marker-color": "#707070"}}, {"type": "Feature", "geometry": {"type": "Point", "coordinates": [2.095905, 48.897041]}, "properties": {"etat de la localisation": "Mission suivante non connue", "numparc": 2898, "duree": "", "horodatage": "2023-02-06 11:04:08", "marker-color": "#7156FF"}}, {"type": "Feature", "geometry": {"type": "Point", "coordinates": [2.118795, 48.874645]}, "properties": {"etat de la localisation": "Hors service", "numparc": 5770, "duree": "", "horodatage": "2023-02-06 11:09:39", "marker-color": "#707070"}}, {"type": "Feature", "geometry": {"type": "Point", "coordinates": [2.124493, 48.871147]}, "properties": {"etat de la localisation": "Delocalise", "numparc": 5770, "duree": "00:01:07", "horodatage": "2023-02-06 11:11:16", "marker-color": "#FF565E"}}, {"type": "Feature", "geometry": {"type": "Point", "coordinates": [2.18837, 48.902672]}, "properties": {"etat de la localisation": "Hors service", "numparc": 2897, "duree": "", "horodatage": "2023-02-06 11:15:30", "marker-color": "#707070"}}, {"type": "Feature", "geometry": {"type": "Point", "coordinates": [2.176792, 48.878445]}, "properties": {"etat de la localisation": "Hors service", "numparc": 5770, "duree": "", "horodatage": "2023-02-06 11:26:16", "marker-color": "#707070"}}, {"type": "Feature", "geometry": {"type": "Point", "coordinates": [2.182419, 48.880466]}, "properties": {"etat de la localisation": "Delocalise", "numparc": 5770, "duree": "00:00:06", "horodatage": "2023-02-06 11:28:43", "marker-color": "#FF565E"}}, {"type": "Feature", "geometry": {"type": "Point", "coordinates": [2.212661, 48.893986]}, "properties": {"etat de la localisation": "Hors service", "numparc": 5770, "duree": "", "horodatage": "2023-02-06 11:43:43", "marker-color": "#707070"}}, {"type": "Feature", "geometry": {"type": "Point", "coordinates": [2.221559, 48.895771]}, "properties": {"etat de la localisation": "Delocalise", "numparc": 5770, "duree": "00:06:23", "horodatage": "2023-02-06 11:44:33", "marker-color": "#FF565E"}}, {"type": "Feature", "geometry": {"type": "Point", "coordinates": [2.209704, 48.901474]}, "properties": {"etat de la localisation": "Hors service", "numparc": 5770, "duree": "", "horodatage": "2023-02-06 11:59:33", "marker-color": "#707070"}}, {"type": "Feature", "geometry": {"type": "Point", "coordinates": [2.09595, 48.896889]}, "properties": {"etat de la localisation": "Mission suivante non connue", "numparc": 2890, "duree": "", "horodatage": "2023-02-06 12:09:32", "marker-color": "#7156FF"}}, {"type": "Feature", "geometry": {"type": "Point", "coordinates": [2.09595, 48.896889]}, "properties": {"etat de la localisation": "Mission suivante non connue", "numparc": 2890, "duree": "", "horodatage": "2023-02-06 12:12:41", "marker-color": "#7156FF"}}, {"type": "Feature", "geometry": {"type": "Point", "coordinates": [2.209755, 48.901257]}, "properties": {"etat de la localisation": "Hors service", "numparc": 5766, "duree": "", "horodatage": "2023-02-06 12:46:30", "marker-color": "#707070"}}, {"type": "Feature", "geometry": {"type": "Point", "coordinates": [2.209755, 48.901257]}, "properties": {"etat de la localisation": "Hors service", "numparc": 5766, "duree": "", "horodatage": "2023-02-06 12:46:30", "marker-color": "#707070"}}, {"type": "Feature", "geometry": {"type": "Point", "coordinates": [2.095906, 48.897041]}, "properties": {"etat de la localisation": "Mission suivante non connue", "numparc": 2881, "duree": "", "horodatage": "2023-02-06 12:55:19", "marker-color": "#7156FF"}}, {"type": "Feature", "geometry": {"type": "Point", "coordinates": [2.095906, 48.897041]}, "properties": {"etat de la localisation": "Mission suivante non connue", "numparc": 2881, "duree": "", "horodatage": "2023-02-06 12:55:44", "marker-color": "#7156FF"}}, {"type": "Feature", "geometry": {"type": "Point", "coordinates": [2.217986, 48.896465]}, "properties": {"etat de la localisation": "Deviation programmee", "numparc": 2869, "duree": "", "horodatage": "2023-02-06 13:08:12", "marker-color": "#56FF93"}}, {"type": "Feature", "geometry": {"type": "Point", "coordinates": [2.095961, 48.896988]}, "properties": {"etat de la localisation": "Mission suivante non connue", "numparc": 2874, "duree": "", "horodatage": "2023-02-06 14:02:58", "marker-color": "#7156FF"}}, {"type": "Feature", "geometry": {"type": "Point", "coordinates": [2.188429, 48.902607]}, "properties": {"etat de la localisation": "Mission inconnue", "numparc": 2888, "duree": "", "horodatage": "2023-02-06 14:37:56", "marker-color": "#FF9F56"}}, {"type": "Feature", "geometry": {"type": "Point", "coordinates": [2.188429, 48.902607]}, "properties": {"etat de la localisation": "Hors service", "numparc": 2888, "duree": "", "horodatage": "2023-02-06 14:39:00", "marker-color": "#707070"}}, {"type": "Feature", "geometry": {"type": "Point", "coordinates": [2.188279, 48.902733]}, "properties": {"etat de la localisation": "Delocalise", "numparc": 2887, "duree": "00:02:48", "horodatage": "2023-02-06 14:40:03", "marker-color": "#FF565E"}}, {"type": "Feature", "geometry": {"type": "Point", "coordinates": [2.217975, 48.896503]}, "properties": {"etat de la localisation": "Deviation programmee", "numparc": 2890, "duree": "", "horodatage": "2023-02-06 15:07:59", "marker-color": "#56FF93"}}, {"type": "Feature", "geometry": {"type": "Point", "coordinates": [2.188818, 48.902096]}, "properties": {"etat de la localisation": "Mission inconnue", "numparc": 2888, "duree": "", "horodatage": "2023-02-06 15:22:33", "marker-color": "#FF9F56"}}, {"type": "Feature", "geometry": {"type": "Point", "coordinates": [2.188818, 48.902096]}, "properties": {"etat de la localisation": "Hors service", "numparc": 2888, "duree": "", "horodatage": "2023-02-06 15:23:49", "marker-color": "#707070"}}, {"type": "Feature", "geometry": {"type": "Point", "coordinates": [2.188818, 48.902096]}, "properties": {"etat de la localisation": "Mission inconnue", "numparc": 2888, "duree": "", "horodatage": "2023-02-06 15:24:23", "marker-color": "#FF9F56"}}, {"type": "Feature", "geometry": {"type": "Point", "coordinates": [2.188818, 48.902096]}, "properties": {"etat de la localisation": "Delocalise", "numparc": 2888, "duree": "00:01:11", "horodatage": "2023-02-06 15:24:27", "marker-color": "#FF565E"}}, {"type": "Feature", "geometry": {"type": "Point", "coordinates": [2.188818, 48.902096]}, "properties": {"etat de la localisation": "Hors service", "numparc": 2888, "duree": "", "horodatage": "2023-02-06 15:25:38", "marker-color": "#707070"}}, {"type": "Feature", "geometry": {"type": "Point", "coordinates": [2.189828, 48.90332]}, "properties": {"etat de la localisation": "Delocalise", "numparc": 2873, "duree": "00:20:52", "horodatage": "2023-02-06 15:34:07", "marker-color": "#FF565E"}}, {"type": "Feature", "geometry": {"type": "Point", "coordinates": [2.188851, 48.90308]}, "properties": {"etat de la localisation": "Mission inconnue", "numparc": 2875, "duree": "", "horodatage": "2023-02-06 15:58:58", "marker-color": "#FF9F56"}}, {"type": "Feature", "geometry": {"type": "Point", "coordinates": [2.095928, 48.896885]}, "properties": {"etat de la localisation": "Mission suivante non connue", "numparc": 2874, "duree": "", "horodatage": "2023-02-06 16:18:47", "marker-color": "#7156FF"}}, {"type": "Feature", "geometry": {"type": "Point", "coordinates": [2.095955, 48.897095]}, "properties": {"etat de la localisation": "Mission suivante non connue", "numparc": 2890, "duree": "", "horodatage": "2023-02-06 16:24:14", "marker-color": "#7156FF"}}, {"type": "Feature", "geometry": {"type": "Point", "coordinates": [2.189456, 48.902168]}, "properties": {"etat de la localisation": "Delocalise", "numparc": 2872, "duree": "00:20:37", "horodatage": "2023-02-06 16:25:18", "marker-color": "#FF565E"}}, {"type": "Feature", "geometry": {"type": "Point", "coordinates": [2.221616, 48.895912]}, "properties": {"etat de la localisation": "Mission inconnue", "numparc": 2875, "duree": "", "horodatage": "2023-02-06 16:31:11", "marker-color": "#FF9F56"}}, {"type": "Feature", "geometry": {"type": "Point", "coordinates": [2.095923, 48.896954]}, "properties": {"etat de la localisation": "Mission suivante non connue", "numparc": 2884, "duree": "", "horodatage": "2023-02-06 16:49:06", "marker-color": "#7156FF"}}, {"type": "Feature", "geometry": {"type": "Point", "coordinates": [2.095844, 48.896931]}, "properties": {"etat de la localisation": "Mission suivante non connue", "numparc": 2872, "duree": "", "horodatage": "2023-02-06 17:15:17", "marker-color": "#7156FF"}}, {"type": "Feature", "geometry": {"type": "Point", "coordinates": [2.095844, 48.896931]}, "properties": {"etat de la localisation": "Mission suivante non connue", "numparc": 2872, "duree": "", "horodatage": "2023-02-06 17:23:15", "marker-color": "#7156FF"}}, {"type": "Feature", "geometry": {"type": "Point", "coordinates": [2.095937, 48.896992]}, "properties": {"etat de la localisation": "Mission suivante non connue", "numparc": 2881, "duree": "", "horodatage": "2023-02-06 17:31:29", "marker-color": "#7156FF"}}, {"type": "Feature", "geometry": {"type": "Point", "coordinates": [2.09593, 48.897118]}, "properties": {"etat de la localisation": "Mission suivante non connue", "numparc": 2869, "duree": "", "horodatage": "2023-02-06 19:15:38", "marker-color": "#7156FF"}}, {"type": "Feature", "geometry": {"type": "Point", "coordinates": [2.190328, 48.903461]}, "properties": {"etat de la localisation": "Hors service", "numparc": 2887, "duree": "", "horodatage": "2023-02-06 19:17:10", "marker-color": "#707070"}}, {"type": "Feature", "geometry": {"type": "Point", "coordinates": [2.096126, 48.897331]}, "properties": {"etat de la localisation": "Mission suivante non connue", "numparc": 2886, "duree": "", "horodatage": "2023-02-06 19:26:21", "marker-color": "#7156FF"}}, {"type": "Feature", "geometry": {"type": "Point", "coordinates": [2.096126, 48.897331]}, "properties": {"etat de la localisation": "Mission suivante non connue", "numparc": 2886, "duree": "", "horodatage": "2023-02-06 19:26:37", "marker-color": "#7156FF"}}, {"type": "Feature", "geometry": {"type": "Point", "coordinates": [2.095922, 48.897148]}, "properties": {"etat de la localisation": "Mission suivante non connue", "numparc": 2886, "duree": "", "horodatage": "2023-02-06 19:32:03", "marker-color": "#7156FF"}}, {"type": "Feature", "geometry": {"type": "Point", "coordinates": [2.180417, 48.892456]}, "properties": {"etat de la localisation": "Mission inconnue", "numparc": 2871, "duree": "", "horodatage": "2023-02-06 19:40:08", "marker-color": "#FF9F56"}}, {"type": "Feature", "geometry": {"type": "Point", "coordinates": [2.180417, 48.892456]}, "properties": {"etat de la localisation": "Mission inconnue", "numparc": 2871, "duree": "", "horodatage": "2023-02-06 19:40:08", "marker-color": "#FF9F56"}}, {"type": "Feature", "geometry": {"type": "Point", "coordinates": [2.095926, 48.897015]}, "properties": {"etat de la localisation": "Mission suivante non connue", "numparc": 2872, "duree": "", "horodatage": "2023-02-06 19:41:59", "marker-color": "#7156FF"}}, {"type": "Feature", "geometry": {"type": "Point", "coordinates": [2.095926, 48.897015]}, "properties": {"etat de la localisation": "Mission suivante non connue", "numparc": 2872, "duree": "", "horodatage": "2023-02-06 19:42:42", "marker-color": "#7156FF"}}, {"type": "Feature", "geometry": {"type": "Point", "coordinates": [2.209883, 48.901257]}, "properties": {"etat de la localisation": "Mission inconnue", "numparc": 2873, "duree": "", "horodatage": "2023-02-06 20:11:50", "marker-color": "#FF9F56"}}, {"type": "Feature", "geometry": {"type": "Point", "coordinates": [2.18985, 48.903294]}, "properties": {"etat de la localisation": "Hors service", "numparc": 2884, "duree": "", "horodatage": "2023-02-06 20:28:18", "marker-color": "#707070"}}, {"type": "Feature", "geometry": {"type": "Point", "coordinates": [2.189973, 48.902382]}, "properties": {"etat de la localisation": "Mission inconnue", "numparc": 2875, "duree": "", "horodatage": "2023-02-06 20:33:00", "marker-color": "#FF9F56"}}, {"type": "Feature", "geometry": {"type": "Point", "coordinates": [2.188825, 48.903107]}, "properties": {"etat de la localisation": "Hors service", "numparc": 2875, "duree": "", "horodatage": "2023-02-06 20:38:15", "marker-color": "#707070"}}, {"type": "Feature", "geometry": {"type": "Point", "coordinates": [2.217933, 48.8965]}, "properties": {"etat de la localisation": "Deviation programmee", "numparc": 2872, "duree": "", "horodatage": "2023-02-06 20:44:53", "marker-color": "#56FF93"}}, {"type": "Feature", "geometry": {"type": "Point", "coordinates": [2.18894, 48.903072]}, "properties": {"etat de la localisation": "Hors service", "numparc": 2870, "duree": "", "horodatage": "2023-02-06 21:09:07", "marker-color": "#707070"}}, {"type": "Feature", "geometry": {"type": "Point", "coordinates": [2.095931, 48.897087]}, "properties": {"etat de la localisation": "Mission suivante non connue", "numparc": 2890, "duree": "", "horodatage": "2023-02-06 21:13:53", "marker-color": "#7156FF"}}, {"type": "Feature", "geometry": {"type": "Point", "coordinates": [2.188589, 48.903]}, "properties": {"etat de la localisation": "Hors service", "numparc": 2874, "duree": "", "horodatage": "2023-02-06 21:38:27", "marker-color": "#707070"}}, {"type": "Feature", "geometry": {"type": "Point", "coordinates": [2.209847, 48.901268]}, "properties": {"etat de la localisation": "Mission suivante non connue", "numparc": 2873, "duree": "", "horodatage": "2023-02-06 21:44:41", "marker-color": "#7156FF"}}, {"type": "Feature", "geometry": {"type": "Point", "coordinates": [2.09592, 48.896915]}, "properties": {"etat de la localisation": "Mission suivante non connue", "numparc": 2898, "duree": "", "horodatage": "2023-02-06 22:12:42", "marker-color": "#7156FF"}}, {"type": "Feature", "geometry": {"type": "Point", "coordinates": [2.189272, 48.902309]}, "properties": {"etat de la localisation": "Hors service", "numparc": 2872, "duree": "", "horodatage": "2023-02-06 22:18:20", "marker-color": "#707070"}}, {"type": "Feature", "geometry": {"type": "Point", "coordinates": [2.189785, 48.902222]}, "properties": {"etat de la localisation": "Hors service", "numparc": 2869, "duree": "", "horodatage": "2023-02-06 22:26:24", "marker-color": "#707070"}}, {"type": "Feature", "geometry": {"type": "Point", "coordinates": [2.189443, 48.90226]}, "properties": {"etat de la localisation": "Mission inconnue", "numparc": 2869, "duree": "", "horodatage": "2023-02-06 22:31:01", "marker-color": "#FF9F56"}}, {"type": "Feature", "geometry": {"type": "Point", "coordinates": [2.189291, 48.90229]}, "properties": {"etat de la localisation": "Hors service", "numparc": 2869, "duree": "", "horodatage": "2023-02-06 22:33:30", "marker-color": "#707070"}}, {"type": "Feature", "geometry": {"type": "Point", "coordinates": [2.18812, 48.902855]}, "properties": {"etat de la localisation": "Hors service", "numparc": 2871, "duree": "", "horodatage": "2023-02-06 22:48:50", "marker-color": "#707070"}}, {"type": "Feature", "geometry": {"type": "Point", "coordinates": [2.18812, 48.902855]}, "properties": {"etat de la localisation": "Hors service", "numparc": 2871, "duree": "", "horodatage": "2023-02-06 22:48:50", "marker-color": "#707070"}}, {"type": "Feature", "geometry": {"type": "Point", "coordinates": [2.217885, 48.896461]}, "properties": {"etat de la localisation": "Deviation programmee", "numparc": 2898, "duree": "", "horodatage": "2023-02-06 23:01:49", "marker-color": "#56FF93"}}, {"type": "Feature", "geometry": {"type": "Point", "coordinates": [2.09595, 48.896946]}, "properties": {"etat de la localisation": "Mission suivante non connue", "numparc": 2886, "duree": "", "horodatage": "2023-02-06 23:23:59", "marker-color": "#7156FF"}}, {"type": "Feature", "geometry": {"type": "Point", "coordinates": [2.188486, 48.902618]}, "properties": {"etat de la localisation": "Hors service", "numparc": 2890, "duree": "", "horodatage": "2023-02-06 23:29:28", "marker-color": "#707070"}}, {"type": "Feature", "geometry": {"type": "Point", "coordinates": [2.099457, 48.892815]}, "properties": {"etat de la localisation": "Mission inconnue", "numparc": 2881, "duree": "", "horodatage": "2023-02-06 23:36:10", "marker-color": "#FF9F56"}}, {"type": "Feature", "geometry": {"type": "Point", "coordinates": [2.209746, 48.901218]}, "properties": {"etat de la localisation": "Mission suivante non connue", "numparc": 2873, "duree": "", "horodatage": "2023-02-06 23:45:02", "marker-color": "#7156FF"}}, {"type": "Feature", "geometry": {"type": "Point", "coordinates": [2.217871, 48.896481]}, "properties": {"etat de la localisation": "Deviation programmee", "numparc": 2886, "duree": "", "horodatage": "2023-02-06 23:59:53", "marker-color": "#56FF93"}}, {"type": "Feature", "geometry": {"type": "Point", "coordinates": [2.095937, 48.896954]}, "properties": {"etat de la localisation": "Mission suivante non connue", "numparc": 2873, "duree": "", "horodatage": "2023-02-07 00:48:30", "marker-color": "#7156FF"}}, {"type": "Feature", "geometry": {"type": "Point", "coordinates": [2.188369, 48.902653]}, "properties": {"etat de la localisation": "Hors service", "numparc": 5766, "duree": "", "horodatage": "2023-02-07 01:13:03", "marker-color": "#707070"}}, {"type": "Feature", "geometry": {"type": "Point", "coordinates": [2.187988, 48.902832]}, "properties": {"etat de la localisation": "Hors service", "numparc": 2873, "duree": "", "horodatage": "2023-02-07 01:25:43", "marker-color": "#707070"}}, {"type": "Feature", "geometry": {"type": "Point", "coordinates": [2.182232, 48.880398]}, "properties": {"etat de la localisation": "Mission suivante non connue", "numparc": 2881, "duree": "", "horodatage": "2023-02-07 01:44:47", "marker-color": "#7156FF"}}, {"type": "Feature", "geometry": {"type": "Point", "coordinates": [2.188787, 48.903065]}, "properties": {"etat de la localisation": "Hors service", "numparc": 2898, "duree": "", "horodatage": "2023-02-07 01:47:55", "marker-color": "#707070"}}, {"type": "Feature", "geometry": {"type": "Point", "coordinates": [2.187996, 48.902832]}, "properties": {"etat de la localisation": "Hors service", "numparc": 2886, "duree": "", "horodatage": "2023-02-07 02:05:01", "marker-color": "#707070"}}, {"type": "Feature", "geometry": {"type": "Point", "coordinates": [2.189418, 48.903214]}, "properties": {"etat de la localisation": "Hors service", "numparc": 2881, "duree": "", "horodatage": "2023-02-07 02:05:25", "marker-color": "#707070"}}]}