{"type": "FeatureCollection", "features": [{"type": "Feature", "geometry": {"type": "Point", "coordinates": [2.585636, 48.855694]}, "properties": {"alarme": "VEHICULE DELOCALISE", "numparc": 4894, "type": "EXPLOITATION", "duree": "00:03:01", "horodatage": "2022-05-23 04:58:33", "statut": "start", "marker-color": "#ff0000"}}, {"type": "Feature", "geometry": {"type": "Point", "coordinates": [2.65537, 48.848282]}, "properties": {"alarme": "VEHICULE DELOCALISE", "numparc": 5876, "type": "EXPLOITATION", "duree": "00:01:29", "horodatage": "2022-05-23 05:38:05", "statut": "start", "marker-color": "#ff0000"}}, {"type": "Feature", "geometry": {"type": "Point", "coordinates": [2.613945, 48.850704]}, "properties": {"alarme": "DEFAUT LIAISON DATA SAEIV / AIGLE", "numparc": 4976, "type": "TECHNIQUE", "duree": "00:00:09", "horodatage": "2022-05-23 08:07:46", "statut": "start", "marker-color": "#ff0000"}}, {"type": "Feature", "geometry": {"type": "Point", "coordinates": [2.648177, 48.850349]}, "properties": {"alarme": "DEFAUT LIAISON DATA SAEIV / AIGLE", "numparc": 4968, "type": "TECHNIQUE", "duree": "00:00:06", "horodatage": "2022-05-23 08:29:13", "statut": "start", "marker-color": "#ff0000"}}, {"type": "Feature", "geometry": {"type": "Point", "coordinates": [2.528405, 48.843456]}, "properties": {"alarme": "VEHICULE DELOCALISE", "numparc": 4990, "type": "EXPLOITATION", "duree": "00:00:03", "horodatage": "2022-05-23 09:04:11", "statut": "start", "marker-color": "#ff0000"}}, {"type": "Feature", "geometry": {"type": "Point", "coordinates": [2.633175, 48.850258]}, "properties": {"alarme": "DEFAUT LIAISON DATA SAEIV / AIGLE", "numparc": 4976, "type": "TECHNIQUE", "duree": "00:00:06", "horodatage": "2022-05-23 10:31:32", "statut": "start", "marker-color": "#ff0000"}}, {"type": "Feature", "geometry": {"type": "Point", "coordinates": [2.625709, 48.851028]}, "properties": {"alarme": "DEFAUT LIAISON DATA SAEIV / AIGLE", "numparc": 4898, "type": "TECHNIQUE", "duree": "00:00:06", "horodatage": "2022-05-23 11:51:21", "statut": "start", "marker-color": "#ff0000"}}, {"type": "Feature", "geometry": {"type": "Point", "coordinates": [2.547009, 48.849304]}, "properties": {"alarme": "VEHICULE DELOCALISE", "numparc": 4976, "type": "EXPLOITATION", "duree": "00:02:50", "horodatage": "2022-05-23 12:26:00", "statut": "start", "marker-color": "#ff0000"}}, {"type": "Feature", "geometry": {"type": "Point", "coordinates": [2.657834, 48.842991]}, "properties": {"alarme": "VEHICULE DELOCALISE", "numparc": 4898, "type": "EXPLOITATION", "duree": "00:05:35", "horodatage": "2022-05-23 13:27:53", "statut": "start", "marker-color": "#ff0000"}}, {"type": "Feature", "geometry": {"type": "Point", "coordinates": [2.615627, 48.84763]}, "properties": {"alarme": "DEFAUT LIAISON DATA SAEIV / AIGLE", "numparc": 4894, "type": "TECHNIQUE", "duree": "00:00:17", "horodatage": "2022-05-23 13:35:54", "statut": "start", "marker-color": "#ff0000"}}, {"type": "Feature", "geometry": {"type": "Point", "coordinates": [2.657705, 48.842915]}, "properties": {"alarme": "VEHICULE DELOCALISE", "numparc": 4976, "type": "EXPLOITATION", "duree": "00:02:42", "horodatage": "2022-05-23 13:37:11", "statut": "start", "marker-color": "#ff0000"}}, {"type": "Feature", "geometry": {"type": "Point", "coordinates": [2.654981, 48.83894]}, "properties": {"alarme": "DEFAUT LIAISON DATA SAEIV / AIGLE", "numparc": 4894, "type": "TECHNIQUE", "duree": "00:00:13", "horodatage": "2022-05-23 16:27:12", "statut": "start", "marker-color": "#ff0000"}}, {"type": "Feature", "geometry": {"type": "Point", "coordinates": [2.614318, 48.842739]}, "properties": {"alarme": "VEHICULE DELOCALISE", "numparc": 4894, "type": "EXPLOITATION", "duree": "00:06:33", "horodatage": "2022-05-23 17:10:39", "statut": "start", "marker-color": "#ff0000"}}, {"type": "Feature", "geometry": {"type": "Point", "coordinates": [2.613951, 48.852219]}, "properties": {"alarme": "DEFAUT LIAISON DATA SAEIV / AIGLE", "numparc": 4968, "type": "TECHNIQUE", "duree": "00:00:06", "horodatage": "2022-05-23 17:33:05", "statut": "start", "marker-color": "#ff0000"}}, {"type": "Feature", "geometry": {"type": "Point", "coordinates": [2.654305, 48.839275]}, "properties": {"alarme": "DEFAUT LIAISON DATA SAEIV / AIGLE", "numparc": 4894, "type": "TECHNIQUE", "duree": "00:00:19", "horodatage": "2022-05-23 17:43:31", "statut": "start", "marker-color": "#ff0000"}}, {"type": "Feature", "geometry": {"type": "Point", "coordinates": [2.655012, 48.838917]}, "properties": {"alarme": "DEFAUT LIAISON DATA SAEIV / AIGLE", "numparc": 4968, "type": "TECHNIQUE", "duree": "00:00:10", "horodatage": "2022-05-23 18:12:31", "statut": "start", "marker-color": "#ff0000"}}, {"type": "Feature", "geometry": {"type": "Point", "coordinates": [2.614017, 48.84269]}, "properties": {"alarme": "VEHICULE DELOCALISE", "numparc": 4981, "type": "EXPLOITATION", "duree": "00:11:02", "horodatage": "2022-05-23 18:36:47", "statut": "start", "marker-color": "#ff0000"}}, {"type": "Feature", "geometry": {"type": "Point", "coordinates": [2.652105, 48.842838]}, "properties": {"alarme": "VEHICULE DELOCALISE", "numparc": 4990, "type": "EXPLOITATION", "duree": "00:19:33", "horodatage": "2022-05-23 18:45:21", "statut": "start", "marker-color": "#ff0000"}}, {"type": "Feature", "geometry": {"type": "Point", "coordinates": [2.631345, 48.850433]}, "properties": {"alarme": "DEFAUT LIAISON DATA SAEIV / AIGLE", "numparc": 5876, "type": "TECHNIQUE", "duree": "00:00:09", "horodatage": "2022-05-23 19:17:37", "statut": "start", "marker-color": "#ff0000"}}, {"type": "Feature", "geometry": {"type": "Point", "coordinates": [2.586271, 48.857327]}, "properties": {"alarme": "VEHICULE DELOCALISE", "numparc": 4897, "type": "EXPLOITATION", "duree": "00:00:59", "horodatage": "2022-05-23 19:41:22", "statut": "start", "marker-color": "#ff0000"}}, {"type": "Feature", "geometry": {"type": "Point", "coordinates": [2.656409, 48.850807]}, "properties": {"alarme": "VEHICULE DELOCALISE", "numparc": 4971, "type": "EXPLOITATION", "duree": "00:00:53", "horodatage": "2022-05-23 21:47:53", "statut": "start", "marker-color": "#ff0000"}}, {"type": "Feature", "geometry": {"type": "Point", "coordinates": [2.658395, 48.842949]}, "properties": {"alarme": "VEHICULE DELOCALISE", "numparc": 4897, "type": "EXPLOITATION", "duree": "00:09:08", "horodatage": "2022-05-24 01:12:34", "statut": "start", "marker-color": "#ff0000"}}, {"type": "Feature", "geometry": {"type": "Point", "coordinates": [2.601395, 48.85228]}, "properties": {"alarme": "VEHICULE DELOCALISE", "numparc": 4894, "type": "EXPLOITATION", "duree": "00:03:01", "horodatage": "2022-05-23 05:01:34", "statut": "end", "marker-color": "#2fe184"}}, {"type": "Feature", "geometry": {"type": "Point", "coordinates": [2.652199, 48.846779]}, "properties": {"alarme": "VEHICULE DELOCALISE", "numparc": 5876, "type": "EXPLOITATION", "duree": "00:01:29", "horodatage": "2022-05-23 05:39:34", "statut": "end", "marker-color": "#2fe184"}}, {"type": "Feature", "geometry": {"type": "Point", "coordinates": [2.613945, 48.850704]}, "properties": {"alarme": "DEFAUT LIAISON DATA SAEIV / AIGLE", "numparc": 4976, "type": "TECHNIQUE", "duree": "00:00:09", "horodatage": "2022-05-23 08:07:55", "statut": "end", "marker-color": "#2fe184"}}, {"type": "Feature", "geometry": {"type": "Point", "coordinates": [2.647711, 48.850281]}, "properties": {"alarme": "DEFAUT LIAISON DATA SAEIV / AIGLE", "numparc": 4968, "type": "TECHNIQUE", "duree": "00:00:06", "horodatage": "2022-05-23 08:29:19", "statut": "end", "marker-color": "#2fe184"}}, {"type": "Feature", "geometry": {"type": "Point", "coordinates": [2.528605, 48.843521]}, "properties": {"alarme": "VEHICULE DELOCALISE", "numparc": 4990, "type": "EXPLOITATION", "duree": "00:00:03", "horodatage": "2022-05-23 09:04:14", "statut": "end", "marker-color": "#2fe184"}}, {"type": "Feature", "geometry": {"type": "Point", "coordinates": [2.633867, 48.850201]}, "properties": {"alarme": "DEFAUT LIAISON DATA SAEIV / AIGLE", "numparc": 4976, "type": "TECHNIQUE", "duree": "00:00:06", "horodatage": "2022-05-23 10:31:38", "statut": "end", "marker-color": "#2fe184"}}, {"type": "Feature", "geometry": {"type": "Point", "coordinates": [2.625023, 48.851093]}, "properties": {"alarme": "DEFAUT LIAISON DATA SAEIV / AIGLE", "numparc": 4898, "type": "TECHNIQUE", "duree": "00:00:06", "horodatage": "2022-05-23 11:51:27", "statut": "end", "marker-color": "#2fe184"}}, {"type": "Feature", "geometry": {"type": "Point", "coordinates": [2.548225, 48.847462]}, "properties": {"alarme": "VEHICULE DELOCALISE", "numparc": 4976, "type": "EXPLOITATION", "duree": "00:02:50", "horodatage": "2022-05-23 12:28:50", "statut": "end", "marker-color": "#2fe184"}}, {"type": "Feature", "geometry": {"type": "Point", "coordinates": [2.659121, 48.84267]}, "properties": {"alarme": "VEHICULE DELOCALISE", "numparc": 4898, "type": "EXPLOITATION", "duree": "00:05:35", "horodatage": "2022-05-23 13:33:28", "statut": "end", "marker-color": "#2fe184"}}, {"type": "Feature", "geometry": {"type": "Point", "coordinates": [2.615627, 48.84763]}, "properties": {"alarme": "DEFAUT LIAISON DATA SAEIV / AIGLE", "numparc": 4894, "type": "TECHNIQUE", "duree": "00:00:17", "horodatage": "2022-05-23 13:36:11", "statut": "end", "marker-color": "#2fe184"}}, {"type": "Feature", "geometry": {"type": "Point", "coordinates": [2.660192, 48.842052]}, "properties": {"alarme": "VEHICULE DELOCALISE", "numparc": 4976, "type": "EXPLOITATION", "duree": "00:02:42", "horodatage": "2022-05-23 13:39:53", "statut": "end", "marker-color": "#2fe184"}}, {"type": "Feature", "geometry": {"type": "Point", "coordinates": [2.654981, 48.83894]}, "properties": {"alarme": "DEFAUT LIAISON DATA SAEIV / AIGLE", "numparc": 4894, "type": "TECHNIQUE", "duree": "00:00:13", "horodatage": "2022-05-23 16:27:25", "statut": "end", "marker-color": "#2fe184"}}, {"type": "Feature", "geometry": {"type": "Point", "coordinates": [2.61607, 48.843708]}, "properties": {"alarme": "VEHICULE DELOCALISE", "numparc": 4894, "type": "EXPLOITATION", "duree": "00:06:33", "horodatage": "2022-05-23 17:17:12", "statut": "end", "marker-color": "#2fe184"}}, {"type": "Feature", "geometry": {"type": "Point", "coordinates": [2.613946, 48.852158]}, "properties": {"alarme": "DEFAUT LIAISON DATA SAEIV / AIGLE", "numparc": 4968, "type": "TECHNIQUE", "duree": "00:00:06", "horodatage": "2022-05-23 17:33:11", "statut": "end", "marker-color": "#2fe184"}}, {"type": "Feature", "geometry": {"type": "Point", "coordinates": [2.654305, 48.839275]}, "properties": {"alarme": "DEFAUT LIAISON DATA SAEIV / AIGLE", "numparc": 4894, "type": "TECHNIQUE", "duree": "00:00:19", "horodatage": "2022-05-23 17:43:50", "statut": "end", "marker-color": "#2fe184"}}, {"type": "Feature", "geometry": {"type": "Point", "coordinates": [2.655012, 48.838917]}, "properties": {"alarme": "DEFAUT LIAISON DATA SAEIV / AIGLE", "numparc": 4968, "type": "TECHNIQUE", "duree": "00:00:10", "horodatage": "2022-05-23 18:12:41", "statut": "end", "marker-color": "#2fe184"}}, {"type": "Feature", "geometry": {"type": "Point", "coordinates": [2.615882, 48.843739]}, "properties": {"alarme": "VEHICULE DELOCALISE", "numparc": 4981, "type": "EXPLOITATION", "duree": "00:11:02", "horodatage": "2022-05-23 18:47:49", "statut": "end", "marker-color": "#2fe184"}}, {"type": "Feature", "geometry": {"type": "Point", "coordinates": [2.526135, 48.844139]}, "properties": {"alarme": "VEHICULE DELOCALISE", "numparc": 4990, "type": "EXPLOITATION", "duree": "00:19:33", "horodatage": "2022-05-23 19:04:54", "statut": "end", "marker-color": "#2fe184"}}, {"type": "Feature", "geometry": {"type": "Point", "coordinates": [2.632552, 48.850304]}, "properties": {"alarme": "DEFAUT LIAISON DATA SAEIV / AIGLE", "numparc": 5876, "type": "TECHNIQUE", "duree": "00:00:09", "horodatage": "2022-05-23 19:17:46", "statut": "end", "marker-color": "#2fe184"}}, {"type": "Feature", "geometry": {"type": "Point", "coordinates": [2.583398, 48.855648]}, "properties": {"alarme": "VEHICULE DELOCALISE", "numparc": 4897, "type": "EXPLOITATION", "duree": "00:00:59", "horodatage": "2022-05-23 19:42:21", "statut": "end", "marker-color": "#2fe184"}}, {"type": "Feature", "geometry": {"type": "Point", "coordinates": [2.656511, 48.848648]}, "properties": {"alarme": "VEHICULE DELOCALISE", "numparc": 4971, "type": "EXPLOITATION", "duree": "00:00:53", "horodatage": "2022-05-23 21:48:46", "statut": "end", "marker-color": "#2fe184"}}, {"type": "Feature", "geometry": {"type": "Point", "coordinates": [2.6594, 48.84214]}, "properties": {"alarme": "VEHICULE DELOCALISE", "numparc": 4897, "type": "EXPLOITATION", "duree": "00:09:08", "horodatage": "2022-05-24 01:21:42", "statut": "end", "marker-color": "#2fe184"}}, {"type": "Feature", "geometry": {"type": "Point", "coordinates": [2.660436, 48.842445]}, "properties": {"alarme": "DEFAUT LIAISON DATA SAEIV / AIGLE", "numparc": 4970, "type": "TECHNIQUE", "duree": "24:00:00", "horodatage": "2022-05-23 14:40:15", "statut": "start", "marker-color": "#000000"}}]}