{"type": "FeatureCollection", "features": [{"type": "Feature", "geometry": {"type": "Point", "coordinates": [2.297518, 48.721039]}, "properties": {"etat de la localisation": "Mission inconnue", "numparc": 7057, "duree": "", "horodatage": "2022-06-28 06:02:58", "marker-color": "#FF9F56"}}, {"type": "Feature", "geometry": {"type": "Point", "coordinates": [2.354243, 48.746143]}, "properties": {"etat de la localisation": "Delocalise", "numparc": 7063, "duree": "00:00:12", "horodatage": "2022-06-28 06:30:06", "marker-color": "#FF565E"}}, {"type": "Feature", "geometry": {"type": "Point", "coordinates": [2.296723, 48.721832]}, "properties": {"etat de la localisation": "Delocalise", "numparc": 7079, "duree": "00:00:34", "horodatage": "2022-06-28 06:54:57", "marker-color": "#FF565E"}}, {"type": "Feature", "geometry": {"type": "Point", "coordinates": [2.296777, 48.721592]}, "properties": {"etat de la localisation": "Hors service", "numparc": 7079, "duree": "", "horodatage": "2022-06-28 06:55:31", "marker-color": "#707070"}}, {"type": "Feature", "geometry": {"type": "Point", "coordinates": [2.296731, 48.721821]}, "properties": {"etat de la localisation": "Delocalise", "numparc": 7077, "duree": "00:01:55", "horodatage": "2022-06-28 07:07:22", "marker-color": "#FF565E"}}, {"type": "Feature", "geometry": {"type": "Point", "coordinates": [2.354509, 48.751976]}, "properties": {"etat de la localisation": "Delocalise", "numparc": 7074, "duree": "00:01:30", "horodatage": "2022-06-28 07:12:17", "marker-color": "#FF565E"}}, {"type": "Feature", "geometry": {"type": "Point", "coordinates": [2.331636, 48.834579]}, "properties": {"etat de la localisation": "Delocalise", "numparc": 7067, "duree": "00:03:51", "horodatage": "2022-06-28 07:13:26", "marker-color": "#FF565E"}}, {"type": "Feature", "geometry": {"type": "Point", "coordinates": [2.354038, 48.746113]}, "properties": {"etat de la localisation": "Delocalise", "numparc": 7057, "duree": "00:00:13", "horodatage": "2022-06-28 07:22:29", "marker-color": "#FF565E"}}, {"type": "Feature", "geometry": {"type": "Point", "coordinates": [2.296749, 48.721817]}, "properties": {"etat de la localisation": "Delocalise", "numparc": 7078, "duree": "00:01:13", "horodatage": "2022-06-28 07:29:27", "marker-color": "#FF565E"}}, {"type": "Feature", "geometry": {"type": "Point", "coordinates": [2.353588, 48.745773]}, "properties": {"etat de la localisation": "Delocalise", "numparc": 7067, "duree": "00:00:24", "horodatage": "2022-06-28 07:44:17", "marker-color": "#FF565E"}}, {"type": "Feature", "geometry": {"type": "Point", "coordinates": [2.354355, 48.745979]}, "properties": {"etat de la localisation": "Delocalise", "numparc": 7076, "duree": "00:00:07", "horodatage": "2022-06-28 07:48:07", "marker-color": "#FF565E"}}, {"type": "Feature", "geometry": {"type": "Point", "coordinates": [2.333296, 48.832676]}, "properties": {"etat de la localisation": "Mission suivante non connue", "numparc": 7069, "duree": "", "horodatage": "2022-06-28 07:52:34", "marker-color": "#7156FF"}}, {"type": "Feature", "geometry": {"type": "Point", "coordinates": [2.346728, 48.760799]}, "properties": {"etat de la localisation": "Delocalise", "numparc": 7071, "duree": "00:02:32", "horodatage": "2022-06-28 07:52:53", "marker-color": "#FF565E"}}, {"type": "Feature", "geometry": {"type": "Point", "coordinates": [2.333296, 48.832676]}, "properties": {"etat de la localisation": "Mission suivante non connue", "numparc": 7069, "duree": "", "horodatage": "2022-06-28 07:53:15", "marker-color": "#7156FF"}}, {"type": "Feature", "geometry": {"type": "Point", "coordinates": [2.333137, 48.833187]}, "properties": {"etat de la localisation": "Mission suivante non connue", "numparc": 7069, "duree": "", "horodatage": "2022-06-28 07:56:57", "marker-color": "#7156FF"}}, {"type": "Feature", "geometry": {"type": "Point", "coordinates": [2.354128, 48.746166]}, "properties": {"etat de la localisation": "Delocalise", "numparc": 7073, "duree": "00:00:11", "horodatage": "2022-06-28 08:03:31", "marker-color": "#FF565E"}}, {"type": "Feature", "geometry": {"type": "Point", "coordinates": [2.354072, 48.745945]}, "properties": {"etat de la localisation": "Delocalise", "numparc": 7075, "duree": "00:00:14", "horodatage": "2022-06-28 08:05:11", "marker-color": "#FF565E"}}, {"type": "Feature", "geometry": {"type": "Point", "coordinates": [2.35425, 48.746136]}, "properties": {"etat de la localisation": "Delocalise", "numparc": 7079, "duree": "00:00:09", "horodatage": "2022-06-28 08:07:31", "marker-color": "#FF565E"}}, {"type": "Feature", "geometry": {"type": "Point", "coordinates": [2.336831, 48.816528]}, "properties": {"etat de la localisation": "Delocalise", "numparc": 7071, "duree": "00:03:59", "horodatage": "2022-06-28 08:15:14", "marker-color": "#FF565E"}}, {"type": "Feature", "geometry": {"type": "Point", "coordinates": [2.354391, 48.746006]}, "properties": {"etat de la localisation": "Delocalise", "numparc": 7074, "duree": "00:00:07", "horodatage": "2022-06-28 08:16:08", "marker-color": "#FF565E"}}, {"type": "Feature", "geometry": {"type": "Point", "coordinates": [2.354192, 48.745975]}, "properties": {"etat de la localisation": "Delocalise", "numparc": 7066, "duree": "00:00:10", "horodatage": "2022-06-28 08:25:48", "marker-color": "#FF565E"}}, {"type": "Feature", "geometry": {"type": "Point", "coordinates": [2.333219, 48.83263]}, "properties": {"etat de la localisation": "Mission suivante non connue", "numparc": 7071, "duree": "", "horodatage": "2022-06-28 08:28:39", "marker-color": "#7156FF"}}, {"type": "Feature", "geometry": {"type": "Point", "coordinates": [2.333195, 48.832722]}, "properties": {"etat de la localisation": "Mission suivante non connue", "numparc": 7071, "duree": "", "horodatage": "2022-06-28 08:30:01", "marker-color": "#7156FF"}}, {"type": "Feature", "geometry": {"type": "Point", "coordinates": [2.332998, 48.833084]}, "properties": {"etat de la localisation": "Mission suivante non connue", "numparc": 7071, "duree": "", "horodatage": "2022-06-28 08:33:20", "marker-color": "#7156FF"}}, {"type": "Feature", "geometry": {"type": "Point", "coordinates": [2.353847, 48.74593]}, "properties": {"etat de la localisation": "Delocalise", "numparc": 7057, "duree": "00:00:15", "horodatage": "2022-06-28 08:40:18", "marker-color": "#FF565E"}}, {"type": "Feature", "geometry": {"type": "Point", "coordinates": [2.354184, 48.745975]}, "properties": {"etat de la localisation": "Delocalise", "numparc": 7062, "duree": "00:00:11", "horodatage": "2022-06-28 08:47:12", "marker-color": "#FF565E"}}, {"type": "Feature", "geometry": {"type": "Point", "coordinates": [2.354256, 48.745956]}, "properties": {"etat de la localisation": "Delocalise", "numparc": 7063, "duree": "00:00:14", "horodatage": "2022-06-28 08:53:54", "marker-color": "#FF565E"}}, {"type": "Feature", "geometry": {"type": "Point", "coordinates": [2.354378, 48.745979]}, "properties": {"etat de la localisation": "Delocalise", "numparc": 7078, "duree": "00:00:09", "horodatage": "2022-06-28 08:54:32", "marker-color": "#FF565E"}}, {"type": "Feature", "geometry": {"type": "Point", "coordinates": [2.354259, 48.745987]}, "properties": {"etat de la localisation": "Delocalise", "numparc": 7067, "duree": "00:00:09", "horodatage": "2022-06-28 09:00:03", "marker-color": "#FF565E"}}, {"type": "Feature", "geometry": {"type": "Point", "coordinates": [2.354458, 48.746002]}, "properties": {"etat de la localisation": "Delocalise", "numparc": 7071, "duree": "00:00:07", "horodatage": "2022-06-28 09:00:40", "marker-color": "#FF565E"}}, {"type": "Feature", "geometry": {"type": "Point", "coordinates": [2.352647, 48.762077]}, "properties": {"etat de la localisation": "Delocalise", "numparc": 7071, "duree": "00:02:40", "horodatage": "2022-06-28 09:09:11", "marker-color": "#FF565E"}}, {"type": "Feature", "geometry": {"type": "Point", "coordinates": [2.354232, 48.745972]}, "properties": {"etat de la localisation": "Delocalise", "numparc": 7076, "duree": "00:00:09", "horodatage": "2022-06-28 09:10:01", "marker-color": "#FF565E"}}, {"type": "Feature", "geometry": {"type": "Point", "coordinates": [2.354172, 48.745903]}, "properties": {"etat de la localisation": "Delocalise", "numparc": 7075, "duree": "00:00:12", "horodatage": "2022-06-28 09:24:53", "marker-color": "#FF565E"}}, {"type": "Feature", "geometry": {"type": "Point", "coordinates": [2.354265, 48.745975]}, "properties": {"etat de la localisation": "Delocalise", "numparc": 7073, "duree": "00:00:09", "horodatage": "2022-06-28 09:25:34", "marker-color": "#FF565E"}}, {"type": "Feature", "geometry": {"type": "Point", "coordinates": [2.336847, 48.816582]}, "properties": {"etat de la localisation": "Delocalise", "numparc": 7071, "duree": "00:08:49", "horodatage": "2022-06-28 09:31:29", "marker-color": "#FF565E"}}, {"type": "Feature", "geometry": {"type": "Point", "coordinates": [2.346818, 48.760723]}, "properties": {"etat de la localisation": "Delocalise", "numparc": 7073, "duree": "00:03:06", "horodatage": "2022-06-28 09:33:25", "marker-color": "#FF565E"}}, {"type": "Feature", "geometry": {"type": "Point", "coordinates": [2.354226, 48.746174]}, "properties": {"etat de la localisation": "Delocalise", "numparc": 7079, "duree": "00:00:07", "horodatage": "2022-06-28 09:33:31", "marker-color": "#FF565E"}}, {"type": "Feature", "geometry": {"type": "Point", "coordinates": [2.29828, 48.721649]}, "properties": {"etat de la localisation": "Mission inconnue", "numparc": 7064, "duree": "", "horodatage": "2022-06-28 09:37:44", "marker-color": "#FF9F56"}}, {"type": "Feature", "geometry": {"type": "Point", "coordinates": [2.354292, 48.746006]}, "properties": {"etat de la localisation": "Delocalise", "numparc": 7066, "duree": "00:00:07", "horodatage": "2022-06-28 09:38:44", "marker-color": "#FF565E"}}, {"type": "Feature", "geometry": {"type": "Point", "coordinates": [2.29828, 48.721649]}, "properties": {"etat de la localisation": "Mission inconnue", "numparc": 7064, "duree": "", "horodatage": "2022-06-28 09:42:24", "marker-color": "#FF9F56"}}, {"type": "Feature", "geometry": {"type": "Point", "coordinates": [2.29828, 48.721649]}, "properties": {"etat de la localisation": "Hors service", "numparc": 7064, "duree": "", "horodatage": "2022-06-28 09:54:55", "marker-color": "#707070"}}, {"type": "Feature", "geometry": {"type": "Point", "coordinates": [2.333279, 48.833549]}, "properties": {"etat de la localisation": "Hors service", "numparc": 7068, "duree": "", "horodatage": "2022-06-28 10:00:57", "marker-color": "#707070"}}, {"type": "Feature", "geometry": {"type": "Point", "coordinates": [2.29828, 48.721649]}, "properties": {"etat de la localisation": "Mission inconnue", "numparc": 7064, "duree": "", "horodatage": "2022-06-28 10:06:56", "marker-color": "#FF9F56"}}, {"type": "Feature", "geometry": {"type": "Point", "coordinates": [2.354167, 48.745975]}, "properties": {"etat de la localisation": "Delocalise", "numparc": 7057, "duree": "00:00:13", "horodatage": "2022-06-28 10:07:52", "marker-color": "#FF565E"}}, {"type": "Feature", "geometry": {"type": "Point", "coordinates": [2.29678, 48.721809]}, "properties": {"etat de la localisation": "Hors service", "numparc": 7078, "duree": "", "horodatage": "2022-06-28 10:07:58", "marker-color": "#707070"}}, {"type": "Feature", "geometry": {"type": "Point", "coordinates": [2.3543, 48.74593]}, "properties": {"etat de la localisation": "Delocalise", "numparc": 7062, "duree": "00:00:10", "horodatage": "2022-06-28 10:10:50", "marker-color": "#FF565E"}}, {"type": "Feature", "geometry": {"type": "Point", "coordinates": [2.354138, 48.746006]}, "properties": {"etat de la localisation": "Delocalise", "numparc": 7063, "duree": "00:00:13", "horodatage": "2022-06-28 10:14:17", "marker-color": "#FF565E"}}, {"type": "Feature", "geometry": {"type": "Point", "coordinates": [2.298279, 48.721649]}, "properties": {"etat de la localisation": "Hors service", "numparc": 7064, "duree": "", "horodatage": "2022-06-28 10:18:33", "marker-color": "#707070"}}, {"type": "Feature", "geometry": {"type": "Point", "coordinates": [2.354198, 48.746006]}, "properties": {"etat de la localisation": "Delocalise", "numparc": 7076, "duree": "00:02:01", "horodatage": "2022-06-28 10:23:19", "marker-color": "#FF565E"}}, {"type": "Feature", "geometry": {"type": "Point", "coordinates": [2.333243, 48.832684]}, "properties": {"etat de la localisation": "Mission suivante non connue", "numparc": 7069, "duree": "", "horodatage": "2022-06-28 10:27:01", "marker-color": "#7156FF"}}, {"type": "Feature", "geometry": {"type": "Point", "coordinates": [2.333243, 48.832684]}, "properties": {"etat de la localisation": "Mission suivante non connue", "numparc": 7069, "duree": "", "horodatage": "2022-06-28 10:27:34", "marker-color": "#7156FF"}}, {"type": "Feature", "geometry": {"type": "Point", "coordinates": [2.354443, 48.745979]}, "properties": {"etat de la localisation": "Delocalise", "numparc": 7068, "duree": "00:00:07", "horodatage": "2022-06-28 10:30:47", "marker-color": "#FF565E"}}, {"type": "Feature", "geometry": {"type": "Point", "coordinates": [2.334806, 48.821182]}, "properties": {"etat de la localisation": "Delocalise", "numparc": 7062, "duree": "00:02:02", "horodatage": "2022-06-28 10:38:07", "marker-color": "#FF565E"}}, {"type": "Feature", "geometry": {"type": "Point", "coordinates": [2.298066, 48.721828]}, "properties": {"etat de la localisation": "Hors service", "numparc": 7075, "duree": "", "horodatage": "2022-06-28 10:38:43", "marker-color": "#707070"}}, {"type": "Feature", "geometry": {"type": "Point", "coordinates": [2.297682, 48.721256]}, "properties": {"etat de la localisation": "Hors service", "numparc": 7074, "duree": "", "horodatage": "2022-06-28 10:40:58", "marker-color": "#707070"}}, {"type": "Feature", "geometry": {"type": "Point", "coordinates": [2.297926, 48.721298]}, "properties": {"etat de la localisation": "Hors service", "numparc": 7066, "duree": "", "horodatage": "2022-06-28 10:41:53", "marker-color": "#707070"}}, {"type": "Feature", "geometry": {"type": "Point", "coordinates": [2.297178, 48.722294]}, "properties": {"etat de la localisation": "Hors service", "numparc": 7075, "duree": "", "horodatage": "2022-06-28 10:41:54", "marker-color": "#707070"}}, {"type": "Feature", "geometry": {"type": "Point", "coordinates": [2.354011, 48.746239]}, "properties": {"etat de la localisation": "Delocalise", "numparc": 7079, "duree": "00:00:10", "horodatage": "2022-06-28 10:42:01", "marker-color": "#FF565E"}}, {"type": "Feature", "geometry": {"type": "Point", "coordinates": [2.297104, 48.72131]}, "properties": {"etat de la localisation": "Hors service", "numparc": 7077, "duree": "", "horodatage": "2022-06-28 10:52:24", "marker-color": "#707070"}}, {"type": "Feature", "geometry": {"type": "Point", "coordinates": [2.297274, 48.721313]}, "properties": {"etat de la localisation": "Hors service", "numparc": 7062, "duree": "", "horodatage": "2022-06-28 10:52:53", "marker-color": "#707070"}}, {"type": "Feature", "geometry": {"type": "Point", "coordinates": [2.354134, 48.746059]}, "properties": {"etat de la localisation": "Delocalise", "numparc": 7073, "duree": "00:00:10", "horodatage": "2022-06-28 10:59:08", "marker-color": "#FF565E"}}, {"type": "Feature", "geometry": {"type": "Point", "coordinates": [2.354299, 48.745956]}, "properties": {"etat de la localisation": "Delocalise", "numparc": 7069, "duree": "00:00:08", "horodatage": "2022-06-28 11:05:59", "marker-color": "#FF565E"}}, {"type": "Feature", "geometry": {"type": "Point", "coordinates": [2.29744, 48.720993]}, "properties": {"etat de la localisation": "Hors service", "numparc": 7063, "duree": "", "horodatage": "2022-06-28 11:07:43", "marker-color": "#707070"}}, {"type": "Feature", "geometry": {"type": "Point", "coordinates": [2.297229, 48.722198]}, "properties": {"etat de la localisation": "Hors service", "numparc": 7057, "duree": "", "horodatage": "2022-06-28 11:10:13", "marker-color": "#707070"}}, {"type": "Feature", "geometry": {"type": "Point", "coordinates": [2.297981, 48.721325]}, "properties": {"etat de la localisation": "Hors service", "numparc": 7071, "duree": "", "horodatage": "2022-06-28 11:12:20", "marker-color": "#707070"}}, {"type": "Feature", "geometry": {"type": "Point", "coordinates": [2.298006, 48.721325]}, "properties": {"etat de la localisation": "Hors service", "numparc": 7067, "duree": "", "horodatage": "2022-06-28 11:13:14", "marker-color": "#707070"}}, {"type": "Feature", "geometry": {"type": "Point", "coordinates": [2.298066, 48.721905]}, "properties": {"etat de la localisation": "Mission inconnue", "numparc": 7066, "duree": "", "horodatage": "2022-06-28 11:30:43", "marker-color": "#FF9F56"}}, {"type": "Feature", "geometry": {"type": "Point", "coordinates": [2.297705, 48.721912]}, "properties": {"etat de la localisation": "Hors service", "numparc": 7066, "duree": "", "horodatage": "2022-06-28 11:32:41", "marker-color": "#707070"}}, {"type": "Feature", "geometry": {"type": "Point", "coordinates": [2.354428, 48.745975]}, "properties": {"etat de la localisation": "Delocalise", "numparc": 7068, "duree": "00:00:08", "horodatage": "2022-06-28 11:47:19", "marker-color": "#FF565E"}}, {"type": "Feature", "geometry": {"type": "Point", "coordinates": [2.297275, 48.721317]}, "properties": {"etat de la localisation": "Mission inconnue", "numparc": 7062, "duree": "", "horodatage": "2022-06-28 11:55:08", "marker-color": "#FF9F56"}}, {"type": "Feature", "geometry": {"type": "Point", "coordinates": [2.297202, 48.72208]}, "properties": {"etat de la localisation": "Delocalise", "numparc": 7082, "duree": "00:09:21", "horodatage": "2022-06-28 12:36:06", "marker-color": "#FF565E"}}, {"type": "Feature", "geometry": {"type": "Point", "coordinates": [2.298002, 48.721333]}, "properties": {"etat de la localisation": "Hors service", "numparc": 7068, "duree": "", "horodatage": "2022-06-28 12:41:40", "marker-color": "#707070"}}, {"type": "Feature", "geometry": {"type": "Point", "coordinates": [2.354213, 48.745953]}, "properties": {"etat de la localisation": "Delocalise", "numparc": 7062, "duree": "00:00:11", "horodatage": "2022-06-28 12:54:46", "marker-color": "#FF565E"}}, {"type": "Feature", "geometry": {"type": "Point", "coordinates": [2.297129, 48.721233]}, "properties": {"etat de la localisation": "Hors service", "numparc": 7076, "duree": "", "horodatage": "2022-06-28 12:57:04", "marker-color": "#707070"}}, {"type": "Feature", "geometry": {"type": "Point", "coordinates": [2.297557, 48.721115]}, "properties": {"etat de la localisation": "Hors service", "numparc": 7073, "duree": "", "horodatage": "2022-06-28 13:01:42", "marker-color": "#707070"}}, {"type": "Feature", "geometry": {"type": "Point", "coordinates": [2.297959, 48.72131]}, "properties": {"etat de la localisation": "Hors service", "numparc": 7069, "duree": "", "horodatage": "2022-06-28 13:15:55", "marker-color": "#707070"}}, {"type": "Feature", "geometry": {"type": "Point", "coordinates": [2.354132, 48.74601]}, "properties": {"etat de la localisation": "Delocalise", "numparc": 7066, "duree": "00:00:11", "horodatage": "2022-06-28 14:35:59", "marker-color": "#FF565E"}}, {"type": "Feature", "geometry": {"type": "Point", "coordinates": [2.29731, 48.721226]}, "properties": {"etat de la localisation": "Hors service", "numparc": 7066, "duree": "", "horodatage": "2022-06-28 15:02:20", "marker-color": "#707070"}}, {"type": "Feature", "geometry": {"type": "Point", "coordinates": [2.35423, 48.745911]}, "properties": {"etat de la localisation": "Delocalise", "numparc": 7082, "duree": "00:00:14", "horodatage": "2022-06-28 15:03:25", "marker-color": "#FF565E"}}, {"type": "Feature", "geometry": {"type": "Point", "coordinates": [2.354148, 48.745922]}, "properties": {"etat de la localisation": "Delocalise", "numparc": 7086, "duree": "00:00:11", "horodatage": "2022-06-28 15:10:28", "marker-color": "#FF565E"}}, {"type": "Feature", "geometry": {"type": "Point", "coordinates": [2.296745, 48.721794]}, "properties": {"etat de la localisation": "Hors service", "numparc": 7082, "duree": "", "horodatage": "2022-06-28 15:33:12", "marker-color": "#707070"}}, {"type": "Feature", "geometry": {"type": "Point", "coordinates": [2.297388, 48.722076]}, "properties": {"etat de la localisation": "Delocalise", "numparc": 7081, "duree": "00:00:15", "horodatage": "2022-06-28 15:49:35", "marker-color": "#FF565E"}}, {"type": "Feature", "geometry": {"type": "Point", "coordinates": [2.354219, 48.745975]}, "properties": {"etat de la localisation": "Delocalise", "numparc": 7074, "duree": "00:00:13", "horodatage": "2022-06-28 15:55:46", "marker-color": "#FF565E"}}, {"type": "Feature", "geometry": {"type": "Point", "coordinates": [2.354231, 48.745937]}, "properties": {"etat de la localisation": "Delocalise", "numparc": 7078, "duree": "00:00:10", "horodatage": "2022-06-28 16:41:02", "marker-color": "#FF565E"}}, {"type": "Feature", "geometry": {"type": "Point", "coordinates": [2.354114, 48.746063]}, "properties": {"etat de la localisation": "Delocalise", "numparc": 7063, "duree": "00:00:12", "horodatage": "2022-06-28 16:48:34", "marker-color": "#FF565E"}}, {"type": "Feature", "geometry": {"type": "Point", "coordinates": [2.354136, 48.746025]}, "properties": {"etat de la localisation": "Delocalise", "numparc": 7081, "duree": "00:00:13", "horodatage": "2022-06-28 17:02:10", "marker-color": "#FF565E"}}, {"type": "Feature", "geometry": {"type": "Point", "coordinates": [2.354293, 48.745972]}, "properties": {"etat de la localisation": "Delocalise", "numparc": 7077, "duree": "00:00:09", "horodatage": "2022-06-28 17:08:02", "marker-color": "#FF565E"}}, {"type": "Feature", "geometry": {"type": "Point", "coordinates": [2.333252, 48.833473]}, "properties": {"etat de la localisation": "Hors service", "numparc": 7063, "duree": "", "horodatage": "2022-06-28 17:25:29", "marker-color": "#707070"}}, {"type": "Feature", "geometry": {"type": "Point", "coordinates": [2.354232, 48.74593]}, "properties": {"etat de la localisation": "Delocalise", "numparc": 7062, "duree": "00:00:11", "horodatage": "2022-06-28 17:35:26", "marker-color": "#FF565E"}}, {"type": "Feature", "geometry": {"type": "Point", "coordinates": [2.354167, 48.745972]}, "properties": {"etat de la localisation": "Delocalise", "numparc": 7074, "duree": "00:00:11", "horodatage": "2022-06-28 17:42:44", "marker-color": "#FF565E"}}, {"type": "Feature", "geometry": {"type": "Point", "coordinates": [2.354426, 48.745995]}, "properties": {"etat de la localisation": "Delocalise", "numparc": 7071, "duree": "00:00:02", "horodatage": "2022-06-28 17:48:36", "marker-color": "#FF565E"}}, {"type": "Feature", "geometry": {"type": "Point", "coordinates": [2.354038, 48.746174]}, "properties": {"etat de la localisation": "Delocalise", "numparc": 7063, "duree": "00:00:10", "horodatage": "2022-06-28 18:09:54", "marker-color": "#FF565E"}}, {"type": "Feature", "geometry": {"type": "Point", "coordinates": [2.354087, 48.746086]}, "properties": {"etat de la localisation": "Delocalise", "numparc": 7081, "duree": "00:00:12", "horodatage": "2022-06-28 18:26:05", "marker-color": "#FF565E"}}, {"type": "Feature", "geometry": {"type": "Point", "coordinates": [2.297289, 48.722111]}, "properties": {"etat de la localisation": "Hors service", "numparc": 7086, "duree": "", "horodatage": "2022-06-28 18:29:37", "marker-color": "#707070"}}, {"type": "Feature", "geometry": {"type": "Point", "coordinates": [2.35421, 48.745975]}, "properties": {"etat de la localisation": "Delocalise", "numparc": 7077, "duree": "00:00:11", "horodatage": "2022-06-28 18:32:11", "marker-color": "#FF565E"}}, {"type": "Feature", "geometry": {"type": "Point", "coordinates": [2.296795, 48.721855]}, "properties": {"etat de la localisation": "Hors service", "numparc": 7062, "duree": "", "horodatage": "2022-06-28 18:45:44", "marker-color": "#707070"}}, {"type": "Feature", "geometry": {"type": "Point", "coordinates": [2.345568, 48.755005]}, "properties": {"etat de la localisation": "Delocalise", "numparc": 7077, "duree": "00:12:39", "horodatage": "2022-06-28 18:48:47", "marker-color": "#FF565E"}}, {"type": "Feature", "geometry": {"type": "Point", "coordinates": [2.29674, 48.721813]}, "properties": {"etat de la localisation": "Hors service", "numparc": 7077, "duree": "", "horodatage": "2022-06-28 19:01:26", "marker-color": "#707070"}}, {"type": "Feature", "geometry": {"type": "Point", "coordinates": [2.354227, 48.745941]}, "properties": {"etat de la localisation": "Delocalise", "numparc": 7074, "duree": "00:00:09", "horodatage": "2022-06-28 19:14:57", "marker-color": "#FF565E"}}, {"type": "Feature", "geometry": {"type": "Point", "coordinates": [2.358141, 48.763161]}, "properties": {"etat de la localisation": "Mission suivante non connue", "numparc": 7071, "duree": "", "horodatage": "2022-06-28 19:36:04", "marker-color": "#7156FF"}}, {"type": "Feature", "geometry": {"type": "Point", "coordinates": [2.354213, 48.745953]}, "properties": {"etat de la localisation": "Delocalise", "numparc": 7078, "duree": "00:00:09", "horodatage": "2022-06-28 19:53:48", "marker-color": "#FF565E"}}, {"type": "Feature", "geometry": {"type": "Point", "coordinates": [2.296654, 48.721756]}, "properties": {"etat de la localisation": "Hors service", "numparc": 7078, "duree": "", "horodatage": "2022-06-28 20:14:18", "marker-color": "#707070"}}, {"type": "Feature", "geometry": {"type": "Point", "coordinates": [2.336849, 48.816517]}, "properties": {"etat de la localisation": "Delocalise", "numparc": 7071, "duree": "00:04:44", "horodatage": "2022-06-28 20:15:29", "marker-color": "#FF565E"}}, {"type": "Feature", "geometry": {"type": "Point", "coordinates": [2.297948, 48.721569]}, "properties": {"etat de la localisation": "Hors service", "numparc": 7074, "duree": "", "horodatage": "2022-06-28 20:22:22", "marker-color": "#707070"}}, {"type": "Feature", "geometry": {"type": "Point", "coordinates": [2.354184, 48.746197]}, "properties": {"etat de la localisation": "Delocalise", "numparc": 7063, "duree": "00:00:10", "horodatage": "2022-06-28 20:25:25", "marker-color": "#FF565E"}}, {"type": "Feature", "geometry": {"type": "Point", "coordinates": [2.297294, 48.721294]}, "properties": {"etat de la localisation": "Hors service", "numparc": 7071, "duree": "", "horodatage": "2022-06-28 20:48:29", "marker-color": "#707070"}}, {"type": "Feature", "geometry": {"type": "Point", "coordinates": [2.35417, 48.746075]}, "properties": {"etat de la localisation": "Delocalise", "numparc": 7081, "duree": "00:00:09", "horodatage": "2022-06-28 20:52:47", "marker-color": "#FF565E"}}, {"type": "Feature", "geometry": {"type": "Point", "coordinates": [2.297717, 48.720875]}, "properties": {"etat de la localisation": "Hors service", "numparc": 7063, "duree": "", "horodatage": "2022-06-28 21:11:11", "marker-color": "#707070"}}, {"type": "Feature", "geometry": {"type": "Point", "coordinates": [2.297396, 48.721188]}, "properties": {"etat de la localisation": "Hors service", "numparc": 7081, "duree": "", "horodatage": "2022-06-28 21:38:25", "marker-color": "#707070"}}]}