{"type": "FeatureCollection", "features": [{"type": "Feature", "geometry": {"type": "Point", "coordinates": [2.387084, 48.753738]}, "properties": {"etat de la localisation": "Delocalise", "numparc": 5715, "duree": "00:12:24", "horodatage": "2022-12-16 16:25:37", "marker-color": "#FF565E"}}, {"type": "Feature", "geometry": {"type": "Point", "coordinates": [2.387401, 48.753952]}, "properties": {"etat de la localisation": "Hors service", "numparc": 5715, "duree": "", "horodatage": "2022-12-16 18:29:19", "marker-color": "#707070"}}, {"type": "Feature", "geometry": {"type": "Point", "coordinates": [2.387383, 48.753986]}, "properties": {"etat de la localisation": "Hors service", "numparc": 5727, "duree": "", "horodatage": "2022-12-16 18:51:31", "marker-color": "#707070"}}]}