{"type": "FeatureCollection", "features": [{"type": "Feature", "geometry": {"type": "Point", "coordinates": [2.428118, 48.879383]}, "properties": {"etat de la localisation": "Mission inconnue", "numparc": 4931, "duree": "", "horodatage": "2023-04-26 09:23:49", "marker-color": "#FF9F56"}}, {"type": "Feature", "geometry": {"type": "Point", "coordinates": [2.42824, 48.87397]}, "properties": {"etat de la localisation": "Hors service", "numparc": 4931, "duree": "", "horodatage": "2023-04-26 09:29:25", "marker-color": "#707070"}}, {"type": "Feature", "geometry": {"type": "Point", "coordinates": [2.416955, 48.865253]}, "properties": {"etat de la localisation": "Hors service", "numparc": 4931, "duree": "", "horodatage": "2023-04-26 09:35:35", "marker-color": "#707070"}}, {"type": "Feature", "geometry": {"type": "Point", "coordinates": [2.417162, 48.864826]}, "properties": {"etat de la localisation": "Mission suivante non connue", "numparc": 4931, "duree": "", "horodatage": "2023-04-26 09:40:21", "marker-color": "#7156FF"}}, {"type": "Feature", "geometry": {"type": "Point", "coordinates": [2.348459, 48.857597]}, "properties": {"etat de la localisation": "Hors service", "numparc": 1522, "duree": "", "horodatage": "2023-04-26 12:28:17", "marker-color": "#707070"}}, {"type": "Feature", "geometry": {"type": "Point", "coordinates": [2.431915, 48.875774]}, "properties": {"etat de la localisation": "Hors service", "numparc": 1522, "duree": "", "horodatage": "2023-04-26 13:39:39", "marker-color": "#707070"}}, {"type": "Feature", "geometry": {"type": "Point", "coordinates": [2.34854, 48.857552]}, "properties": {"etat de la localisation": "Hors service", "numparc": 1500, "duree": "", "horodatage": "2023-04-26 14:43:41", "marker-color": "#707070"}}, {"type": "Feature", "geometry": {"type": "Point", "coordinates": [2.348554, 48.857544]}, "properties": {"etat de la localisation": "Hors service", "numparc": 1500, "duree": "", "horodatage": "2023-04-26 14:47:43", "marker-color": "#707070"}}, {"type": "Feature", "geometry": {"type": "Point", "coordinates": [2.348456, 48.857677]}, "properties": {"etat de la localisation": "Hors service", "numparc": 1522, "duree": "", "horodatage": "2023-04-26 14:58:12", "marker-color": "#707070"}}, {"type": "Feature", "geometry": {"type": "Point", "coordinates": [2.427295, 48.878529]}, "properties": {"etat de la localisation": "Delocalise", "numparc": 1526, "duree": "00:01:35", "horodatage": "2023-04-26 15:02:00", "marker-color": "#FF565E"}}, {"type": "Feature", "geometry": {"type": "Point", "coordinates": [2.417, 48.864731]}, "properties": {"etat de la localisation": "Mission inconnue", "numparc": 1526, "duree": "", "horodatage": "2023-04-26 15:24:13", "marker-color": "#FF9F56"}}, {"type": "Feature", "geometry": {"type": "Point", "coordinates": [2.408717, 48.863415]}, "properties": {"etat de la localisation": "Hors service", "numparc": 1526, "duree": "", "horodatage": "2023-04-26 15:46:49", "marker-color": "#707070"}}, {"type": "Feature", "geometry": {"type": "Point", "coordinates": [2.431805, 48.875648]}, "properties": {"etat de la localisation": "Hors service", "numparc": 1522, "duree": "", "horodatage": "2023-04-26 16:07:57", "marker-color": "#707070"}}, {"type": "Feature", "geometry": {"type": "Point", "coordinates": [2.431871, 48.87574]}, "properties": {"etat de la localisation": "Hors service", "numparc": 1522, "duree": "", "horodatage": "2023-04-26 16:23:51", "marker-color": "#707070"}}, {"type": "Feature", "geometry": {"type": "Point", "coordinates": [2.409275, 48.864712]}, "properties": {"etat de la localisation": "Deviation programmee", "numparc": 1500, "duree": "", "horodatage": "2023-04-26 16:43:33", "marker-color": "#56FF93"}}, {"type": "Feature", "geometry": {"type": "Point", "coordinates": [2.348564, 48.857647]}, "properties": {"etat de la localisation": "Hors service", "numparc": 1522, "duree": "", "horodatage": "2023-04-26 17:42:41", "marker-color": "#707070"}}, {"type": "Feature", "geometry": {"type": "Point", "coordinates": [2.42778, 48.878757]}, "properties": {"etat de la localisation": "Mission inconnue", "numparc": 1545, "duree": "", "horodatage": "2023-04-26 17:47:20", "marker-color": "#FF9F56"}}, {"type": "Feature", "geometry": {"type": "Point", "coordinates": [2.431902, 48.875782]}, "properties": {"etat de la localisation": "Hors service", "numparc": 1522, "duree": "", "horodatage": "2023-04-26 19:09:12", "marker-color": "#707070"}}, {"type": "Feature", "geometry": {"type": "Point", "coordinates": [2.427634, 48.879314]}, "properties": {"etat de la localisation": "Hors service", "numparc": 1545, "duree": "", "horodatage": "2023-04-26 19:57:58", "marker-color": "#707070"}}, {"type": "Feature", "geometry": {"type": "Point", "coordinates": [2.42812, 48.878891]}, "properties": {"etat de la localisation": "Hors service", "numparc": 1500, "duree": "", "horodatage": "2023-04-26 21:16:50", "marker-color": "#707070"}}, {"type": "Feature", "geometry": {"type": "Point", "coordinates": [2.431925, 48.875751]}, "properties": {"etat de la localisation": "Hors service", "numparc": 1522, "duree": "", "horodatage": "2023-04-26 21:17:30", "marker-color": "#707070"}}, {"type": "Feature", "geometry": {"type": "Point", "coordinates": [2.431887, 48.875755]}, "properties": {"etat de la localisation": "Hors service", "numparc": 1522, "duree": "", "horodatage": "2023-04-26 23:28:25", "marker-color": "#707070"}}, {"type": "Feature", "geometry": {"type": "Point", "coordinates": [2.42727, 48.879234]}, "properties": {"etat de la localisation": "Hors service", "numparc": 1533, "duree": "", "horodatage": "2023-04-27 01:00:59", "marker-color": "#707070"}}, {"type": "Feature", "geometry": {"type": "Point", "coordinates": [2.427319, 48.879047]}, "properties": {"etat de la localisation": "Hors service", "numparc": 1522, "duree": "", "horodatage": "2023-04-27 01:19:13", "marker-color": "#707070"}}]}