{"type": "FeatureCollection", "features": [{"type": "Feature", "geometry": {"type": "Point", "coordinates": [2.428367, 48.879368]}, "properties": {"etat de la localisation": "Delocalise", "numparc": 4936, "duree": "00:08:54", "horodatage": "2021-12-04 05:07:34", "marker-color": "#FF565E"}}, {"type": "Feature", "geometry": {"type": "Point", "coordinates": [2.428094, 48.878487]}, "properties": {"etat de la localisation": "Delocalise", "numparc": 4940, "duree": "00:25:22", "horodatage": "2021-12-04 05:16:31", "marker-color": "#FF565E"}}, {"type": "Feature", "geometry": {"type": "Point", "coordinates": [2.426527, 48.895493]}, "properties": {"etat de la localisation": "Hors service", "numparc": 6145, "duree": "", "horodatage": "2021-12-04 17:01:16", "marker-color": "#707070"}}, {"type": "Feature", "geometry": {"type": "Point", "coordinates": [2.426887, 48.877979]}, "properties": {"etat de la localisation": "Mission inconnue", "numparc": 4936, "duree": "", "horodatage": "2021-12-04 19:31:56", "marker-color": "#FF9F56"}}, {"type": "Feature", "geometry": {"type": "Point", "coordinates": [2.427215, 48.878983]}, "properties": {"etat de la localisation": "Hors service", "numparc": 4940, "duree": "", "horodatage": "2021-12-04 19:53:54", "marker-color": "#707070"}}, {"type": "Feature", "geometry": {"type": "Point", "coordinates": [2.426447, 48.848736]}, "properties": {"etat de la localisation": "Delocalise", "numparc": 6145, "duree": "00:05:38", "horodatage": "2021-12-04 20:42:16", "marker-color": "#FF565E"}}, {"type": "Feature", "geometry": {"type": "Point", "coordinates": [2.427269, 48.878815]}, "properties": {"etat de la localisation": "Hors service", "numparc": 6145, "duree": "", "horodatage": "2021-12-04 22:45:14", "marker-color": "#707070"}}, {"type": "Feature", "geometry": {"type": "Point", "coordinates": [2.427446, 48.879116]}, "properties": {"etat de la localisation": "Hors service", "numparc": 4936, "duree": "", "horodatage": "2021-12-05 02:09:22", "marker-color": "#707070"}}]}