{"type": "FeatureCollection", "features": [{"type": "Feature", "geometry": {"type": "Point", "coordinates": [2.658958, 48.842663]}, "properties": {"numparc": 5883, "etat de la localisation": "autre", "ID BDGEO": "19964", "horodatage": "2022-08-05 04:14:18", "distance (en metres)": 116.32, "station": "DEPOT DE BUSSY SORTIE", "marker-color": "#818181"}}, {"type": "Feature", "geometry": {"type": "Point", "coordinates": [2.659082, 48.842216]}, "properties": {"numparc": 5879, "etat de la localisation": "autre", "ID BDGEO": "19964", "horodatage": "2022-08-05 04:51:39", "distance (en metres)": 74.86, "station": "DEPOT DE BUSSY SORTIE", "marker-color": "#818181"}}, {"type": "Feature", "geometry": {"type": "Point", "coordinates": [2.54307, 48.823666]}, "properties": {"numparc": 5883, "etat de la localisation": "Delocalise", "ID BDGEO": "19971", "horodatage": "2022-08-05 04:59:47", "distance (en metres)": 46.17, "station": "VILLIERS-SUR-MARNE RER", "marker-color": "#FF565E"}}, {"type": "Feature", "geometry": {"type": "Point", "coordinates": [2.54307, 48.823666]}, "properties": {"numparc": 5883, "etat de la localisation": "Delocalise", "ID BDGEO": "19971", "horodatage": "2022-08-05 05:10:17", "distance (en metres)": 46.17, "station": "VILLIERS-SUR-MARNE RER", "marker-color": "#FF565E"}}, {"type": "Feature", "geometry": {"type": "Point", "coordinates": [2.542183, 48.823483]}, "properties": {"numparc": 5883, "etat de la localisation": "autre", "ID BDGEO": "19971", "horodatage": "2022-08-05 06:08:15", "distance (en metres)": 114.12, "station": "VILLIERS-SUR-MARNE RER", "marker-color": "#818181"}}, {"type": "Feature", "geometry": {"type": "Point", "coordinates": [2.542963, 48.823612]}, "properties": {"numparc": 5883, "etat de la localisation": "autre", "ID BDGEO": "19971", "horodatage": "2022-08-05 06:08:54", "distance (en metres)": 55.24, "station": "VILLIERS-SUR-MARNE RER", "marker-color": "#818181"}}, {"type": "Feature", "geometry": {"type": "Point", "coordinates": [2.6589, 48.842323]}, "properties": {"numparc": 5896, "etat de la localisation": "autre", "ID BDGEO": "19964", "horodatage": "2022-08-05 06:11:10", "distance (en metres)": 92.61, "station": "DEPOT DE BUSSY SORTIE", "marker-color": "#818181"}}, {"type": "Feature", "geometry": {"type": "Point", "coordinates": [2.542963, 48.823612]}, "properties": {"numparc": 5883, "etat de la localisation": "autre", "ID BDGEO": "19971", "horodatage": "2022-08-05 06:15:49", "distance (en metres)": 55.24, "station": "VILLIERS-SUR-MARNE RER", "marker-color": "#818181"}}, {"type": "Feature", "geometry": {"type": "Point", "coordinates": [2.550811, 48.822811]}, "properties": {"numparc": 5883, "etat de la localisation": "autre", "ID BDGEO": "19972", "horodatage": "2022-08-05 06:18:34", "distance (en metres)": 58.54, "station": "GEORGES DEMESY", "marker-color": "#818181"}}, {"type": "Feature", "geometry": {"type": "Point", "coordinates": [2.581578, 48.809269]}, "properties": {"numparc": 5879, "etat de la localisation": "autre", "ID BDGEO": "19979", "horodatage": "2022-08-05 06:51:50", "distance (en metres)": 46.3, "station": "FRANCOIS MANSARD", "marker-color": "#818181"}}, {"type": "Feature", "geometry": {"type": "Point", "coordinates": [2.542778, 48.82357]}, "properties": {"numparc": 5883, "etat de la localisation": "autre", "ID BDGEO": "19971", "horodatage": "2022-08-05 07:18:49", "distance (en metres)": 69.56, "station": "VILLIERS-SUR-MARNE RER", "marker-color": "#818181"}}, {"type": "Feature", "geometry": {"type": "Point", "coordinates": [2.605044, 48.801998]}, "properties": {"numparc": 5896, "etat de la localisation": "autre", "ID BDGEO": "19984", "horodatage": "2022-08-05 07:20:01", "distance (en metres)": 47.86, "station": "STADE LUCIEN MORANE", "marker-color": "#818181"}}, {"type": "Feature", "geometry": {"type": "Point", "coordinates": [2.542778, 48.82357]}, "properties": {"numparc": 5883, "etat de la localisation": "autre", "ID BDGEO": "19971", "horodatage": "2022-08-05 07:21:39", "distance (en metres)": 69.56, "station": "VILLIERS-SUR-MARNE RER", "marker-color": "#818181"}}, {"type": "Feature", "geometry": {"type": "Point", "coordinates": [2.542978, 48.823601]}, "properties": {"numparc": 5883, "etat de la localisation": "autre", "ID BDGEO": "19971", "horodatage": "2022-08-05 07:22:13", "distance (en metres)": 54.57, "station": "VILLIERS-SUR-MARNE RER", "marker-color": "#818181"}}, {"type": "Feature", "geometry": {"type": "Point", "coordinates": [2.54305, 48.823666]}, "properties": {"numparc": 5883, "etat de la localisation": "autre", "ID BDGEO": "19971", "horodatage": "2022-08-05 07:33:07", "distance (en metres)": 47.61, "station": "VILLIERS-SUR-MARNE RER", "marker-color": "#818181"}}, {"type": "Feature", "geometry": {"type": "Point", "coordinates": [2.542426, 48.823681]}, "properties": {"numparc": 5879, "etat de la localisation": "autre", "ID BDGEO": "19971", "horodatage": "2022-08-05 07:39:24", "distance (en metres)": 92.63, "station": "VILLIERS-SUR-MARNE RER", "marker-color": "#818181"}}, {"type": "Feature", "geometry": {"type": "Point", "coordinates": [2.550783, 48.822769]}, "properties": {"numparc": 5883, "etat de la localisation": "autre", "ID BDGEO": "19972", "horodatage": "2022-08-05 07:39:30", "distance (en metres)": 56.88, "station": "GEORGES DEMESY", "marker-color": "#818181"}}, {"type": "Feature", "geometry": {"type": "Point", "coordinates": [2.542612, 48.823505]}, "properties": {"numparc": 5879, "etat de la localisation": "autre", "ID BDGEO": "19971", "horodatage": "2022-08-05 07:43:05", "distance (en metres)": 83.35, "station": "VILLIERS-SUR-MARNE RER", "marker-color": "#818181"}}, {"type": "Feature", "geometry": {"type": "Point", "coordinates": [2.581607, 48.809265]}, "properties": {"numparc": 5883, "etat de la localisation": "autre", "ID BDGEO": "19979", "horodatage": "2022-08-05 07:48:44", "distance (en metres)": 48.22, "station": "FRANCOIS MANSARD", "marker-color": "#818181"}}, {"type": "Feature", "geometry": {"type": "Point", "coordinates": [2.54294, 48.823685]}, "properties": {"numparc": 5896, "etat de la localisation": "autre", "ID BDGEO": "19971", "horodatage": "2022-08-05 08:00:01", "distance (en metres)": 55.19, "station": "VILLIERS-SUR-MARNE RER", "marker-color": "#818181"}}, {"type": "Feature", "geometry": {"type": "Point", "coordinates": [2.581599, 48.809261]}, "properties": {"numparc": 5879, "etat de la localisation": "autre", "ID BDGEO": "19979", "horodatage": "2022-08-05 08:08:28", "distance (en metres)": 48.02, "station": "FRANCOIS MANSARD", "marker-color": "#818181"}}, {"type": "Feature", "geometry": {"type": "Point", "coordinates": [2.581567, 48.809296]}, "properties": {"numparc": 5896, "etat de la localisation": "autre", "ID BDGEO": "19979", "horodatage": "2022-08-05 08:28:29", "distance (en metres)": 43.82, "station": "FRANCOIS MANSARD", "marker-color": "#818181"}}, {"type": "Feature", "geometry": {"type": "Point", "coordinates": [2.61654, 48.797974]}, "properties": {"numparc": 5896, "etat de la localisation": "autre", "ID BDGEO": "19989", "horodatage": "2022-08-05 08:40:35", "distance (en metres)": 44.05, "station": "RESIDENCE DES TILLEULS", "marker-color": "#818181"}}, {"type": "Feature", "geometry": {"type": "Point", "coordinates": [2.542971, 48.823555]}, "properties": {"numparc": 5883, "etat de la localisation": "autre", "ID BDGEO": "19971", "horodatage": "2022-08-05 08:44:18", "distance (en metres)": 56.84, "station": "VILLIERS-SUR-MARNE RER", "marker-color": "#818181"}}, {"type": "Feature", "geometry": {"type": "Point", "coordinates": [2.543056, 48.823601]}, "properties": {"numparc": 5879, "etat de la localisation": "autre", "ID BDGEO": "19971", "horodatage": "2022-08-05 09:00:31", "distance (en metres)": 49.18, "station": "VILLIERS-SUR-MARNE RER", "marker-color": "#818181"}}, {"type": "Feature", "geometry": {"type": "Point", "coordinates": [2.605085, 48.802006]}, "properties": {"numparc": 5883, "etat de la localisation": "autre", "ID BDGEO": "19984", "horodatage": "2022-08-05 09:13:46", "distance (en metres)": 50.9, "station": "STADE LUCIEN MORANE", "marker-color": "#818181"}}, {"type": "Feature", "geometry": {"type": "Point", "coordinates": [2.550865, 48.822742]}, "properties": {"numparc": 5879, "etat de la localisation": "autre", "ID BDGEO": "19972", "horodatage": "2022-08-05 09:17:04", "distance (en metres)": 63.26, "station": "GEORGES DEMESY", "marker-color": "#818181"}}, {"type": "Feature", "geometry": {"type": "Point", "coordinates": [2.61652, 48.798012]}, "properties": {"numparc": 5883, "etat de la localisation": "autre", "ID BDGEO": "19989", "horodatage": "2022-08-05 09:19:16", "distance (en metres)": 40.08, "station": "RESIDENCE DES TILLEULS", "marker-color": "#818181"}}, {"type": "Feature", "geometry": {"type": "Point", "coordinates": [2.581596, 48.80928]}, "properties": {"numparc": 5879, "etat de la localisation": "autre", "ID BDGEO": "19979", "horodatage": "2022-08-05 09:28:06", "distance (en metres)": 46.53, "station": "FRANCOIS MANSARD", "marker-color": "#818181"}}, {"type": "Feature", "geometry": {"type": "Point", "coordinates": [2.581584, 48.80928]}, "properties": {"numparc": 5896, "etat de la localisation": "autre", "ID BDGEO": "19979", "horodatage": "2022-08-05 09:48:51", "distance (en metres)": 45.84, "station": "FRANCOIS MANSARD", "marker-color": "#818181"}}, {"type": "Feature", "geometry": {"type": "Point", "coordinates": [2.616534, 48.797977]}, "properties": {"numparc": 5896, "etat de la localisation": "autre", "ID BDGEO": "19989", "horodatage": "2022-08-05 09:59:37", "distance (en metres)": 43.68, "station": "RESIDENCE DES TILLEULS", "marker-color": "#818181"}}, {"type": "Feature", "geometry": {"type": "Point", "coordinates": [2.542974, 48.823601]}, "properties": {"numparc": 5883, "etat de la localisation": "autre", "ID BDGEO": "19971", "horodatage": "2022-08-05 10:08:10", "distance (en metres)": 54.85, "station": "VILLIERS-SUR-MARNE RER", "marker-color": "#818181"}}, {"type": "Feature", "geometry": {"type": "Point", "coordinates": [2.542974, 48.823601]}, "properties": {"numparc": 5883, "etat de la localisation": "autre", "ID BDGEO": "19971", "horodatage": "2022-08-05 10:15:32", "distance (en metres)": 54.85, "station": "VILLIERS-SUR-MARNE RER", "marker-color": "#818181"}}, {"type": "Feature", "geometry": {"type": "Point", "coordinates": [2.550773, 48.822754]}, "properties": {"numparc": 5883, "etat de la localisation": "autre", "ID BDGEO": "19972", "horodatage": "2022-08-05 10:19:19", "distance (en metres)": 56.4, "station": "GEORGES DEMESY", "marker-color": "#818181"}}, {"type": "Feature", "geometry": {"type": "Point", "coordinates": [2.542961, 48.823578]}, "properties": {"numparc": 5879, "etat de la localisation": "autre", "ID BDGEO": "19971", "horodatage": "2022-08-05 10:21:40", "distance (en metres)": 56.59, "station": "VILLIERS-SUR-MARNE RER", "marker-color": "#818181"}}, {"type": "Feature", "geometry": {"type": "Point", "coordinates": [2.543082, 48.823666]}, "properties": {"numparc": 5879, "etat de la localisation": "autre", "ID BDGEO": "19971", "horodatage": "2022-08-05 10:29:51", "distance (en metres)": 45.32, "station": "VILLIERS-SUR-MARNE RER", "marker-color": "#818181"}}, {"type": "Feature", "geometry": {"type": "Point", "coordinates": [2.543213, 48.823635]}, "properties": {"numparc": 5896, "etat de la localisation": "autre", "ID BDGEO": "19962", "horodatage": "2022-08-05 10:42:28", "distance (en metres)": 6092.37, "station": "PLACE BEILSTEIN#", "marker-color": "#818181"}}, {"type": "Feature", "geometry": {"type": "Point", "coordinates": [2.543213, 48.823635]}, "properties": {"numparc": 5896, "etat de la localisation": "autre", "ID BDGEO": "19962", "horodatage": "2022-08-05 10:45:03", "distance (en metres)": 6092.37, "station": "PLACE BEILSTEIN#", "marker-color": "#818181"}}, {"type": "Feature", "geometry": {"type": "Point", "coordinates": [2.543068, 48.82365]}, "properties": {"numparc": 5896, "etat de la localisation": "autre", "ID BDGEO": "19962", "horodatage": "2022-08-05 10:53:23", "distance (en metres)": 6102.91, "station": "PLACE BEILSTEIN#", "marker-color": "#818181"}}, {"type": "Feature", "geometry": {"type": "Point", "coordinates": [2.543068, 48.82365]}, "properties": {"numparc": 5896, "etat de la localisation": "autre", "ID BDGEO": "19962", "horodatage": "2022-08-05 10:54:56", "distance (en metres)": 6102.91, "station": "PLACE BEILSTEIN#", "marker-color": "#818181"}}, {"type": "Feature", "geometry": {"type": "Point", "coordinates": [2.544446, 48.824013]}, "properties": {"numparc": 5896, "etat de la localisation": "autre", "ID BDGEO": "19962", "horodatage": "2022-08-05 10:58:19", "distance (en metres)": 6022.79, "station": "PLACE BEILSTEIN#", "marker-color": "#818181"}}, {"type": "Feature", "geometry": {"type": "Point", "coordinates": [2.660381, 48.842159]}, "properties": {"numparc": 5896, "etat de la localisation": "autre", "ID BDGEO": "19964", "horodatage": "2022-08-05 11:17:40", "distance (en metres)": 49.86, "station": "DEPOT DE BUSSY SORTIE", "marker-color": "#818181"}}, {"type": "Feature", "geometry": {"type": "Point", "coordinates": [2.544323, 48.824039]}, "properties": {"numparc": 5883, "etat de la localisation": "autre", "ID BDGEO": "19969", "horodatage": "2022-08-05 11:18:09", "distance (en metres)": 77.87, "station": "GARE DE VILLIERS RER#", "marker-color": "#818181"}}, {"type": "Feature", "geometry": {"type": "Point", "coordinates": [2.542557, 48.823563]}, "properties": {"numparc": 5879, "etat de la localisation": "autre", "ID BDGEO": "19971", "horodatage": "2022-08-05 11:40:55", "distance (en metres)": 85.37, "station": "VILLIERS-SUR-MARNE RER", "marker-color": "#818181"}}, {"type": "Feature", "geometry": {"type": "Point", "coordinates": [2.542557, 48.823563]}, "properties": {"numparc": 5879, "etat de la localisation": "autre", "ID BDGEO": "19971", "horodatage": "2022-08-05 11:43:06", "distance (en metres)": 85.37, "station": "VILLIERS-SUR-MARNE RER", "marker-color": "#818181"}}, {"type": "Feature", "geometry": {"type": "Point", "coordinates": [2.543064, 48.823666]}, "properties": {"numparc": 5879, "etat de la localisation": "autre", "ID BDGEO": "19971", "horodatage": "2022-08-05 11:43:49", "distance (en metres)": 46.6, "station": "VILLIERS-SUR-MARNE RER", "marker-color": "#818181"}}, {"type": "Feature", "geometry": {"type": "Point", "coordinates": [2.660364, 48.842148]}, "properties": {"numparc": 5883, "etat de la localisation": "autre", "ID BDGEO": "19964", "horodatage": "2022-08-05 11:44:44", "distance (en metres)": 48.07, "station": "DEPOT DE BUSSY SORTIE", "marker-color": "#818181"}}, {"type": "Feature", "geometry": {"type": "Point", "coordinates": [2.54306, 48.823666]}, "properties": {"numparc": 5879, "etat de la localisation": "autre", "ID BDGEO": "19971", "horodatage": "2022-08-05 12:10:11", "distance (en metres)": 46.89, "station": "VILLIERS-SUR-MARNE RER", "marker-color": "#818181"}}, {"type": "Feature", "geometry": {"type": "Point", "coordinates": [2.54306, 48.823666]}, "properties": {"numparc": 5879, "etat de la localisation": "autre", "ID BDGEO": "19971", "horodatage": "2022-08-05 12:11:21", "distance (en metres)": 46.89, "station": "VILLIERS-SUR-MARNE RER", "marker-color": "#818181"}}, {"type": "Feature", "geometry": {"type": "Point", "coordinates": [2.54306, 48.823666]}, "properties": {"numparc": 5879, "etat de la localisation": "autre", "ID BDGEO": "19971", "horodatage": "2022-08-05 12:13:39", "distance (en metres)": 46.89, "station": "VILLIERS-SUR-MARNE RER", "marker-color": "#818181"}}, {"type": "Feature", "geometry": {"type": "Point", "coordinates": [2.543062, 48.823666]}, "properties": {"numparc": 5879, "etat de la localisation": "autre", "ID BDGEO": "19971", "horodatage": "2022-08-05 12:19:10", "distance (en metres)": 46.76, "station": "VILLIERS-SUR-MARNE RER", "marker-color": "#818181"}}, {"type": "Feature", "geometry": {"type": "Point", "coordinates": [2.543062, 48.823666]}, "properties": {"numparc": 5879, "etat de la localisation": "autre", "ID BDGEO": "19971", "horodatage": "2022-08-05 12:19:22", "distance (en metres)": 46.76, "station": "VILLIERS-SUR-MARNE RER", "marker-color": "#818181"}}, {"type": "Feature", "geometry": {"type": "Point", "coordinates": [2.543065, 48.823666]}, "properties": {"numparc": 5879, "etat de la localisation": "autre", "ID BDGEO": "19971", "horodatage": "2022-08-05 12:19:51", "distance (en metres)": 46.53, "station": "VILLIERS-SUR-MARNE RER", "marker-color": "#818181"}}, {"type": "Feature", "geometry": {"type": "Point", "coordinates": [2.543065, 48.823666]}, "properties": {"numparc": 5879, "etat de la localisation": "autre", "ID BDGEO": "19971", "horodatage": "2022-08-05 12:20:00", "distance (en metres)": 46.53, "station": "VILLIERS-SUR-MARNE RER", "marker-color": "#818181"}}, {"type": "Feature", "geometry": {"type": "Point", "coordinates": [2.543065, 48.823666]}, "properties": {"numparc": 5879, "etat de la localisation": "autre", "ID BDGEO": "19971", "horodatage": "2022-08-05 12:20:33", "distance (en metres)": 46.53, "station": "VILLIERS-SUR-MARNE RER", "marker-color": "#818181"}}, {"type": "Feature", "geometry": {"type": "Point", "coordinates": [2.55084, 48.822746]}, "properties": {"numparc": 5879, "etat de la localisation": "autre", "ID BDGEO": "19972", "horodatage": "2022-08-05 12:23:52", "distance (en metres)": 61.38, "station": "GEORGES DEMESY", "marker-color": "#818181"}}, {"type": "Feature", "geometry": {"type": "Point", "coordinates": [2.581597, 48.809258]}, "properties": {"numparc": 5879, "etat de la localisation": "autre", "ID BDGEO": "19979", "horodatage": "2022-08-05 12:33:29", "distance (en metres)": 48.19, "station": "FRANCOIS MANSARD", "marker-color": "#818181"}}, {"type": "Feature", "geometry": {"type": "Point", "coordinates": [2.605018, 48.801918]}, "properties": {"numparc": 5879, "etat de la localisation": "autre", "ID BDGEO": "19984", "horodatage": "2022-08-05 12:38:50", "distance (en metres)": 46.44, "station": "STADE LUCIEN MORANE", "marker-color": "#818181"}}, {"type": "Feature", "geometry": {"type": "Point", "coordinates": [2.616542, 48.797989]}, "properties": {"numparc": 5879, "etat de la localisation": "autre", "ID BDGEO": "19989", "horodatage": "2022-08-05 12:45:01", "distance (en metres)": 42.34, "station": "RESIDENCE DES TILLEULS", "marker-color": "#818181"}}, {"type": "Feature", "geometry": {"type": "Point", "coordinates": [2.65941, 48.8423]}, "properties": {"numparc": 5880, "etat de la localisation": "autre", "ID BDGEO": "19964", "horodatage": "2022-08-05 13:06:37", "distance (en metres)": 64.25, "station": "DEPOT DE BUSSY SORTIE", "marker-color": "#818181"}}, {"type": "Feature", "geometry": {"type": "Point", "coordinates": [2.543131, 48.823673]}, "properties": {"numparc": 5879, "etat de la localisation": "autre", "ID BDGEO": "19971", "horodatage": "2022-08-05 13:24:08", "distance (en metres)": 41.63, "station": "VILLIERS-SUR-MARNE RER", "marker-color": "#818181"}}, {"type": "Feature", "geometry": {"type": "Point", "coordinates": [2.550799, 48.822815]}, "properties": {"numparc": 5879, "etat de la localisation": "autre", "ID BDGEO": "19972", "horodatage": "2022-08-05 13:39:06", "distance (en metres)": 57.63, "station": "GEORGES DEMESY", "marker-color": "#818181"}}, {"type": "Feature", "geometry": {"type": "Point", "coordinates": [2.605054, 48.801945]}, "properties": {"numparc": 5879, "etat de la localisation": "autre", "ID BDGEO": "19984", "horodatage": "2022-08-05 13:54:52", "distance (en metres)": 48.72, "station": "STADE LUCIEN MORANE", "marker-color": "#818181"}}, {"type": "Feature", "geometry": {"type": "Point", "coordinates": [2.543029, 48.823639]}, "properties": {"numparc": 5880, "etat de la localisation": "autre", "ID BDGEO": "19971", "horodatage": "2022-08-05 14:00:39", "distance (en metres)": 49.79, "station": "VILLIERS-SUR-MARNE RER", "marker-color": "#818181"}}, {"type": "Feature", "geometry": {"type": "Point", "coordinates": [2.543029, 48.823639]}, "properties": {"numparc": 5880, "etat de la localisation": "autre", "ID BDGEO": "19971", "horodatage": "2022-08-05 14:11:33", "distance (en metres)": 49.79, "station": "VILLIERS-SUR-MARNE RER", "marker-color": "#818181"}}, {"type": "Feature", "geometry": {"type": "Point", "coordinates": [2.543029, 48.823639]}, "properties": {"numparc": 5880, "etat de la localisation": "autre", "ID BDGEO": "19971", "horodatage": "2022-08-05 14:15:05", "distance (en metres)": 49.79, "station": "VILLIERS-SUR-MARNE RER", "marker-color": "#818181"}}, {"type": "Feature", "geometry": {"type": "Point", "coordinates": [2.5509, 48.82275]}, "properties": {"numparc": 5880, "etat de la localisation": "autre", "ID BDGEO": "19972", "horodatage": "2022-08-05 14:19:07", "distance (en metres)": 65.67, "station": "GEORGES DEMESY", "marker-color": "#818181"}}, {"type": "Feature", "geometry": {"type": "Point", "coordinates": [2.581612, 48.809292]}, "properties": {"numparc": 5880, "etat de la localisation": "autre", "ID BDGEO": "19979", "horodatage": "2022-08-05 14:29:17", "distance (en metres)": 46.73, "station": "FRANCOIS MANSARD", "marker-color": "#818181"}}, {"type": "Feature", "geometry": {"type": "Point", "coordinates": [2.542486, 48.823505]}, "properties": {"numparc": 5879, "etat de la localisation": "autre", "ID BDGEO": "19971", "horodatage": "2022-08-05 14:40:34", "distance (en metres)": 92.12, "station": "VILLIERS-SUR-MARNE RER", "marker-color": "#818181"}}, {"type": "Feature", "geometry": {"type": "Point", "coordinates": [2.542486, 48.823505]}, "properties": {"numparc": 5879, "etat de la localisation": "autre", "ID BDGEO": "19971", "horodatage": "2022-08-05 14:47:43", "distance (en metres)": 92.12, "station": "VILLIERS-SUR-MARNE RER", "marker-color": "#818181"}}, {"type": "Feature", "geometry": {"type": "Point", "coordinates": [2.543011, 48.823601]}, "properties": {"numparc": 5879, "etat de la localisation": "autre", "ID BDGEO": "19971", "horodatage": "2022-08-05 14:48:28", "distance (en metres)": 52.29, "station": "VILLIERS-SUR-MARNE RER", "marker-color": "#818181"}}, {"type": "Feature", "geometry": {"type": "Point", "coordinates": [2.658281, 48.842731]}, "properties": {"numparc": 5895, "etat de la localisation": "autre", "ID BDGEO": "19964", "horodatage": "2022-08-05 14:52:10", "distance (en metres)": 156.29, "station": "DEPOT DE BUSSY SORTIE", "marker-color": "#818181"}}, {"type": "Feature", "geometry": {"type": "Point", "coordinates": [2.658999, 48.842445]}, "properties": {"numparc": 5895, "etat de la localisation": "autre", "ID BDGEO": "19964", "horodatage": "2022-08-05 14:53:18", "distance (en metres)": 96.03, "station": "DEPOT DE BUSSY SORTIE", "marker-color": "#818181"}}, {"type": "Feature", "geometry": {"type": "Point", "coordinates": [2.543011, 48.823601]}, "properties": {"numparc": 5879, "etat de la localisation": "autre", "ID BDGEO": "19971", "horodatage": "2022-08-05 14:53:42", "distance (en metres)": 52.29, "station": "VILLIERS-SUR-MARNE RER", "marker-color": "#818181"}}, {"type": "Feature", "geometry": {"type": "Point", "coordinates": [2.550845, 48.822788]}, "properties": {"numparc": 5879, "etat de la localisation": "autre", "ID BDGEO": "19972", "horodatage": "2022-08-05 14:57:55", "distance (en metres)": 61.17, "station": "GEORGES DEMESY", "marker-color": "#818181"}}, {"type": "Feature", "geometry": {"type": "Point", "coordinates": [2.65902, 48.842457]}, "properties": {"numparc": 5895, "etat de la localisation": "autre", "ID BDGEO": "19964", "horodatage": "2022-08-05 14:58:20", "distance (en metres)": 95.89, "station": "DEPOT DE BUSSY SORTIE", "marker-color": "#818181"}}, {"type": "Feature", "geometry": {"type": "Point", "coordinates": [2.581585, 48.809277]}, "properties": {"numparc": 5879, "etat de la localisation": "autre", "ID BDGEO": "19979", "horodatage": "2022-08-05 15:08:23", "distance (en metres)": 46.16, "station": "FRANCOIS MANSARD", "marker-color": "#818181"}}, {"type": "Feature", "geometry": {"type": "Point", "coordinates": [2.60507, 48.801971]}, "properties": {"numparc": 5879, "etat de la localisation": "autre", "ID BDGEO": "19984", "horodatage": "2022-08-05 15:13:38", "distance (en metres)": 49.75, "station": "STADE LUCIEN MORANE", "marker-color": "#818181"}}, {"type": "Feature", "geometry": {"type": "Point", "coordinates": [2.611794, 48.795662]}, "properties": {"numparc": 5895, "etat de la localisation": "autre", "ID BDGEO": "19998", "horodatage": "2022-08-05 15:16:47", "distance (en metres)": 48.04, "station": "SALLE DES FETES JACQUES BREL", "marker-color": "#818181"}}, {"type": "Feature", "geometry": {"type": "Point", "coordinates": [2.542977, 48.823677]}, "properties": {"numparc": 5880, "etat de la localisation": "autre", "ID BDGEO": "19971", "horodatage": "2022-08-05 15:20:39", "distance (en metres)": 52.63, "station": "VILLIERS-SUR-MARNE RER", "marker-color": "#818181"}}, {"type": "Feature", "geometry": {"type": "Point", "coordinates": [2.621582, 48.804085]}, "properties": {"numparc": 5879, "etat de la localisation": "autre", "ID BDGEO": "19962", "horodatage": "2022-08-05 15:21:26", "distance (en metres)": 57.1, "station": "PLACE BEILSTEIN#", "marker-color": "#818181"}}, {"type": "Feature", "geometry": {"type": "Point", "coordinates": [2.543089, 48.823647]}, "properties": {"numparc": 5880, "etat de la localisation": "autre", "ID BDGEO": "19971", "horodatage": "2022-08-05 15:30:56", "distance (en metres)": 45.33, "station": "VILLIERS-SUR-MARNE RER", "marker-color": "#818181"}}, {"type": "Feature", "geometry": {"type": "Point", "coordinates": [2.543072, 48.823662]}, "properties": {"numparc": 5895, "etat de la localisation": "autre", "ID BDGEO": "19971", "horodatage": "2022-08-05 15:41:21", "distance (en metres)": 46.13, "station": "VILLIERS-SUR-MARNE RER", "marker-color": "#818181"}}, {"type": "Feature", "geometry": {"type": "Point", "coordinates": [2.581572, 48.809288]}, "properties": {"numparc": 5880, "etat de la localisation": "autre", "ID BDGEO": "19979", "horodatage": "2022-08-05 15:43:34", "distance (en metres)": 44.63, "station": "FRANCOIS MANSARD", "marker-color": "#818181"}}, {"type": "Feature", "geometry": {"type": "Point", "coordinates": [2.605082, 48.801952]}, "properties": {"numparc": 5880, "etat de la localisation": "autre", "ID BDGEO": "19984", "horodatage": "2022-08-05 15:50:06", "distance (en metres)": 50.72, "station": "STADE LUCIEN MORANE", "marker-color": "#818181"}}, {"type": "Feature", "geometry": {"type": "Point", "coordinates": [2.543072, 48.823662]}, "properties": {"numparc": 5895, "etat de la localisation": "autre", "ID BDGEO": "19971", "horodatage": "2022-08-05 15:59:26", "distance (en metres)": 46.13, "station": "VILLIERS-SUR-MARNE RER", "marker-color": "#818181"}}, {"type": "Feature", "geometry": {"type": "Point", "coordinates": [2.550753, 48.82275]}, "properties": {"numparc": 5895, "etat de la localisation": "autre", "ID BDGEO": "19972", "horodatage": "2022-08-05 16:09:51", "distance (en metres)": 55.04, "station": "GEORGES DEMESY", "marker-color": "#818181"}}, {"type": "Feature", "geometry": {"type": "Point", "coordinates": [2.581648, 48.809265]}, "properties": {"numparc": 5895, "etat de la localisation": "autre", "ID BDGEO": "19979", "horodatage": "2022-08-05 16:20:56", "distance (en metres)": 50.61, "station": "FRANCOIS MANSARD", "marker-color": "#818181"}}, {"type": "Feature", "geometry": {"type": "Point", "coordinates": [2.605105, 48.801945]}, "properties": {"numparc": 5895, "etat de la localisation": "autre", "ID BDGEO": "19984", "horodatage": "2022-08-05 16:27:19", "distance (en metres)": 52.44, "station": "STADE LUCIEN MORANE", "marker-color": "#818181"}}, {"type": "Feature", "geometry": {"type": "Point", "coordinates": [2.543051, 48.823799]}, "properties": {"numparc": 5880, "etat de la localisation": "autre", "ID BDGEO": "19971", "horodatage": "2022-08-05 16:34:07", "distance (en metres)": 46.81, "station": "VILLIERS-SUR-MARNE RER", "marker-color": "#818181"}}, {"type": "Feature", "geometry": {"type": "Point", "coordinates": [2.543127, 48.823658]}, "properties": {"numparc": 5880, "etat de la localisation": "autre", "ID BDGEO": "19971", "horodatage": "2022-08-05 16:43:29", "distance (en metres)": 42.31, "station": "VILLIERS-SUR-MARNE RER", "marker-color": "#818181"}}, {"type": "Feature", "geometry": {"type": "Point", "coordinates": [2.550842, 48.822739]}, "properties": {"numparc": 5880, "etat de la localisation": "autre", "ID BDGEO": "19972", "horodatage": "2022-08-05 16:47:21", "distance (en metres)": 61.67, "station": "GEORGES DEMESY", "marker-color": "#818181"}}, {"type": "Feature", "geometry": {"type": "Point", "coordinates": [2.581542, 48.809292]}, "properties": {"numparc": 5880, "etat de la localisation": "autre", "ID BDGEO": "19979", "horodatage": "2022-08-05 16:58:12", "distance (en metres)": 42.65, "station": "FRANCOIS MANSARD", "marker-color": "#818181"}}, {"type": "Feature", "geometry": {"type": "Point", "coordinates": [2.604987, 48.801914]}, "properties": {"numparc": 5880, "etat de la localisation": "autre", "ID BDGEO": "19984", "horodatage": "2022-08-05 17:05:25", "distance (en metres)": 44.27, "station": "STADE LUCIEN MORANE", "marker-color": "#818181"}}, {"type": "Feature", "geometry": {"type": "Point", "coordinates": [2.542971, 48.823666]}, "properties": {"numparc": 5895, "etat de la localisation": "autre", "ID BDGEO": "19971", "horodatage": "2022-08-05 17:12:46", "distance (en metres)": 53.29, "station": "VILLIERS-SUR-MARNE RER", "marker-color": "#818181"}}, {"type": "Feature", "geometry": {"type": "Point", "coordinates": [2.542971, 48.823666]}, "properties": {"numparc": 5895, "etat de la localisation": "autre", "ID BDGEO": "19971", "horodatage": "2022-08-05 17:15:59", "distance (en metres)": 53.29, "station": "VILLIERS-SUR-MARNE RER", "marker-color": "#818181"}}, {"type": "Feature", "geometry": {"type": "Point", "coordinates": [2.550681, 48.822727]}, "properties": {"numparc": 5895, "etat de la localisation": "autre", "ID BDGEO": "19972", "horodatage": "2022-08-05 17:21:24", "distance (en metres)": 50.4, "station": "GEORGES DEMESY", "marker-color": "#818181"}}, {"type": "Feature", "geometry": {"type": "Point", "coordinates": [2.58161, 48.809242]}, "properties": {"numparc": 5895, "etat de la localisation": "autre", "ID BDGEO": "19979", "horodatage": "2022-08-05 17:33:48", "distance (en metres)": 50.01, "station": "FRANCOIS MANSARD", "marker-color": "#818181"}}, {"type": "Feature", "geometry": {"type": "Point", "coordinates": [2.616659, 48.797874]}, "properties": {"numparc": 5895, "etat de la localisation": "autre", "ID BDGEO": "19989", "horodatage": "2022-08-05 17:45:23", "distance (en metres)": 54.8, "station": "RESIDENCE DES TILLEULS", "marker-color": "#818181"}}, {"type": "Feature", "geometry": {"type": "Point", "coordinates": [2.543103, 48.823761]}, "properties": {"numparc": 5880, "etat de la localisation": "autre", "ID BDGEO": "19971", "horodatage": "2022-08-05 17:46:36", "distance (en metres)": 42.74, "station": "VILLIERS-SUR-MARNE RER", "marker-color": "#818181"}}, {"type": "Feature", "geometry": {"type": "Point", "coordinates": [2.66038, 48.842159]}, "properties": {"numparc": 5896, "etat de la localisation": "autre", "ID BDGEO": "19964", "horodatage": "2022-08-05 17:51:53", "distance (en metres)": 49.8, "station": "DEPOT DE BUSSY SORTIE", "marker-color": "#818181"}}, {"type": "Feature", "geometry": {"type": "Point", "coordinates": [2.543103, 48.823761]}, "properties": {"numparc": 5880, "etat de la localisation": "autre", "ID BDGEO": "19971", "horodatage": "2022-08-05 17:55:03", "distance (en metres)": 42.74, "station": "VILLIERS-SUR-MARNE RER", "marker-color": "#818181"}}, {"type": "Feature", "geometry": {"type": "Point", "coordinates": [2.659141, 48.842251]}, "properties": {"numparc": 5896, "etat de la localisation": "Delocalise", "ID BDGEO": "19964", "horodatage": "2022-08-05 17:55:24", "distance (en metres)": 73.73, "station": "DEPOT DE BUSSY SORTIE", "marker-color": "#FF565E"}}, {"type": "Feature", "geometry": {"type": "Point", "coordinates": [2.550899, 48.822788]}, "properties": {"numparc": 5880, "etat de la localisation": "autre", "ID BDGEO": "19972", "horodatage": "2022-08-05 17:59:26", "distance (en metres)": 65.12, "station": "GEORGES DEMESY", "marker-color": "#818181"}}, {"type": "Feature", "geometry": {"type": "Point", "coordinates": [2.581616, 48.809273]}, "properties": {"numparc": 5880, "etat de la localisation": "autre", "ID BDGEO": "19979", "horodatage": "2022-08-05 18:10:40", "distance (en metres)": 48.21, "station": "FRANCOIS MANSARD", "marker-color": "#818181"}}, {"type": "Feature", "geometry": {"type": "Point", "coordinates": [2.61655, 48.797943]}, "properties": {"numparc": 5880, "etat de la localisation": "autre", "ID BDGEO": "19989", "horodatage": "2022-08-05 18:23:09", "distance (en metres)": 47.33, "station": "RESIDENCE DES TILLEULS", "marker-color": "#818181"}}, {"type": "Feature", "geometry": {"type": "Point", "coordinates": [2.550853, 48.822727]}, "properties": {"numparc": 5895, "etat de la localisation": "autre", "ID BDGEO": "19972", "horodatage": "2022-08-05 18:26:38", "distance (en metres)": 62.7, "station": "GEORGES DEMESY", "marker-color": "#818181"}}, {"type": "Feature", "geometry": {"type": "Point", "coordinates": [2.581616, 48.809277]}, "properties": {"numparc": 5895, "etat de la localisation": "autre", "ID BDGEO": "19979", "horodatage": "2022-08-05 18:38:21", "distance (en metres)": 47.95, "station": "FRANCOIS MANSARD", "marker-color": "#818181"}}, {"type": "Feature", "geometry": {"type": "Point", "coordinates": [2.605093, 48.801987]}, "properties": {"numparc": 5895, "etat de la localisation": "autre", "ID BDGEO": "19984", "horodatage": "2022-08-05 18:44:36", "distance (en metres)": 51.42, "station": "STADE LUCIEN MORANE", "marker-color": "#818181"}}, {"type": "Feature", "geometry": {"type": "Point", "coordinates": [2.550831, 48.822754]}, "properties": {"numparc": 5896, "etat de la localisation": "autre", "ID BDGEO": "19972", "horodatage": "2022-08-05 18:48:14", "distance (en metres)": 60.61, "station": "GEORGES DEMESY", "marker-color": "#818181"}}, {"type": "Feature", "geometry": {"type": "Point", "coordinates": [2.543025, 48.823666]}, "properties": {"numparc": 5880, "etat de la localisation": "autre", "ID BDGEO": "19971", "horodatage": "2022-08-05 18:54:44", "distance (en metres)": 49.4, "station": "VILLIERS-SUR-MARNE RER", "marker-color": "#818181"}}, {"type": "Feature", "geometry": {"type": "Point", "coordinates": [2.581623, 48.809284]}, "properties": {"numparc": 5896, "etat de la localisation": "autre", "ID BDGEO": "19979", "horodatage": "2022-08-05 18:58:17", "distance (en metres)": 47.88, "station": "FRANCOIS MANSARD", "marker-color": "#818181"}}, {"type": "Feature", "geometry": {"type": "Point", "coordinates": [2.605059, 48.801975]}, "properties": {"numparc": 5896, "etat de la localisation": "autre", "ID BDGEO": "19984", "horodatage": "2022-08-05 19:04:35", "distance (en metres)": 48.92, "station": "STADE LUCIEN MORANE", "marker-color": "#818181"}}, {"type": "Feature", "geometry": {"type": "Point", "coordinates": [2.550728, 48.822727]}, "properties": {"numparc": 5880, "etat de la localisation": "autre", "ID BDGEO": "19972", "horodatage": "2022-08-05 19:09:37", "distance (en metres)": 53.74, "station": "GEORGES DEMESY", "marker-color": "#818181"}}, {"type": "Feature", "geometry": {"type": "Point", "coordinates": [2.581622, 48.809265]}, "properties": {"numparc": 5880, "etat de la localisation": "autre", "ID BDGEO": "19979", "horodatage": "2022-08-05 19:19:23", "distance (en metres)": 49.08, "station": "FRANCOIS MANSARD", "marker-color": "#818181"}}, {"type": "Feature", "geometry": {"type": "Point", "coordinates": [2.60499, 48.801956]}, "properties": {"numparc": 5880, "etat de la localisation": "autre", "ID BDGEO": "19984", "horodatage": "2022-08-05 19:25:38", "distance (en metres)": 43.96, "station": "STADE LUCIEN MORANE", "marker-color": "#818181"}}, {"type": "Feature", "geometry": {"type": "Point", "coordinates": [2.543086, 48.823658]}, "properties": {"numparc": 5895, "etat de la localisation": "autre", "ID BDGEO": "19971", "horodatage": "2022-08-05 19:27:01", "distance (en metres)": 45.22, "station": "VILLIERS-SUR-MARNE RER", "marker-color": "#818181"}}, {"type": "Feature", "geometry": {"type": "Point", "coordinates": [2.543086, 48.823658]}, "properties": {"numparc": 5895, "etat de la localisation": "autre", "ID BDGEO": "19971", "horodatage": "2022-08-05 19:35:13", "distance (en metres)": 45.22, "station": "VILLIERS-SUR-MARNE RER", "marker-color": "#818181"}}, {"type": "Feature", "geometry": {"type": "Point", "coordinates": [2.550838, 48.822739]}, "properties": {"numparc": 5895, "etat de la localisation": "autre", "ID BDGEO": "19972", "horodatage": "2022-08-05 19:40:45", "distance (en metres)": 61.38, "station": "GEORGES DEMESY", "marker-color": "#818181"}}, {"type": "Feature", "geometry": {"type": "Point", "coordinates": [2.605095, 48.801968]}, "properties": {"numparc": 5895, "etat de la localisation": "autre", "ID BDGEO": "19984", "horodatage": "2022-08-05 19:57:24", "distance (en metres)": 51.58, "station": "STADE LUCIEN MORANE", "marker-color": "#818181"}}, {"type": "Feature", "geometry": {"type": "Point", "coordinates": [2.581592, 48.80928]}, "properties": {"numparc": 5895, "etat de la localisation": "autre", "ID BDGEO": "19979", "horodatage": "2022-08-05 20:53:03", "distance (en metres)": 46.31, "station": "FRANCOIS MANSARD", "marker-color": "#818181"}}, {"type": "Feature", "geometry": {"type": "Point", "coordinates": [2.542921, 48.823708]}, "properties": {"numparc": 5895, "etat de la localisation": "autre", "ID BDGEO": "19971", "horodatage": "2022-08-05 21:37:54", "distance (en metres)": 56.28, "station": "VILLIERS-SUR-MARNE RER", "marker-color": "#818181"}}, {"type": "Feature", "geometry": {"type": "Point", "coordinates": [2.542921, 48.823708]}, "properties": {"numparc": 5895, "etat de la localisation": "autre", "ID BDGEO": "19971", "horodatage": "2022-08-05 21:39:15", "distance (en metres)": 56.28, "station": "VILLIERS-SUR-MARNE RER", "marker-color": "#818181"}}, {"type": "Feature", "geometry": {"type": "Point", "coordinates": [2.581612, 48.809261]}, "properties": {"numparc": 5895, "etat de la localisation": "autre", "ID BDGEO": "19979", "horodatage": "2022-08-05 21:56:10", "distance (en metres)": 48.77, "station": "FRANCOIS MANSARD", "marker-color": "#818181"}}, {"type": "Feature", "geometry": {"type": "Point", "coordinates": [2.581614, 48.809265]}, "properties": {"numparc": 5896, "etat de la localisation": "autre", "ID BDGEO": "19979", "horodatage": "2022-08-05 22:25:02", "distance (en metres)": 48.62, "station": "FRANCOIS MANSARD", "marker-color": "#818181"}}, {"type": "Feature", "geometry": {"type": "Point", "coordinates": [2.605016, 48.801922]}, "properties": {"numparc": 5896, "etat de la localisation": "autre", "ID BDGEO": "19984", "horodatage": "2022-08-05 22:30:13", "distance (en metres)": 46.24, "station": "STADE LUCIEN MORANE", "marker-color": "#818181"}}, {"type": "Feature", "geometry": {"type": "Point", "coordinates": [2.550808, 48.822792]}, "properties": {"numparc": 5896, "etat de la localisation": "autre", "ID BDGEO": "19972", "horodatage": "2022-08-05 23:18:49", "distance (en metres)": 58.44, "station": "GEORGES DEMESY", "marker-color": "#818181"}}, {"type": "Feature", "geometry": {"type": "Point", "coordinates": [2.5816, 48.809265]}, "properties": {"numparc": 5896, "etat de la localisation": "autre", "ID BDGEO": "19979", "horodatage": "2022-08-05 23:28:02", "distance (en metres)": 47.82, "station": "FRANCOIS MANSARD", "marker-color": "#818181"}}, {"type": "Feature", "geometry": {"type": "Point", "coordinates": [2.605052, 48.802013]}, "properties": {"numparc": 5896, "etat de la localisation": "autre", "ID BDGEO": "19984", "horodatage": "2022-08-05 23:33:46", "distance (en metres)": 48.55, "station": "STADE LUCIEN MORANE", "marker-color": "#818181"}}, {"type": "Feature", "geometry": {"type": "Point", "coordinates": [2.581601, 48.809277]}, "properties": {"numparc": 5896, "etat de la localisation": "autre", "ID BDGEO": "19979", "horodatage": "2022-08-06 00:27:55", "distance (en metres)": 47.08, "station": "FRANCOIS MANSARD", "marker-color": "#818181"}}, {"type": "Feature", "geometry": {"type": "Point", "coordinates": [2.659425, 48.8428]}, "properties": {"numparc": 5896, "etat de la localisation": "autre", "ID BDGEO": "19964", "horodatage": "2022-08-06 00:51:41", "distance (en metres)": 113.81, "station": "DEPOT DE BUSSY SORTIE", "marker-color": "#818181"}}, {"type": "Feature", "geometry": {"type": "Point", "coordinates": [2.658913, 48.842346]}, "properties": {"numparc": 5896, "etat de la localisation": "autre", "ID BDGEO": "19964", "horodatage": "2022-08-06 00:55:58", "distance (en metres)": 93.39, "station": "DEPOT DE BUSSY SORTIE", "marker-color": "#818181"}}, {"type": "Feature", "geometry": {"type": "Point", "coordinates": [2.659919, 48.84183]}, "properties": {"station": "DEPOT DE BUSSY SORTIE", "ID BDGEO": "19964", "marker-color": "#56B3FF"}}, {"type": "Feature", "geometry": {"type": "Point", "coordinates": [2.543687, 48.823753]}, "properties": {"station": "VILLIERS-SUR-MARNE RER", "ID BDGEO": "19971", "marker-color": "#56B3FF"}}, {"type": "Feature", "geometry": {"type": "Point", "coordinates": [2.550012, 48.822834]}, "properties": {"station": "GEORGES DEMESY", "ID BDGEO": "19972", "marker-color": "#56B3FF"}}, {"type": "Feature", "geometry": {"type": "Point", "coordinates": [2.581092, 48.809536]}, "properties": {"station": "FRANCOIS MANSARD", "ID BDGEO": "19979", "marker-color": "#56B3FF"}}, {"type": "Feature", "geometry": {"type": "Point", "coordinates": [2.604391, 48.801981]}, "properties": {"station": "STADE LUCIEN MORANE", "ID BDGEO": "19984", "marker-color": "#56B3FF"}}, {"type": "Feature", "geometry": {"type": "Point", "coordinates": [2.616617, 48.798366]}, "properties": {"station": "RESIDENCE DES TILLEULS", "ID BDGEO": "19989", "marker-color": "#56B3FF"}}, {"type": "Feature", "geometry": {"type": "Point", "coordinates": [2.621194, 48.80453]}, "properties": {"station": "PLACE BEILSTEIN#", "ID BDGEO": "19962", "marker-color": "#56B3FF"}}, {"type": "Feature", "geometry": {"type": "Point", "coordinates": [2.543319, 48.823808]}, "properties": {"station": "GARE DE VILLIERS RER#", "ID BDGEO": "19969", "marker-color": "#56B3FF"}}, {"type": "Feature", "geometry": {"type": "Point", "coordinates": [2.611268, 48.795404]}, "properties": {"station": "SALLE DES FETES JACQUES BREL", "ID BDGEO": "19998", "marker-color": "#56B3FF"}}]}