{"type": "FeatureCollection", "features": [{"type": "Feature", "geometry": {"type": "Point", "coordinates": [2.367296, 48.787369]}, "properties": {"numparc": 5715, "etat de la localisation": "autre", "ID BDGEO": "18", "horodatage": "2022-11-01 16:22:00", "distance (en metres)": 47.59, "station": "VILLEJUIF-LOUIS ARAGON", "marker-color": "#818181"}}, {"type": "Feature", "geometry": {"type": "Point", "coordinates": [2.366516, 48.78458]}, "properties": {"numparc": 5715, "etat de la localisation": "autre", "ID BDGEO": "18", "horodatage": "2022-11-01 16:26:06", "distance (en metres)": 359.54, "station": "VILLEJUIF-LOUIS ARAGON", "marker-color": "#818181"}}, {"type": "Feature", "geometry": {"type": "Point", "coordinates": [2.367655, 48.787725]}, "properties": {"station": "VILLEJUIF-LOUIS ARAGON", "ID BDGEO": "18", "marker-color": "#56B3FF"}}]}