{"type": "FeatureCollection", "features": [{"type": "Feature", "geometry": {"type": "Point", "coordinates": [2.298275, 48.722546]}, "properties": {"etat de la localisation": "Delocalise", "numparc": 5816, "duree": "00:01:45", "horodatage": "2022-09-06 13:45:40", "marker-color": "#FF565E"}}, {"type": "Feature", "geometry": {"type": "Point", "coordinates": [2.296858, 48.721886]}, "properties": {"etat de la localisation": "Hors service", "numparc": 5816, "duree": "", "horodatage": "2022-09-06 13:47:25", "marker-color": "#707070"}}, {"type": "Feature", "geometry": {"type": "Point", "coordinates": [2.297034, 48.721523]}, "properties": {"etat de la localisation": "Delocalise", "numparc": 5802, "duree": "00:00:25", "horodatage": "2022-09-06 14:01:46", "marker-color": "#FF565E"}}, {"type": "Feature", "geometry": {"type": "Point", "coordinates": [2.297034, 48.721523]}, "properties": {"etat de la localisation": "Hors service", "numparc": 5802, "duree": "", "horodatage": "2022-09-06 14:02:11", "marker-color": "#707070"}}, {"type": "Feature", "geometry": {"type": "Point", "coordinates": [2.228809, 48.732708]}, "properties": {"etat de la localisation": "Deviation programmee", "numparc": 5816, "duree": "", "horodatage": "2022-09-06 14:25:38", "marker-color": "#56FF93"}}, {"type": "Feature", "geometry": {"type": "Point", "coordinates": [2.297032, 48.721523]}, "properties": {"etat de la localisation": "Mission inconnue", "numparc": 5802, "duree": "", "horodatage": "2022-09-06 14:38:28", "marker-color": "#FF9F56"}}, {"type": "Feature", "geometry": {"type": "Point", "coordinates": [2.297032, 48.721523]}, "properties": {"etat de la localisation": "Hors service", "numparc": 5802, "duree": "", "horodatage": "2022-09-06 14:39:28", "marker-color": "#707070"}}, {"type": "Feature", "geometry": {"type": "Point", "coordinates": [2.221272, 48.733246]}, "properties": {"etat de la localisation": "Deviation programmee", "numparc": 5816, "duree": "", "horodatage": "2022-09-06 14:48:07", "marker-color": "#56FF93"}}, {"type": "Feature", "geometry": {"type": "Point", "coordinates": [2.298056, 48.721409]}, "properties": {"etat de la localisation": "Hors service", "numparc": 5816, "duree": "", "horodatage": "2022-09-06 15:37:20", "marker-color": "#707070"}}, {"type": "Feature", "geometry": {"type": "Point", "coordinates": [2.228898, 48.732658]}, "properties": {"etat de la localisation": "Deviation programmee", "numparc": 5817, "duree": "", "horodatage": "2022-09-06 15:40:00", "marker-color": "#56FF93"}}, {"type": "Feature", "geometry": {"type": "Point", "coordinates": [2.221435, 48.733135]}, "properties": {"etat de la localisation": "Deviation programmee", "numparc": 5817, "duree": "", "horodatage": "2022-09-06 16:02:05", "marker-color": "#56FF93"}}, {"type": "Feature", "geometry": {"type": "Point", "coordinates": [2.228848, 48.732677]}, "properties": {"etat de la localisation": "Deviation programmee", "numparc": 5817, "duree": "", "horodatage": "2022-09-06 17:13:41", "marker-color": "#56FF93"}}, {"type": "Feature", "geometry": {"type": "Point", "coordinates": [2.221309, 48.733166]}, "properties": {"etat de la localisation": "Deviation programmee", "numparc": 5817, "duree": "", "horodatage": "2022-09-06 17:39:35", "marker-color": "#56FF93"}}, {"type": "Feature", "geometry": {"type": "Point", "coordinates": [2.228777, 48.732731]}, "properties": {"etat de la localisation": "Deviation programmee", "numparc": 5817, "duree": "", "horodatage": "2022-09-06 18:28:18", "marker-color": "#56FF93"}}, {"type": "Feature", "geometry": {"type": "Point", "coordinates": [2.221501, 48.733105]}, "properties": {"etat de la localisation": "Deviation programmee", "numparc": 5817, "duree": "", "horodatage": "2022-09-06 18:51:13", "marker-color": "#56FF93"}}, {"type": "Feature", "geometry": {"type": "Point", "coordinates": [2.256843, 48.726093]}, "properties": {"etat de la localisation": "Hors service", "numparc": 5816, "duree": "", "horodatage": "2022-09-06 19:01:33", "marker-color": "#707070"}}, {"type": "Feature", "geometry": {"type": "Point", "coordinates": [2.29874, 48.722557]}, "properties": {"etat de la localisation": "Hors service", "numparc": 5816, "duree": "", "horodatage": "2022-09-06 21:01:04", "marker-color": "#707070"}}, {"type": "Feature", "geometry": {"type": "Point", "coordinates": [2.296723, 48.721821]}, "properties": {"etat de la localisation": "Hors service", "numparc": 5817, "duree": "", "horodatage": "2022-09-07 01:20:41", "marker-color": "#707070"}}]}