{"type": "FeatureCollection", "features": [{"type": "Feature", "geometry": {"type": "Point", "coordinates": [2.428123, 48.878567]}, "properties": {"etat de la localisation": "Delocalise", "numparc": 4932, "duree": "00:01:25", "horodatage": "2022-04-10 18:18:17", "marker-color": "#FF565E"}}, {"type": "Feature", "geometry": {"type": "Point", "coordinates": [2.427028, 48.878357]}, "properties": {"etat de la localisation": "Hors service", "numparc": 4932, "duree": "", "horodatage": "2022-04-10 18:19:42", "marker-color": "#707070"}}, {"type": "Feature", "geometry": {"type": "Point", "coordinates": [2.427307, 48.878822]}, "properties": {"etat de la localisation": "Hors service", "numparc": 4930, "duree": "", "horodatage": "2022-04-10 19:42:46", "marker-color": "#707070"}}, {"type": "Feature", "geometry": {"type": "Point", "coordinates": [2.440717, 48.881447]}, "properties": {"etat de la localisation": "Delocalise", "numparc": 4932, "duree": "00:01:34", "horodatage": "2022-04-10 20:54:52", "marker-color": "#FF565E"}}, {"type": "Feature", "geometry": {"type": "Point", "coordinates": [2.427386, 48.878826]}, "properties": {"etat de la localisation": "Hors service", "numparc": 4932, "duree": "", "horodatage": "2022-04-11 00:42:03", "marker-color": "#707070"}}]}