{"type": "FeatureCollection", "features": [{"type": "Feature", "geometry": {"type": "Point", "coordinates": [2.269592, 48.843952]}, "properties": {"alarme": "VEHICULE DELOCALISE", "numparc": 644, "type": "EXPLOITATION", "duree": "00:00:29", "horodatage": "2022-04-24 08:47:04", "statut": "start", "marker-color": "#ff0000"}}, {"type": "Feature", "geometry": {"type": "Point", "coordinates": [2.345752, 48.859718]}, "properties": {"alarme": "VEHICULE DELOCALISE", "numparc": 644, "type": "EXPLOITATION", "duree": "00:00:19", "horodatage": "2022-04-24 09:47:34", "statut": "start", "marker-color": "#ff0000"}}, {"type": "Feature", "geometry": {"type": "Point", "coordinates": [2.339403, 48.862019]}, "properties": {"alarme": "VEHICULE DELOCALISE", "numparc": 644, "type": "EXPLOITATION", "duree": "00:01:01", "horodatage": "2022-04-24 09:49:39", "statut": "start", "marker-color": "#ff0000"}}, {"type": "Feature", "geometry": {"type": "Point", "coordinates": [2.330599, 48.864708]}, "properties": {"alarme": "VEHICULE DELOCALISE", "numparc": 644, "type": "EXPLOITATION", "duree": "00:00:41", "horodatage": "2022-04-24 09:52:07", "statut": "start", "marker-color": "#ff0000"}}, {"type": "Feature", "geometry": {"type": "Point", "coordinates": [2.269395, 48.84399]}, "properties": {"alarme": "VEHICULE DELOCALISE", "numparc": 644, "type": "EXPLOITATION", "duree": "00:00:26", "horodatage": "2022-04-24 11:03:30", "statut": "start", "marker-color": "#ff0000"}}, {"type": "Feature", "geometry": {"type": "Point", "coordinates": [2.361994, 48.849113]}, "properties": {"alarme": "VEHICULE DELOCALISE", "numparc": 644, "type": "EXPLOITATION", "duree": "00:00:37", "horodatage": "2022-04-24 13:59:06", "statut": "start", "marker-color": "#ff0000"}}, {"type": "Feature", "geometry": {"type": "Point", "coordinates": [2.30865, 48.856461]}, "properties": {"alarme": "VEHICULE DELOCALISE", "numparc": 644, "type": "EXPLOITATION", "duree": "00:13:43", "horodatage": "2022-04-24 17:57:41", "statut": "start", "marker-color": "#ff0000"}}, {"type": "Feature", "geometry": {"type": "Point", "coordinates": [2.371888, 48.844738]}, "properties": {"alarme": "VEHICULE DELOCALISE", "numparc": 644, "type": "EXPLOITATION", "duree": "00:00:17", "horodatage": "2022-04-24 19:47:42", "statut": "start", "marker-color": "#ff0000"}}, {"type": "Feature", "geometry": {"type": "Point", "coordinates": [2.271586, 48.845093]}, "properties": {"alarme": "VEHICULE DELOCALISE", "numparc": 644, "type": "EXPLOITATION", "duree": "00:00:29", "horodatage": "2022-04-24 08:47:33", "statut": "end", "marker-color": "#2fe184"}}, {"type": "Feature", "geometry": {"type": "Point", "coordinates": [2.344773, 48.86005]}, "properties": {"alarme": "VEHICULE DELOCALISE", "numparc": 644, "type": "EXPLOITATION", "duree": "00:00:19", "horodatage": "2022-04-24 09:47:53", "statut": "end", "marker-color": "#2fe184"}}, {"type": "Feature", "geometry": {"type": "Point", "coordinates": [2.336161, 48.863018]}, "properties": {"alarme": "VEHICULE DELOCALISE", "numparc": 644, "type": "EXPLOITATION", "duree": "00:01:01", "horodatage": "2022-04-24 09:50:40", "statut": "end", "marker-color": "#2fe184"}}, {"type": "Feature", "geometry": {"type": "Point", "coordinates": [2.327388, 48.865623]}, "properties": {"alarme": "VEHICULE DELOCALISE", "numparc": 644, "type": "EXPLOITATION", "duree": "00:00:41", "horodatage": "2022-04-24 09:52:48", "statut": "end", "marker-color": "#2fe184"}}, {"type": "Feature", "geometry": {"type": "Point", "coordinates": [2.270667, 48.845249]}, "properties": {"alarme": "VEHICULE DELOCALISE", "numparc": 644, "type": "EXPLOITATION", "duree": "00:00:26", "horodatage": "2022-04-24 11:03:56", "statut": "end", "marker-color": "#2fe184"}}, {"type": "Feature", "geometry": {"type": "Point", "coordinates": [2.36445, 48.847473]}, "properties": {"alarme": "VEHICULE DELOCALISE", "numparc": 644, "type": "EXPLOITATION", "duree": "00:00:37", "horodatage": "2022-04-24 13:59:43", "statut": "end", "marker-color": "#2fe184"}}, {"type": "Feature", "geometry": {"type": "Point", "coordinates": [2.27533, 48.84903]}, "properties": {"alarme": "VEHICULE DELOCALISE", "numparc": 644, "type": "EXPLOITATION", "duree": "00:13:43", "horodatage": "2022-04-24 18:11:24", "statut": "end", "marker-color": "#2fe184"}}, {"type": "Feature", "geometry": {"type": "Point", "coordinates": [2.371507, 48.845055]}, "properties": {"alarme": "VEHICULE DELOCALISE", "numparc": 644, "type": "EXPLOITATION", "duree": "00:00:17", "horodatage": "2022-04-24 19:47:59", "statut": "end", "marker-color": "#2fe184"}}]}