{"type": "FeatureCollection", "features": [{"type": "Feature", "geometry": {"type": "Point", "coordinates": [2.387634, 48.754372]}, "properties": {"etat de la localisation": "Delocalise", "numparc": 6911, "duree": "00:23:26", "horodatage": "2023-05-09 05:06:17", "marker-color": "#FF565E"}}, {"type": "Feature", "geometry": {"type": "Point", "coordinates": [2.38834, 48.754093]}, "properties": {"etat de la localisation": "Delocalise", "numparc": 6927, "duree": "00:13:50", "horodatage": "2023-05-09 05:15:05", "marker-color": "#FF565E"}}, {"type": "Feature", "geometry": {"type": "Point", "coordinates": [2.388122, 48.754536]}, "properties": {"etat de la localisation": "Delocalise", "numparc": 6928, "duree": "00:16:06", "horodatage": "2023-05-09 05:28:40", "marker-color": "#FF565E"}}, {"type": "Feature", "geometry": {"type": "Point", "coordinates": [2.38764, 48.754398]}, "properties": {"etat de la localisation": "Delocalise", "numparc": 6916, "duree": "00:19:09", "horodatage": "2023-05-09 05:39:29", "marker-color": "#FF565E"}}, {"type": "Feature", "geometry": {"type": "Point", "coordinates": [2.387753, 48.754417]}, "properties": {"etat de la localisation": "Delocalise", "numparc": 6919, "duree": "00:17:59", "horodatage": "2023-05-09 05:41:00", "marker-color": "#FF565E"}}, {"type": "Feature", "geometry": {"type": "Point", "coordinates": [2.387839, 48.75462]}, "properties": {"etat de la localisation": "Delocalise", "numparc": 6930, "duree": "00:05:03", "horodatage": "2023-05-09 05:56:06", "marker-color": "#FF565E"}}, {"type": "Feature", "geometry": {"type": "Point", "coordinates": [2.387656, 48.754395]}, "properties": {"etat de la localisation": "Delocalise", "numparc": 6912, "duree": "00:15:01", "horodatage": "2023-05-09 06:02:16", "marker-color": "#FF565E"}}, {"type": "Feature", "geometry": {"type": "Point", "coordinates": [2.387656, 48.754395]}, "properties": {"etat de la localisation": "Hors service", "numparc": 6912, "duree": "", "horodatage": "2023-05-09 06:17:17", "marker-color": "#707070"}}, {"type": "Feature", "geometry": {"type": "Point", "coordinates": [2.330909, 48.762848]}, "properties": {"etat de la localisation": "Mission suivante non connue", "numparc": 6907, "duree": "", "horodatage": "2023-05-09 06:28:49", "marker-color": "#7156FF"}}, {"type": "Feature", "geometry": {"type": "Point", "coordinates": [2.388027, 48.754539]}, "properties": {"etat de la localisation": "Delocalise", "numparc": 6909, "duree": "00:18:26", "horodatage": "2023-05-09 06:35:16", "marker-color": "#FF565E"}}, {"type": "Feature", "geometry": {"type": "Point", "coordinates": [2.331022, 48.762993]}, "properties": {"etat de la localisation": "Mission suivante non connue", "numparc": 6907, "duree": "", "horodatage": "2023-05-09 06:35:36", "marker-color": "#7156FF"}}, {"type": "Feature", "geometry": {"type": "Point", "coordinates": [2.331022, 48.762993]}, "properties": {"etat de la localisation": "Mission suivante non connue", "numparc": 6907, "duree": "", "horodatage": "2023-05-09 06:40:26", "marker-color": "#7156FF"}}, {"type": "Feature", "geometry": {"type": "Point", "coordinates": [2.388124, 48.754478]}, "properties": {"etat de la localisation": "Delocalise", "numparc": 6915, "duree": "00:27:58", "horodatage": "2023-05-09 07:33:00", "marker-color": "#FF565E"}}, {"type": "Feature", "geometry": {"type": "Point", "coordinates": [2.388544, 48.754055]}, "properties": {"etat de la localisation": "Delocalise", "numparc": 6931, "duree": "00:08:58", "horodatage": "2023-05-09 07:43:56", "marker-color": "#FF565E"}}, {"type": "Feature", "geometry": {"type": "Point", "coordinates": [2.330811, 48.762665]}, "properties": {"etat de la localisation": "Mission suivante non connue", "numparc": 6907, "duree": "", "horodatage": "2023-05-09 08:05:40", "marker-color": "#7156FF"}}, {"type": "Feature", "geometry": {"type": "Point", "coordinates": [2.331004, 48.762974]}, "properties": {"etat de la localisation": "Hors service", "numparc": 6909, "duree": "", "horodatage": "2023-05-09 08:39:08", "marker-color": "#707070"}}, {"type": "Feature", "geometry": {"type": "Point", "coordinates": [2.326468, 48.811741]}, "properties": {"etat de la localisation": "Mission inconnue", "numparc": 6907, "duree": "", "horodatage": "2023-05-09 09:04:10", "marker-color": "#FF9F56"}}, {"type": "Feature", "geometry": {"type": "Point", "coordinates": [2.320235, 48.760387]}, "properties": {"etat de la localisation": "Delocalise", "numparc": 6916, "duree": "00:07:05", "horodatage": "2023-05-09 09:09:18", "marker-color": "#FF565E"}}, {"type": "Feature", "geometry": {"type": "Point", "coordinates": [2.325742, 48.816452]}, "properties": {"etat de la localisation": "Mission inconnue", "numparc": 6907, "duree": "", "horodatage": "2023-05-09 09:11:24", "marker-color": "#FF9F56"}}, {"type": "Feature", "geometry": {"type": "Point", "coordinates": [2.330915, 48.762814]}, "properties": {"etat de la localisation": "Mission suivante non connue", "numparc": 6911, "duree": "", "horodatage": "2023-05-09 09:37:04", "marker-color": "#7156FF"}}, {"type": "Feature", "geometry": {"type": "Point", "coordinates": [2.331705, 48.796417]}, "properties": {"etat de la localisation": "Delocalise", "numparc": 6915, "duree": "00:00:15", "horodatage": "2023-05-09 10:00:28", "marker-color": "#FF565E"}}, {"type": "Feature", "geometry": {"type": "Point", "coordinates": [2.38725, 48.753986]}, "properties": {"etat de la localisation": "Hors service", "numparc": 6919, "duree": "", "horodatage": "2023-05-09 10:09:40", "marker-color": "#707070"}}, {"type": "Feature", "geometry": {"type": "Point", "coordinates": [2.320103, 48.758633]}, "properties": {"etat de la localisation": "Delocalise", "numparc": 6915, "duree": "00:03:58", "horodatage": "2023-05-09 10:17:23", "marker-color": "#FF565E"}}, {"type": "Feature", "geometry": {"type": "Point", "coordinates": [2.387664, 48.754421]}, "properties": {"etat de la localisation": "Hors service", "numparc": 6909, "duree": "", "horodatage": "2023-05-09 10:22:04", "marker-color": "#707070"}}, {"type": "Feature", "geometry": {"type": "Point", "coordinates": [2.318552, 48.766029]}, "properties": {"etat de la localisation": "Delocalise", "numparc": 6908, "duree": "00:01:32", "horodatage": "2023-05-09 10:26:21", "marker-color": "#FF565E"}}, {"type": "Feature", "geometry": {"type": "Point", "coordinates": [2.31921, 48.759945]}, "properties": {"etat de la localisation": "Delocalise", "numparc": 6908, "duree": "00:00:10", "horodatage": "2023-05-09 10:28:36", "marker-color": "#FF565E"}}, {"type": "Feature", "geometry": {"type": "Point", "coordinates": [2.326401, 48.808853]}, "properties": {"etat de la localisation": "Delocalise", "numparc": 6930, "duree": "00:00:03", "horodatage": "2023-05-09 10:34:00", "marker-color": "#FF565E"}}, {"type": "Feature", "geometry": {"type": "Point", "coordinates": [2.325565, 48.821339]}, "properties": {"etat de la localisation": "Mission suivante non connue", "numparc": 6907, "duree": "", "horodatage": "2023-05-09 10:48:04", "marker-color": "#7156FF"}}, {"type": "Feature", "geometry": {"type": "Point", "coordinates": [2.387444, 48.753983]}, "properties": {"etat de la localisation": "Hors service", "numparc": 6911, "duree": "", "horodatage": "2023-05-09 10:48:16", "marker-color": "#707070"}}, {"type": "Feature", "geometry": {"type": "Point", "coordinates": [2.325437, 48.822079]}, "properties": {"etat de la localisation": "Delocalise", "numparc": 6907, "duree": "00:03:17", "horodatage": "2023-05-09 10:49:20", "marker-color": "#FF565E"}}, {"type": "Feature", "geometry": {"type": "Point", "coordinates": [2.388156, 48.754341]}, "properties": {"etat de la localisation": "Hors service", "numparc": 6919, "duree": "", "horodatage": "2023-05-09 10:57:52", "marker-color": "#707070"}}, {"type": "Feature", "geometry": {"type": "Point", "coordinates": [2.318285, 48.762146]}, "properties": {"etat de la localisation": "Mission suivante non connue", "numparc": 6931, "duree": "", "horodatage": "2023-05-09 11:01:30", "marker-color": "#7156FF"}}, {"type": "Feature", "geometry": {"type": "Point", "coordinates": [2.328222, 48.783997]}, "properties": {"etat de la localisation": "Delocalise", "numparc": 6930, "duree": "00:00:19", "horodatage": "2023-05-09 11:01:41", "marker-color": "#FF565E"}}, {"type": "Feature", "geometry": {"type": "Point", "coordinates": [2.388747, 48.754192]}, "properties": {"etat de la localisation": "Mission inconnue", "numparc": 6919, "duree": "", "horodatage": "2023-05-09 11:07:05", "marker-color": "#FF9F56"}}, {"type": "Feature", "geometry": {"type": "Point", "coordinates": [2.387823, 48.754547]}, "properties": {"etat de la localisation": "Hors service", "numparc": 6919, "duree": "", "horodatage": "2023-05-09 11:09:37", "marker-color": "#707070"}}, {"type": "Feature", "geometry": {"type": "Point", "coordinates": [2.330873, 48.762745]}, "properties": {"etat de la localisation": "Mission suivante non connue", "numparc": 6907, "duree": "", "horodatage": "2023-05-09 11:42:25", "marker-color": "#7156FF"}}, {"type": "Feature", "geometry": {"type": "Point", "coordinates": [2.387508, 48.754383]}, "properties": {"etat de la localisation": "Delocalise", "numparc": 6929, "duree": "00:22:51", "horodatage": "2023-05-09 11:48:39", "marker-color": "#FF565E"}}, {"type": "Feature", "geometry": {"type": "Point", "coordinates": [2.325616, 48.82132]}, "properties": {"etat de la localisation": "Mission suivante non connue", "numparc": 6931, "duree": "", "horodatage": "2023-05-09 11:52:01", "marker-color": "#7156FF"}}, {"type": "Feature", "geometry": {"type": "Point", "coordinates": [2.38747, 48.753933]}, "properties": {"etat de la localisation": "Hors service", "numparc": 6907, "duree": "", "horodatage": "2023-05-09 11:54:20", "marker-color": "#707070"}}, {"type": "Feature", "geometry": {"type": "Point", "coordinates": [2.386444, 48.754272]}, "properties": {"etat de la localisation": "Mission inconnue", "numparc": 6918, "duree": "", "horodatage": "2023-05-09 11:56:25", "marker-color": "#FF9F56"}}, {"type": "Feature", "geometry": {"type": "Point", "coordinates": [2.324659, 48.821644]}, "properties": {"etat de la localisation": "Mission suivante non connue", "numparc": 6931, "duree": "", "horodatage": "2023-05-09 11:56:47", "marker-color": "#7156FF"}}, {"type": "Feature", "geometry": {"type": "Point", "coordinates": [2.331033, 48.762985]}, "properties": {"etat de la localisation": "Mission suivante non connue", "numparc": 6927, "duree": "", "horodatage": "2023-05-09 12:02:18", "marker-color": "#7156FF"}}, {"type": "Feature", "geometry": {"type": "Point", "coordinates": [2.387989, 48.754471]}, "properties": {"etat de la localisation": "Hors service", "numparc": 6924, "duree": "", "horodatage": "2023-05-09 12:11:36", "marker-color": "#707070"}}, {"type": "Feature", "geometry": {"type": "Point", "coordinates": [2.387416, 48.753998]}, "properties": {"etat de la localisation": "Hors service", "numparc": 6927, "duree": "", "horodatage": "2023-05-09 12:14:30", "marker-color": "#707070"}}, {"type": "Feature", "geometry": {"type": "Point", "coordinates": [2.33103, 48.763]}, "properties": {"etat de la localisation": "Mission suivante non connue", "numparc": 6928, "duree": "", "horodatage": "2023-05-09 12:22:10", "marker-color": "#7156FF"}}, {"type": "Feature", "geometry": {"type": "Point", "coordinates": [2.38744, 48.753963]}, "properties": {"etat de la localisation": "Hors service", "numparc": 6928, "duree": "", "horodatage": "2023-05-09 12:43:58", "marker-color": "#707070"}}, {"type": "Feature", "geometry": {"type": "Point", "coordinates": [2.387842, 48.754452]}, "properties": {"etat de la localisation": "Hors service", "numparc": 6930, "duree": "", "horodatage": "2023-05-09 12:46:02", "marker-color": "#707070"}}, {"type": "Feature", "geometry": {"type": "Point", "coordinates": [2.387885, 48.754585]}, "properties": {"etat de la localisation": "Delocalise", "numparc": 6917, "duree": "00:26:03", "horodatage": "2023-05-09 13:24:21", "marker-color": "#FF565E"}}, {"type": "Feature", "geometry": {"type": "Point", "coordinates": [2.387992, 48.754471]}, "properties": {"etat de la localisation": "Mission inconnue", "numparc": 6924, "duree": "", "horodatage": "2023-05-09 13:30:59", "marker-color": "#FF9F56"}}, {"type": "Feature", "geometry": {"type": "Point", "coordinates": [2.387992, 48.754471]}, "properties": {"etat de la localisation": "Hors service", "numparc": 6924, "duree": "", "horodatage": "2023-05-09 13:37:57", "marker-color": "#707070"}}, {"type": "Feature", "geometry": {"type": "Point", "coordinates": [2.330995, 48.763012]}, "properties": {"etat de la localisation": "Mission suivante non connue", "numparc": 6929, "duree": "", "horodatage": "2023-05-09 13:43:57", "marker-color": "#7156FF"}}, {"type": "Feature", "geometry": {"type": "Point", "coordinates": [2.387542, 48.754387]}, "properties": {"etat de la localisation": "Delocalise", "numparc": 6927, "duree": "00:00:48", "horodatage": "2023-05-09 13:44:10", "marker-color": "#FF565E"}}, {"type": "Feature", "geometry": {"type": "Point", "coordinates": [2.387542, 48.754387]}, "properties": {"etat de la localisation": "Mission inconnue", "numparc": 6927, "duree": "", "horodatage": "2023-05-09 13:44:58", "marker-color": "#FF9F56"}}, {"type": "Feature", "geometry": {"type": "Point", "coordinates": [2.331037, 48.762989]}, "properties": {"etat de la localisation": "Mission suivante non connue", "numparc": 6915, "duree": "", "horodatage": "2023-05-09 13:52:21", "marker-color": "#7156FF"}}, {"type": "Feature", "geometry": {"type": "Point", "coordinates": [2.387846, 48.754452]}, "properties": {"etat de la localisation": "Mission inconnue", "numparc": 6930, "duree": "", "horodatage": "2023-05-09 14:01:06", "marker-color": "#FF9F56"}}, {"type": "Feature", "geometry": {"type": "Point", "coordinates": [2.387846, 48.754452]}, "properties": {"etat de la localisation": "Mission inconnue", "numparc": 6930, "duree": "", "horodatage": "2023-05-09 14:02:20", "marker-color": "#FF9F56"}}, {"type": "Feature", "geometry": {"type": "Point", "coordinates": [2.387438, 48.753952]}, "properties": {"etat de la localisation": "Hors service", "numparc": 6926, "duree": "", "horodatage": "2023-05-09 14:02:40", "marker-color": "#707070"}}, {"type": "Feature", "geometry": {"type": "Point", "coordinates": [2.38795, 48.754482]}, "properties": {"etat de la localisation": "Delocalise", "numparc": 6928, "duree": "00:00:28", "horodatage": "2023-05-09 14:02:50", "marker-color": "#FF565E"}}, {"type": "Feature", "geometry": {"type": "Point", "coordinates": [2.330926, 48.762863]}, "properties": {"etat de la localisation": "Mission suivante non connue", "numparc": 6908, "duree": "", "horodatage": "2023-05-09 14:06:47", "marker-color": "#7156FF"}}, {"type": "Feature", "geometry": {"type": "Point", "coordinates": [2.331048, 48.763004]}, "properties": {"etat de la localisation": "Mission suivante non connue", "numparc": 6908, "duree": "", "horodatage": "2023-05-09 14:07:54", "marker-color": "#7156FF"}}, {"type": "Feature", "geometry": {"type": "Point", "coordinates": [2.388033, 48.754517]}, "properties": {"etat de la localisation": "Hors service", "numparc": 6915, "duree": "", "horodatage": "2023-05-09 14:11:16", "marker-color": "#707070"}}, {"type": "Feature", "geometry": {"type": "Point", "coordinates": [2.387872, 48.754444]}, "properties": {"etat de la localisation": "Mission inconnue", "numparc": 6907, "duree": "", "horodatage": "2023-05-09 14:15:01", "marker-color": "#FF9F56"}}, {"type": "Feature", "geometry": {"type": "Point", "coordinates": [2.387384, 48.753979]}, "properties": {"etat de la localisation": "Hors service", "numparc": 6931, "duree": "", "horodatage": "2023-05-09 14:31:02", "marker-color": "#707070"}}, {"type": "Feature", "geometry": {"type": "Point", "coordinates": [2.387605, 48.754299]}, "properties": {"etat de la localisation": "Hors service", "numparc": 6908, "duree": "", "horodatage": "2023-05-09 14:35:47", "marker-color": "#707070"}}, {"type": "Feature", "geometry": {"type": "Point", "coordinates": [2.387455, 48.753994]}, "properties": {"etat de la localisation": "Hors service", "numparc": 6929, "duree": "", "horodatage": "2023-05-09 14:49:42", "marker-color": "#707070"}}, {"type": "Feature", "geometry": {"type": "Point", "coordinates": [2.387899, 48.754383]}, "properties": {"etat de la localisation": "Mission inconnue", "numparc": 6926, "duree": "", "horodatage": "2023-05-09 15:06:25", "marker-color": "#FF9F56"}}, {"type": "Feature", "geometry": {"type": "Point", "coordinates": [2.387899, 48.754383]}, "properties": {"etat de la localisation": "Hors service", "numparc": 6926, "duree": "", "horodatage": "2023-05-09 15:06:53", "marker-color": "#707070"}}, {"type": "Feature", "geometry": {"type": "Point", "coordinates": [2.387903, 48.754383]}, "properties": {"etat de la localisation": "Mission inconnue", "numparc": 6926, "duree": "", "horodatage": "2023-05-09 15:15:20", "marker-color": "#FF9F56"}}, {"type": "Feature", "geometry": {"type": "Point", "coordinates": [2.387903, 48.754383]}, "properties": {"etat de la localisation": "Hors service", "numparc": 6926, "duree": "", "horodatage": "2023-05-09 15:15:35", "marker-color": "#707070"}}, {"type": "Feature", "geometry": {"type": "Point", "coordinates": [2.387995, 48.754471]}, "properties": {"etat de la localisation": "Mission inconnue", "numparc": 6924, "duree": "", "horodatage": "2023-05-09 15:16:49", "marker-color": "#FF9F56"}}, {"type": "Feature", "geometry": {"type": "Point", "coordinates": [2.387815, 48.754547]}, "properties": {"etat de la localisation": "Delocalise", "numparc": 6919, "duree": "00:09:22", "horodatage": "2023-05-09 15:19:56", "marker-color": "#FF565E"}}, {"type": "Feature", "geometry": {"type": "Point", "coordinates": [2.331034, 48.762962]}, "properties": {"etat de la localisation": "Mission suivante non connue", "numparc": 6907, "duree": "", "horodatage": "2023-05-09 15:24:51", "marker-color": "#7156FF"}}, {"type": "Feature", "geometry": {"type": "Point", "coordinates": [2.33104, 48.763]}, "properties": {"etat de la localisation": "Mission suivante non connue", "numparc": 6930, "duree": "", "horodatage": "2023-05-09 15:53:15", "marker-color": "#7156FF"}}, {"type": "Feature", "geometry": {"type": "Point", "coordinates": [2.33104, 48.763]}, "properties": {"etat de la localisation": "Mission suivante non connue", "numparc": 6930, "duree": "", "horodatage": "2023-05-09 15:53:28", "marker-color": "#7156FF"}}, {"type": "Feature", "geometry": {"type": "Point", "coordinates": [2.388038, 48.75452]}, "properties": {"etat de la localisation": "Mission inconnue", "numparc": 6915, "duree": "", "horodatage": "2023-05-09 15:54:07", "marker-color": "#FF9F56"}}, {"type": "Feature", "geometry": {"type": "Point", "coordinates": [2.387905, 48.754383]}, "properties": {"etat de la localisation": "Delocalise", "numparc": 6926, "duree": "00:08:17", "horodatage": "2023-05-09 16:04:38", "marker-color": "#FF565E"}}, {"type": "Feature", "geometry": {"type": "Point", "coordinates": [2.387611, 48.754303]}, "properties": {"etat de la localisation": "Delocalise", "numparc": 6908, "duree": "00:00:38", "horodatage": "2023-05-09 16:06:56", "marker-color": "#FF565E"}}, {"type": "Feature", "geometry": {"type": "Point", "coordinates": [2.325576, 48.821255]}, "properties": {"etat de la localisation": "Mission suivante non connue", "numparc": 6907, "duree": "", "horodatage": "2023-05-09 16:07:01", "marker-color": "#7156FF"}}, {"type": "Feature", "geometry": {"type": "Point", "coordinates": [2.387611, 48.754303]}, "properties": {"etat de la localisation": "Mission inconnue", "numparc": 6908, "duree": "", "horodatage": "2023-05-09 16:07:34", "marker-color": "#FF9F56"}}, {"type": "Feature", "geometry": {"type": "Point", "coordinates": [2.38726, 48.754692]}, "properties": {"etat de la localisation": "Mission inconnue", "numparc": 6931, "duree": "", "horodatage": "2023-05-09 16:17:07", "marker-color": "#FF9F56"}}, {"type": "Feature", "geometry": {"type": "Point", "coordinates": [2.387905, 48.754383]}, "properties": {"etat de la localisation": "Hors service", "numparc": 6926, "duree": "", "horodatage": "2023-05-09 16:19:38", "marker-color": "#707070"}}, {"type": "Feature", "geometry": {"type": "Point", "coordinates": [2.387905, 48.754383]}, "properties": {"etat de la localisation": "Delocalise", "numparc": 6926, "duree": "00:01:30", "horodatage": "2023-05-09 16:20:22", "marker-color": "#FF565E"}}, {"type": "Feature", "geometry": {"type": "Point", "coordinates": [2.330876, 48.762783]}, "properties": {"etat de la localisation": "Mission suivante non connue", "numparc": 6912, "duree": "", "horodatage": "2023-05-09 16:33:39", "marker-color": "#7156FF"}}, {"type": "Feature", "geometry": {"type": "Point", "coordinates": [2.331015, 48.762959]}, "properties": {"etat de la localisation": "Mission suivante non connue", "numparc": 6912, "duree": "", "horodatage": "2023-05-09 16:34:23", "marker-color": "#7156FF"}}, {"type": "Feature", "geometry": {"type": "Point", "coordinates": [2.387855, 48.754356]}, "properties": {"etat de la localisation": "Mission inconnue", "numparc": 6929, "duree": "", "horodatage": "2023-05-09 16:42:49", "marker-color": "#FF9F56"}}, {"type": "Feature", "geometry": {"type": "Point", "coordinates": [2.336405, 48.806873]}, "properties": {"etat de la localisation": "Mission inconnue", "numparc": 6931, "duree": "", "horodatage": "2023-05-09 16:46:24", "marker-color": "#FF9F56"}}, {"type": "Feature", "geometry": {"type": "Point", "coordinates": [2.330933, 48.762878]}, "properties": {"etat de la localisation": "Mission suivante non connue", "numparc": 6919, "duree": "", "horodatage": "2023-05-09 16:48:35", "marker-color": "#7156FF"}}, {"type": "Feature", "geometry": {"type": "Point", "coordinates": [2.331055, 48.763008]}, "properties": {"etat de la localisation": "Mission suivante non connue", "numparc": 6919, "duree": "", "horodatage": "2023-05-09 16:51:22", "marker-color": "#7156FF"}}, {"type": "Feature", "geometry": {"type": "Point", "coordinates": [2.325668, 48.821167]}, "properties": {"etat de la localisation": "Mission suivante non connue", "numparc": 6917, "duree": "", "horodatage": "2023-05-09 16:52:37", "marker-color": "#7156FF"}}, {"type": "Feature", "geometry": {"type": "Point", "coordinates": [2.330928, 48.762833]}, "properties": {"etat de la localisation": "Mission suivante non connue", "numparc": 6907, "duree": "", "horodatage": "2023-05-09 17:00:23", "marker-color": "#7156FF"}}, {"type": "Feature", "geometry": {"type": "Point", "coordinates": [2.330897, 48.762833]}, "properties": {"etat de la localisation": "Mission suivante non connue", "numparc": 6908, "duree": "", "horodatage": "2023-05-09 17:11:18", "marker-color": "#7156FF"}}, {"type": "Feature", "geometry": {"type": "Point", "coordinates": [2.330897, 48.762833]}, "properties": {"etat de la localisation": "Mission suivante non connue", "numparc": 6908, "duree": "", "horodatage": "2023-05-09 17:12:10", "marker-color": "#7156FF"}}, {"type": "Feature", "geometry": {"type": "Point", "coordinates": [2.331044, 48.763004]}, "properties": {"etat de la localisation": "Mission suivante non connue", "numparc": 6908, "duree": "", "horodatage": "2023-05-09 17:16:57", "marker-color": "#7156FF"}}, {"type": "Feature", "geometry": {"type": "Point", "coordinates": [2.330808, 48.762768]}, "properties": {"etat de la localisation": "Mission suivante non connue", "numparc": 6927, "duree": "", "horodatage": "2023-05-09 17:29:40", "marker-color": "#7156FF"}}, {"type": "Feature", "geometry": {"type": "Point", "coordinates": [2.330808, 48.762768]}, "properties": {"etat de la localisation": "Mission suivante non connue", "numparc": 6927, "duree": "", "horodatage": "2023-05-09 17:29:48", "marker-color": "#7156FF"}}, {"type": "Feature", "geometry": {"type": "Point", "coordinates": [2.331821, 48.763916]}, "properties": {"etat de la localisation": "Delocalise", "numparc": 6927, "duree": "00:01:24", "horodatage": "2023-05-09 17:31:00", "marker-color": "#FF565E"}}, {"type": "Feature", "geometry": {"type": "Point", "coordinates": [2.387842, 48.75433]}, "properties": {"etat de la localisation": "Hors service", "numparc": 6915, "duree": "", "horodatage": "2023-05-09 17:38:11", "marker-color": "#707070"}}, {"type": "Feature", "geometry": {"type": "Point", "coordinates": [2.330907, 48.762844]}, "properties": {"etat de la localisation": "Mission suivante non connue", "numparc": 6928, "duree": "", "horodatage": "2023-05-09 17:44:33", "marker-color": "#7156FF"}}, {"type": "Feature", "geometry": {"type": "Point", "coordinates": [2.330907, 48.762844]}, "properties": {"etat de la localisation": "Mission suivante non connue", "numparc": 6928, "duree": "", "horodatage": "2023-05-09 17:45:01", "marker-color": "#7156FF"}}, {"type": "Feature", "geometry": {"type": "Point", "coordinates": [2.330907, 48.762844]}, "properties": {"etat de la localisation": "Mission suivante non connue", "numparc": 6928, "duree": "", "horodatage": "2023-05-09 17:46:14", "marker-color": "#7156FF"}}, {"type": "Feature", "geometry": {"type": "Point", "coordinates": [2.331045, 48.763008]}, "properties": {"etat de la localisation": "Mission suivante non connue", "numparc": 6928, "duree": "", "horodatage": "2023-05-09 17:46:46", "marker-color": "#7156FF"}}, {"type": "Feature", "geometry": {"type": "Point", "coordinates": [2.327393, 48.777763]}, "properties": {"etat de la localisation": "Delocalise", "numparc": 6929, "duree": "00:02:22", "horodatage": "2023-05-09 17:47:35", "marker-color": "#FF565E"}}, {"type": "Feature", "geometry": {"type": "Point", "coordinates": [2.330834, 48.762703]}, "properties": {"etat de la localisation": "Mission suivante non connue", "numparc": 6912, "duree": "", "horodatage": "2023-05-09 17:53:08", "marker-color": "#7156FF"}}, {"type": "Feature", "geometry": {"type": "Point", "coordinates": [2.330834, 48.762703]}, "properties": {"etat de la localisation": "Mission suivante non connue", "numparc": 6912, "duree": "", "horodatage": "2023-05-09 17:53:33", "marker-color": "#7156FF"}}, {"type": "Feature", "geometry": {"type": "Point", "coordinates": [2.320087, 48.758659]}, "properties": {"etat de la localisation": "Delocalise", "numparc": 6929, "duree": "00:00:45", "horodatage": "2023-05-09 17:54:47", "marker-color": "#FF565E"}}, {"type": "Feature", "geometry": {"type": "Point", "coordinates": [2.388121, 48.75388]}, "properties": {"etat de la localisation": "Delocalise", "numparc": 6915, "duree": "00:33:13", "horodatage": "2023-05-09 17:55:12", "marker-color": "#FF565E"}}, {"type": "Feature", "geometry": {"type": "Point", "coordinates": [2.386939, 48.753834]}, "properties": {"etat de la localisation": "Mission inconnue", "numparc": 6911, "duree": "", "horodatage": "2023-05-09 18:09:07", "marker-color": "#FF9F56"}}, {"type": "Feature", "geometry": {"type": "Point", "coordinates": [2.387328, 48.753994]}, "properties": {"etat de la localisation": "Hors service", "numparc": 6924, "duree": "", "horodatage": "2023-05-09 18:42:21", "marker-color": "#707070"}}, {"type": "Feature", "geometry": {"type": "Point", "coordinates": [2.387622, 48.754395]}, "properties": {"etat de la localisation": "Mission inconnue", "numparc": 6924, "duree": "", "horodatage": "2023-05-09 18:55:53", "marker-color": "#FF9F56"}}, {"type": "Feature", "geometry": {"type": "Point", "coordinates": [2.387414, 48.753933]}, "properties": {"etat de la localisation": "Hors service", "numparc": 6919, "duree": "", "horodatage": "2023-05-09 18:59:08", "marker-color": "#707070"}}, {"type": "Feature", "geometry": {"type": "Point", "coordinates": [2.331074, 48.762978]}, "properties": {"etat de la localisation": "Mission suivante non connue", "numparc": 6907, "duree": "", "horodatage": "2023-05-09 19:01:16", "marker-color": "#7156FF"}}, {"type": "Feature", "geometry": {"type": "Point", "coordinates": [2.331074, 48.762978]}, "properties": {"etat de la localisation": "Mission suivante non connue", "numparc": 6907, "duree": "", "horodatage": "2023-05-09 19:05:57", "marker-color": "#7156FF"}}, {"type": "Feature", "geometry": {"type": "Point", "coordinates": [2.387396, 48.754025]}, "properties": {"etat de la localisation": "Hors service", "numparc": 6918, "duree": "", "horodatage": "2023-05-09 19:11:09", "marker-color": "#707070"}}, {"type": "Feature", "geometry": {"type": "Point", "coordinates": [2.387099, 48.753883]}, "properties": {"etat de la localisation": "Hors service", "numparc": 6912, "duree": "", "horodatage": "2023-05-09 19:26:12", "marker-color": "#707070"}}, {"type": "Feature", "geometry": {"type": "Point", "coordinates": [2.387261, 48.753883]}, "properties": {"etat de la localisation": "Hors service", "numparc": 6928, "duree": "", "horodatage": "2023-05-09 19:56:16", "marker-color": "#707070"}}, {"type": "Feature", "geometry": {"type": "Point", "coordinates": [2.387371, 48.753918]}, "properties": {"etat de la localisation": "Mission inconnue", "numparc": 6928, "duree": "", "horodatage": "2023-05-09 19:59:22", "marker-color": "#FF9F56"}}, {"type": "Feature", "geometry": {"type": "Point", "coordinates": [2.331046, 48.762985]}, "properties": {"etat de la localisation": "Mission suivante non connue", "numparc": 6929, "duree": "", "horodatage": "2023-05-09 19:59:32", "marker-color": "#7156FF"}}, {"type": "Feature", "geometry": {"type": "Point", "coordinates": [2.331046, 48.762985]}, "properties": {"etat de la localisation": "Mission suivante non connue", "numparc": 6929, "duree": "", "horodatage": "2023-05-09 19:59:47", "marker-color": "#7156FF"}}, {"type": "Feature", "geometry": {"type": "Point", "coordinates": [2.387197, 48.753899]}, "properties": {"etat de la localisation": "Hors service", "numparc": 6930, "duree": "", "horodatage": "2023-05-09 20:01:02", "marker-color": "#707070"}}, {"type": "Feature", "geometry": {"type": "Point", "coordinates": [2.387871, 48.754475]}, "properties": {"etat de la localisation": "Hors service", "numparc": 6928, "duree": "", "horodatage": "2023-05-09 20:02:18", "marker-color": "#707070"}}, {"type": "Feature", "geometry": {"type": "Point", "coordinates": [2.387245, 48.753883]}, "properties": {"etat de la localisation": "Hors service", "numparc": 6917, "duree": "", "horodatage": "2023-05-09 20:14:09", "marker-color": "#707070"}}, {"type": "Feature", "geometry": {"type": "Point", "coordinates": [2.386731, 48.755329]}, "properties": {"etat de la localisation": "Hors service", "numparc": 6907, "duree": "", "horodatage": "2023-05-09 20:15:27", "marker-color": "#707070"}}, {"type": "Feature", "geometry": {"type": "Point", "coordinates": [2.326094, 48.813084]}, "properties": {"etat de la localisation": "Hors service", "numparc": 6916, "duree": "", "horodatage": "2023-05-09 20:17:44", "marker-color": "#707070"}}, {"type": "Feature", "geometry": {"type": "Point", "coordinates": [2.387214, 48.753925]}, "properties": {"etat de la localisation": "Hors service", "numparc": 6927, "duree": "", "horodatage": "2023-05-09 20:43:24", "marker-color": "#707070"}}, {"type": "Feature", "geometry": {"type": "Point", "coordinates": [2.330779, 48.762684]}, "properties": {"etat de la localisation": "Mission suivante non connue", "numparc": 6908, "duree": "", "horodatage": "2023-05-09 20:51:09", "marker-color": "#7156FF"}}, {"type": "Feature", "geometry": {"type": "Point", "coordinates": [2.330779, 48.762684]}, "properties": {"etat de la localisation": "Mission suivante non connue", "numparc": 6908, "duree": "", "horodatage": "2023-05-09 20:51:20", "marker-color": "#7156FF"}}, {"type": "Feature", "geometry": {"type": "Point", "coordinates": [2.387387, 48.754036]}, "properties": {"etat de la localisation": "Hors service", "numparc": 6908, "duree": "", "horodatage": "2023-05-09 21:01:46", "marker-color": "#707070"}}, {"type": "Feature", "geometry": {"type": "Point", "coordinates": [2.331027, 48.763016]}, "properties": {"etat de la localisation": "Mission suivante non connue", "numparc": 6931, "duree": "", "horodatage": "2023-05-09 21:02:40", "marker-color": "#7156FF"}}, {"type": "Feature", "geometry": {"type": "Point", "coordinates": [2.386974, 48.755356]}, "properties": {"etat de la localisation": "Mission inconnue", "numparc": 6917, "duree": "", "horodatage": "2023-05-09 21:35:24", "marker-color": "#FF9F56"}}, {"type": "Feature", "geometry": {"type": "Point", "coordinates": [2.38675, 48.755257]}, "properties": {"etat de la localisation": "Hors service", "numparc": 6929, "duree": "", "horodatage": "2023-05-09 21:35:33", "marker-color": "#707070"}}, {"type": "Feature", "geometry": {"type": "Point", "coordinates": [2.386974, 48.755356]}, "properties": {"etat de la localisation": "Hors service", "numparc": 6917, "duree": "", "horodatage": "2023-05-09 21:50:29", "marker-color": "#707070"}}, {"type": "Feature", "geometry": {"type": "Point", "coordinates": [2.318273, 48.762085]}, "properties": {"etat de la localisation": "Mission suivante non connue", "numparc": 6926, "duree": "", "horodatage": "2023-05-09 21:51:07", "marker-color": "#7156FF"}}, {"type": "Feature", "geometry": {"type": "Point", "coordinates": [2.318273, 48.762085]}, "properties": {"etat de la localisation": "Mission inconnue", "numparc": 6926, "duree": "", "horodatage": "2023-05-09 21:51:23", "marker-color": "#FF9F56"}}, {"type": "Feature", "geometry": {"type": "Point", "coordinates": [2.386998, 48.75536]}, "properties": {"etat de la localisation": "Hors service", "numparc": 6926, "duree": "", "horodatage": "2023-05-09 22:06:24", "marker-color": "#707070"}}, {"type": "Feature", "geometry": {"type": "Point", "coordinates": [2.387436, 48.753933]}, "properties": {"etat de la localisation": "Hors service", "numparc": 6915, "duree": "", "horodatage": "2023-05-09 22:38:32", "marker-color": "#707070"}}, {"type": "Feature", "geometry": {"type": "Point", "coordinates": [2.38742, 48.753963]}, "properties": {"etat de la localisation": "Hors service", "numparc": 6931, "duree": "", "horodatage": "2023-05-09 22:42:51", "marker-color": "#707070"}}, {"type": "Feature", "geometry": {"type": "Point", "coordinates": [2.387439, 48.75399]}, "properties": {"etat de la localisation": "Hors service", "numparc": 6924, "duree": "", "horodatage": "2023-05-10 01:11:48", "marker-color": "#707070"}}, {"type": "Feature", "geometry": {"type": "Point", "coordinates": [2.387482, 48.754261]}, "properties": {"etat de la localisation": "Hors service", "numparc": 6911, "duree": "", "horodatage": "2023-05-10 01:26:43", "marker-color": "#707070"}}, {"type": "Feature", "geometry": {"type": "Point", "coordinates": [2.388065, 48.753918]}, "properties": {"etat de la localisation": "Mission inconnue", "numparc": 6909, "duree": "", "horodatage": "2023-05-10 01:43:40", "marker-color": "#FF9F56"}}, {"type": "Feature", "geometry": {"type": "Point", "coordinates": [2.388545, 48.754124]}, "properties": {"etat de la localisation": "Hors service", "numparc": 6909, "duree": "", "horodatage": "2023-05-10 02:00:01", "marker-color": "#707070"}}, {"type": "Feature", "geometry": {"type": "Point", "coordinates": [2.388552, 48.754128]}, "properties": {"etat de la localisation": "Mission inconnue", "numparc": 6909, "duree": "", "horodatage": "2023-05-10 02:10:30", "marker-color": "#FF9F56"}}, {"type": "Feature", "geometry": {"type": "Point", "coordinates": [2.388082, 48.754269]}, "properties": {"etat de la localisation": "Hors service", "numparc": 6909, "duree": "", "horodatage": "2023-05-10 02:19:51", "marker-color": "#707070"}}]}