{"type": "FeatureCollection", "features": [{"type": "Feature", "geometry": {"type": "Point", "coordinates": [2.326097, 48.822948]}, "properties": {"alarme": "VEHICULE DELOCALISE", "numparc": 4861, "type": "EXPLOITATION", "duree": "00:03:04", "horodatage": "2021-10-25 05:45:05", "statut": "start", "marker-color": "#ff0000"}}, {"type": "Feature", "geometry": {"type": "Point", "coordinates": [2.289754, 48.734726]}, "properties": {"alarme": "VEHICULE DELOCALISE", "numparc": 4861, "type": "EXPLOITATION", "duree": "00:03:10", "horodatage": "2021-10-25 11:23:57", "statut": "start", "marker-color": "#ff0000"}}, {"type": "Feature", "geometry": {"type": "Point", "coordinates": [2.325513, 48.819397]}, "properties": {"alarme": "VEHICULE DELOCALISE", "numparc": 4861, "type": "EXPLOITATION", "duree": "00:03:04", "horodatage": "2021-10-25 05:48:09", "statut": "end", "marker-color": "#2fe184"}}, {"type": "Feature", "geometry": {"type": "Point", "coordinates": [2.286277, 48.73336]}, "properties": {"alarme": "VEHICULE DELOCALISE", "numparc": 4861, "type": "EXPLOITATION", "duree": "00:03:10", "horodatage": "2021-10-25 11:27:07", "statut": "end", "marker-color": "#2fe184"}}]}