{"type": "FeatureCollection", "features": [{"type": "Feature", "geometry": {"type": "Point", "coordinates": [2.407557, 48.849194]}, "properties": {"etat de la localisation": "Mission inconnue", "numparc": 606, "duree": "", "horodatage": "2023-06-03 08:41:28", "marker-color": "#FF9F56"}}, {"type": "Feature", "geometry": {"type": "Point", "coordinates": [2.411874, 48.84103]}, "properties": {"etat de la localisation": "Hors service", "numparc": 606, "duree": "", "horodatage": "2023-06-03 08:55:40", "marker-color": "#707070"}}, {"type": "Feature", "geometry": {"type": "Point", "coordinates": [2.412294, 48.841183]}, "properties": {"etat de la localisation": "Hors service", "numparc": 606, "duree": "", "horodatage": "2023-06-03 13:37:52", "marker-color": "#707070"}}, {"type": "Feature", "geometry": {"type": "Point", "coordinates": [2.407175, 48.849533]}, "properties": {"etat de la localisation": "Hors service", "numparc": 607, "duree": "", "horodatage": "2023-06-03 16:20:41", "marker-color": "#707070"}}, {"type": "Feature", "geometry": {"type": "Point", "coordinates": [2.406783, 48.848896]}, "properties": {"etat de la localisation": "Mission inconnue", "numparc": 608, "duree": "", "horodatage": "2023-06-03 16:26:44", "marker-color": "#FF9F56"}}, {"type": "Feature", "geometry": {"type": "Point", "coordinates": [2.35367, 48.862827]}, "properties": {"etat de la localisation": "Deviation programmee", "numparc": 608, "duree": "", "horodatage": "2023-06-03 17:54:23", "marker-color": "#56FF93"}}, {"type": "Feature", "geometry": {"type": "Point", "coordinates": [2.332787, 48.869976]}, "properties": {"etat de la localisation": "Mission suivante non connue", "numparc": 619, "duree": "", "horodatage": "2023-06-03 19:32:13", "marker-color": "#7156FF"}}, {"type": "Feature", "geometry": {"type": "Point", "coordinates": [2.332787, 48.869976]}, "properties": {"etat de la localisation": "Mission inconnue", "numparc": 619, "duree": "", "horodatage": "2023-06-03 19:32:45", "marker-color": "#FF9F56"}}, {"type": "Feature", "geometry": {"type": "Point", "coordinates": [2.333405, 48.870144]}, "properties": {"etat de la localisation": "Mission inconnue", "numparc": 619, "duree": "", "horodatage": "2023-06-03 19:39:17", "marker-color": "#FF9F56"}}, {"type": "Feature", "geometry": {"type": "Point", "coordinates": [2.351792, 48.863232]}, "properties": {"etat de la localisation": "Mission inconnue", "numparc": 619, "duree": "", "horodatage": "2023-06-03 19:55:05", "marker-color": "#FF9F56"}}, {"type": "Feature", "geometry": {"type": "Point", "coordinates": [2.354508, 48.860905]}, "properties": {"etat de la localisation": "Delocalise", "numparc": 619, "duree": "00:01:15", "horodatage": "2023-06-03 20:02:41", "marker-color": "#FF565E"}}, {"type": "Feature", "geometry": {"type": "Point", "coordinates": [2.405787, 48.845444]}, "properties": {"etat de la localisation": "Mission suivante non connue", "numparc": 598, "duree": "", "horodatage": "2023-06-03 20:43:58", "marker-color": "#7156FF"}}, {"type": "Feature", "geometry": {"type": "Point", "coordinates": [2.407494, 48.849396]}, "properties": {"etat de la localisation": "Hors service", "numparc": 619, "duree": "", "horodatage": "2023-06-03 20:49:54", "marker-color": "#707070"}}, {"type": "Feature", "geometry": {"type": "Point", "coordinates": [2.407147, 48.85001]}, "properties": {"etat de la localisation": "Hors service", "numparc": 598, "duree": "", "horodatage": "2023-06-03 20:52:05", "marker-color": "#707070"}}, {"type": "Feature", "geometry": {"type": "Point", "coordinates": [2.339565, 48.86935]}, "properties": {"etat de la localisation": "Delocalise", "numparc": 614, "duree": "00:03:49", "horodatage": "2023-06-03 21:34:50", "marker-color": "#FF565E"}}, {"type": "Feature", "geometry": {"type": "Point", "coordinates": [2.407131, 48.849201]}, "properties": {"etat de la localisation": "Hors service", "numparc": 614, "duree": "", "horodatage": "2023-06-03 22:22:31", "marker-color": "#707070"}}, {"type": "Feature", "geometry": {"type": "Point", "coordinates": [2.407328, 48.850063]}, "properties": {"etat de la localisation": "Hors service", "numparc": 608, "duree": "", "horodatage": "2023-06-03 22:43:39", "marker-color": "#707070"}}]}