{"type": "FeatureCollection", "features": [{"type": "Feature", "geometry": {"type": "Point", "coordinates": [2.371386, 48.836121]}, "properties": {"alarme": "VEHICULE DELOCALISE", "numparc": 627, "type": "EXPLOITATION", "duree": "00:02:43", "horodatage": "2022-12-27 05:47:21", "statut": "start", "marker-color": "#ff0000"}}, {"type": "Feature", "geometry": {"type": "Point", "coordinates": [2.370766, 48.837551]}, "properties": {"alarme": "VEHICULE DELOCALISE", "numparc": 627, "type": "EXPLOITATION", "duree": "00:06:51", "horodatage": "2022-12-27 06:55:43", "statut": "start", "marker-color": "#ff0000"}}, {"type": "Feature", "geometry": {"type": "Point", "coordinates": [2.370742, 48.837566]}, "properties": {"alarme": "VEHICULE DELOCALISE", "numparc": 627, "type": "EXPLOITATION", "duree": "00:03:58", "horodatage": "2022-12-27 10:25:19", "statut": "start", "marker-color": "#ff0000"}}, {"type": "Feature", "geometry": {"type": "Point", "coordinates": [2.369175, 48.842648]}, "properties": {"alarme": "VEHICULE DELOCALISE", "numparc": 627, "type": "EXPLOITATION", "duree": "00:03:39", "horodatage": "2022-12-27 12:40:49", "statut": "start", "marker-color": "#ff0000"}}, {"type": "Feature", "geometry": {"type": "Point", "coordinates": [2.38205, 48.840023]}, "properties": {"alarme": "VEHICULE DELOCALISE", "numparc": 627, "type": "EXPLOITATION", "duree": "00:02:43", "horodatage": "2022-12-27 05:50:04", "statut": "end", "marker-color": "#2fe184"}}, {"type": "Feature", "geometry": {"type": "Point", "coordinates": [2.364188, 48.843975]}, "properties": {"alarme": "VEHICULE DELOCALISE", "numparc": 627, "type": "EXPLOITATION", "duree": "00:06:51", "horodatage": "2022-12-27 07:02:34", "statut": "end", "marker-color": "#2fe184"}}, {"type": "Feature", "geometry": {"type": "Point", "coordinates": [2.364131, 48.844139]}, "properties": {"alarme": "VEHICULE DELOCALISE", "numparc": 627, "type": "EXPLOITATION", "duree": "00:03:58", "horodatage": "2022-12-27 10:29:17", "statut": "end", "marker-color": "#2fe184"}}, {"type": "Feature", "geometry": {"type": "Point", "coordinates": [2.364157, 48.844139]}, "properties": {"alarme": "VEHICULE DELOCALISE", "numparc": 627, "type": "EXPLOITATION", "duree": "00:03:39", "horodatage": "2022-12-27 12:44:28", "statut": "end", "marker-color": "#2fe184"}}]}