{"type": "FeatureCollection", "features": [{"type": "Feature", "geometry": {"type": "Point", "coordinates": [2.450337, 48.767151]}, "properties": {"alarme": "VEHICULE DELOCALISE", "numparc": 9537, "type": "EXPLOITATION", "duree": "00:02:36", "horodatage": "2021-12-12 07:08:16", "statut": "start", "marker-color": "#ff0000"}}, {"type": "Feature", "geometry": {"type": "Point", "coordinates": [2.474913, 48.766163]}, "properties": {"alarme": "VEHICULE DELOCALISE", "numparc": 9537, "type": "EXPLOITATION", "duree": "00:05:51", "horodatage": "2021-12-12 07:11:31", "statut": "start", "marker-color": "#ff0000"}}, {"type": "Feature", "geometry": {"type": "Point", "coordinates": [2.38863, 48.75716]}, "properties": {"alarme": "VEHICULE DELOCALISE", "numparc": 9538, "type": "EXPLOITATION", "duree": "00:00:14", "horodatage": "2021-12-12 11:46:52", "statut": "start", "marker-color": "#ff0000"}}, {"type": "Feature", "geometry": {"type": "Point", "coordinates": [2.38821, 48.756809]}, "properties": {"alarme": "VEHICULE DELOCALISE", "numparc": 9531, "type": "EXPLOITATION", "duree": "00:00:26", "horodatage": "2021-12-12 12:12:55", "statut": "start", "marker-color": "#ff0000"}}, {"type": "Feature", "geometry": {"type": "Point", "coordinates": [2.388298, 48.757027]}, "properties": {"alarme": "VEHICULE DELOCALISE", "numparc": 9537, "type": "EXPLOITATION", "duree": "00:00:22", "horodatage": "2021-12-12 12:48:40", "statut": "start", "marker-color": "#ff0000"}}, {"type": "Feature", "geometry": {"type": "Point", "coordinates": [2.446292, 48.771412]}, "properties": {"alarme": "VEHICULE DELOCALISE", "numparc": 9530, "type": "EXPLOITATION", "duree": "00:00:38", "horodatage": "2021-12-12 13:20:45", "statut": "start", "marker-color": "#ff0000"}}, {"type": "Feature", "geometry": {"type": "Point", "coordinates": [2.450931, 48.767033]}, "properties": {"alarme": "VEHICULE DELOCALISE", "numparc": 9530, "type": "EXPLOITATION", "duree": "00:01:00", "horodatage": "2021-12-12 13:22:18", "statut": "start", "marker-color": "#ff0000"}}, {"type": "Feature", "geometry": {"type": "Point", "coordinates": [2.462807, 48.768929]}, "properties": {"alarme": "VEHICULE DELOCALISE", "numparc": 9530, "type": "EXPLOITATION", "duree": "00:00:26", "horodatage": "2021-12-12 13:24:12", "statut": "start", "marker-color": "#ff0000"}}, {"type": "Feature", "geometry": {"type": "Point", "coordinates": [2.467509, 48.767685]}, "properties": {"alarme": "VEHICULE DELOCALISE", "numparc": 9530, "type": "EXPLOITATION", "duree": "00:00:41", "horodatage": "2021-12-12 13:25:23", "statut": "start", "marker-color": "#ff0000"}}, {"type": "Feature", "geometry": {"type": "Point", "coordinates": [2.475008, 48.766125]}, "properties": {"alarme": "VEHICULE DELOCALISE", "numparc": 9530, "type": "EXPLOITATION", "duree": "00:04:17", "horodatage": "2021-12-12 13:28:47", "statut": "start", "marker-color": "#ff0000"}}, {"type": "Feature", "geometry": {"type": "Point", "coordinates": [2.486765, 48.767822]}, "properties": {"alarme": "VEHICULE DELOCALISE", "numparc": 9530, "type": "EXPLOITATION", "duree": "00:00:17", "horodatage": "2021-12-12 13:34:55", "statut": "start", "marker-color": "#ff0000"}}, {"type": "Feature", "geometry": {"type": "Point", "coordinates": [2.489681, 48.769436]}, "properties": {"alarme": "VEHICULE DELOCALISE", "numparc": 9530, "type": "EXPLOITATION", "duree": "00:00:42", "horodatage": "2021-12-12 13:36:01", "statut": "start", "marker-color": "#ff0000"}}, {"type": "Feature", "geometry": {"type": "Point", "coordinates": [2.493205, 48.773277]}, "properties": {"alarme": "VEHICULE DELOCALISE", "numparc": 9530, "type": "EXPLOITATION", "duree": "00:00:38", "horodatage": "2021-12-12 13:37:23", "statut": "start", "marker-color": "#ff0000"}}, {"type": "Feature", "geometry": {"type": "Point", "coordinates": [2.499915, 48.772907]}, "properties": {"alarme": "VEHICULE DELOCALISE", "numparc": 9530, "type": "EXPLOITATION", "duree": "00:01:28", "horodatage": "2021-12-12 13:39:07", "statut": "start", "marker-color": "#ff0000"}}, {"type": "Feature", "geometry": {"type": "Point", "coordinates": [2.388195, 48.757015]}, "properties": {"alarme": "VEHICULE DELOCALISE", "numparc": 9543, "type": "EXPLOITATION", "duree": "00:00:24", "horodatage": "2021-12-12 14:07:43", "statut": "start", "marker-color": "#ff0000"}}, {"type": "Feature", "geometry": {"type": "Point", "coordinates": [2.388304, 48.757015]}, "properties": {"alarme": "VEHICULE DELOCALISE", "numparc": 9531, "type": "EXPLOITATION", "duree": "00:00:27", "horodatage": "2021-12-12 16:07:30", "statut": "start", "marker-color": "#ff0000"}}, {"type": "Feature", "geometry": {"type": "Point", "coordinates": [2.388223, 48.757008]}, "properties": {"alarme": "VEHICULE DELOCALISE", "numparc": 9543, "type": "EXPLOITATION", "duree": "00:00:23", "horodatage": "2021-12-12 17:56:39", "statut": "start", "marker-color": "#ff0000"}}, {"type": "Feature", "geometry": {"type": "Point", "coordinates": [2.441422, 48.772114]}, "properties": {"alarme": "DEFAUT LIAISON DATA SAEIV / AIGLE", "numparc": 9527, "type": "TECHNIQUE", "duree": "00:01:32", "horodatage": "2021-12-13 00:06:53", "statut": "start", "marker-color": "#ff0000"}}, {"type": "Feature", "geometry": {"type": "Point", "coordinates": [2.441422, 48.772114]}, "properties": {"alarme": "DEFAUT LIAISON DATA SAEIV / AIGLE", "numparc": 9527, "type": "TECHNIQUE", "duree": "00:01:08", "horodatage": "2021-12-13 00:10:22", "statut": "start", "marker-color": "#ff0000"}}, {"type": "Feature", "geometry": {"type": "Point", "coordinates": [2.471085, 48.766857]}, "properties": {"alarme": "VEHICULE DELOCALISE", "numparc": 9537, "type": "EXPLOITATION", "duree": "00:02:36", "horodatage": "2021-12-12 07:10:52", "statut": "end", "marker-color": "#2fe184"}}, {"type": "Feature", "geometry": {"type": "Point", "coordinates": [2.506561, 48.771805]}, "properties": {"alarme": "VEHICULE DELOCALISE", "numparc": 9537, "type": "EXPLOITATION", "duree": "00:05:51", "horodatage": "2021-12-12 07:17:22", "statut": "end", "marker-color": "#2fe184"}}, {"type": "Feature", "geometry": {"type": "Point", "coordinates": [2.388907, 48.757225]}, "properties": {"alarme": "VEHICULE DELOCALISE", "numparc": 9538, "type": "EXPLOITATION", "duree": "00:00:14", "horodatage": "2021-12-12 11:47:06", "statut": "end", "marker-color": "#2fe184"}}, {"type": "Feature", "geometry": {"type": "Point", "coordinates": [2.388926, 48.757221]}, "properties": {"alarme": "VEHICULE DELOCALISE", "numparc": 9531, "type": "EXPLOITATION", "duree": "00:00:26", "horodatage": "2021-12-12 12:13:21", "statut": "end", "marker-color": "#2fe184"}}, {"type": "Feature", "geometry": {"type": "Point", "coordinates": [2.388843, 48.757195]}, "properties": {"alarme": "VEHICULE DELOCALISE", "numparc": 9537, "type": "EXPLOITATION", "duree": "00:00:22", "horodatage": "2021-12-12 12:49:02", "statut": "end", "marker-color": "#2fe184"}}, {"type": "Feature", "geometry": {"type": "Point", "coordinates": [2.447242, 48.769093]}, "properties": {"alarme": "VEHICULE DELOCALISE", "numparc": 9530, "type": "EXPLOITATION", "duree": "00:00:38", "horodatage": "2021-12-12 13:21:23", "statut": "end", "marker-color": "#2fe184"}}, {"type": "Feature", "geometry": {"type": "Point", "coordinates": [2.456699, 48.768326]}, "properties": {"alarme": "VEHICULE DELOCALISE", "numparc": 9530, "type": "EXPLOITATION", "duree": "00:01:00", "horodatage": "2021-12-12 13:23:18", "statut": "end", "marker-color": "#2fe184"}}, {"type": "Feature", "geometry": {"type": "Point", "coordinates": [2.463862, 48.768661]}, "properties": {"alarme": "VEHICULE DELOCALISE", "numparc": 9530, "type": "EXPLOITATION", "duree": "00:00:26", "horodatage": "2021-12-12 13:24:38", "statut": "end", "marker-color": "#2fe184"}}, {"type": "Feature", "geometry": {"type": "Point", "coordinates": [2.470996, 48.766869]}, "properties": {"alarme": "VEHICULE DELOCALISE", "numparc": 9530, "type": "EXPLOITATION", "duree": "00:00:41", "horodatage": "2021-12-12 13:26:04", "statut": "end", "marker-color": "#2fe184"}}, {"type": "Feature", "geometry": {"type": "Point", "coordinates": [2.481653, 48.765667]}, "properties": {"alarme": "VEHICULE DELOCALISE", "numparc": 9530, "type": "EXPLOITATION", "duree": "00:04:17", "horodatage": "2021-12-12 13:33:04", "statut": "end", "marker-color": "#2fe184"}}, {"type": "Feature", "geometry": {"type": "Point", "coordinates": [2.487122, 48.767986]}, "properties": {"alarme": "VEHICULE DELOCALISE", "numparc": 9530, "type": "EXPLOITATION", "duree": "00:00:17", "horodatage": "2021-12-12 13:35:12", "statut": "end", "marker-color": "#2fe184"}}, {"type": "Feature", "geometry": {"type": "Point", "coordinates": [2.49042, 48.772041]}, "properties": {"alarme": "VEHICULE DELOCALISE", "numparc": 9530, "type": "EXPLOITATION", "duree": "00:00:42", "horodatage": "2021-12-12 13:36:43", "statut": "end", "marker-color": "#2fe184"}}, {"type": "Feature", "geometry": {"type": "Point", "coordinates": [2.496197, 48.773148]}, "properties": {"alarme": "VEHICULE DELOCALISE", "numparc": 9530, "type": "EXPLOITATION", "duree": "00:00:38", "horodatage": "2021-12-12 13:38:01", "statut": "end", "marker-color": "#2fe184"}}, {"type": "Feature", "geometry": {"type": "Point", "coordinates": [2.50656, 48.771797]}, "properties": {"alarme": "VEHICULE DELOCALISE", "numparc": 9530, "type": "EXPLOITATION", "duree": "00:01:28", "horodatage": "2021-12-12 13:40:35", "statut": "end", "marker-color": "#2fe184"}}, {"type": "Feature", "geometry": {"type": "Point", "coordinates": [2.388871, 48.757221]}, "properties": {"alarme": "VEHICULE DELOCALISE", "numparc": 9543, "type": "EXPLOITATION", "duree": "00:00:24", "horodatage": "2021-12-12 14:08:07", "statut": "end", "marker-color": "#2fe184"}}, {"type": "Feature", "geometry": {"type": "Point", "coordinates": [2.389004, 48.757263]}, "properties": {"alarme": "VEHICULE DELOCALISE", "numparc": 9531, "type": "EXPLOITATION", "duree": "00:00:27", "horodatage": "2021-12-12 16:07:57", "statut": "end", "marker-color": "#2fe184"}}, {"type": "Feature", "geometry": {"type": "Point", "coordinates": [2.388884, 48.757175]}, "properties": {"alarme": "VEHICULE DELOCALISE", "numparc": 9543, "type": "EXPLOITATION", "duree": "00:00:23", "horodatage": "2021-12-12 17:57:02", "statut": "end", "marker-color": "#2fe184"}}, {"type": "Feature", "geometry": {"type": "Point", "coordinates": [2.441422, 48.772114]}, "properties": {"alarme": "DEFAUT LIAISON DATA SAEIV / AIGLE", "numparc": 9527, "type": "TECHNIQUE", "duree": "00:01:32", "horodatage": "2021-12-13 00:08:25", "statut": "end", "marker-color": "#2fe184"}}, {"type": "Feature", "geometry": {"type": "Point", "coordinates": [2.441422, 48.772114]}, "properties": {"alarme": "DEFAUT LIAISON DATA SAEIV / AIGLE", "numparc": 9527, "type": "TECHNIQUE", "duree": "00:01:08", "horodatage": "2021-12-13 00:11:30", "statut": "end", "marker-color": "#2fe184"}}]}