{"type": "FeatureCollection", "features": [{"type": "Feature", "geometry": {"type": "Point", "coordinates": [2.330135, 48.822716]}, "properties": {"etat de la localisation": "Delocalise", "numparc": 1417, "duree": "00:02:16", "horodatage": "2022-06-12 06:44:59", "marker-color": "#FF565E"}}, {"type": "Feature", "geometry": {"type": "Point", "coordinates": [2.328494, 48.823154]}, "properties": {"etat de la localisation": "Hors service", "numparc": 1417, "duree": "", "horodatage": "2022-06-12 06:47:15", "marker-color": "#707070"}}, {"type": "Feature", "geometry": {"type": "Point", "coordinates": [2.324781, 48.821903]}, "properties": {"etat de la localisation": "Hors service", "numparc": 1417, "duree": "", "horodatage": "2022-06-12 06:57:28", "marker-color": "#707070"}}, {"type": "Feature", "geometry": {"type": "Point", "coordinates": [2.329854, 48.822842]}, "properties": {"etat de la localisation": "Mission inconnue", "numparc": 1452, "duree": "", "horodatage": "2022-06-12 07:13:18", "marker-color": "#FF9F56"}}, {"type": "Feature", "geometry": {"type": "Point", "coordinates": [2.327355, 48.823795]}, "properties": {"etat de la localisation": "Mission inconnue", "numparc": 1391, "duree": "", "horodatage": "2022-06-12 07:38:00", "marker-color": "#FF9F56"}}, {"type": "Feature", "geometry": {"type": "Point", "coordinates": [2.325033, 48.819885]}, "properties": {"etat de la localisation": "Delocalise", "numparc": 1391, "duree": "00:22:08", "horodatage": "2022-06-12 07:51:40", "marker-color": "#FF565E"}}, {"type": "Feature", "geometry": {"type": "Point", "coordinates": [2.330182, 48.822979]}, "properties": {"etat de la localisation": "Delocalise", "numparc": 1468, "duree": "00:04:29", "horodatage": "2022-06-12 07:55:13", "marker-color": "#FF565E"}}, {"type": "Feature", "geometry": {"type": "Point", "coordinates": [2.328459, 48.822987]}, "properties": {"etat de la localisation": "Hors service", "numparc": 1468, "duree": "", "horodatage": "2022-06-12 07:59:42", "marker-color": "#707070"}}, {"type": "Feature", "geometry": {"type": "Point", "coordinates": [2.324866, 48.821888]}, "properties": {"etat de la localisation": "Hors service", "numparc": 1417, "duree": "", "horodatage": "2022-06-12 07:59:54", "marker-color": "#707070"}}, {"type": "Feature", "geometry": {"type": "Point", "coordinates": [2.325415, 48.818462]}, "properties": {"etat de la localisation": "Mission inconnue", "numparc": 1417, "duree": "", "horodatage": "2022-06-12 08:03:30", "marker-color": "#FF9F56"}}, {"type": "Feature", "geometry": {"type": "Point", "coordinates": [2.29919, 48.796959]}, "properties": {"etat de la localisation": "Delocalise", "numparc": 1391, "duree": "00:15:51", "horodatage": "2022-06-12 08:24:56", "marker-color": "#FF565E"}}, {"type": "Feature", "geometry": {"type": "Point", "coordinates": [2.325417, 48.806225]}, "properties": {"etat de la localisation": "Delocalise", "numparc": 1391, "duree": "00:06:59", "horodatage": "2022-06-12 08:43:09", "marker-color": "#FF565E"}}, {"type": "Feature", "geometry": {"type": "Point", "coordinates": [2.324685, 48.821434]}, "properties": {"etat de la localisation": "Mission suivante non connue", "numparc": 1392, "duree": "", "horodatage": "2022-06-12 08:47:42", "marker-color": "#7156FF"}}, {"type": "Feature", "geometry": {"type": "Point", "coordinates": [2.324349, 48.820854]}, "properties": {"etat de la localisation": "Delocalise", "numparc": 1391, "duree": "00:17:54", "horodatage": "2022-06-12 09:02:40", "marker-color": "#FF565E"}}, {"type": "Feature", "geometry": {"type": "Point", "coordinates": [2.30264, 48.797859]}, "properties": {"etat de la localisation": "Delocalise", "numparc": 1392, "duree": "00:03:39", "horodatage": "2022-06-12 09:10:14", "marker-color": "#FF565E"}}, {"type": "Feature", "geometry": {"type": "Point", "coordinates": [2.300631, 48.78952]}, "properties": {"etat de la localisation": "Delocalise", "numparc": 1391, "duree": "00:06:59", "horodatage": "2022-06-12 09:22:09", "marker-color": "#FF565E"}}, {"type": "Feature", "geometry": {"type": "Point", "coordinates": [2.324823, 48.821892]}, "properties": {"etat de la localisation": "Hors service", "numparc": 1478, "duree": "", "horodatage": "2022-06-12 09:28:43", "marker-color": "#707070"}}, {"type": "Feature", "geometry": {"type": "Point", "coordinates": [2.298338, 48.794662]}, "properties": {"etat de la localisation": "Delocalise", "numparc": 1391, "duree": "00:08:57", "horodatage": "2022-06-12 09:39:11", "marker-color": "#FF565E"}}, {"type": "Feature", "geometry": {"type": "Point", "coordinates": [2.31764, 48.798378]}, "properties": {"etat de la localisation": "Delocalise", "numparc": 1391, "duree": "00:13:12", "horodatage": "2022-06-12 09:52:13", "marker-color": "#FF565E"}}, {"type": "Feature", "geometry": {"type": "Point", "coordinates": [2.302622, 48.797607]}, "properties": {"etat de la localisation": "Mission suivante non connue", "numparc": 1392, "duree": "", "horodatage": "2022-06-12 10:15:09", "marker-color": "#7156FF"}}, {"type": "Feature", "geometry": {"type": "Point", "coordinates": [2.325174, 48.817791]}, "properties": {"etat de la localisation": "Delocalise", "numparc": 1391, "duree": "00:00:43", "horodatage": "2022-06-12 10:18:15", "marker-color": "#FF565E"}}, {"type": "Feature", "geometry": {"type": "Point", "coordinates": [2.325857, 48.812321]}, "properties": {"etat de la localisation": "Delocalise", "numparc": 1391, "duree": "00:04:55", "horodatage": "2022-06-12 10:20:28", "marker-color": "#FF565E"}}, {"type": "Feature", "geometry": {"type": "Point", "coordinates": [2.317986, 48.799931]}, "properties": {"etat de la localisation": "Delocalise", "numparc": 1391, "duree": "00:02:55", "horodatage": "2022-06-12 10:28:30", "marker-color": "#FF565E"}}, {"type": "Feature", "geometry": {"type": "Point", "coordinates": [2.314174, 48.789696]}, "properties": {"etat de la localisation": "Delocalise", "numparc": 1391, "duree": "00:00:00", "horodatage": "2022-06-12 10:34:17", "marker-color": "#FF565E"}}, {"type": "Feature", "geometry": {"type": "Point", "coordinates": [2.30073, 48.789402]}, "properties": {"etat de la localisation": "Delocalise", "numparc": 1391, "duree": "00:00:00", "horodatage": "2022-06-12 10:39:46", "marker-color": "#FF565E"}}, {"type": "Feature", "geometry": {"type": "Point", "coordinates": [2.297737, 48.793888]}, "properties": {"etat de la localisation": "Delocalise", "numparc": 1391, "duree": "00:06:51", "horodatage": "2022-06-12 10:53:15", "marker-color": "#FF565E"}}, {"type": "Feature", "geometry": {"type": "Point", "coordinates": [2.315846, 48.793022]}, "properties": {"etat de la localisation": "Delocalise", "numparc": 1391, "duree": "00:00:00", "horodatage": "2022-06-12 11:04:58", "marker-color": "#FF565E"}}, {"type": "Feature", "geometry": {"type": "Point", "coordinates": [2.325829, 48.806221]}, "properties": {"etat de la localisation": "Delocalise", "numparc": 1391, "duree": "00:09:15", "horodatage": "2022-06-12 11:15:18", "marker-color": "#FF565E"}}, {"type": "Feature", "geometry": {"type": "Point", "coordinates": [2.32429, 48.820797]}, "properties": {"etat de la localisation": "Delocalise", "numparc": 1391, "duree": "00:17:39", "horodatage": "2022-06-12 11:26:33", "marker-color": "#FF565E"}}, {"type": "Feature", "geometry": {"type": "Point", "coordinates": [2.312458, 48.787384]}, "properties": {"etat de la localisation": "Delocalise", "numparc": 1391, "duree": "00:03:32", "horodatage": "2022-06-12 11:49:27", "marker-color": "#FF565E"}}, {"type": "Feature", "geometry": {"type": "Point", "coordinates": [2.297714, 48.793545]}, "properties": {"etat de la localisation": "Delocalise", "numparc": 1391, "duree": "00:06:44", "horodatage": "2022-06-12 11:55:47", "marker-color": "#FF565E"}}, {"type": "Feature", "geometry": {"type": "Point", "coordinates": [2.3131, 48.788139]}, "properties": {"etat de la localisation": "Delocalise", "numparc": 1391, "duree": "00:08:25", "horodatage": "2022-06-12 12:12:02", "marker-color": "#FF565E"}}, {"type": "Feature", "geometry": {"type": "Point", "coordinates": [2.319358, 48.803101]}, "properties": {"etat de la localisation": "Delocalise", "numparc": 1391, "duree": "00:09:36", "horodatage": "2022-06-12 12:21:06", "marker-color": "#FF565E"}}, {"type": "Feature", "geometry": {"type": "Point", "coordinates": [2.302516, 48.797485]}, "properties": {"etat de la localisation": "Mission suivante non connue", "numparc": 1478, "duree": "", "horodatage": "2022-06-12 12:21:58", "marker-color": "#7156FF"}}, {"type": "Feature", "geometry": {"type": "Point", "coordinates": [2.324018, 48.820408]}, "properties": {"etat de la localisation": "Delocalise", "numparc": 1391, "duree": "00:19:48", "horodatage": "2022-06-12 12:40:15", "marker-color": "#FF565E"}}, {"type": "Feature", "geometry": {"type": "Point", "coordinates": [2.302608, 48.797611]}, "properties": {"etat de la localisation": "Mission suivante non connue", "numparc": 1392, "duree": "", "horodatage": "2022-06-12 12:42:55", "marker-color": "#7156FF"}}, {"type": "Feature", "geometry": {"type": "Point", "coordinates": [2.302458, 48.786495]}, "properties": {"etat de la localisation": "Delocalise", "numparc": 1391, "duree": "00:00:00", "horodatage": "2022-06-12 13:01:04", "marker-color": "#FF565E"}}, {"type": "Feature", "geometry": {"type": "Point", "coordinates": [2.299739, 48.797085]}, "properties": {"etat de la localisation": "Delocalise", "numparc": 1391, "duree": "00:19:33", "horodatage": "2022-06-12 13:17:28", "marker-color": "#FF565E"}}, {"type": "Feature", "geometry": {"type": "Point", "coordinates": [2.328593, 48.823505]}, "properties": {"etat de la localisation": "Hors service", "numparc": 1468, "duree": "", "horodatage": "2022-06-12 13:33:46", "marker-color": "#707070"}}, {"type": "Feature", "geometry": {"type": "Point", "coordinates": [2.31933, 48.803062]}, "properties": {"etat de la localisation": "Delocalise", "numparc": 1391, "duree": "00:11:47", "horodatage": "2022-06-12 13:38:14", "marker-color": "#FF565E"}}, {"type": "Feature", "geometry": {"type": "Point", "coordinates": [2.325047, 48.819916]}, "properties": {"etat de la localisation": "Delocalise", "numparc": 1391, "duree": "00:01:57", "horodatage": "2022-06-12 13:52:54", "marker-color": "#FF565E"}}, {"type": "Feature", "geometry": {"type": "Point", "coordinates": [2.325838, 48.81321]}, "properties": {"etat de la localisation": "Delocalise", "numparc": 1391, "duree": "00:00:00", "horodatage": "2022-06-12 13:56:16", "marker-color": "#FF565E"}}, {"type": "Feature", "geometry": {"type": "Point", "coordinates": [2.302422, 48.786522]}, "properties": {"etat de la localisation": "Delocalise", "numparc": 1391, "duree": "00:00:00", "horodatage": "2022-06-12 14:16:07", "marker-color": "#FF565E"}}, {"type": "Feature", "geometry": {"type": "Point", "coordinates": [2.311862, 48.786572]}, "properties": {"etat de la localisation": "Delocalise", "numparc": 1391, "duree": "00:00:00", "horodatage": "2022-06-12 14:35:17", "marker-color": "#FF565E"}}, {"type": "Feature", "geometry": {"type": "Point", "coordinates": [2.299812, 48.796402]}, "properties": {"etat de la localisation": "Delocalise", "numparc": 1417, "duree": "00:00:55", "horodatage": "2022-06-12 14:38:11", "marker-color": "#FF565E"}}, {"type": "Feature", "geometry": {"type": "Point", "coordinates": [2.325421, 48.817989]}, "properties": {"etat de la localisation": "Delocalise", "numparc": 1391, "duree": "00:14:49", "horodatage": "2022-06-12 15:05:15", "marker-color": "#FF565E"}}, {"type": "Feature", "geometry": {"type": "Point", "coordinates": [2.302678, 48.797585]}, "properties": {"etat de la localisation": "Mission suivante non connue", "numparc": 1392, "duree": "", "horodatage": "2022-06-12 15:07:14", "marker-color": "#7156FF"}}, {"type": "Feature", "geometry": {"type": "Point", "coordinates": [2.301399, 48.79752]}, "properties": {"etat de la localisation": "Mission suivante non connue", "numparc": 1392, "duree": "", "horodatage": "2022-06-12 15:12:31", "marker-color": "#7156FF"}}, {"type": "Feature", "geometry": {"type": "Point", "coordinates": [2.298988, 48.792301]}, "properties": {"etat de la localisation": "Delocalise", "numparc": 1391, "duree": "00:03:59", "horodatage": "2022-06-12 15:27:31", "marker-color": "#FF565E"}}, {"type": "Feature", "geometry": {"type": "Point", "coordinates": [2.299629, 48.797058]}, "properties": {"etat de la localisation": "Delocalise", "numparc": 1391, "duree": "00:31:43", "horodatage": "2022-06-12 15:35:56", "marker-color": "#FF565E"}}, {"type": "Feature", "geometry": {"type": "Point", "coordinates": [2.302528, 48.797478]}, "properties": {"etat de la localisation": "Mission suivante non connue", "numparc": 1478, "duree": "", "horodatage": "2022-06-12 15:48:25", "marker-color": "#7156FF"}}, {"type": "Feature", "geometry": {"type": "Point", "coordinates": [2.302336, 48.797592]}, "properties": {"etat de la localisation": "Mission suivante non connue", "numparc": 1414, "duree": "", "horodatage": "2022-06-12 16:02:47", "marker-color": "#7156FF"}}, {"type": "Feature", "geometry": {"type": "Point", "coordinates": [2.324013, 48.820213]}, "properties": {"etat de la localisation": "Delocalise", "numparc": 1391, "duree": "00:18:19", "horodatage": "2022-06-12 16:16:14", "marker-color": "#FF565E"}}, {"type": "Feature", "geometry": {"type": "Point", "coordinates": [2.300583, 48.789478]}, "properties": {"etat de la localisation": "Delocalise", "numparc": 1391, "duree": "00:04:53", "horodatage": "2022-06-12 16:35:59", "marker-color": "#FF565E"}}, {"type": "Feature", "geometry": {"type": "Point", "coordinates": [2.299691, 48.797058]}, "properties": {"etat de la localisation": "Delocalise", "numparc": 1391, "duree": "00:31:44", "horodatage": "2022-06-12 16:49:10", "marker-color": "#FF565E"}}, {"type": "Feature", "geometry": {"type": "Point", "coordinates": [2.324392, 48.820923]}, "properties": {"etat de la localisation": "Delocalise", "numparc": 1391, "duree": "00:02:30", "horodatage": "2022-06-12 17:26:53", "marker-color": "#FF565E"}}, {"type": "Feature", "geometry": {"type": "Point", "coordinates": [2.326053, 48.812344]}, "properties": {"etat de la localisation": "Delocalise", "numparc": 1391, "duree": "00:16:20", "horodatage": "2022-06-12 17:30:57", "marker-color": "#FF565E"}}, {"type": "Feature", "geometry": {"type": "Point", "coordinates": [2.299897, 48.790623]}, "properties": {"etat de la localisation": "Delocalise", "numparc": 1391, "duree": "00:05:26", "horodatage": "2022-06-12 17:49:41", "marker-color": "#FF565E"}}, {"type": "Feature", "geometry": {"type": "Point", "coordinates": [2.299527, 48.795025]}, "properties": {"etat de la localisation": "Delocalise", "numparc": 1391, "duree": "00:06:49", "horodatage": "2022-06-12 18:02:44", "marker-color": "#FF565E"}}, {"type": "Feature", "geometry": {"type": "Point", "coordinates": [2.299584, 48.794975]}, "properties": {"etat de la localisation": "Delocalise", "numparc": 1417, "duree": "00:02:48", "horodatage": "2022-06-12 18:12:50", "marker-color": "#FF565E"}}, {"type": "Feature", "geometry": {"type": "Point", "coordinates": [2.31725, 48.796455]}, "properties": {"etat de la localisation": "Delocalise", "numparc": 1391, "duree": "00:00:00", "horodatage": "2022-06-12 18:15:37", "marker-color": "#FF565E"}}, {"type": "Feature", "geometry": {"type": "Point", "coordinates": [2.300609, 48.789528]}, "properties": {"etat de la localisation": "Delocalise", "numparc": 1417, "duree": "00:02:16", "horodatage": "2022-06-12 18:16:17", "marker-color": "#FF565E"}}, {"type": "Feature", "geometry": {"type": "Point", "coordinates": [2.305371, 48.785122]}, "properties": {"etat de la localisation": "Delocalise", "numparc": 1417, "duree": "00:00:35", "horodatage": "2022-06-12 18:19:17", "marker-color": "#FF565E"}}, {"type": "Feature", "geometry": {"type": "Point", "coordinates": [2.310946, 48.785835]}, "properties": {"etat de la localisation": "Delocalise", "numparc": 1417, "duree": "00:01:22", "horodatage": "2022-06-12 18:20:31", "marker-color": "#FF565E"}}, {"type": "Feature", "geometry": {"type": "Point", "coordinates": [2.315515, 48.792515]}, "properties": {"etat de la localisation": "Delocalise", "numparc": 1417, "duree": "00:00:15", "horodatage": "2022-06-12 18:22:38", "marker-color": "#FF565E"}}, {"type": "Feature", "geometry": {"type": "Point", "coordinates": [2.316454, 48.794392]}, "properties": {"etat de la localisation": "Delocalise", "numparc": 1417, "duree": "00:03:44", "horodatage": "2022-06-12 18:23:32", "marker-color": "#FF565E"}}, {"type": "Feature", "geometry": {"type": "Point", "coordinates": [2.318576, 48.801617]}, "properties": {"etat de la localisation": "Delocalise", "numparc": 1417, "duree": "00:00:14", "horodatage": "2022-06-12 18:28:34", "marker-color": "#FF565E"}}, {"type": "Feature", "geometry": {"type": "Point", "coordinates": [2.319007, 48.802513]}, "properties": {"etat de la localisation": "Delocalise", "numparc": 1417, "duree": "00:01:28", "horodatage": "2022-06-12 18:29:52", "marker-color": "#FF565E"}}, {"type": "Feature", "geometry": {"type": "Point", "coordinates": [2.322841, 48.804943]}, "properties": {"etat de la localisation": "Delocalise", "numparc": 1417, "duree": "00:00:16", "horodatage": "2022-06-12 18:32:17", "marker-color": "#FF565E"}}, {"type": "Feature", "geometry": {"type": "Point", "coordinates": [2.32461, 48.805866]}, "properties": {"etat de la localisation": "Delocalise", "numparc": 1417, "duree": "00:04:03", "horodatage": "2022-06-12 18:32:54", "marker-color": "#FF565E"}}, {"type": "Feature", "geometry": {"type": "Point", "coordinates": [2.324828, 48.821907]}, "properties": {"etat de la localisation": "Hors service", "numparc": 1416, "duree": "", "horodatage": "2022-06-12 18:32:56", "marker-color": "#707070"}}, {"type": "Feature", "geometry": {"type": "Point", "coordinates": [2.302599, 48.797626]}, "properties": {"etat de la localisation": "Mission suivante non connue", "numparc": 1392, "duree": "", "horodatage": "2022-06-12 18:44:37", "marker-color": "#7156FF"}}, {"type": "Feature", "geometry": {"type": "Point", "coordinates": [2.302287, 48.797497]}, "properties": {"etat de la localisation": "Delocalise", "numparc": 1419, "duree": "00:00:15", "horodatage": "2022-06-12 18:46:52", "marker-color": "#FF565E"}}, {"type": "Feature", "geometry": {"type": "Point", "coordinates": [2.329274, 48.823479]}, "properties": {"etat de la localisation": "Hors service", "numparc": 1417, "duree": "", "horodatage": "2022-06-12 18:49:07", "marker-color": "#707070"}}, {"type": "Feature", "geometry": {"type": "Point", "coordinates": [2.328856, 48.823147]}, "properties": {"etat de la localisation": "Hors service", "numparc": 1478, "duree": "", "horodatage": "2022-06-12 18:55:30", "marker-color": "#707070"}}, {"type": "Feature", "geometry": {"type": "Point", "coordinates": [2.328374, 48.823524]}, "properties": {"etat de la localisation": "Hors service", "numparc": 1392, "duree": "", "horodatage": "2022-06-12 19:00:52", "marker-color": "#707070"}}, {"type": "Feature", "geometry": {"type": "Point", "coordinates": [2.302575, 48.786335]}, "properties": {"etat de la localisation": "Delocalise", "numparc": 1391, "duree": "00:05:28", "horodatage": "2022-06-12 19:03:29", "marker-color": "#FF565E"}}, {"type": "Feature", "geometry": {"type": "Point", "coordinates": [2.299692, 48.79705]}, "properties": {"etat de la localisation": "Delocalise", "numparc": 1391, "duree": "00:33:55", "horodatage": "2022-06-12 19:12:33", "marker-color": "#FF565E"}}, {"type": "Feature", "geometry": {"type": "Point", "coordinates": [2.327255, 48.823734]}, "properties": {"etat de la localisation": "Hors service", "numparc": 1391, "duree": "", "horodatage": "2022-06-12 19:46:28", "marker-color": "#707070"}}, {"type": "Feature", "geometry": {"type": "Point", "coordinates": [2.329265, 48.823143]}, "properties": {"etat de la localisation": "Hors service", "numparc": 1414, "duree": "", "horodatage": "2022-06-12 20:18:49", "marker-color": "#707070"}}, {"type": "Feature", "geometry": {"type": "Point", "coordinates": [2.324921, 48.821873]}, "properties": {"etat de la localisation": "Hors service", "numparc": 1416, "duree": "", "horodatage": "2022-06-12 22:00:58", "marker-color": "#707070"}}, {"type": "Feature", "geometry": {"type": "Point", "coordinates": [2.328732, 48.823784]}, "properties": {"etat de la localisation": "Hors service", "numparc": 1415, "duree": "", "horodatage": "2022-06-13 00:40:55", "marker-color": "#707070"}}, {"type": "Feature", "geometry": {"type": "Point", "coordinates": [2.3299, 48.822788]}, "properties": {"etat de la localisation": "Hors service", "numparc": 1419, "duree": "", "horodatage": "2022-06-13 00:55:35", "marker-color": "#707070"}}, {"type": "Feature", "geometry": {"type": "Point", "coordinates": [2.329944, 48.822891]}, "properties": {"etat de la localisation": "Hors service", "numparc": 1416, "duree": "", "horodatage": "2022-06-13 01:15:50", "marker-color": "#707070"}}]}