{"type": "FeatureCollection", "features": [{"type": "Feature", "geometry": {"type": "Point", "coordinates": [2.38535, 48.755718]}, "properties": {"etat de la localisation": "Delocalise", "numparc": 9231, "duree": "00:11:57", "horodatage": "2021-09-18 13:46:10", "marker-color": "#FF565E"}}, {"type": "Feature", "geometry": {"type": "Point", "coordinates": [2.387079, 48.755341]}, "properties": {"etat de la localisation": "Hors service", "numparc": 9231, "duree": "", "horodatage": "2021-09-18 13:58:07", "marker-color": "#707070"}}, {"type": "Feature", "geometry": {"type": "Point", "coordinates": [2.387752, 48.754047]}, "properties": {"etat de la localisation": "Hors service", "numparc": 9229, "duree": "", "horodatage": "2021-09-18 19:15:26", "marker-color": "#707070"}}, {"type": "Feature", "geometry": {"type": "Point", "coordinates": [2.387085, 48.755363]}, "properties": {"etat de la localisation": "Hors service", "numparc": 9231, "duree": "", "horodatage": "2021-09-18 19:24:00", "marker-color": "#707070"}}, {"type": "Feature", "geometry": {"type": "Point", "coordinates": [2.387536, 48.754028]}, "properties": {"etat de la localisation": "Hors service", "numparc": 9232, "duree": "", "horodatage": "2021-09-18 21:05:16", "marker-color": "#707070"}}, {"type": "Feature", "geometry": {"type": "Point", "coordinates": [2.387501, 48.754009]}, "properties": {"etat de la localisation": "Hors service", "numparc": 9230, "duree": "", "horodatage": "2021-09-18 21:37:39", "marker-color": "#707070"}}]}