{"type": "FeatureCollection", "features": [{"type": "Feature", "geometry": {"type": "Point", "coordinates": [2.328219, 48.823101]}, "properties": {"numparc": 1440, "etat de la localisation": "autre", "ID BDGEO": "131", "horodatage": "2021-10-06 05:43:50", "distance (en metres)": 110.45, "station": "MONTROUGE SORTIE#", "marker-color": "#818181"}}, {"type": "Feature", "geometry": {"type": "Point", "coordinates": [2.32849, 48.823105]}, "properties": {"numparc": 1439, "etat de la localisation": "autre", "ID BDGEO": "131", "horodatage": "2021-10-06 06:11:08", "distance (en metres)": 91.34, "station": "MONTROUGE SORTIE#", "marker-color": "#818181"}}, {"type": "Feature", "geometry": {"type": "Point", "coordinates": [2.328075, 48.823444]}, "properties": {"numparc": 1440, "etat de la localisation": "autre", "ID BDGEO": "131", "horodatage": "2021-10-06 06:29:08", "distance (en metres)": 117.33, "station": "MONTROUGE SORTIE#", "marker-color": "#818181"}}, {"type": "Feature", "geometry": {"type": "Point", "coordinates": [2.328357, 48.823387]}, "properties": {"numparc": 1440, "etat de la localisation": "autre", "ID BDGEO": "131", "horodatage": "2021-10-06 06:40:33", "distance (en metres)": 96.39, "station": "MONTROUGE SORTIE#", "marker-color": "#818181"}}, {"type": "Feature", "geometry": {"type": "Point", "coordinates": [2.320776, 48.84203]}, "properties": {"numparc": 1440, "etat de la localisation": "autre", "ID BDGEO": "1", "horodatage": "2021-10-06 07:00:32", "distance (en metres)": 47.58, "station": "GARE MONTPARNASSE", "marker-color": "#818181"}}, {"type": "Feature", "geometry": {"type": "Point", "coordinates": [2.27803, 48.897377]}, "properties": {"numparc": 1439, "etat de la localisation": "autre", "ID BDGEO": "109", "horodatage": "2021-10-06 07:30:12", "distance (en metres)": 96.13, "station": "PONT DE LEVALLOIS", "marker-color": "#818181"}}, {"type": "Feature", "geometry": {"type": "Point", "coordinates": [2.278132, 48.897339]}, "properties": {"numparc": 1440, "etat de la localisation": "autre", "ID BDGEO": "109", "horodatage": "2021-10-06 07:58:15", "distance (en metres)": 92.5, "station": "PONT DE LEVALLOIS", "marker-color": "#818181"}}, {"type": "Feature", "geometry": {"type": "Point", "coordinates": [2.304346, 48.888184]}, "properties": {"numparc": 1439, "etat de la localisation": "autre", "ID BDGEO": "25", "horodatage": "2021-10-06 08:02:31", "distance (en metres)": 51.7, "station": "JULIETTE LAMBER", "marker-color": "#818181"}}, {"type": "Feature", "geometry": {"type": "Point", "coordinates": [2.310004, 48.887852]}, "properties": {"numparc": 1439, "etat de la localisation": "autre", "ID BDGEO": "138", "horodatage": "2021-10-06 08:05:05", "distance (en metres)": 42.47, "station": "PEREIRE SAUSSURE", "marker-color": "#818181"}}, {"type": "Feature", "geometry": {"type": "Point", "coordinates": [2.304351, 48.888165]}, "properties": {"numparc": 1440, "etat de la localisation": "autre", "ID BDGEO": "25", "horodatage": "2021-10-06 08:33:00", "distance (en metres)": 53.85, "station": "JULIETTE LAMBER", "marker-color": "#818181"}}, {"type": "Feature", "geometry": {"type": "Point", "coordinates": [2.310026, 48.887825]}, "properties": {"numparc": 1440, "etat de la localisation": "autre", "ID BDGEO": "138", "horodatage": "2021-10-06 08:35:23", "distance (en metres)": 43.18, "station": "PEREIRE SAUSSURE", "marker-color": "#818181"}}, {"type": "Feature", "geometry": {"type": "Point", "coordinates": [2.322071, 48.866295]}, "properties": {"numparc": 1439, "etat de la localisation": "autre", "ID BDGEO": "14", "horodatage": "2021-10-06 09:15:53", "distance (en metres)": 104.55, "station": "CONCORDE-ROYALE", "marker-color": "#818181"}}, {"type": "Feature", "geometry": {"type": "Point", "coordinates": [2.303148, 48.890709]}, "properties": {"numparc": 1439, "etat de la localisation": "autre", "ID BDGEO": "71", "horodatage": "2021-10-06 09:40:32", "distance (en metres)": 101.46, "station": "PTE D'ASNIERES - M. LONG", "marker-color": "#818181"}}, {"type": "Feature", "geometry": {"type": "Point", "coordinates": [2.322032, 48.866383]}, "properties": {"numparc": 1440, "etat de la localisation": "autre", "ID BDGEO": "14", "horodatage": "2021-10-06 09:46:33", "distance (en metres)": 95.71, "station": "CONCORDE-ROYALE", "marker-color": "#818181"}}, {"type": "Feature", "geometry": {"type": "Point", "coordinates": [2.304352, 48.888145]}, "properties": {"numparc": 1440, "etat de la localisation": "autre", "ID BDGEO": "25", "horodatage": "2021-10-06 11:05:37", "distance (en metres)": 55.96, "station": "JULIETTE LAMBER", "marker-color": "#818181"}}, {"type": "Feature", "geometry": {"type": "Point", "coordinates": [2.310063, 48.887825]}, "properties": {"numparc": 1440, "etat de la localisation": "autre", "ID BDGEO": "138", "horodatage": "2021-10-06 11:08:21", "distance (en metres)": 45.81, "station": "PEREIRE SAUSSURE", "marker-color": "#818181"}}, {"type": "Feature", "geometry": {"type": "Point", "coordinates": [2.322196, 48.866241]}, "properties": {"numparc": 1439, "etat de la localisation": "autre", "ID BDGEO": "14", "horodatage": "2021-10-06 11:32:32", "distance (en metres)": 108.96, "station": "CONCORDE-ROYALE", "marker-color": "#818181"}}, {"type": "Feature", "geometry": {"type": "Point", "coordinates": [2.279516, 48.895741]}, "properties": {"numparc": 1439, "etat de la localisation": "autre", "ID BDGEO": "107", "horodatage": "2021-10-06 12:25:00", "distance (en metres)": 144.76, "station": "POMPIDOU", "marker-color": "#818181"}}, {"type": "Feature", "geometry": {"type": "Point", "coordinates": [2.322078, 48.866131]}, "properties": {"numparc": 1440, "etat de la localisation": "autre", "ID BDGEO": "14", "horodatage": "2021-10-06 12:30:52", "distance (en metres)": 122.37, "station": "CONCORDE-ROYALE", "marker-color": "#818181"}}, {"type": "Feature", "geometry": {"type": "Point", "coordinates": [2.278159, 48.897358]}, "properties": {"numparc": 1439, "etat de la localisation": "autre", "ID BDGEO": "109", "horodatage": "2021-10-06 12:34:01", "distance (en metres)": 89.64, "station": "PONT DE LEVALLOIS", "marker-color": "#818181"}}, {"type": "Feature", "geometry": {"type": "Point", "coordinates": [2.304425, 48.888138]}, "properties": {"numparc": 1439, "etat de la localisation": "autre", "ID BDGEO": "25", "horodatage": "2021-10-06 13:03:23", "distance (en metres)": 57.59, "station": "JULIETTE LAMBER", "marker-color": "#818181"}}, {"type": "Feature", "geometry": {"type": "Point", "coordinates": [2.304425, 48.888138]}, "properties": {"numparc": 1439, "etat de la localisation": "autre", "ID BDGEO": "25", "horodatage": "2021-10-06 13:03:25", "distance (en metres)": 57.59, "station": "JULIETTE LAMBER", "marker-color": "#818181"}}, {"type": "Feature", "geometry": {"type": "Point", "coordinates": [2.309962, 48.887863]}, "properties": {"numparc": 1439, "etat de la localisation": "autre", "ID BDGEO": "138", "horodatage": "2021-10-06 13:06:02", "distance (en metres)": 40.02, "station": "PEREIRE SAUSSURE", "marker-color": "#818181"}}, {"type": "Feature", "geometry": {"type": "Point", "coordinates": [2.304567, 48.887943]}, "properties": {"numparc": 1440, "etat de la localisation": "autre", "ID BDGEO": "31", "horodatage": "2021-10-06 13:10:52", "distance (en metres)": 54.7, "station": "JULIETTE LAMBER", "marker-color": "#818181"}}, {"type": "Feature", "geometry": {"type": "Point", "coordinates": [2.30433, 48.888226]}, "properties": {"numparc": 1440, "etat de la localisation": "autre", "ID BDGEO": "25", "horodatage": "2021-10-06 13:29:14", "distance (en metres)": 46.94, "station": "JULIETTE LAMBER", "marker-color": "#818181"}}, {"type": "Feature", "geometry": {"type": "Point", "coordinates": [2.310068, 48.887848]}, "properties": {"numparc": 1440, "etat de la localisation": "autre", "ID BDGEO": "138", "horodatage": "2021-10-06 13:32:54", "distance (en metres)": 46.81, "station": "PEREIRE SAUSSURE", "marker-color": "#818181"}}, {"type": "Feature", "geometry": {"type": "Point", "coordinates": [2.322605, 48.843781]}, "properties": {"numparc": 1439, "etat de la localisation": "autre", "ID BDGEO": "52", "horodatage": "2021-10-06 13:44:25", "distance (en metres)": 41.31, "station": "MONTPARNASSE-RUE DE L ARRIVEE", "marker-color": "#818181"}}, {"type": "Feature", "geometry": {"type": "Point", "coordinates": [2.322131, 48.866211]}, "properties": {"numparc": 1439, "etat de la localisation": "autre", "ID BDGEO": "14", "horodatage": "2021-10-06 14:15:51", "distance (en metres)": 112.96, "station": "CONCORDE-ROYALE", "marker-color": "#818181"}}, {"type": "Feature", "geometry": {"type": "Point", "coordinates": [2.326189, 48.854111]}, "properties": {"numparc": 1440, "etat de la localisation": "autre", "ID BDGEO": "9", "horodatage": "2021-10-06 14:34:36", "distance (en metres)": 59.94, "station": "CHARLOTTE PERRIAND", "marker-color": "#818181"}}, {"type": "Feature", "geometry": {"type": "Point", "coordinates": [2.304497, 48.888176]}, "properties": {"numparc": 1439, "etat de la localisation": "autre", "ID BDGEO": "25", "horodatage": "2021-10-06 15:29:12", "distance (en metres)": 54.76, "station": "JULIETTE LAMBER", "marker-color": "#818181"}}, {"type": "Feature", "geometry": {"type": "Point", "coordinates": [2.307246, 48.887527]}, "properties": {"numparc": 1439, "etat de la localisation": "autre", "ID BDGEO": "118", "horodatage": "2021-10-06 15:31:35", "distance (en metres)": 40.22, "station": "PEREIRE-TOCQUEVILLE", "marker-color": "#818181"}}, {"type": "Feature", "geometry": {"type": "Point", "coordinates": [2.31003, 48.887844]}, "properties": {"numparc": 1439, "etat de la localisation": "autre", "ID BDGEO": "138", "horodatage": "2021-10-06 15:32:50", "distance (en metres)": 44.03, "station": "PEREIRE SAUSSURE", "marker-color": "#818181"}}, {"type": "Feature", "geometry": {"type": "Point", "coordinates": [2.304394, 48.888168]}, "properties": {"numparc": 1440, "etat de la localisation": "autre", "ID BDGEO": "25", "horodatage": "2021-10-06 16:06:46", "distance (en metres)": 53.85, "station": "JULIETTE LAMBER", "marker-color": "#818181"}}, {"type": "Feature", "geometry": {"type": "Point", "coordinates": [2.31001, 48.887859]}, "properties": {"numparc": 1440, "etat de la localisation": "autre", "ID BDGEO": "138", "horodatage": "2021-10-06 16:10:11", "distance (en metres)": 43.16, "station": "PEREIRE SAUSSURE", "marker-color": "#818181"}}, {"type": "Feature", "geometry": {"type": "Point", "coordinates": [2.32224, 48.866161]}, "properties": {"numparc": 1439, "etat de la localisation": "autre", "ID BDGEO": "14", "horodatage": "2021-10-06 16:47:43", "distance (en metres)": 117.52, "station": "CONCORDE-ROYALE", "marker-color": "#818181"}}, {"type": "Feature", "geometry": {"type": "Point", "coordinates": [2.326853, 48.850971]}, "properties": {"numparc": 1439, "etat de la localisation": "Delocalise", "ID BDGEO": "8", "horodatage": "2021-10-06 17:10:24", "distance (en metres)": 104.7, "station": "SEVRES-BABYLONE", "marker-color": "#FF565E"}}, {"type": "Feature", "geometry": {"type": "Point", "coordinates": [2.324749, 48.844818]}, "properties": {"numparc": 1439, "etat de la localisation": "autre", "ID BDGEO": "4", "horodatage": "2021-10-06 17:15:35", "distance (en metres)": 50.71, "station": "RENNES-LITTRE", "marker-color": "#818181"}}, {"type": "Feature", "geometry": {"type": "Point", "coordinates": [2.32215, 48.866261]}, "properties": {"numparc": 1440, "etat de la localisation": "autre", "ID BDGEO": "14", "horodatage": "2021-10-06 17:32:41", "distance (en metres)": 107.3, "station": "CONCORDE-ROYALE", "marker-color": "#818181"}}, {"type": "Feature", "geometry": {"type": "Point", "coordinates": [2.324818, 48.874798]}, "properties": {"numparc": 1440, "etat de la localisation": "autre", "ID BDGEO": "38", "horodatage": "2021-10-06 17:44:34", "distance (en metres)": 74.66, "station": "GARE SAINT-LAZARE", "marker-color": "#818181"}}, {"type": "Feature", "geometry": {"type": "Point", "coordinates": [2.324818, 48.874798]}, "properties": {"numparc": 1440, "etat de la localisation": "autre", "ID BDGEO": "38", "horodatage": "2021-10-06 17:44:53", "distance (en metres)": 74.66, "station": "GARE SAINT-LAZARE", "marker-color": "#818181"}}, {"type": "Feature", "geometry": {"type": "Point", "coordinates": [2.324818, 48.874798]}, "properties": {"numparc": 1440, "etat de la localisation": "autre", "ID BDGEO": "38", "horodatage": "2021-10-06 17:45:33", "distance (en metres)": 74.66, "station": "GARE SAINT-LAZARE", "marker-color": "#818181"}}, {"type": "Feature", "geometry": {"type": "Point", "coordinates": [2.322166, 48.866238]}, "properties": {"numparc": 1439, "etat de la localisation": "autre", "ID BDGEO": "14", "horodatage": "2021-10-06 17:56:36", "distance (en metres)": 109.65, "station": "CONCORDE-ROYALE", "marker-color": "#818181"}}, {"type": "Feature", "geometry": {"type": "Point", "coordinates": [2.314477, 48.887226]}, "properties": {"numparc": 1439, "etat de la localisation": "autre", "ID BDGEO": "95", "horodatage": "2021-10-06 18:22:10", "distance (en metres)": 103.47, "station": "PONT CARDINET", "marker-color": "#818181"}}, {"type": "Feature", "geometry": {"type": "Point", "coordinates": [2.278597, 48.897594]}, "properties": {"numparc": 1439, "etat de la localisation": "autre", "ID BDGEO": "109", "horodatage": "2021-10-06 18:53:38", "distance (en metres)": 48.24, "station": "PONT DE LEVALLOIS", "marker-color": "#818181"}}, {"type": "Feature", "geometry": {"type": "Point", "coordinates": [2.279677, 48.898018]}, "properties": {"numparc": 1439, "etat de la localisation": "autre", "ID BDGEO": "109", "horodatage": "2021-10-06 19:01:42", "distance (en metres)": 44.05, "station": "PONT DE LEVALLOIS", "marker-color": "#818181"}}, {"type": "Feature", "geometry": {"type": "Point", "coordinates": [2.322082, 48.86631]}, "properties": {"numparc": 1440, "etat de la localisation": "autre", "ID BDGEO": "14", "horodatage": "2021-10-06 19:02:40", "distance (en metres)": 102.73, "station": "CONCORDE-ROYALE", "marker-color": "#818181"}}, {"type": "Feature", "geometry": {"type": "Point", "coordinates": [2.322053, 48.866337]}, "properties": {"numparc": 1440, "etat de la localisation": "autre", "ID BDGEO": "14", "horodatage": "2021-10-06 19:04:46", "distance (en metres)": 100.28, "station": "CONCORDE-ROYALE", "marker-color": "#818181"}}, {"type": "Feature", "geometry": {"type": "Point", "coordinates": [2.304384, 48.888184]}, "properties": {"numparc": 1439, "etat de la localisation": "autre", "ID BDGEO": "25", "horodatage": "2021-10-06 19:25:18", "distance (en metres)": 52.06, "station": "JULIETTE LAMBER", "marker-color": "#818181"}}, {"type": "Feature", "geometry": {"type": "Point", "coordinates": [2.310024, 48.887932]}, "properties": {"numparc": 1439, "etat de la localisation": "autre", "ID BDGEO": "138", "horodatage": "2021-10-06 19:27:28", "distance (en metres)": 47.36, "station": "PEREIRE SAUSSURE", "marker-color": "#818181"}}, {"type": "Feature", "geometry": {"type": "Point", "coordinates": [2.304381, 48.889523]}, "properties": {"numparc": 1440, "etat de la localisation": "autre", "ID BDGEO": "25", "horodatage": "2021-10-06 19:36:33", "distance (en metres)": 97.77, "station": "JULIETTE LAMBER", "marker-color": "#818181"}}, {"type": "Feature", "geometry": {"type": "Point", "coordinates": [2.303286, 48.890747]}, "properties": {"numparc": 1440, "etat de la localisation": "autre", "ID BDGEO": "71", "horodatage": "2021-10-06 19:41:17", "distance (en metres)": 107.13, "station": "PTE D'ASNIERES - M. LONG", "marker-color": "#818181"}}, {"type": "Feature", "geometry": {"type": "Point", "coordinates": [2.322931, 48.85865]}, "properties": {"numparc": 1439, "etat de la localisation": "autre", "ID BDGEO": "45", "horodatage": "2021-10-06 20:03:13", "distance (en metres)": 57.39, "station": "SOLFERINO-BELLECHASSE", "marker-color": "#818181"}}, {"type": "Feature", "geometry": {"type": "Point", "coordinates": [2.326417, 48.852604]}, "properties": {"numparc": 1439, "etat de la localisation": "autre", "ID BDGEO": "47", "horodatage": "2021-10-06 20:06:30", "distance (en metres)": 125.88, "station": "CHARLOTTE PERRIAND", "marker-color": "#818181"}}, {"type": "Feature", "geometry": {"type": "Point", "coordinates": [2.278107, 48.897408]}, "properties": {"numparc": 1439, "etat de la localisation": "autre", "ID BDGEO": "109", "horodatage": "2021-10-06 21:10:57", "distance (en metres)": 89.56, "station": "PONT DE LEVALLOIS", "marker-color": "#818181"}}, {"type": "Feature", "geometry": {"type": "Point", "coordinates": [2.327356, 48.823601]}, "properties": {"numparc": 1439, "etat de la localisation": "Delocalise", "ID BDGEO": "21", "horodatage": "2021-10-06 22:05:29", "distance (en metres)": 2092.15, "station": "GARE MONTPARNASSE.", "marker-color": "#FF565E"}}, {"type": "Feature", "geometry": {"type": "Point", "coordinates": [2.327742, 48.823471]}, "properties": {"numparc": 1439, "etat de la localisation": "Delocalise", "ID BDGEO": "21", "horodatage": "2021-10-06 22:05:55", "distance (en metres)": 2113.5, "station": "GARE MONTPARNASSE.", "marker-color": "#FF565E"}}, {"type": "Feature", "geometry": {"type": "Point", "coordinates": [2.327742, 48.823471]}, "properties": {"numparc": 1439, "etat de la localisation": "Delocalise", "ID BDGEO": "21", "horodatage": "2021-10-06 22:06:00", "distance (en metres)": 2113.5, "station": "GARE MONTPARNASSE.", "marker-color": "#FF565E"}}, {"type": "Feature", "geometry": {"type": "Point", "coordinates": [2.328403, 48.823471]}, "properties": {"numparc": 1439, "etat de la localisation": "autre", "ID BDGEO": "131", "horodatage": "2021-10-06 22:09:19", "distance (en metres)": 93.72, "station": "MONTROUGE SORTIE#", "marker-color": "#818181"}}, {"type": "Feature", "geometry": {"type": "Point", "coordinates": [2.327921, 48.823696]}, "properties": {"numparc": 1440, "etat de la localisation": "autre", "ID BDGEO": "131", "horodatage": "2021-10-07 00:40:51", "distance (en metres)": 133.44, "station": "MONTROUGE SORTIE#", "marker-color": "#818181"}}, {"type": "Feature", "geometry": {"type": "Point", "coordinates": [2.329673, 48.823366]}, "properties": {"station": "MONTROUGE SORTIE#", "ID BDGEO": "131", "marker-color": "#56B3FF"}}, {"type": "Feature", "geometry": {"type": "Point", "coordinates": [2.320398, 48.841681]}, "properties": {"station": "GARE MONTPARNASSE", "ID BDGEO": "1", "marker-color": "#56B3FF"}}, {"type": "Feature", "geometry": {"type": "Point", "coordinates": [2.279132, 48.897848]}, "properties": {"station": "PONT DE LEVALLOIS", "ID BDGEO": "109", "marker-color": "#56B3FF"}}, {"type": "Feature", "geometry": {"type": "Point", "coordinates": [2.304274, 48.888646]}, "properties": {"station": "JULIETTE LAMBER", "ID BDGEO": "25", "marker-color": "#56B3FF"}}, {"type": "Feature", "geometry": {"type": "Point", "coordinates": [2.309453, 48.887731]}, "properties": {"station": "PEREIRE SAUSSURE", "ID BDGEO": "138", "marker-color": "#56B3FF"}}, {"type": "Feature", "geometry": {"type": "Point", "coordinates": [2.322365, 48.867215]}, "properties": {"station": "CONCORDE-ROYALE", "ID BDGEO": "14", "marker-color": "#56B3FF"}}, {"type": "Feature", "geometry": {"type": "Point", "coordinates": [2.302064, 48.891279]}, "properties": {"station": "PTE D'ASNIERES - M. LONG", "ID BDGEO": "71", "marker-color": "#56B3FF"}}, {"type": "Feature", "geometry": {"type": "Point", "coordinates": [2.277948, 48.896536]}, "properties": {"station": "POMPIDOU", "ID BDGEO": "107", "marker-color": "#56B3FF"}}, {"type": "Feature", "geometry": {"type": "Point", "coordinates": [2.304342, 48.888412]}, "properties": {"station": "JULIETTE LAMBER", "ID BDGEO": "31", "marker-color": "#56B3FF"}}, {"type": "Feature", "geometry": {"type": "Point", "coordinates": [2.32244, 48.843425]}, "properties": {"station": "MONTPARNASSE-RUE DE L ARRIVEE", "ID BDGEO": "52", "marker-color": "#56B3FF"}}, {"type": "Feature", "geometry": {"type": "Point", "coordinates": [2.326237, 48.853573]}, "properties": {"station": "CHARLOTTE PERRIAND", "ID BDGEO": "9", "marker-color": "#56B3FF"}}, {"type": "Feature", "geometry": {"type": "Point", "coordinates": [2.306728, 48.887406]}, "properties": {"station": "PEREIRE-TOCQUEVILLE", "ID BDGEO": "118", "marker-color": "#56B3FF"}}, {"type": "Feature", "geometry": {"type": "Point", "coordinates": [2.326741, 48.85191]}, "properties": {"station": "SEVRES-BABYLONE", "ID BDGEO": "8", "marker-color": "#56B3FF"}}, {"type": "Feature", "geometry": {"type": "Point", "coordinates": [2.324428, 48.844414]}, "properties": {"station": "RENNES-LITTRE", "ID BDGEO": "4", "marker-color": "#56B3FF"}}, {"type": "Feature", "geometry": {"type": "Point", "coordinates": [2.325401, 48.875349]}, "properties": {"station": "GARE SAINT-LAZARE", "ID BDGEO": "38", "marker-color": "#56B3FF"}}, {"type": "Feature", "geometry": {"type": "Point", "coordinates": [2.313146, 48.887543]}, "properties": {"station": "PONT CARDINET", "ID BDGEO": "95", "marker-color": "#56B3FF"}}, {"type": "Feature", "geometry": {"type": "Point", "coordinates": [2.323362, 48.858219]}, "properties": {"station": "SOLFERINO-BELLECHASSE", "ID BDGEO": "45", "marker-color": "#56B3FF"}}, {"type": "Feature", "geometry": {"type": "Point", "coordinates": [2.326182, 48.853725]}, "properties": {"station": "CHARLOTTE PERRIAND", "ID BDGEO": "47", "marker-color": "#56B3FF"}}, {"type": "Feature", "geometry": {"type": "Point", "coordinates": [2.319989, 48.84178]}, "properties": {"station": "GARE MONTPARNASSE.", "ID BDGEO": "21", "marker-color": "#56B3FF"}}]}