{"type": "FeatureCollection", "features": [{"type": "Feature", "geometry": {"type": "Point", "coordinates": [2.428345, 48.87899]}, "properties": {"numparc": 4938, "etat de la localisation": "autre", "ID BDGEO": "271", "horodatage": "2021-11-03 07:29:25", "distance (en metres)": 75.47, "station": "DEPOT DES LILAS SORTIE", "marker-color": "#818181"}}, {"type": "Feature", "geometry": {"type": "Point", "coordinates": [2.423574, 48.869831]}, "properties": {"numparc": 4946, "etat de la localisation": "autre", "ID BDGEO": "491", "horodatage": "2021-11-03 15:27:23", "distance (en metres)": 40.04, "station": "PIERRE CURIE", "marker-color": "#818181"}}, {"type": "Feature", "geometry": {"type": "Point", "coordinates": [2.423574, 48.869831]}, "properties": {"numparc": 4946, "etat de la localisation": "autre", "ID BDGEO": "491", "horodatage": "2021-11-03 15:27:36", "distance (en metres)": 40.04, "station": "PIERRE CURIE", "marker-color": "#818181"}}, {"type": "Feature", "geometry": {"type": "Point", "coordinates": [2.428082, 48.879093]}, "properties": {"numparc": 4948, "etat de la localisation": "autre", "ID BDGEO": "271", "horodatage": "2021-11-03 15:53:32", "distance (en metres)": 62.06, "station": "DEPOT DES LILAS SORTIE", "marker-color": "#818181"}}, {"type": "Feature", "geometry": {"type": "Point", "coordinates": [2.399645, 48.857742]}, "properties": {"numparc": 4946, "etat de la localisation": "autre", "ID BDGEO": "197", "horodatage": "2021-11-03 16:00:46", "distance (en metres)": 42.25, "station": "LA REUNION", "marker-color": "#818181"}}, {"type": "Feature", "geometry": {"type": "Point", "coordinates": [2.431509, 48.875221]}, "properties": {"numparc": 4948, "etat de la localisation": "autre", "ID BDGEO": "2", "horodatage": "2021-11-03 16:04:26", "distance (en metres)": 79.53, "station": "LOUISE MICHEL", "marker-color": "#818181"}}, {"type": "Feature", "geometry": {"type": "Point", "coordinates": [2.367731, 48.853367]}, "properties": {"numparc": 4946, "etat de la localisation": "autre", "ID BDGEO": "160", "horodatage": "2021-11-03 16:19:48", "distance (en metres)": 250.31, "station": "BASTILLE - FAUBOURG SAINT-ANTOINE", "marker-color": "#818181"}}, {"type": "Feature", "geometry": {"type": "Point", "coordinates": [2.423541, 48.869846]}, "properties": {"numparc": 4948, "etat de la localisation": "Deviation programmee", "ID BDGEO": "491", "horodatage": "2021-11-03 16:21:58", "distance (en metres)": 41.38, "station": "PIERRE CURIE", "marker-color": "#56FF93"}}, {"type": "Feature", "geometry": {"type": "Point", "coordinates": [2.367531, 48.852619]}, "properties": {"numparc": 4946, "etat de la localisation": "autre", "ID BDGEO": "160", "horodatage": "2021-11-03 16:25:55", "distance (en metres)": 257.83, "station": "BASTILLE - FAUBOURG SAINT-ANTOINE", "marker-color": "#818181"}}, {"type": "Feature", "geometry": {"type": "Point", "coordinates": [2.367531, 48.852619]}, "properties": {"numparc": 4946, "etat de la localisation": "autre", "ID BDGEO": "160", "horodatage": "2021-11-03 16:29:40", "distance (en metres)": 257.83, "station": "BASTILLE - FAUBOURG SAINT-ANTOINE", "marker-color": "#818181"}}, {"type": "Feature", "geometry": {"type": "Point", "coordinates": [2.399577, 48.857765]}, "properties": {"numparc": 4948, "etat de la localisation": "autre", "ID BDGEO": "197", "horodatage": "2021-11-03 16:45:34", "distance (en metres)": 40.16, "station": "LA REUNION", "marker-color": "#818181"}}, {"type": "Feature", "geometry": {"type": "Point", "coordinates": [2.367645, 48.85339]}, "properties": {"numparc": 4948, "etat de la localisation": "autre", "ID BDGEO": "206", "horodatage": "2021-11-03 17:04:45", "distance (en metres)": 69.33, "station": "BASTILLE - RUE SAINT-ANTOINE", "marker-color": "#818181"}}, {"type": "Feature", "geometry": {"type": "Point", "coordinates": [2.417408, 48.865177]}, "properties": {"numparc": 4946, "etat de la localisation": "autre", "ID BDGEO": "174", "horodatage": "2021-11-03 17:14:08", "distance (en metres)": 63.96, "station": "GALLIENI", "marker-color": "#818181"}}, {"type": "Feature", "geometry": {"type": "Point", "coordinates": [2.417409, 48.865185]}, "properties": {"numparc": 4946, "etat de la localisation": "autre", "ID BDGEO": "174", "horodatage": "2021-11-03 17:15:07", "distance (en metres)": 64.79, "station": "GALLIENI", "marker-color": "#818181"}}, {"type": "Feature", "geometry": {"type": "Point", "coordinates": [2.34882, 48.857506]}, "properties": {"numparc": 4948, "etat de la localisation": "autre", "ID BDGEO": "488", "horodatage": "2021-11-03 17:15:28", "distance (en metres)": 46.08, "station": "CHATELET", "marker-color": "#818181"}}, {"type": "Feature", "geometry": {"type": "Point", "coordinates": [2.423557, 48.869835]}, "properties": {"numparc": 4946, "etat de la localisation": "autre", "ID BDGEO": "491", "horodatage": "2021-11-03 17:57:27", "distance (en metres)": 40.26, "station": "PIERRE CURIE", "marker-color": "#818181"}}, {"type": "Feature", "geometry": {"type": "Point", "coordinates": [2.399628, 48.857758]}, "properties": {"numparc": 4946, "etat de la localisation": "autre", "ID BDGEO": "197", "horodatage": "2021-11-03 18:27:49", "distance (en metres)": 42.34, "station": "LA REUNION", "marker-color": "#818181"}}, {"type": "Feature", "geometry": {"type": "Point", "coordinates": [2.41736, 48.8652]}, "properties": {"numparc": 4948, "etat de la localisation": "autre", "ID BDGEO": "174", "horodatage": "2021-11-03 18:28:53", "distance (en metres)": 65.47, "station": "GALLIENI", "marker-color": "#818181"}}, {"type": "Feature", "geometry": {"type": "Point", "coordinates": [2.367626, 48.853447]}, "properties": {"numparc": 4946, "etat de la localisation": "autre", "ID BDGEO": "206", "horodatage": "2021-11-03 18:45:23", "distance (en metres)": 71.01, "station": "BASTILLE - RUE SAINT-ANTOINE", "marker-color": "#818181"}}, {"type": "Feature", "geometry": {"type": "Point", "coordinates": [2.34894, 48.857426]}, "properties": {"numparc": 4948, "etat de la localisation": "autre", "ID BDGEO": "488", "horodatage": "2021-11-03 19:44:06", "distance (en metres)": 56.09, "station": "CHATELET", "marker-color": "#818181"}}, {"type": "Feature", "geometry": {"type": "Point", "coordinates": [2.417441, 48.865177]}, "properties": {"numparc": 4946, "etat de la localisation": "autre", "ID BDGEO": "174", "horodatage": "2021-11-03 19:54:19", "distance (en metres)": 64.71, "station": "GALLIENI", "marker-color": "#818181"}}, {"type": "Feature", "geometry": {"type": "Point", "coordinates": [2.427507, 48.878792]}, "properties": {"numparc": 4946, "etat de la localisation": "autre", "ID BDGEO": "194", "horodatage": "2021-11-03 20:13:19", "distance (en metres)": 2034.75, "station": "PORTE DE BAGNOLET", "marker-color": "#818181"}}, {"type": "Feature", "geometry": {"type": "Point", "coordinates": [2.41741, 48.86512]}, "properties": {"numparc": 4948, "etat de la localisation": "Delocalise", "ID BDGEO": "174", "horodatage": "2021-11-03 20:39:48", "distance (en metres)": 57.95, "station": "GALLIENI", "marker-color": "#FF565E"}}, {"type": "Feature", "geometry": {"type": "Point", "coordinates": [2.416694, 48.870102]}, "properties": {"numparc": 4948, "etat de la localisation": "autre", "ID BDGEO": "188", "horodatage": "2021-11-03 21:16:43", "distance (en metres)": 41.58, "station": "MARIE-ANNE COLOMBIER", "marker-color": "#818181"}}, {"type": "Feature", "geometry": {"type": "Point", "coordinates": [2.399558, 48.857784]}, "properties": {"numparc": 4948, "etat de la localisation": "autre", "ID BDGEO": "197", "horodatage": "2021-11-03 21:29:47", "distance (en metres)": 40.74, "station": "LA REUNION", "marker-color": "#818181"}}, {"type": "Feature", "geometry": {"type": "Point", "coordinates": [2.417217, 48.865265]}, "properties": {"numparc": 4948, "etat de la localisation": "autre", "ID BDGEO": "174", "horodatage": "2021-11-03 22:35:59", "distance (en metres)": 71.01, "station": "GALLIENI", "marker-color": "#818181"}}, {"type": "Feature", "geometry": {"type": "Point", "coordinates": [2.417329, 48.865696]}, "properties": {"numparc": 4948, "etat de la localisation": "autre", "ID BDGEO": "174", "horodatage": "2021-11-03 22:36:12", "distance (en metres)": 119.5, "station": "GALLIENI", "marker-color": "#818181"}}, {"type": "Feature", "geometry": {"type": "Point", "coordinates": [2.430852, 48.874294]}, "properties": {"numparc": 4948, "etat de la localisation": "autre", "ID BDGEO": "183", "horodatage": "2021-11-03 22:44:49", "distance (en metres)": 57.52, "station": "GIRARDOT", "marker-color": "#818181"}}, {"type": "Feature", "geometry": {"type": "Point", "coordinates": [2.367585, 48.853443]}, "properties": {"numparc": 4948, "etat de la localisation": "autre", "ID BDGEO": "206", "horodatage": "2021-11-03 23:43:17", "distance (en metres)": 73.96, "station": "BASTILLE - RUE SAINT-ANTOINE", "marker-color": "#818181"}}, {"type": "Feature", "geometry": {"type": "Point", "coordinates": [2.427146, 48.878925]}, "properties": {"numparc": 4946, "etat de la localisation": "autre", "ID BDGEO": "194", "horodatage": "2021-11-03 23:45:42", "distance (en metres)": 2029.66, "station": "PORTE DE BAGNOLET", "marker-color": "#818181"}}, {"type": "Feature", "geometry": {"type": "Point", "coordinates": [2.427146, 48.878925]}, "properties": {"numparc": 4946, "etat de la localisation": "autre", "ID BDGEO": "194", "horodatage": "2021-11-03 23:57:37", "distance (en metres)": 2029.66, "station": "PORTE DE BAGNOLET", "marker-color": "#818181"}}, {"type": "Feature", "geometry": {"type": "Point", "coordinates": [2.417267, 48.8652]}, "properties": {"numparc": 4948, "etat de la localisation": "autre", "ID BDGEO": "174", "horodatage": "2021-11-04 00:28:07", "distance (en metres)": 64.21, "station": "GALLIENI", "marker-color": "#818181"}}, {"type": "Feature", "geometry": {"type": "Point", "coordinates": [2.427349, 48.878812]}, "properties": {"station": "DEPOT DES LILAS SORTIE", "ID BDGEO": "271", "marker-color": "#56B3FF"}}, {"type": "Feature", "geometry": {"type": "Point", "coordinates": [2.423478, 48.869477]}, "properties": {"station": "PIERRE CURIE", "ID BDGEO": "491", "marker-color": "#56B3FF"}}, {"type": "Feature", "geometry": {"type": "Point", "coordinates": [2.399186, 48.857511]}, "properties": {"station": "LA REUNION", "ID BDGEO": "197", "marker-color": "#56B3FF"}}, {"type": "Feature", "geometry": {"type": "Point", "coordinates": [2.431827, 48.875905]}, "properties": {"station": "LOUISE MICHEL", "ID BDGEO": "2", "marker-color": "#56B3FF"}}, {"type": "Feature", "geometry": {"type": "Point", "coordinates": [2.371044, 48.852804]}, "properties": {"station": "BASTILLE - FAUBOURG SAINT-ANTOINE", "ID BDGEO": "160", "marker-color": "#56B3FF"}}, {"type": "Feature", "geometry": {"type": "Point", "coordinates": [2.368593, 48.853389]}, "properties": {"station": "BASTILLE - RUE SAINT-ANTOINE", "ID BDGEO": "206", "marker-color": "#56B3FF"}}, {"type": "Feature", "geometry": {"type": "Point", "coordinates": [2.417149, 48.864628]}, "properties": {"station": "GALLIENI", "ID BDGEO": "174", "marker-color": "#56B3FF"}}, {"type": "Feature", "geometry": {"type": "Point", "coordinates": [2.348192, 48.857536]}, "properties": {"station": "CHATELET", "ID BDGEO": "488", "marker-color": "#56B3FF"}}, {"type": "Feature", "geometry": {"type": "Point", "coordinates": [2.409834, 48.864659]}, "properties": {"station": "PORTE DE BAGNOLET", "ID BDGEO": "194", "marker-color": "#56B3FF"}}, {"type": "Feature", "geometry": {"type": "Point", "coordinates": [2.416981, 48.870425]}, "properties": {"station": "MARIE-ANNE COLOMBIER", "ID BDGEO": "188", "marker-color": "#56B3FF"}}, {"type": "Feature", "geometry": {"type": "Point", "coordinates": [2.430651, 48.873794]}, "properties": {"station": "GIRARDOT", "ID BDGEO": "183", "marker-color": "#56B3FF"}}]}