{"type": "FeatureCollection", "features": [{"type": "Feature", "geometry": {"type": "Point", "coordinates": [2.375396, 48.806797]}, "properties": {"etat de la localisation": "Mission inconnue", "numparc": 1315, "duree": "", "horodatage": "2022-08-11 06:42:39", "marker-color": "#FF9F56"}}, {"type": "Feature", "geometry": {"type": "Point", "coordinates": [2.330513, 48.810234]}, "properties": {"etat de la localisation": "Mission inconnue", "numparc": 1313, "duree": "", "horodatage": "2022-08-11 06:58:30", "marker-color": "#FF9F56"}}, {"type": "Feature", "geometry": {"type": "Point", "coordinates": [2.373244, 48.809582]}, "properties": {"etat de la localisation": "Mission inconnue", "numparc": 1311, "duree": "", "horodatage": "2022-08-11 07:21:45", "marker-color": "#FF9F56"}}, {"type": "Feature", "geometry": {"type": "Point", "coordinates": [2.37785, 48.802395]}, "properties": {"etat de la localisation": "Hors service", "numparc": 1315, "duree": "", "horodatage": "2022-08-11 10:16:53", "marker-color": "#707070"}}, {"type": "Feature", "geometry": {"type": "Point", "coordinates": [2.32505, 48.804737]}, "properties": {"etat de la localisation": "Mission inconnue", "numparc": 1311, "duree": "", "horodatage": "2022-08-11 13:10:18", "marker-color": "#FF9F56"}}, {"type": "Feature", "geometry": {"type": "Point", "coordinates": [2.377213, 48.804214]}, "properties": {"etat de la localisation": "Mission inconnue", "numparc": 1315, "duree": "", "horodatage": "2022-08-11 16:12:38", "marker-color": "#FF9F56"}}, {"type": "Feature", "geometry": {"type": "Point", "coordinates": [2.37683, 48.802639]}, "properties": {"etat de la localisation": "Mission inconnue", "numparc": 1311, "duree": "", "horodatage": "2022-08-11 19:15:16", "marker-color": "#FF9F56"}}, {"type": "Feature", "geometry": {"type": "Point", "coordinates": [2.37683, 48.802639]}, "properties": {"etat de la localisation": "Mission inconnue", "numparc": 1311, "duree": "", "horodatage": "2022-08-11 19:15:16", "marker-color": "#FF9F56"}}, {"type": "Feature", "geometry": {"type": "Point", "coordinates": [2.37683, 48.802639]}, "properties": {"etat de la localisation": "Mission inconnue", "numparc": 1311, "duree": "", "horodatage": "2022-08-11 19:15:16", "marker-color": "#FF9F56"}}, {"type": "Feature", "geometry": {"type": "Point", "coordinates": [2.37683, 48.802639]}, "properties": {"etat de la localisation": "Mission inconnue", "numparc": 1311, "duree": "", "horodatage": "2022-08-11 19:15:16", "marker-color": "#FF9F56"}}, {"type": "Feature", "geometry": {"type": "Point", "coordinates": [2.37683, 48.802639]}, "properties": {"etat de la localisation": "Mission inconnue", "numparc": 1311, "duree": "", "horodatage": "2022-08-11 19:15:16", "marker-color": "#FF9F56"}}, {"type": "Feature", "geometry": {"type": "Point", "coordinates": [2.37683, 48.802639]}, "properties": {"etat de la localisation": "Mission inconnue", "numparc": 1311, "duree": "", "horodatage": "2022-08-11 19:15:16", "marker-color": "#FF9F56"}}, {"type": "Feature", "geometry": {"type": "Point", "coordinates": [2.37683, 48.802639]}, "properties": {"etat de la localisation": "Mission inconnue", "numparc": 1311, "duree": "", "horodatage": "2022-08-11 19:15:16", "marker-color": "#FF9F56"}}, {"type": "Feature", "geometry": {"type": "Point", "coordinates": [2.37683, 48.802639]}, "properties": {"etat de la localisation": "Mission inconnue", "numparc": 1311, "duree": "", "horodatage": "2022-08-11 19:15:16", "marker-color": "#FF9F56"}}, {"type": "Feature", "geometry": {"type": "Point", "coordinates": [2.37683, 48.802639]}, "properties": {"etat de la localisation": "Mission inconnue", "numparc": 1311, "duree": "", "horodatage": "2022-08-11 19:15:16", "marker-color": "#FF9F56"}}, {"type": "Feature", "geometry": {"type": "Point", "coordinates": [2.377989, 48.80249]}, "properties": {"etat de la localisation": "Hors service", "numparc": 1311, "duree": "", "horodatage": "2022-08-11 19:19:20", "marker-color": "#707070"}}, {"type": "Feature", "geometry": {"type": "Point", "coordinates": [2.376834, 48.802647]}, "properties": {"etat de la localisation": "Mission inconnue", "numparc": 1313, "duree": "", "horodatage": "2022-08-11 21:32:03", "marker-color": "#FF9F56"}}, {"type": "Feature", "geometry": {"type": "Point", "coordinates": [2.376834, 48.802647]}, "properties": {"etat de la localisation": "Mission inconnue", "numparc": 1313, "duree": "", "horodatage": "2022-08-11 21:32:03", "marker-color": "#FF9F56"}}, {"type": "Feature", "geometry": {"type": "Point", "coordinates": [2.376834, 48.802647]}, "properties": {"etat de la localisation": "Mission inconnue", "numparc": 1313, "duree": "", "horodatage": "2022-08-11 21:32:03", "marker-color": "#FF9F56"}}, {"type": "Feature", "geometry": {"type": "Point", "coordinates": [2.376834, 48.802647]}, "properties": {"etat de la localisation": "Mission inconnue", "numparc": 1313, "duree": "", "horodatage": "2022-08-11 21:32:03", "marker-color": "#FF9F56"}}, {"type": "Feature", "geometry": {"type": "Point", "coordinates": [2.376834, 48.802647]}, "properties": {"etat de la localisation": "Mission inconnue", "numparc": 1313, "duree": "", "horodatage": "2022-08-11 21:32:04", "marker-color": "#FF9F56"}}, {"type": "Feature", "geometry": {"type": "Point", "coordinates": [2.376834, 48.802647]}, "properties": {"etat de la localisation": "Mission inconnue", "numparc": 1313, "duree": "", "horodatage": "2022-08-11 21:32:04", "marker-color": "#FF9F56"}}, {"type": "Feature", "geometry": {"type": "Point", "coordinates": [2.376834, 48.802647]}, "properties": {"etat de la localisation": "Mission inconnue", "numparc": 1313, "duree": "", "horodatage": "2022-08-11 21:32:04", "marker-color": "#FF9F56"}}, {"type": "Feature", "geometry": {"type": "Point", "coordinates": [2.376834, 48.802647]}, "properties": {"etat de la localisation": "Mission inconnue", "numparc": 1313, "duree": "", "horodatage": "2022-08-11 21:32:04", "marker-color": "#FF9F56"}}, {"type": "Feature", "geometry": {"type": "Point", "coordinates": [2.376834, 48.802647]}, "properties": {"etat de la localisation": "Mission inconnue", "numparc": 1313, "duree": "", "horodatage": "2022-08-11 21:32:04", "marker-color": "#FF9F56"}}, {"type": "Feature", "geometry": {"type": "Point", "coordinates": [2.37811, 48.802406]}, "properties": {"etat de la localisation": "Hors service", "numparc": 1313, "duree": "", "horodatage": "2022-08-11 21:35:32", "marker-color": "#707070"}}, {"type": "Feature", "geometry": {"type": "Point", "coordinates": [2.376935, 48.802654]}, "properties": {"etat de la localisation": "Mission inconnue", "numparc": 1315, "duree": "", "horodatage": "2022-08-11 21:37:45", "marker-color": "#FF9F56"}}, {"type": "Feature", "geometry": {"type": "Point", "coordinates": [2.377444, 48.80225]}, "properties": {"etat de la localisation": "Hors service", "numparc": 1315, "duree": "", "horodatage": "2022-08-11 21:42:17", "marker-color": "#707070"}}]}