{"type": "FeatureCollection", "features": [{"type": "Feature", "geometry": {"type": "Point", "coordinates": [2.33425, 48.692017]}, "properties": {"alarme": "VEHICULE DELOCALISE", "numparc": 7449, "type": "EXPLOITATION", "duree": "00:00:34", "horodatage": "2023-03-09 07:35:22", "statut": "start", "marker-color": "#ff0000"}}, {"type": "Feature", "geometry": {"type": "Point", "coordinates": [2.372345, 48.714508]}, "properties": {"alarme": "VEHICULE DELOCALISE", "numparc": 7446, "type": "EXPLOITATION", "duree": "00:00:41", "horodatage": "2023-03-09 08:59:39", "statut": "start", "marker-color": "#ff0000"}}, {"type": "Feature", "geometry": {"type": "Point", "coordinates": [2.357424, 48.688137]}, "properties": {"alarme": "VEHICULE DELOCALISE", "numparc": 7456, "type": "EXPLOITATION", "duree": "00:00:09", "horodatage": "2023-03-09 15:14:51", "statut": "start", "marker-color": "#ff0000"}}, {"type": "Feature", "geometry": {"type": "Point", "coordinates": [2.35491, 48.705357]}, "properties": {"alarme": "VEHICULE DELOCALISE", "numparc": 7448, "type": "EXPLOITATION", "duree": "00:00:08", "horodatage": "2023-03-09 18:19:31", "statut": "start", "marker-color": "#ff0000"}}, {"type": "Feature", "geometry": {"type": "Point", "coordinates": [2.372666, 48.714909]}, "properties": {"alarme": "VEHICULE DELOCALISE", "numparc": 7445, "type": "EXPLOITATION", "duree": "00:01:07", "horodatage": "2023-03-09 19:44:52", "statut": "start", "marker-color": "#ff0000"}}, {"type": "Feature", "geometry": {"type": "Point", "coordinates": [2.344132, 48.679993]}, "properties": {"alarme": "VEHICULE DELOCALISE", "numparc": 7452, "type": "EXPLOITATION", "duree": "00:05:31", "horodatage": "2023-03-09 20:46:37", "statut": "start", "marker-color": "#ff0000"}}, {"type": "Feature", "geometry": {"type": "Point", "coordinates": [2.332949, 48.691299]}, "properties": {"alarme": "VEHICULE DELOCALISE", "numparc": 7449, "type": "EXPLOITATION", "duree": "00:00:34", "horodatage": "2023-03-09 07:35:56", "statut": "end", "marker-color": "#2fe184"}}, {"type": "Feature", "geometry": {"type": "Point", "coordinates": [2.373485, 48.71505]}, "properties": {"alarme": "VEHICULE DELOCALISE", "numparc": 7446, "type": "EXPLOITATION", "duree": "00:00:41", "horodatage": "2023-03-09 09:00:20", "statut": "end", "marker-color": "#2fe184"}}, {"type": "Feature", "geometry": {"type": "Point", "coordinates": [2.35742, 48.688137]}, "properties": {"alarme": "VEHICULE DELOCALISE", "numparc": 7456, "type": "EXPLOITATION", "duree": "00:00:09", "horodatage": "2023-03-09 15:15:00", "statut": "end", "marker-color": "#2fe184"}}, {"type": "Feature", "geometry": {"type": "Point", "coordinates": [2.35491, 48.705357]}, "properties": {"alarme": "VEHICULE DELOCALISE", "numparc": 7448, "type": "EXPLOITATION", "duree": "00:00:08", "horodatage": "2023-03-09 18:19:39", "statut": "end", "marker-color": "#2fe184"}}, {"type": "Feature", "geometry": {"type": "Point", "coordinates": [2.371856, 48.71434]}, "properties": {"alarme": "VEHICULE DELOCALISE", "numparc": 7445, "type": "EXPLOITATION", "duree": "00:01:07", "horodatage": "2023-03-09 19:45:59", "statut": "end", "marker-color": "#2fe184"}}, {"type": "Feature", "geometry": {"type": "Point", "coordinates": [2.342053, 48.681149]}, "properties": {"alarme": "VEHICULE DELOCALISE", "numparc": 7452, "type": "EXPLOITATION", "duree": "00:05:31", "horodatage": "2023-03-09 20:52:08", "statut": "end", "marker-color": "#2fe184"}}]}