{"type": "FeatureCollection", "features": [{"type": "Feature", "geometry": {"type": "Point", "coordinates": [2.444321, 48.882446]}, "properties": {"numparc": 4933, "etat de la localisation": "autre", "ID BDGEO": "186", "horodatage": "2021-10-10 06:49:22", "distance (en metres)": 67.79, "station": "FORT DE NOISY", "marker-color": "#818181"}}, {"type": "Feature", "geometry": {"type": "Point", "coordinates": [2.444321, 48.882446]}, "properties": {"numparc": 4933, "etat de la localisation": "autre", "ID BDGEO": "186", "horodatage": "2021-10-10 06:49:25", "distance (en metres)": 67.79, "station": "FORT DE NOISY", "marker-color": "#818181"}}, {"type": "Feature", "geometry": {"type": "Point", "coordinates": [2.408732, 48.877552]}, "properties": {"numparc": 4933, "etat de la localisation": "autre", "ID BDGEO": "166", "horodatage": "2021-10-10 07:05:56", "distance (en metres)": 47.37, "station": "PORTE DES LILAS", "marker-color": "#818181"}}, {"type": "Feature", "geometry": {"type": "Point", "coordinates": [2.411807, 48.878582]}, "properties": {"numparc": 4933, "etat de la localisation": "autre", "ID BDGEO": "181", "horodatage": "2021-10-10 07:09:13", "distance (en metres)": 43.32, "station": "LES BRUYERES", "marker-color": "#818181"}}, {"type": "Feature", "geometry": {"type": "Point", "coordinates": [2.441606, 48.862953]}, "properties": {"numparc": 4933, "etat de la localisation": "autre", "ID BDGEO": "171", "horodatage": "2021-10-10 07:37:06", "distance (en metres)": 101.74, "station": "MAIRIE DE MONTREUIL", "marker-color": "#818181"}}, {"type": "Feature", "geometry": {"type": "Point", "coordinates": [2.454136, 48.873692]}, "properties": {"numparc": 4933, "etat de la localisation": "autre", "ID BDGEO": "165", "horodatage": "2021-10-10 07:46:09", "distance (en metres)": 42.41, "station": "SAINT-DENIS", "marker-color": "#818181"}}, {"type": "Feature", "geometry": {"type": "Point", "coordinates": [2.444314, 48.882473]}, "properties": {"numparc": 4933, "etat de la localisation": "autre", "ID BDGEO": "186", "horodatage": "2021-10-10 07:55:20", "distance (en metres)": 69.87, "station": "FORT DE NOISY", "marker-color": "#818181"}}, {"type": "Feature", "geometry": {"type": "Point", "coordinates": [2.408766, 48.877602]}, "properties": {"numparc": 4933, "etat de la localisation": "autre", "ID BDGEO": "166", "horodatage": "2021-10-10 08:09:51", "distance (en metres)": 47.48, "station": "PORTE DES LILAS", "marker-color": "#818181"}}, {"type": "Feature", "geometry": {"type": "Point", "coordinates": [2.411759, 48.878689]}, "properties": {"numparc": 4933, "etat de la localisation": "autre", "ID BDGEO": "181", "horodatage": "2021-10-10 08:23:10", "distance (en metres)": 45.31, "station": "LES BRUYERES", "marker-color": "#818181"}}, {"type": "Feature", "geometry": {"type": "Point", "coordinates": [2.411808, 48.878693]}, "properties": {"numparc": 4933, "etat de la localisation": "autre", "ID BDGEO": "181", "horodatage": "2021-10-10 08:24:23", "distance (en metres)": 48.56, "station": "LES BRUYERES", "marker-color": "#818181"}}, {"type": "Feature", "geometry": {"type": "Point", "coordinates": [2.441659, 48.8629]}, "properties": {"numparc": 4933, "etat de la localisation": "autre", "ID BDGEO": "171", "horodatage": "2021-10-10 08:49:34", "distance (en metres)": 95.18, "station": "MAIRIE DE MONTREUIL", "marker-color": "#818181"}}, {"type": "Feature", "geometry": {"type": "Point", "coordinates": [2.444319, 48.882442]}, "properties": {"numparc": 4933, "etat de la localisation": "autre", "ID BDGEO": "186", "horodatage": "2021-10-10 09:20:21", "distance (en metres)": 67.68, "station": "FORT DE NOISY", "marker-color": "#818181"}}, {"type": "Feature", "geometry": {"type": "Point", "coordinates": [2.408718, 48.877499]}, "properties": {"numparc": 4933, "etat de la localisation": "autre", "ID BDGEO": "166", "horodatage": "2021-10-10 09:34:53", "distance (en metres)": 46.49, "station": "PORTE DES LILAS", "marker-color": "#818181"}}, {"type": "Feature", "geometry": {"type": "Point", "coordinates": [2.441632, 48.862907]}, "properties": {"numparc": 4933, "etat de la localisation": "autre", "ID BDGEO": "171", "horodatage": "2021-10-10 10:16:31", "distance (en metres)": 97.29, "station": "MAIRIE DE MONTREUIL", "marker-color": "#818181"}}, {"type": "Feature", "geometry": {"type": "Point", "coordinates": [2.444303, 48.88242]}, "properties": {"numparc": 4933, "etat de la localisation": "autre", "ID BDGEO": "186", "horodatage": "2021-10-10 10:45:42", "distance (en metres)": 67.34, "station": "FORT DE NOISY", "marker-color": "#818181"}}, {"type": "Feature", "geometry": {"type": "Point", "coordinates": [2.408662, 48.87751]}, "properties": {"numparc": 4933, "etat de la localisation": "autre", "ID BDGEO": "166", "horodatage": "2021-10-10 11:01:29", "distance (en metres)": 50.78, "station": "PORTE DES LILAS", "marker-color": "#818181"}}, {"type": "Feature", "geometry": {"type": "Point", "coordinates": [2.426694, 48.879177]}, "properties": {"numparc": 4934, "etat de la localisation": "autre", "ID BDGEO": "193", "horodatage": "2021-10-10 11:43:14", "distance (en metres)": 425.02, "station": "SABLONS", "marker-color": "#818181"}}, {"type": "Feature", "geometry": {"type": "Point", "coordinates": [2.441667, 48.862896]}, "properties": {"numparc": 4933, "etat de la localisation": "autre", "ID BDGEO": "171", "horodatage": "2021-10-10 11:50:51", "distance (en metres)": 94.46, "station": "MAIRIE DE MONTREUIL", "marker-color": "#818181"}}, {"type": "Feature", "geometry": {"type": "Point", "coordinates": [2.454161, 48.873665]}, "properties": {"numparc": 4933, "etat de la localisation": "autre", "ID BDGEO": "165", "horodatage": "2021-10-10 12:04:17", "distance (en metres)": 41.0, "station": "SAINT-DENIS", "marker-color": "#818181"}}, {"type": "Feature", "geometry": {"type": "Point", "coordinates": [2.444314, 48.882446]}, "properties": {"numparc": 4933, "etat de la localisation": "autre", "ID BDGEO": "186", "horodatage": "2021-10-10 12:13:46", "distance (en metres)": 68.21, "station": "FORT DE NOISY", "marker-color": "#818181"}}, {"type": "Feature", "geometry": {"type": "Point", "coordinates": [2.408777, 48.877491]}, "properties": {"numparc": 4933, "etat de la localisation": "autre", "ID BDGEO": "166", "horodatage": "2021-10-10 12:32:08", "distance (en metres)": 42.11, "station": "PORTE DES LILAS", "marker-color": "#818181"}}, {"type": "Feature", "geometry": {"type": "Point", "coordinates": [2.41177, 48.878613]}, "properties": {"numparc": 4933, "etat de la localisation": "autre", "ID BDGEO": "181", "horodatage": "2021-10-10 12:35:18", "distance (en metres)": 41.97, "station": "LES BRUYERES", "marker-color": "#818181"}}, {"type": "Feature", "geometry": {"type": "Point", "coordinates": [2.441699, 48.862888]}, "properties": {"numparc": 4933, "etat de la localisation": "autre", "ID BDGEO": "171", "horodatage": "2021-10-10 13:15:19", "distance (en metres)": 92.05, "station": "MAIRIE DE MONTREUIL", "marker-color": "#818181"}}, {"type": "Feature", "geometry": {"type": "Point", "coordinates": [2.443739, 48.865463]}, "properties": {"numparc": 4933, "etat de la localisation": "autre", "ID BDGEO": "199", "horodatage": "2021-10-10 13:24:49", "distance (en metres)": 42.17, "station": "PLACE FRANCOIS MITTERRAND", "marker-color": "#818181"}}, {"type": "Feature", "geometry": {"type": "Point", "coordinates": [2.444314, 48.88242]}, "properties": {"numparc": 4933, "etat de la localisation": "autre", "ID BDGEO": "186", "horodatage": "2021-10-10 13:41:35", "distance (en metres)": 66.65, "station": "FORT DE NOISY", "marker-color": "#818181"}}, {"type": "Feature", "geometry": {"type": "Point", "coordinates": [2.410001, 48.877342]}, "properties": {"numparc": 4933, "etat de la localisation": "autre", "ID BDGEO": "166", "horodatage": "2021-10-10 14:01:29", "distance (en metres)": 49.13, "station": "PORTE DES LILAS", "marker-color": "#818181"}}, {"type": "Feature", "geometry": {"type": "Point", "coordinates": [2.409731, 48.87711]}, "properties": {"numparc": 4933, "etat de la localisation": "autre", "ID BDGEO": "166", "horodatage": "2021-10-10 14:09:00", "distance (en metres)": 43.0, "station": "PORTE DES LILAS", "marker-color": "#818181"}}, {"type": "Feature", "geometry": {"type": "Point", "coordinates": [2.411779, 48.878601]}, "properties": {"numparc": 4933, "etat de la localisation": "autre", "ID BDGEO": "181", "horodatage": "2021-10-10 14:11:20", "distance (en metres)": 42.09, "station": "LES BRUYERES", "marker-color": "#818181"}}, {"type": "Feature", "geometry": {"type": "Point", "coordinates": [2.441682, 48.862907]}, "properties": {"numparc": 4933, "etat de la localisation": "autre", "ID BDGEO": "171", "horodatage": "2021-10-10 14:43:30", "distance (en metres)": 94.26, "station": "MAIRIE DE MONTREUIL", "marker-color": "#818181"}}, {"type": "Feature", "geometry": {"type": "Point", "coordinates": [2.449842, 48.869862]}, "properties": {"numparc": 4933, "etat de la localisation": "autre", "ID BDGEO": "160", "horodatage": "2021-10-10 15:07:36", "distance (en metres)": 58.97, "station": "PAUL SIGNAC-CARREFOUR DU 8 MAI 1945", "marker-color": "#818181"}}, {"type": "Feature", "geometry": {"type": "Point", "coordinates": [2.444336, 48.882458]}, "properties": {"numparc": 4933, "etat de la localisation": "autre", "ID BDGEO": "186", "horodatage": "2021-10-10 15:20:38", "distance (en metres)": 67.59, "station": "FORT DE NOISY", "marker-color": "#818181"}}, {"type": "Feature", "geometry": {"type": "Point", "coordinates": [2.408785, 48.877396]}, "properties": {"numparc": 4933, "etat de la localisation": "autre", "ID BDGEO": "166", "horodatage": "2021-10-10 15:38:40", "distance (en metres)": 40.14, "station": "PORTE DES LILAS", "marker-color": "#818181"}}, {"type": "Feature", "geometry": {"type": "Point", "coordinates": [2.409924, 48.877209]}, "properties": {"numparc": 4933, "etat de la localisation": "autre", "ID BDGEO": "166", "horodatage": "2021-10-10 15:40:13", "distance (en metres)": 47.86, "station": "PORTE DES LILAS", "marker-color": "#818181"}}, {"type": "Feature", "geometry": {"type": "Point", "coordinates": [2.409739, 48.87714]}, "properties": {"numparc": 4933, "etat de la localisation": "autre", "ID BDGEO": "166", "horodatage": "2021-10-10 15:44:43", "distance (en metres)": 40.99, "station": "PORTE DES LILAS", "marker-color": "#818181"}}, {"type": "Feature", "geometry": {"type": "Point", "coordinates": [2.426116, 48.879723]}, "properties": {"numparc": 4934, "etat de la localisation": "autre", "ID BDGEO": "193", "horodatage": "2021-10-10 15:57:56", "distance (en metres)": 351.25, "station": "SABLONS", "marker-color": "#818181"}}, {"type": "Feature", "geometry": {"type": "Point", "coordinates": [2.441659, 48.862934]}, "properties": {"numparc": 4933, "etat de la localisation": "autre", "ID BDGEO": "171", "horodatage": "2021-10-10 16:23:22", "distance (en metres)": 97.36, "station": "MAIRIE DE MONTREUIL", "marker-color": "#818181"}}, {"type": "Feature", "geometry": {"type": "Point", "coordinates": [2.454173, 48.873653]}, "properties": {"numparc": 4933, "etat de la localisation": "autre", "ID BDGEO": "165", "horodatage": "2021-10-10 16:40:01", "distance (en metres)": 40.54, "station": "SAINT-DENIS", "marker-color": "#818181"}}, {"type": "Feature", "geometry": {"type": "Point", "coordinates": [2.444358, 48.882469]}, "properties": {"numparc": 4933, "etat de la localisation": "autre", "ID BDGEO": "186", "horodatage": "2021-10-10 16:50:40", "distance (en metres)": 67.0, "station": "FORT DE NOISY", "marker-color": "#818181"}}, {"type": "Feature", "geometry": {"type": "Point", "coordinates": [2.40869, 48.877472]}, "properties": {"numparc": 4933, "etat de la localisation": "autre", "ID BDGEO": "166", "horodatage": "2021-10-10 17:14:38", "distance (en metres)": 47.87, "station": "PORTE DES LILAS", "marker-color": "#818181"}}, {"type": "Feature", "geometry": {"type": "Point", "coordinates": [2.441734, 48.862907]}, "properties": {"numparc": 4933, "etat de la localisation": "autre", "ID BDGEO": "171", "horodatage": "2021-10-10 17:54:56", "distance (en metres)": 91.16, "station": "MAIRIE DE MONTREUIL", "marker-color": "#818181"}}, {"type": "Feature", "geometry": {"type": "Point", "coordinates": [2.454173, 48.873657]}, "properties": {"numparc": 4933, "etat de la localisation": "autre", "ID BDGEO": "165", "horodatage": "2021-10-10 18:11:32", "distance (en metres)": 40.87, "station": "SAINT-DENIS", "marker-color": "#818181"}}, {"type": "Feature", "geometry": {"type": "Point", "coordinates": [2.44434, 48.882454]}, "properties": {"numparc": 4933, "etat de la localisation": "autre", "ID BDGEO": "186", "horodatage": "2021-10-10 18:21:04", "distance (en metres)": 67.1, "station": "FORT DE NOISY", "marker-color": "#818181"}}, {"type": "Feature", "geometry": {"type": "Point", "coordinates": [2.409872, 48.877239]}, "properties": {"numparc": 4933, "etat de la localisation": "autre", "ID BDGEO": "166", "horodatage": "2021-10-10 18:38:52", "distance (en metres)": 42.99, "station": "PORTE DES LILAS", "marker-color": "#818181"}}, {"type": "Feature", "geometry": {"type": "Point", "coordinates": [2.411721, 48.878654]}, "properties": {"numparc": 4933, "etat de la localisation": "autre", "ID BDGEO": "181", "horodatage": "2021-10-10 18:42:32", "distance (en metres)": 40.92, "station": "LES BRUYERES", "marker-color": "#818181"}}, {"type": "Feature", "geometry": {"type": "Point", "coordinates": [2.441627, 48.862968]}, "properties": {"numparc": 4933, "etat de la localisation": "autre", "ID BDGEO": "171", "horodatage": "2021-10-10 19:14:27", "distance (en metres)": 101.5, "station": "MAIRIE DE MONTREUIL", "marker-color": "#818181"}}, {"type": "Feature", "geometry": {"type": "Point", "coordinates": [2.447891, 48.880459]}, "properties": {"numparc": 4933, "etat de la localisation": "autre", "ID BDGEO": "186", "horodatage": "2021-10-10 19:48:30", "distance (en metres)": 274.9, "station": "FORT DE NOISY", "marker-color": "#818181"}}, {"type": "Feature", "geometry": {"type": "Point", "coordinates": [2.44435, 48.882446]}, "properties": {"numparc": 4933, "etat de la localisation": "autre", "ID BDGEO": "186", "horodatage": "2021-10-10 19:50:57", "distance (en metres)": 66.02, "station": "FORT DE NOISY", "marker-color": "#818181"}}, {"type": "Feature", "geometry": {"type": "Point", "coordinates": [2.40879, 48.877445]}, "properties": {"numparc": 4933, "etat de la localisation": "autre", "ID BDGEO": "166", "horodatage": "2021-10-10 20:08:15", "distance (en metres)": 40.16, "station": "PORTE DES LILAS", "marker-color": "#818181"}}, {"type": "Feature", "geometry": {"type": "Point", "coordinates": [2.441667, 48.862984]}, "properties": {"numparc": 4933, "etat de la localisation": "autre", "ID BDGEO": "171", "horodatage": "2021-10-10 20:42:53", "distance (en metres)": 100.2, "station": "MAIRIE DE MONTREUIL", "marker-color": "#818181"}}, {"type": "Feature", "geometry": {"type": "Point", "coordinates": [2.40878, 48.877449]}, "properties": {"numparc": 4933, "etat de la localisation": "autre", "ID BDGEO": "166", "horodatage": "2021-10-10 21:13:14", "distance (en metres)": 40.95, "station": "PORTE DES LILAS", "marker-color": "#818181"}}, {"type": "Feature", "geometry": {"type": "Point", "coordinates": [2.426869, 48.879013]}, "properties": {"numparc": 1491, "etat de la localisation": "autre", "ID BDGEO": "327", "horodatage": "2021-10-10 21:16:27", "distance (en metres)": 44.04, "station": "CENTRE BUS LES LILAS SORTIE", "marker-color": "#818181"}}, {"type": "Feature", "geometry": {"type": "Point", "coordinates": [2.441665, 48.863022]}, "properties": {"numparc": 4933, "etat de la localisation": "autre", "ID BDGEO": "171", "horodatage": "2021-10-10 21:48:06", "distance (en metres)": 103.02, "station": "MAIRIE DE MONTREUIL", "marker-color": "#818181"}}, {"type": "Feature", "geometry": {"type": "Point", "coordinates": [2.426831, 48.878796]}, "properties": {"numparc": 1487, "etat de la localisation": "autre", "ID BDGEO": "327", "horodatage": "2021-10-10 22:12:32", "distance (en metres)": 68.22, "station": "CENTRE BUS LES LILAS SORTIE", "marker-color": "#818181"}}, {"type": "Feature", "geometry": {"type": "Point", "coordinates": [2.408692, 48.87735]}, "properties": {"numparc": 4933, "etat de la localisation": "autre", "ID BDGEO": "166", "horodatage": "2021-10-10 22:23:37", "distance (en metres)": 47.22, "station": "PORTE DES LILAS", "marker-color": "#818181"}}, {"type": "Feature", "geometry": {"type": "Point", "coordinates": [2.447131, 48.881104]}, "properties": {"numparc": 4933, "etat de la localisation": "autre", "ID BDGEO": "168", "horodatage": "2021-10-10 22:48:44", "distance (en metres)": 158.84, "station": "FORT DE NOISY", "marker-color": "#818181"}}, {"type": "Feature", "geometry": {"type": "Point", "coordinates": [2.441693, 48.863018]}, "properties": {"numparc": 4933, "etat de la localisation": "autre", "ID BDGEO": "171", "horodatage": "2021-10-10 23:00:38", "distance (en metres)": 101.17, "station": "MAIRIE DE MONTREUIL", "marker-color": "#818181"}}, {"type": "Feature", "geometry": {"type": "Point", "coordinates": [2.425287, 48.879704]}, "properties": {"numparc": 4934, "etat de la localisation": "autre", "ID BDGEO": "193", "horodatage": "2021-10-10 23:07:09", "distance (en metres)": 318.42, "station": "SABLONS", "marker-color": "#818181"}}, {"type": "Feature", "geometry": {"type": "Point", "coordinates": [2.444352, 48.882439]}, "properties": {"numparc": 4933, "etat de la localisation": "autre", "ID BDGEO": "186", "horodatage": "2021-10-10 23:28:55", "distance (en metres)": 65.43, "station": "FORT DE NOISY", "marker-color": "#818181"}}, {"type": "Feature", "geometry": {"type": "Point", "coordinates": [2.44172, 48.863029]}, "properties": {"numparc": 4934, "etat de la localisation": "autre", "ID BDGEO": "171", "horodatage": "2021-10-10 23:39:52", "distance (en metres)": 100.54, "station": "MAIRIE DE MONTREUIL", "marker-color": "#818181"}}, {"type": "Feature", "geometry": {"type": "Point", "coordinates": [2.454169, 48.873676]}, "properties": {"numparc": 4934, "etat de la localisation": "autre", "ID BDGEO": "165", "horodatage": "2021-10-10 23:52:04", "distance (en metres)": 42.37, "station": "SAINT-DENIS", "marker-color": "#818181"}}, {"type": "Feature", "geometry": {"type": "Point", "coordinates": [2.441735, 48.863026]}, "properties": {"numparc": 4933, "etat de la localisation": "autre", "ID BDGEO": "171", "horodatage": "2021-10-11 00:05:51", "distance (en metres)": 99.44, "station": "MAIRIE DE MONTREUIL", "marker-color": "#818181"}}, {"type": "Feature", "geometry": {"type": "Point", "coordinates": [2.447867, 48.880489]}, "properties": {"numparc": 4933, "etat de la localisation": "autre", "ID BDGEO": "186", "horodatage": "2021-10-11 00:29:34", "distance (en metres)": 271.32, "station": "FORT DE NOISY", "marker-color": "#818181"}}, {"type": "Feature", "geometry": {"type": "Point", "coordinates": [2.447867, 48.880489]}, "properties": {"numparc": 4933, "etat de la localisation": "autre", "ID BDGEO": "186", "horodatage": "2021-10-11 00:30:15", "distance (en metres)": 271.32, "station": "FORT DE NOISY", "marker-color": "#818181"}}, {"type": "Feature", "geometry": {"type": "Point", "coordinates": [2.441685, 48.862911]}, "properties": {"numparc": 4934, "etat de la localisation": "autre", "ID BDGEO": "171", "horodatage": "2021-10-11 00:47:53", "distance (en metres)": 94.33, "station": "MAIRIE DE MONTREUIL", "marker-color": "#818181"}}, {"type": "Feature", "geometry": {"type": "Point", "coordinates": [2.427308, 48.878811]}, "properties": {"numparc": 4933, "etat de la localisation": "autre", "ID BDGEO": "327", "horodatage": "2021-10-11 00:49:54", "distance (en metres)": 68.31, "station": "CENTRE BUS LES LILAS SORTIE", "marker-color": "#818181"}}, {"type": "Feature", "geometry": {"type": "Point", "coordinates": [2.427197, 48.878822]}, "properties": {"numparc": 4933, "etat de la localisation": "autre", "ID BDGEO": "327", "horodatage": "2021-10-11 00:54:27", "distance (en metres)": 65.03, "station": "CENTRE BUS LES LILAS SORTIE", "marker-color": "#818181"}}, {"type": "Feature", "geometry": {"type": "Point", "coordinates": [2.427288, 48.878559]}, "properties": {"numparc": 4934, "etat de la localisation": "autre", "ID BDGEO": "175", "horodatage": "2021-10-11 01:25:33", "distance (en metres)": 92.51, "station": "CENTRE BUS LES LILAS ENTREE", "marker-color": "#818181"}}, {"type": "Feature", "geometry": {"type": "Point", "coordinates": [2.427281, 48.878792]}, "properties": {"numparc": 4934, "etat de la localisation": "autre", "ID BDGEO": "175", "horodatage": "2021-10-11 01:28:55", "distance (en metres)": 68.98, "station": "CENTRE BUS LES LILAS ENTREE", "marker-color": "#818181"}}, {"type": "Feature", "geometry": {"type": "Point", "coordinates": [2.427361, 48.878529]}, "properties": {"numparc": 4934, "etat de la localisation": "autre", "ID BDGEO": "163", "horodatage": "2021-10-11 01:39:29", "distance (en metres)": 1179.84, "station": "ROMAINVILLE-CARNOT", "marker-color": "#818181"}}, {"type": "Feature", "geometry": {"type": "Point", "coordinates": [2.427375, 48.878529]}, "properties": {"numparc": 4934, "etat de la localisation": "autre", "ID BDGEO": "163", "horodatage": "2021-10-11 01:40:46", "distance (en metres)": 1178.93, "station": "ROMAINVILLE-CARNOT", "marker-color": "#818181"}}, {"type": "Feature", "geometry": {"type": "Point", "coordinates": [2.445097, 48.882113]}, "properties": {"station": "FORT DE NOISY", "ID BDGEO": "186", "marker-color": "#56B3FF"}}, {"type": "Feature", "geometry": {"type": "Point", "coordinates": [2.409334, 48.877395]}, "properties": {"station": "PORTE DES LILAS", "ID BDGEO": "166", "marker-color": "#56B3FF"}}, {"type": "Feature", "geometry": {"type": "Point", "coordinates": [2.411243, 48.878463]}, "properties": {"station": "LES BRUYERES", "ID BDGEO": "181", "marker-color": "#56B3FF"}}, {"type": "Feature", "geometry": {"type": "Point", "coordinates": [2.442741, 48.862424]}, "properties": {"station": "MAIRIE DE MONTREUIL", "ID BDGEO": "171", "marker-color": "#56B3FF"}}, {"type": "Feature", "geometry": {"type": "Point", "coordinates": [2.453826, 48.873369]}, "properties": {"station": "SAINT-DENIS", "ID BDGEO": "165", "marker-color": "#56B3FF"}}, {"type": "Feature", "geometry": {"type": "Point", "coordinates": [2.42309, 48.882176]}, "properties": {"station": "SABLONS", "ID BDGEO": "193", "marker-color": "#56B3FF"}}, {"type": "Feature", "geometry": {"type": "Point", "coordinates": [2.443618, 48.865092]}, "properties": {"station": "PLACE FRANCOIS MITTERRAND", "ID BDGEO": "199", "marker-color": "#56B3FF"}}, {"type": "Feature", "geometry": {"type": "Point", "coordinates": [2.450495, 48.870173]}, "properties": {"station": "PAUL SIGNAC-CARREFOUR DU 8 MAI 1945", "ID BDGEO": "160", "marker-color": "#56B3FF"}}, {"type": "Feature", "geometry": {"type": "Point", "coordinates": [2.427023, 48.879396]}, "properties": {"station": "CENTRE BUS LES LILAS SORTIE", "ID BDGEO": "327", "marker-color": "#56B3FF"}}, {"type": "Feature", "geometry": {"type": "Point", "coordinates": [2.445424, 48.881987]}, "properties": {"station": "FORT DE NOISY", "ID BDGEO": "168", "marker-color": "#56B3FF"}}, {"type": "Feature", "geometry": {"type": "Point", "coordinates": [2.427718, 48.879341]}, "properties": {"station": "CENTRE BUS LES LILAS ENTREE", "ID BDGEO": "175", "marker-color": "#56B3FF"}}, {"type": "Feature", "geometry": {"type": "Point", "coordinates": [2.44168, 48.883419]}, "properties": {"station": "ROMAINVILLE-CARNOT", "ID BDGEO": "163", "marker-color": "#56B3FF"}}]}