{"type": "FeatureCollection", "features": [{"type": "Feature", "geometry": {"type": "Point", "coordinates": [2.341079, 48.916718]}, "properties": {"etat de la localisation": "Delocalise", "numparc": 1989, "duree": "00:41:03", "horodatage": "2022-03-17 14:55:10", "marker-color": "#FF565E"}}, {"type": "Feature", "geometry": {"type": "Point", "coordinates": [2.241229, 48.88987]}, "properties": {"etat de la localisation": "Delocalise", "numparc": 1989, "duree": "00:07:09", "horodatage": "2022-03-17 15:37:38", "marker-color": "#FF565E"}}, {"type": "Feature", "geometry": {"type": "Point", "coordinates": [2.341358, 48.916885]}, "properties": {"etat de la localisation": "Mission inconnue", "numparc": 1987, "duree": "", "horodatage": "2022-03-17 16:19:34", "marker-color": "#FF9F56"}}, {"type": "Feature", "geometry": {"type": "Point", "coordinates": [2.341424, 48.916862]}, "properties": {"etat de la localisation": "Hors service", "numparc": 1987, "duree": "", "horodatage": "2022-03-17 16:24:43", "marker-color": "#707070"}}, {"type": "Feature", "geometry": {"type": "Point", "coordinates": [2.240335, 48.89138]}, "properties": {"etat de la localisation": "Mission suivante non connue", "numparc": 1987, "duree": "", "horodatage": "2022-03-17 17:00:23", "marker-color": "#7156FF"}}, {"type": "Feature", "geometry": {"type": "Point", "coordinates": [2.307287, 48.933224]}, "properties": {"etat de la localisation": "Mission suivante non connue", "numparc": 1987, "duree": "", "horodatage": "2022-03-17 18:02:21", "marker-color": "#7156FF"}}, {"type": "Feature", "geometry": {"type": "Point", "coordinates": [2.306957, 48.933586]}, "properties": {"etat de la localisation": "Mission inconnue", "numparc": 1987, "duree": "", "horodatage": "2022-03-17 18:04:18", "marker-color": "#FF9F56"}}, {"type": "Feature", "geometry": {"type": "Point", "coordinates": [2.241498, 48.890182]}, "properties": {"etat de la localisation": "Delocalise", "numparc": 1989, "duree": "00:21:30", "horodatage": "2022-03-17 18:59:16", "marker-color": "#FF565E"}}, {"type": "Feature", "geometry": {"type": "Point", "coordinates": [2.341152, 48.916588]}, "properties": {"etat de la localisation": "Hors service", "numparc": 1989, "duree": "", "horodatage": "2022-03-17 21:59:14", "marker-color": "#707070"}}, {"type": "Feature", "geometry": {"type": "Point", "coordinates": [2.237323, 48.891781]}, "properties": {"etat de la localisation": "Delocalise", "numparc": 1987, "duree": "00:28:15", "horodatage": "2022-03-17 22:25:10", "marker-color": "#FF565E"}}, {"type": "Feature", "geometry": {"type": "Point", "coordinates": [2.340972, 48.916538]}, "properties": {"etat de la localisation": "Hors service", "numparc": 1987, "duree": "", "horodatage": "2022-03-17 22:53:25", "marker-color": "#707070"}}]}