{"type": "FeatureCollection", "features": [{"type": "Feature", "geometry": {"type": "Point", "coordinates": [2.369383, 48.728798]}, "properties": {"alarme": "DEFAUT LIAISON DATA SAEIV / AIGLE", "numparc": 7436, "type": "TECHNIQUE", "duree": "00:01:13", "horodatage": "2023-04-04 09:53:40", "statut": "start", "marker-color": "#ff0000"}}, {"type": "Feature", "geometry": {"type": "Point", "coordinates": [2.369392, 48.728775]}, "properties": {"alarme": "DEFAUT LIAISON DATA SAEIV / AIGLE", "numparc": 7427, "type": "TECHNIQUE", "duree": "00:00:05", "horodatage": "2023-04-04 16:51:16", "statut": "start", "marker-color": "#ff0000"}}, {"type": "Feature", "geometry": {"type": "Point", "coordinates": [2.369383, 48.728798]}, "properties": {"alarme": "DEFAUT LIAISON DATA SAEIV / AIGLE", "numparc": 7436, "type": "TECHNIQUE", "duree": "00:01:13", "horodatage": "2023-04-04 09:54:53", "statut": "end", "marker-color": "#2fe184"}}, {"type": "Feature", "geometry": {"type": "Point", "coordinates": [2.369392, 48.728775]}, "properties": {"alarme": "DEFAUT LIAISON DATA SAEIV / AIGLE", "numparc": 7427, "type": "TECHNIQUE", "duree": "00:00:05", "horodatage": "2023-04-04 16:51:21", "statut": "end", "marker-color": "#2fe184"}}]}