{"type": "FeatureCollection", "features": [{"type": "Feature", "geometry": {"type": "Point", "coordinates": [2.34885, 48.857231]}, "properties": {"alarme": "VEHICULE DELOCALISE", "numparc": 1484, "type": "EXPLOITATION", "duree": "00:01:38", "horodatage": "2022-10-10 06:17:00", "statut": "start", "marker-color": "#ff0000"}}, {"type": "Feature", "geometry": {"type": "Point", "coordinates": [2.332098, 48.851868]}, "properties": {"alarme": "VEHICULE DELOCALISE", "numparc": 1484, "type": "EXPLOITATION", "duree": "00:00:33", "horodatage": "2022-10-10 06:25:45", "statut": "start", "marker-color": "#ff0000"}}, {"type": "Feature", "geometry": {"type": "Point", "coordinates": [2.322148, 48.843323]}, "properties": {"alarme": "VEHICULE DELOCALISE", "numparc": 1484, "type": "EXPLOITATION", "duree": "00:00:28", "horodatage": "2022-10-10 06:39:15", "statut": "start", "marker-color": "#ff0000"}}, {"type": "Feature", "geometry": {"type": "Point", "coordinates": [2.327826, 48.847141]}, "properties": {"alarme": "VEHICULE DELOCALISE", "numparc": 1484, "type": "EXPLOITATION", "duree": "00:09:47", "horodatage": "2022-10-10 06:42:45", "statut": "start", "marker-color": "#ff0000"}}, {"type": "Feature", "geometry": {"type": "Point", "coordinates": [2.362887, 48.855518]}, "properties": {"alarme": "VEHICULE DELOCALISE", "numparc": 1484, "type": "EXPLOITATION", "duree": "00:02:09", "horodatage": "2022-10-10 06:58:10", "statut": "start", "marker-color": "#ff0000"}}, {"type": "Feature", "geometry": {"type": "Point", "coordinates": [2.37238, 48.864056]}, "properties": {"alarme": "VEHICULE DELOCALISE", "numparc": 1484, "type": "EXPLOITATION", "duree": "00:00:35", "horodatage": "2022-10-10 07:03:39", "statut": "start", "marker-color": "#ff0000"}}, {"type": "Feature", "geometry": {"type": "Point", "coordinates": [2.427257, 48.878765]}, "properties": {"alarme": "DEFAUT LIAISON DATA SAEIV / AIGLE", "numparc": 1484, "type": "TECHNIQUE", "duree": "00:00:08", "horodatage": "2022-10-10 07:32:24", "statut": "start", "marker-color": "#ff0000"}}, {"type": "Feature", "geometry": {"type": "Point", "coordinates": [2.366599, 48.865963]}, "properties": {"alarme": "VEHICULE DELOCALISE", "numparc": 1591, "type": "EXPLOITATION", "duree": "00:02:47", "horodatage": "2022-10-10 07:58:21", "statut": "start", "marker-color": "#ff0000"}}, {"type": "Feature", "geometry": {"type": "Point", "coordinates": [2.366599, 48.865887]}, "properties": {"alarme": "VEHICULE DELOCALISE", "numparc": 1491, "type": "EXPLOITATION", "duree": "00:06:11", "horodatage": "2022-10-10 09:03:46", "statut": "start", "marker-color": "#ff0000"}}, {"type": "Feature", "geometry": {"type": "Point", "coordinates": [2.366508, 48.865952]}, "properties": {"alarme": "VEHICULE DELOCALISE", "numparc": 1537, "type": "EXPLOITATION", "duree": "00:04:54", "horodatage": "2022-10-10 09:20:13", "statut": "start", "marker-color": "#ff0000"}}, {"type": "Feature", "geometry": {"type": "Point", "coordinates": [2.366547, 48.865917]}, "properties": {"alarme": "VEHICULE DELOCALISE", "numparc": 1491, "type": "EXPLOITATION", "duree": "00:02:17", "horodatage": "2022-10-10 10:41:48", "statut": "start", "marker-color": "#ff0000"}}, {"type": "Feature", "geometry": {"type": "Point", "coordinates": [2.405226, 48.87421]}, "properties": {"alarme": "VEHICULE DELOCALISE", "numparc": 1591, "type": "EXPLOITATION", "duree": "00:01:57", "horodatage": "2022-10-10 11:18:15", "statut": "start", "marker-color": "#ff0000"}}, {"type": "Feature", "geometry": {"type": "Point", "coordinates": [2.366446, 48.86599]}, "properties": {"alarme": "VEHICULE DELOCALISE", "numparc": 1522, "type": "EXPLOITATION", "duree": "00:02:45", "horodatage": "2022-10-10 14:25:58", "statut": "start", "marker-color": "#ff0000"}}, {"type": "Feature", "geometry": {"type": "Point", "coordinates": [2.346108, 48.855461]}, "properties": {"alarme": "VEHICULE DELOCALISE", "numparc": 1484, "type": "EXPLOITATION", "duree": "00:01:38", "horodatage": "2022-10-10 06:18:38", "statut": "end", "marker-color": "#2fe184"}}, {"type": "Feature", "geometry": {"type": "Point", "coordinates": [2.331227, 48.851513]}, "properties": {"alarme": "VEHICULE DELOCALISE", "numparc": 1484, "type": "EXPLOITATION", "duree": "00:00:33", "horodatage": "2022-10-10 06:26:18", "statut": "end", "marker-color": "#2fe184"}}, {"type": "Feature", "geometry": {"type": "Point", "coordinates": [2.323614, 48.843567]}, "properties": {"alarme": "VEHICULE DELOCALISE", "numparc": 1484, "type": "EXPLOITATION", "duree": "00:00:28", "horodatage": "2022-10-10 06:39:43", "statut": "end", "marker-color": "#2fe184"}}, {"type": "Feature", "geometry": {"type": "Point", "coordinates": [2.347444, 48.857018]}, "properties": {"alarme": "VEHICULE DELOCALISE", "numparc": 1484, "type": "EXPLOITATION", "duree": "00:09:47", "horodatage": "2022-10-10 06:52:32", "statut": "end", "marker-color": "#2fe184"}}, {"type": "Feature", "geometry": {"type": "Point", "coordinates": [2.364168, 48.859592]}, "properties": {"alarme": "VEHICULE DELOCALISE", "numparc": 1484, "type": "EXPLOITATION", "duree": "00:02:09", "horodatage": "2022-10-10 07:00:19", "statut": "end", "marker-color": "#2fe184"}}, {"type": "Feature", "geometry": {"type": "Point", "coordinates": [2.374465, 48.864952]}, "properties": {"alarme": "VEHICULE DELOCALISE", "numparc": 1484, "type": "EXPLOITATION", "duree": "00:00:35", "horodatage": "2022-10-10 07:04:14", "statut": "end", "marker-color": "#2fe184"}}, {"type": "Feature", "geometry": {"type": "Point", "coordinates": [2.427257, 48.878765]}, "properties": {"alarme": "DEFAUT LIAISON DATA SAEIV / AIGLE", "numparc": 1484, "type": "TECHNIQUE", "duree": "00:00:08", "horodatage": "2022-10-10 07:32:32", "statut": "end", "marker-color": "#2fe184"}}, {"type": "Feature", "geometry": {"type": "Point", "coordinates": [2.365975, 48.864399]}, "properties": {"alarme": "VEHICULE DELOCALISE", "numparc": 1591, "type": "EXPLOITATION", "duree": "00:02:47", "horodatage": "2022-10-10 08:01:08", "statut": "end", "marker-color": "#2fe184"}}, {"type": "Feature", "geometry": {"type": "Point", "coordinates": [2.364879, 48.86219]}, "properties": {"alarme": "VEHICULE DELOCALISE", "numparc": 1491, "type": "EXPLOITATION", "duree": "00:06:11", "horodatage": "2022-10-10 09:09:57", "statut": "end", "marker-color": "#2fe184"}}, {"type": "Feature", "geometry": {"type": "Point", "coordinates": [2.364976, 48.862236]}, "properties": {"alarme": "VEHICULE DELOCALISE", "numparc": 1537, "type": "EXPLOITATION", "duree": "00:04:54", "horodatage": "2022-10-10 09:25:07", "statut": "end", "marker-color": "#2fe184"}}, {"type": "Feature", "geometry": {"type": "Point", "coordinates": [2.365884, 48.864376]}, "properties": {"alarme": "VEHICULE DELOCALISE", "numparc": 1491, "type": "EXPLOITATION", "duree": "00:02:17", "horodatage": "2022-10-10 10:44:05", "statut": "end", "marker-color": "#2fe184"}}, {"type": "Feature", "geometry": {"type": "Point", "coordinates": [2.406177, 48.876343]}, "properties": {"alarme": "VEHICULE DELOCALISE", "numparc": 1591, "type": "EXPLOITATION", "duree": "00:01:57", "horodatage": "2022-10-10 11:20:12", "statut": "end", "marker-color": "#2fe184"}}, {"type": "Feature", "geometry": {"type": "Point", "coordinates": [2.365895, 48.864365]}, "properties": {"alarme": "VEHICULE DELOCALISE", "numparc": 1522, "type": "EXPLOITATION", "duree": "00:02:45", "horodatage": "2022-10-10 14:28:43", "statut": "end", "marker-color": "#2fe184"}}]}