{"type": "FeatureCollection", "features": [{"type": "Feature", "geometry": {"type": "Point", "coordinates": [2.442351, 48.772167]}, "properties": {"etat de la localisation": "Delocalise", "numparc": 2831, "duree": "00:10:58", "horodatage": "2021-11-23 05:14:48", "marker-color": "#FF565E"}}, {"type": "Feature", "geometry": {"type": "Point", "coordinates": [2.473492, 48.780949]}, "properties": {"etat de la localisation": "Mission suivante non connue", "numparc": 2831, "duree": "", "horodatage": "2021-11-23 09:43:39", "marker-color": "#7156FF"}}, {"type": "Feature", "geometry": {"type": "Point", "coordinates": [2.473885, 48.781078]}, "properties": {"etat de la localisation": "Mission inconnue", "numparc": 2831, "duree": "", "horodatage": "2021-11-23 09:44:25", "marker-color": "#FF9F56"}}, {"type": "Feature", "geometry": {"type": "Point", "coordinates": [2.460005, 48.782181]}, "properties": {"etat de la localisation": "Mission inconnue", "numparc": 2831, "duree": "", "horodatage": "2021-11-23 09:55:52", "marker-color": "#FF9F56"}}, {"type": "Feature", "geometry": {"type": "Point", "coordinates": [2.473447, 48.780975]}, "properties": {"etat de la localisation": "Mission suivante non connue", "numparc": 2831, "duree": "", "horodatage": "2021-11-23 10:32:04", "marker-color": "#7156FF"}}, {"type": "Feature", "geometry": {"type": "Point", "coordinates": [2.421273, 48.815075]}, "properties": {"etat de la localisation": "Mission suivante non connue", "numparc": 2831, "duree": "", "horodatage": "2021-11-23 11:19:58", "marker-color": "#7156FF"}}, {"type": "Feature", "geometry": {"type": "Point", "coordinates": [2.453605, 48.78265]}, "properties": {"etat de la localisation": "Mission inconnue", "numparc": 2833, "duree": "", "horodatage": "2021-11-23 11:21:14", "marker-color": "#FF9F56"}}, {"type": "Feature", "geometry": {"type": "Point", "coordinates": [2.435131, 48.790607]}, "properties": {"etat de la localisation": "Mission suivante non connue", "numparc": 2833, "duree": "", "horodatage": "2021-11-23 11:31:54", "marker-color": "#7156FF"}}, {"type": "Feature", "geometry": {"type": "Point", "coordinates": [2.435133, 48.790588]}, "properties": {"etat de la localisation": "Mission suivante non connue", "numparc": 2833, "duree": "", "horodatage": "2021-11-23 11:45:11", "marker-color": "#7156FF"}}, {"type": "Feature", "geometry": {"type": "Point", "coordinates": [2.43552, 48.789223]}, "properties": {"etat de la localisation": "Mission inconnue", "numparc": 2833, "duree": "", "horodatage": "2021-11-23 11:45:40", "marker-color": "#FF9F56"}}, {"type": "Feature", "geometry": {"type": "Point", "coordinates": [2.446148, 48.788101]}, "properties": {"etat de la localisation": "Mission inconnue", "numparc": 2833, "duree": "", "horodatage": "2021-11-23 11:59:52", "marker-color": "#FF9F56"}}, {"type": "Feature", "geometry": {"type": "Point", "coordinates": [2.473502, 48.780926]}, "properties": {"etat de la localisation": "Mission suivante non connue", "numparc": 2831, "duree": "", "horodatage": "2021-11-23 12:03:22", "marker-color": "#7156FF"}}, {"type": "Feature", "geometry": {"type": "Point", "coordinates": [2.463528, 48.780037]}, "properties": {"etat de la localisation": "Delocalise", "numparc": 2833, "duree": "00:01:07", "horodatage": "2021-11-23 12:12:55", "marker-color": "#FF565E"}}, {"type": "Feature", "geometry": {"type": "Point", "coordinates": [2.46971, 48.780201]}, "properties": {"etat de la localisation": "Delocalise", "numparc": 2833, "duree": "00:01:13", "horodatage": "2021-11-23 12:14:52", "marker-color": "#FF565E"}}, {"type": "Feature", "geometry": {"type": "Point", "coordinates": [2.472456, 48.780495]}, "properties": {"etat de la localisation": "Delocalise", "numparc": 2833, "duree": "00:01:28", "horodatage": "2021-11-23 12:19:40", "marker-color": "#FF565E"}}, {"type": "Feature", "geometry": {"type": "Point", "coordinates": [2.421422, 48.815006]}, "properties": {"etat de la localisation": "Mission suivante non connue", "numparc": 2833, "duree": "", "horodatage": "2021-11-23 16:16:16", "marker-color": "#7156FF"}}, {"type": "Feature", "geometry": {"type": "Point", "coordinates": [2.422412, 48.814701]}, "properties": {"etat de la localisation": "Mission suivante non connue", "numparc": 2833, "duree": "", "horodatage": "2021-11-23 16:17:13", "marker-color": "#7156FF"}}, {"type": "Feature", "geometry": {"type": "Point", "coordinates": [2.443127, 48.77306]}, "properties": {"etat de la localisation": "Hors service", "numparc": 2833, "duree": "", "horodatage": "2021-11-23 16:39:28", "marker-color": "#707070"}}, {"type": "Feature", "geometry": {"type": "Point", "coordinates": [2.430533, 48.811195]}, "properties": {"etat de la localisation": "Delocalise", "numparc": 2832, "duree": "00:15:08", "horodatage": "2021-11-23 17:28:17", "marker-color": "#FF565E"}}, {"type": "Feature", "geometry": {"type": "Point", "coordinates": [2.441559, 48.77293]}, "properties": {"etat de la localisation": "Hors service", "numparc": 2831, "duree": "", "horodatage": "2021-11-23 19:21:33", "marker-color": "#707070"}}, {"type": "Feature", "geometry": {"type": "Point", "coordinates": [2.441558, 48.77293]}, "properties": {"etat de la localisation": "Mission inconnue", "numparc": 2831, "duree": "", "horodatage": "2021-11-23 20:03:53", "marker-color": "#FF9F56"}}, {"type": "Feature", "geometry": {"type": "Point", "coordinates": [2.441558, 48.77293]}, "properties": {"etat de la localisation": "Hors service", "numparc": 2831, "duree": "", "horodatage": "2021-11-23 20:09:40", "marker-color": "#707070"}}, {"type": "Feature", "geometry": {"type": "Point", "coordinates": [2.442913, 48.77253]}, "properties": {"etat de la localisation": "Hors service", "numparc": 2832, "duree": "", "horodatage": "2021-11-23 23:11:26", "marker-color": "#707070"}}]}