{"type": "FeatureCollection", "features": [{"type": "Feature", "geometry": {"type": "Point", "coordinates": [2.440825, 48.843945]}, "properties": {"etat de la localisation": "Hors service", "numparc": 617, "duree": "", "horodatage": "2022-11-04 12:39:22", "marker-color": "#707070"}}, {"type": "Feature", "geometry": {"type": "Point", "coordinates": [2.380865, 48.853619]}, "properties": {"etat de la localisation": "Delocalise", "numparc": 617, "duree": "00:03:48", "horodatage": "2022-11-04 13:20:34", "marker-color": "#FF565E"}}, {"type": "Feature", "geometry": {"type": "Point", "coordinates": [2.407411, 48.850498]}, "properties": {"etat de la localisation": "Hors service", "numparc": 617, "duree": "", "horodatage": "2022-11-04 15:20:34", "marker-color": "#707070"}}]}