{"type": "FeatureCollection", "features": [{"type": "Feature", "geometry": {"type": "Point", "coordinates": [2.340829, 48.847336]}, "properties": {"alarme": "VEHICULE DELOCALISE", "numparc": 5651, "type": "EXPLOITATION", "duree": "00:02:15", "horodatage": "2022-12-04 11:24:11", "statut": "start", "marker-color": "#ff0000"}}, {"type": "Feature", "geometry": {"type": "Point", "coordinates": [2.333112, 48.833439]}, "properties": {"alarme": "VEHICULE DELOCALISE", "numparc": 5654, "type": "EXPLOITATION", "duree": "00:09:09", "horodatage": "2022-12-04 15:45:45", "statut": "start", "marker-color": "#ff0000"}}, {"type": "Feature", "geometry": {"type": "Point", "coordinates": [2.340829, 48.847336]}, "properties": {"alarme": "VEHICULE DELOCALISE", "numparc": 5665, "type": "EXPLOITATION", "duree": "00:08:31", "horodatage": "2022-12-04 16:13:36", "statut": "start", "marker-color": "#ff0000"}}, {"type": "Feature", "geometry": {"type": "Point", "coordinates": [2.331547, 48.833382]}, "properties": {"alarme": "VEHICULE DELOCALISE", "numparc": 5656, "type": "EXPLOITATION", "duree": "00:36:47", "horodatage": "2022-12-04 22:32:58", "statut": "start", "marker-color": "#ff0000"}}, {"type": "Feature", "geometry": {"type": "Point", "coordinates": [2.34111, 48.847923]}, "properties": {"alarme": "VEHICULE DELOCALISE", "numparc": 5651, "type": "EXPLOITATION", "duree": "00:02:15", "horodatage": "2022-12-04 11:26:26", "statut": "end", "marker-color": "#2fe184"}}, {"type": "Feature", "geometry": {"type": "Point", "coordinates": [2.333027, 48.834919]}, "properties": {"alarme": "VEHICULE DELOCALISE", "numparc": 5654, "type": "EXPLOITATION", "duree": "00:09:09", "horodatage": "2022-12-04 15:54:54", "statut": "end", "marker-color": "#2fe184"}}, {"type": "Feature", "geometry": {"type": "Point", "coordinates": [2.341468, 48.848591]}, "properties": {"alarme": "VEHICULE DELOCALISE", "numparc": 5665, "type": "EXPLOITATION", "duree": "00:08:31", "horodatage": "2022-12-04 16:22:07", "statut": "end", "marker-color": "#2fe184"}}, {"type": "Feature", "geometry": {"type": "Point", "coordinates": [2.368638, 48.911266]}, "properties": {"alarme": "VEHICULE DELOCALISE", "numparc": 5656, "type": "EXPLOITATION", "duree": "00:36:47", "horodatage": "2022-12-04 23:09:45", "statut": "end", "marker-color": "#2fe184"}}]}