{"type": "FeatureCollection", "features": [{"type": "Feature", "geometry": {"type": "Point", "coordinates": [2.345405, 48.8932]}, "properties": {"etat de la localisation": "Hors service", "numparc": 4394, "duree": "", "horodatage": "2022-11-06 07:43:56", "marker-color": "#707070"}}, {"type": "Feature", "geometry": {"type": "Point", "coordinates": [2.349234, 48.896835]}, "properties": {"etat de la localisation": "Hors service", "numparc": 4394, "duree": "", "horodatage": "2022-11-06 21:02:11", "marker-color": "#707070"}}]}