{"type": "FeatureCollection", "features": [{"type": "Feature", "geometry": {"type": "Point", "coordinates": [2.371157, 48.910004]}, "properties": {"etat de la localisation": "Delocalise", "numparc": 5666, "duree": "00:26:00", "horodatage": "2022-10-09 06:40:57", "marker-color": "#FF565E"}}, {"type": "Feature", "geometry": {"type": "Point", "coordinates": [2.35946, 48.894135]}, "properties": {"etat de la localisation": "Delocalise", "numparc": 5648, "duree": "00:00:55", "horodatage": "2022-10-09 07:16:16", "marker-color": "#FF565E"}}, {"type": "Feature", "geometry": {"type": "Point", "coordinates": [2.371873, 48.911137]}, "properties": {"etat de la localisation": "Mission inconnue", "numparc": 5645, "duree": "", "horodatage": "2022-10-09 07:34:53", "marker-color": "#FF9F56"}}, {"type": "Feature", "geometry": {"type": "Point", "coordinates": [2.347656, 48.857819]}, "properties": {"etat de la localisation": "Delocalise", "numparc": 5648, "duree": "00:03:55", "horodatage": "2022-10-09 07:41:08", "marker-color": "#FF565E"}}, {"type": "Feature", "geometry": {"type": "Point", "coordinates": [2.340786, 48.847313]}, "properties": {"etat de la localisation": "Delocalise", "numparc": 5648, "duree": "00:00:44", "horodatage": "2022-10-09 07:49:22", "marker-color": "#FF565E"}}, {"type": "Feature", "geometry": {"type": "Point", "coordinates": [2.371832, 48.911171]}, "properties": {"etat de la localisation": "Mission inconnue", "numparc": 5644, "duree": "", "horodatage": "2022-10-09 07:51:21", "marker-color": "#FF9F56"}}, {"type": "Feature", "geometry": {"type": "Point", "coordinates": [2.347864, 48.857727]}, "properties": {"etat de la localisation": "Delocalise", "numparc": 5649, "duree": "00:03:55", "horodatage": "2022-10-09 08:02:06", "marker-color": "#FF565E"}}, {"type": "Feature", "geometry": {"type": "Point", "coordinates": [2.359392, 48.898163]}, "properties": {"etat de la localisation": "Hors service", "numparc": 5666, "duree": "", "horodatage": "2022-10-09 08:05:37", "marker-color": "#707070"}}, {"type": "Feature", "geometry": {"type": "Point", "coordinates": [2.340787, 48.847317]}, "properties": {"etat de la localisation": "Delocalise", "numparc": 5649, "duree": "00:15:48", "horodatage": "2022-10-09 08:10:26", "marker-color": "#FF565E"}}, {"type": "Feature", "geometry": {"type": "Point", "coordinates": [2.359331, 48.891647]}, "properties": {"etat de la localisation": "Delocalise", "numparc": 5677, "duree": "00:00:24", "horodatage": "2022-10-09 08:11:00", "marker-color": "#FF565E"}}, {"type": "Feature", "geometry": {"type": "Point", "coordinates": [2.359407, 48.895775]}, "properties": {"etat de la localisation": "Delocalise", "numparc": 5677, "duree": "00:00:26", "horodatage": "2022-10-09 08:12:52", "marker-color": "#FF565E"}}, {"type": "Feature", "geometry": {"type": "Point", "coordinates": [2.348742, 48.857582]}, "properties": {"etat de la localisation": "Delocalise", "numparc": 5645, "duree": "00:03:11", "horodatage": "2022-10-09 08:13:54", "marker-color": "#FF565E"}}, {"type": "Feature", "geometry": {"type": "Point", "coordinates": [2.371434, 48.910038]}, "properties": {"etat de la localisation": "Hors service", "numparc": 5660, "duree": "", "horodatage": "2022-10-09 08:16:56", "marker-color": "#707070"}}, {"type": "Feature", "geometry": {"type": "Point", "coordinates": [2.348955, 48.859795]}, "properties": {"etat de la localisation": "Delocalise", "numparc": 5648, "duree": "00:00:32", "horodatage": "2022-10-09 08:18:55", "marker-color": "#FF565E"}}, {"type": "Feature", "geometry": {"type": "Point", "coordinates": [2.340701, 48.847301]}, "properties": {"etat de la localisation": "Delocalise", "numparc": 5645, "duree": "00:14:16", "horodatage": "2022-10-09 08:22:29", "marker-color": "#FF565E"}}, {"type": "Feature", "geometry": {"type": "Point", "coordinates": [2.344416, 48.853966]}, "properties": {"etat de la localisation": "Mission inconnue", "numparc": 5642, "duree": "", "horodatage": "2022-10-09 08:25:05", "marker-color": "#FF9F56"}}, {"type": "Feature", "geometry": {"type": "Point", "coordinates": [2.348986, 48.85984]}, "properties": {"etat de la localisation": "Delocalise", "numparc": 5649, "duree": "00:01:18", "horodatage": "2022-10-09 08:29:01", "marker-color": "#FF565E"}}, {"type": "Feature", "geometry": {"type": "Point", "coordinates": [2.340714, 48.847347]}, "properties": {"etat de la localisation": "Delocalise", "numparc": 5642, "duree": "00:07:35", "horodatage": "2022-10-09 08:29:30", "marker-color": "#FF565E"}}, {"type": "Feature", "geometry": {"type": "Point", "coordinates": [2.371521, 48.911198]}, "properties": {"etat de la localisation": "Mission inconnue", "numparc": 5640, "duree": "", "horodatage": "2022-10-09 08:31:52", "marker-color": "#FF9F56"}}, {"type": "Feature", "geometry": {"type": "Point", "coordinates": [2.372476, 48.904888]}, "properties": {"etat de la localisation": "Mission inconnue", "numparc": 5640, "duree": "", "horodatage": "2022-10-09 08:35:15", "marker-color": "#FF9F56"}}, {"type": "Feature", "geometry": {"type": "Point", "coordinates": [2.343293, 48.851559]}, "properties": {"etat de la localisation": "Delocalise", "numparc": 5645, "duree": "00:00:50", "horodatage": "2022-10-09 08:38:00", "marker-color": "#FF565E"}}, {"type": "Feature", "geometry": {"type": "Point", "coordinates": [2.3595, 48.894276]}, "properties": {"etat de la localisation": "Delocalise", "numparc": 5677, "duree": "00:00:32", "horodatage": "2022-10-09 08:38:56", "marker-color": "#FF565E"}}, {"type": "Feature", "geometry": {"type": "Point", "coordinates": [2.349014, 48.859856]}, "properties": {"etat de la localisation": "Delocalise", "numparc": 5645, "duree": "00:00:27", "horodatage": "2022-10-09 08:41:53", "marker-color": "#FF565E"}}, {"type": "Feature", "geometry": {"type": "Point", "coordinates": [2.358774, 48.881763]}, "properties": {"etat de la localisation": "Delocalise", "numparc": 5677, "duree": "00:00:30", "horodatage": "2022-10-09 08:44:22", "marker-color": "#FF565E"}}, {"type": "Feature", "geometry": {"type": "Point", "coordinates": [2.347935, 48.857735]}, "properties": {"etat de la localisation": "Delocalise", "numparc": 5644, "duree": "00:04:00", "horodatage": "2022-10-09 08:48:03", "marker-color": "#FF565E"}}, {"type": "Feature", "geometry": {"type": "Point", "coordinates": [2.349044, 48.859844]}, "properties": {"etat de la localisation": "Delocalise", "numparc": 5642, "duree": "00:02:18", "horodatage": "2022-10-09 08:49:53", "marker-color": "#FF565E"}}, {"type": "Feature", "geometry": {"type": "Point", "coordinates": [2.359334, 48.895836]}, "properties": {"etat de la localisation": "Delocalise", "numparc": 5660, "duree": "00:00:41", "horodatage": "2022-10-09 08:55:49", "marker-color": "#FF565E"}}, {"type": "Feature", "geometry": {"type": "Point", "coordinates": [2.340812, 48.847282]}, "properties": {"etat de la localisation": "Delocalise", "numparc": 5644, "duree": "00:08:36", "horodatage": "2022-10-09 08:58:22", "marker-color": "#FF565E"}}, {"type": "Feature", "geometry": {"type": "Point", "coordinates": [2.359095, 48.897091]}, "properties": {"etat de la localisation": "Delocalise", "numparc": 5660, "duree": "00:00:38", "horodatage": "2022-10-09 08:58:44", "marker-color": "#FF565E"}}, {"type": "Feature", "geometry": {"type": "Point", "coordinates": [2.347787, 48.857716]}, "properties": {"etat de la localisation": "Delocalise", "numparc": 5677, "duree": "00:03:57", "horodatage": "2022-10-09 09:06:04", "marker-color": "#FF565E"}}, {"type": "Feature", "geometry": {"type": "Point", "coordinates": [2.342911, 48.851604]}, "properties": {"etat de la localisation": "Delocalise", "numparc": 5644, "duree": "00:01:11", "horodatage": "2022-10-09 09:07:58", "marker-color": "#FF565E"}}, {"type": "Feature", "geometry": {"type": "Point", "coordinates": [2.341078, 48.847321]}, "properties": {"etat de la localisation": "Delocalise", "numparc": 5677, "duree": "00:07:23", "horodatage": "2022-10-09 09:15:36", "marker-color": "#FF565E"}}, {"type": "Feature", "geometry": {"type": "Point", "coordinates": [2.359246, 48.896053]}, "properties": {"etat de la localisation": "Hors service", "numparc": 5643, "duree": "", "horodatage": "2022-10-09 09:16:32", "marker-color": "#707070"}}, {"type": "Feature", "geometry": {"type": "Point", "coordinates": [2.359426, 48.894287]}, "properties": {"etat de la localisation": "Delocalise", "numparc": 5649, "duree": "00:01:06", "horodatage": "2022-10-09 09:20:49", "marker-color": "#FF565E"}}, {"type": "Feature", "geometry": {"type": "Point", "coordinates": [2.348034, 48.85767]}, "properties": {"etat de la localisation": "Delocalise", "numparc": 5640, "duree": "00:03:44", "horodatage": "2022-10-09 09:22:55", "marker-color": "#FF565E"}}, {"type": "Feature", "geometry": {"type": "Point", "coordinates": [2.34796, 48.857777]}, "properties": {"etat de la localisation": "Delocalise", "numparc": 5648, "duree": "00:04:28", "horodatage": "2022-10-09 09:25:04", "marker-color": "#FF565E"}}, {"type": "Feature", "geometry": {"type": "Point", "coordinates": [2.348991, 48.859756]}, "properties": {"etat de la localisation": "Delocalise", "numparc": 5677, "duree": "00:00:31", "horodatage": "2022-10-09 09:29:54", "marker-color": "#FF565E"}}, {"type": "Feature", "geometry": {"type": "Point", "coordinates": [2.347897, 48.857723]}, "properties": {"etat de la localisation": "Delocalise", "numparc": 5660, "duree": "00:03:01", "horodatage": "2022-10-09 09:31:01", "marker-color": "#FF565E"}}, {"type": "Feature", "geometry": {"type": "Point", "coordinates": [2.340865, 48.847481]}, "properties": {"etat de la localisation": "Delocalise", "numparc": 5640, "duree": "00:09:13", "horodatage": "2022-10-09 09:31:43", "marker-color": "#FF565E"}}, {"type": "Feature", "geometry": {"type": "Point", "coordinates": [2.35933, 48.896889]}, "properties": {"etat de la localisation": "Mission suivante non connue", "numparc": 5644, "duree": "", "horodatage": "2022-10-09 09:34:57", "marker-color": "#7156FF"}}, {"type": "Feature", "geometry": {"type": "Point", "coordinates": [2.359417, 48.897182]}, "properties": {"etat de la localisation": "Mission suivante non connue", "numparc": 5644, "duree": "", "horodatage": "2022-10-09 09:35:53", "marker-color": "#7156FF"}}, {"type": "Feature", "geometry": {"type": "Point", "coordinates": [2.359503, 48.897617]}, "properties": {"etat de la localisation": "Delocalise", "numparc": 5644, "duree": "00:15:26", "horodatage": "2022-10-09 09:36:11", "marker-color": "#FF565E"}}, {"type": "Feature", "geometry": {"type": "Point", "coordinates": [2.343111, 48.85128]}, "properties": {"etat de la localisation": "Delocalise", "numparc": 5640, "duree": "00:03:10", "horodatage": "2022-10-09 09:42:58", "marker-color": "#FF565E"}}, {"type": "Feature", "geometry": {"type": "Point", "coordinates": [2.34086, 48.847427]}, "properties": {"etat de la localisation": "Delocalise", "numparc": 5660, "duree": "00:16:46", "horodatage": "2022-10-09 09:43:38", "marker-color": "#FF565E"}}, {"type": "Feature", "geometry": {"type": "Point", "coordinates": [2.347881, 48.857681]}, "properties": {"etat de la localisation": "Delocalise", "numparc": 5649, "duree": "00:04:17", "horodatage": "2022-10-09 09:48:08", "marker-color": "#FF565E"}}, {"type": "Feature", "geometry": {"type": "Point", "coordinates": [2.348948, 48.859715]}, "properties": {"etat de la localisation": "Delocalise", "numparc": 5648, "duree": "00:00:31", "horodatage": "2022-10-09 09:52:57", "marker-color": "#FF565E"}}, {"type": "Feature", "geometry": {"type": "Point", "coordinates": [2.340794, 48.847389]}, "properties": {"etat de la localisation": "Delocalise", "numparc": 5649, "duree": "00:13:28", "horodatage": "2022-10-09 09:57:25", "marker-color": "#FF565E"}}, {"type": "Feature", "geometry": {"type": "Point", "coordinates": [2.347926, 48.857716]}, "properties": {"etat de la localisation": "Delocalise", "numparc": 5645, "duree": "00:03:03", "horodatage": "2022-10-09 10:00:59", "marker-color": "#FF565E"}}, {"type": "Feature", "geometry": {"type": "Point", "coordinates": [2.371134, 48.909988]}, "properties": {"etat de la localisation": "Delocalise", "numparc": 5662, "duree": "00:20:35", "horodatage": "2022-10-09 10:01:58", "marker-color": "#FF565E"}}, {"type": "Feature", "geometry": {"type": "Point", "coordinates": [2.347921, 48.857727]}, "properties": {"etat de la localisation": "Delocalise", "numparc": 5642, "duree": "00:03:03", "horodatage": "2022-10-09 10:04:32", "marker-color": "#FF565E"}}, {"type": "Feature", "geometry": {"type": "Point", "coordinates": [2.348994, 48.859829]}, "properties": {"etat de la localisation": "Delocalise", "numparc": 5660, "duree": "00:00:29", "horodatage": "2022-10-09 10:06:35", "marker-color": "#FF565E"}}, {"type": "Feature", "geometry": {"type": "Point", "coordinates": [2.359285, 48.896923]}, "properties": {"etat de la localisation": "Mission suivante non connue", "numparc": 5640, "duree": "", "horodatage": "2022-10-09 10:10:30", "marker-color": "#7156FF"}}, {"type": "Feature", "geometry": {"type": "Point", "coordinates": [2.340745, 48.847313]}, "properties": {"etat de la localisation": "Delocalise", "numparc": 5642, "duree": "00:01:41", "horodatage": "2022-10-09 10:11:48", "marker-color": "#FF565E"}}, {"type": "Feature", "geometry": {"type": "Point", "coordinates": [2.340906, 48.847347]}, "properties": {"etat de la localisation": "Delocalise", "numparc": 5645, "duree": "00:09:10", "horodatage": "2022-10-09 10:12:11", "marker-color": "#FF565E"}}, {"type": "Feature", "geometry": {"type": "Point", "coordinates": [2.343284, 48.851601]}, "properties": {"etat de la localisation": "Delocalise", "numparc": 5649, "duree": "00:08:31", "horodatage": "2022-10-09 10:12:21", "marker-color": "#FF565E"}}, {"type": "Feature", "geometry": {"type": "Point", "coordinates": [2.343146, 48.851562]}, "properties": {"etat de la localisation": "Delocalise", "numparc": 5645, "duree": "00:05:27", "horodatage": "2022-10-09 10:22:53", "marker-color": "#FF565E"}}, {"type": "Feature", "geometry": {"type": "Point", "coordinates": [2.348039, 48.857769]}, "properties": {"etat de la localisation": "Delocalise", "numparc": 5644, "duree": "00:04:26", "horodatage": "2022-10-09 10:25:22", "marker-color": "#FF565E"}}, {"type": "Feature", "geometry": {"type": "Point", "coordinates": [2.368599, 48.911213]}, "properties": {"etat de la localisation": "Hors service", "numparc": 5640, "duree": "", "horodatage": "2022-10-09 10:28:03", "marker-color": "#707070"}}, {"type": "Feature", "geometry": {"type": "Point", "coordinates": [2.340859, 48.847401]}, "properties": {"etat de la localisation": "Delocalise", "numparc": 5643, "duree": "00:03:50", "horodatage": "2022-10-09 10:35:33", "marker-color": "#FF565E"}}, {"type": "Feature", "geometry": {"type": "Point", "coordinates": [2.34087, 48.84737]}, "properties": {"etat de la localisation": "Delocalise", "numparc": 5644, "duree": "00:05:15", "horodatage": "2022-10-09 10:36:27", "marker-color": "#FF565E"}}, {"type": "Feature", "geometry": {"type": "Point", "coordinates": [2.349008, 48.859844]}, "properties": {"etat de la localisation": "Delocalise", "numparc": 5642, "duree": "00:00:42", "horodatage": "2022-10-09 10:38:05", "marker-color": "#FF565E"}}, {"type": "Feature", "geometry": {"type": "Point", "coordinates": [2.359241, 48.896667]}, "properties": {"etat de la localisation": "Hors service", "numparc": 5660, "duree": "", "horodatage": "2022-10-09 10:47:12", "marker-color": "#707070"}}, {"type": "Feature", "geometry": {"type": "Point", "coordinates": [2.34904, 48.859787]}, "properties": {"etat de la localisation": "Delocalise", "numparc": 5644, "duree": "00:00:29", "horodatage": "2022-10-09 10:48:37", "marker-color": "#FF565E"}}, {"type": "Feature", "geometry": {"type": "Point", "coordinates": [2.347925, 48.857681]}, "properties": {"etat de la localisation": "Delocalise", "numparc": 5677, "duree": "00:04:12", "horodatage": "2022-10-09 10:53:33", "marker-color": "#FF565E"}}, {"type": "Feature", "geometry": {"type": "Point", "coordinates": [2.358519, 48.876122]}, "properties": {"etat de la localisation": "Mission suivante non connue", "numparc": 5644, "duree": "", "horodatage": "2022-10-09 10:56:47", "marker-color": "#7156FF"}}, {"type": "Feature", "geometry": {"type": "Point", "coordinates": [2.34091, 48.847401]}, "properties": {"etat de la localisation": "Delocalise", "numparc": 5677, "duree": "00:15:44", "horodatage": "2022-10-09 11:05:39", "marker-color": "#FF565E"}}, {"type": "Feature", "geometry": {"type": "Point", "coordinates": [2.348098, 48.857731]}, "properties": {"etat de la localisation": "Delocalise", "numparc": 5662, "duree": "00:04:50", "horodatage": "2022-10-09 11:07:46", "marker-color": "#FF565E"}}, {"type": "Feature", "geometry": {"type": "Point", "coordinates": [2.34897, 48.859837]}, "properties": {"etat de la localisation": "Delocalise", "numparc": 5643, "duree": "00:00:32", "horodatage": "2022-10-09 11:10:54", "marker-color": "#FF565E"}}, {"type": "Feature", "geometry": {"type": "Point", "coordinates": [2.369984, 48.910606]}, "properties": {"etat de la localisation": "Hors service", "numparc": 5644, "duree": "", "horodatage": "2022-10-09 11:17:23", "marker-color": "#707070"}}, {"type": "Feature", "geometry": {"type": "Point", "coordinates": [2.359449, 48.894249]}, "properties": {"etat de la localisation": "Delocalise", "numparc": 5645, "duree": "00:00:38", "horodatage": "2022-10-09 11:18:19", "marker-color": "#FF565E"}}, {"type": "Feature", "geometry": {"type": "Point", "coordinates": [2.368606, 48.911068]}, "properties": {"etat de la localisation": "Hors service", "numparc": 5644, "duree": "", "horodatage": "2022-10-09 11:19:18", "marker-color": "#707070"}}, {"type": "Feature", "geometry": {"type": "Point", "coordinates": [2.340791, 48.847378]}, "properties": {"etat de la localisation": "Delocalise", "numparc": 5662, "duree": "00:16:34", "horodatage": "2022-10-09 11:19:54", "marker-color": "#FF565E"}}, {"type": "Feature", "geometry": {"type": "Point", "coordinates": [2.348, 48.85767]}, "properties": {"etat de la localisation": "Delocalise", "numparc": 5648, "duree": "00:04:27", "horodatage": "2022-10-09 11:21:17", "marker-color": "#FF565E"}}, {"type": "Feature", "geometry": {"type": "Point", "coordinates": [2.347919, 48.857742]}, "properties": {"etat de la localisation": "Delocalise", "numparc": 5660, "duree": "00:04:22", "horodatage": "2022-10-09 11:24:58", "marker-color": "#FF565E"}}, {"type": "Feature", "geometry": {"type": "Point", "coordinates": [2.359453, 48.894325]}, "properties": {"etat de la localisation": "Delocalise", "numparc": 5642, "duree": "00:00:44", "horodatage": "2022-10-09 11:30:03", "marker-color": "#FF565E"}}, {"type": "Feature", "geometry": {"type": "Point", "coordinates": [2.348986, 48.859844]}, "properties": {"etat de la localisation": "Delocalise", "numparc": 5677, "duree": "00:00:31", "horodatage": "2022-10-09 11:30:40", "marker-color": "#FF565E"}}, {"type": "Feature", "geometry": {"type": "Point", "coordinates": [2.340797, 48.847359]}, "properties": {"etat de la localisation": "Delocalise", "numparc": 5648, "duree": "00:14:12", "horodatage": "2022-10-09 11:32:31", "marker-color": "#FF565E"}}, {"type": "Feature", "geometry": {"type": "Point", "coordinates": [2.340704, 48.84737]}, "properties": {"etat de la localisation": "Delocalise", "numparc": 5660, "duree": "00:02:12", "horodatage": "2022-10-09 11:33:46", "marker-color": "#FF565E"}}, {"type": "Feature", "geometry": {"type": "Point", "coordinates": [2.357744, 48.873901]}, "properties": {"etat de la localisation": "Delocalise", "numparc": 5645, "duree": "00:02:30", "horodatage": "2022-10-09 11:34:53", "marker-color": "#FF565E"}}, {"type": "Feature", "geometry": {"type": "Point", "coordinates": [2.343259, 48.851509]}, "properties": {"etat de la localisation": "Delocalise", "numparc": 5662, "duree": "00:01:53", "horodatage": "2022-10-09 11:38:35", "marker-color": "#FF565E"}}, {"type": "Feature", "geometry": {"type": "Point", "coordinates": [2.347839, 48.857727]}, "properties": {"etat de la localisation": "Delocalise", "numparc": 5645, "duree": "00:03:48", "horodatage": "2022-10-09 11:49:23", "marker-color": "#FF565E"}}, {"type": "Feature", "geometry": {"type": "Point", "coordinates": [2.347942, 48.85775]}, "properties": {"etat de la localisation": "Delocalise", "numparc": 5649, "duree": "00:03:37", "horodatage": "2022-10-09 11:49:37", "marker-color": "#FF565E"}}, {"type": "Feature", "geometry": {"type": "Point", "coordinates": [2.347955, 48.857697]}, "properties": {"etat de la localisation": "Delocalise", "numparc": 5642, "duree": "00:03:11", "horodatage": "2022-10-09 11:57:31", "marker-color": "#FF565E"}}, {"type": "Feature", "geometry": {"type": "Point", "coordinates": [2.340802, 48.847485]}, "properties": {"etat de la localisation": "Delocalise", "numparc": 5649, "duree": "00:28:03", "horodatage": "2022-10-09 11:59:22", "marker-color": "#FF565E"}}, {"type": "Feature", "geometry": {"type": "Point", "coordinates": [2.340803, 48.847385]}, "properties": {"etat de la localisation": "Delocalise", "numparc": 5645, "duree": "00:07:02", "horodatage": "2022-10-09 11:59:27", "marker-color": "#FF565E"}}, {"type": "Feature", "geometry": {"type": "Point", "coordinates": [2.349068, 48.859776]}, "properties": {"etat de la localisation": "Delocalise", "numparc": 5648, "duree": "00:00:30", "horodatage": "2022-10-09 12:00:57", "marker-color": "#FF565E"}}, {"type": "Feature", "geometry": {"type": "Point", "coordinates": [2.340855, 48.847439]}, "properties": {"etat de la localisation": "Delocalise", "numparc": 5642, "duree": "00:00:36", "horodatage": "2022-10-09 12:06:12", "marker-color": "#FF565E"}}, {"type": "Feature", "geometry": {"type": "Point", "coordinates": [2.34114, 48.847916]}, "properties": {"etat de la localisation": "Mission inconnue", "numparc": 5642, "duree": "", "horodatage": "2022-10-09 12:08:13", "marker-color": "#FF9F56"}}, {"type": "Feature", "geometry": {"type": "Point", "coordinates": [2.343253, 48.851562]}, "properties": {"etat de la localisation": "Delocalise", "numparc": 5645, "duree": "00:01:06", "horodatage": "2022-10-09 12:09:10", "marker-color": "#FF565E"}}, {"type": "Feature", "geometry": {"type": "Point", "coordinates": [2.349022, 48.859867]}, "properties": {"etat de la localisation": "Delocalise", "numparc": 5645, "duree": "00:00:30", "horodatage": "2022-10-09 12:13:52", "marker-color": "#FF565E"}}, {"type": "Feature", "geometry": {"type": "Point", "coordinates": [2.359424, 48.894321]}, "properties": {"etat de la localisation": "Delocalise", "numparc": 5677, "duree": "00:00:32", "horodatage": "2022-10-09 12:14:07", "marker-color": "#FF565E"}}, {"type": "Feature", "geometry": {"type": "Point", "coordinates": [2.343052, 48.850685]}, "properties": {"etat de la localisation": "Delocalise", "numparc": 5660, "duree": "00:06:35", "horodatage": "2022-10-09 12:14:32", "marker-color": "#FF565E"}}, {"type": "Feature", "geometry": {"type": "Point", "coordinates": [2.348094, 48.857635]}, "properties": {"etat de la localisation": "Delocalise", "numparc": 5643, "duree": "00:03:34", "horodatage": "2022-10-09 12:22:49", "marker-color": "#FF565E"}}, {"type": "Feature", "geometry": {"type": "Point", "coordinates": [2.359429, 48.894321]}, "properties": {"etat de la localisation": "Delocalise", "numparc": 5662, "duree": "00:00:48", "horodatage": "2022-10-09 12:24:44", "marker-color": "#FF565E"}}, {"type": "Feature", "geometry": {"type": "Point", "coordinates": [2.340896, 48.847492]}, "properties": {"etat de la localisation": "Delocalise", "numparc": 5643, "duree": "00:33:06", "horodatage": "2022-10-09 12:30:59", "marker-color": "#FF565E"}}, {"type": "Feature", "geometry": {"type": "Point", "coordinates": [2.349028, 48.859829]}, "properties": {"etat de la localisation": "Delocalise", "numparc": 5649, "duree": "00:00:40", "horodatage": "2022-10-09 12:31:13", "marker-color": "#FF565E"}}, {"type": "Feature", "geometry": {"type": "Point", "coordinates": [2.348999, 48.859856]}, "properties": {"etat de la localisation": "Delocalise", "numparc": 5642, "duree": "00:00:27", "horodatage": "2022-10-09 12:45:19", "marker-color": "#FF565E"}}, {"type": "Feature", "geometry": {"type": "Point", "coordinates": [2.359449, 48.894337]}, "properties": {"etat de la localisation": "Delocalise", "numparc": 5648, "duree": "00:01:17", "horodatage": "2022-10-09 12:47:28", "marker-color": "#FF565E"}}, {"type": "Feature", "geometry": {"type": "Point", "coordinates": [2.348102, 48.85767]}, "properties": {"etat de la localisation": "Delocalise", "numparc": 5677, "duree": "00:04:24", "horodatage": "2022-10-09 12:49:59", "marker-color": "#FF565E"}}, {"type": "Feature", "geometry": {"type": "Point", "coordinates": [2.340878, 48.847401]}, "properties": {"etat de la localisation": "Delocalise", "numparc": 5677, "duree": "00:03:54", "horodatage": "2022-10-09 12:58:49", "marker-color": "#FF565E"}}, {"type": "Feature", "geometry": {"type": "Point", "coordinates": [2.369469, 48.911301]}, "properties": {"etat de la localisation": "Hors service", "numparc": 5645, "duree": "", "horodatage": "2022-10-09 13:02:00", "marker-color": "#707070"}}, {"type": "Feature", "geometry": {"type": "Point", "coordinates": [2.348084, 48.857761]}, "properties": {"etat de la localisation": "Delocalise", "numparc": 5662, "duree": "00:03:14", "horodatage": "2022-10-09 13:04:00", "marker-color": "#FF565E"}}, {"type": "Feature", "geometry": {"type": "Point", "coordinates": [2.340847, 48.847393]}, "properties": {"etat de la localisation": "Delocalise", "numparc": 5662, "duree": "00:02:04", "horodatage": "2022-10-09 13:12:43", "marker-color": "#FF565E"}}, {"type": "Feature", "geometry": {"type": "Point", "coordinates": [2.349055, 48.859886]}, "properties": {"etat de la localisation": "Delocalise", "numparc": 5643, "duree": "00:00:29", "horodatage": "2022-10-09 13:13:22", "marker-color": "#FF565E"}}, {"type": "Feature", "geometry": {"type": "Point", "coordinates": [2.348742, 48.857594]}, "properties": {"etat de la localisation": "Delocalise", "numparc": 5648, "duree": "00:05:28", "horodatage": "2022-10-09 13:19:13", "marker-color": "#FF565E"}}, {"type": "Feature", "geometry": {"type": "Point", "coordinates": [2.348995, 48.859776]}, "properties": {"etat de la localisation": "Delocalise", "numparc": 5677, "duree": "00:00:30", "horodatage": "2022-10-09 13:22:37", "marker-color": "#FF565E"}}, {"type": "Feature", "geometry": {"type": "Point", "coordinates": [2.349042, 48.859886]}, "properties": {"etat de la localisation": "Delocalise", "numparc": 5662, "duree": "00:00:30", "horodatage": "2022-10-09 13:27:22", "marker-color": "#FF565E"}}, {"type": "Feature", "geometry": {"type": "Point", "coordinates": [2.340718, 48.847336]}, "properties": {"etat de la localisation": "Delocalise", "numparc": 5648, "duree": "00:22:32", "horodatage": "2022-10-09 13:30:07", "marker-color": "#FF565E"}}, {"type": "Feature", "geometry": {"type": "Point", "coordinates": [2.347812, 48.857788]}, "properties": {"etat de la localisation": "Delocalise", "numparc": 5660, "duree": "00:03:37", "horodatage": "2022-10-09 13:36:54", "marker-color": "#FF565E"}}, {"type": "Feature", "geometry": {"type": "Point", "coordinates": [2.348099, 48.857697]}, "properties": {"etat de la localisation": "Delocalise", "numparc": 5649, "duree": "00:05:01", "horodatage": "2022-10-09 13:46:33", "marker-color": "#FF565E"}}, {"type": "Feature", "geometry": {"type": "Point", "coordinates": [2.359442, 48.894314]}, "properties": {"etat de la localisation": "Delocalise", "numparc": 5643, "duree": "00:00:47", "horodatage": "2022-10-09 13:47:26", "marker-color": "#FF565E"}}, {"type": "Feature", "geometry": {"type": "Point", "coordinates": [2.340904, 48.847431]}, "properties": {"etat de la localisation": "Delocalise", "numparc": 5660, "duree": "00:03:58", "horodatage": "2022-10-09 13:47:58", "marker-color": "#FF565E"}}, {"type": "Feature", "geometry": {"type": "Point", "coordinates": [2.340849, 48.84737]}, "properties": {"etat de la localisation": "Delocalise", "numparc": 5649, "duree": "00:12:03", "horodatage": "2022-10-09 13:57:16", "marker-color": "#FF565E"}}, {"type": "Feature", "geometry": {"type": "Point", "coordinates": [2.347967, 48.857697]}, "properties": {"etat de la localisation": "Delocalise", "numparc": 5642, "duree": "00:03:05", "horodatage": "2022-10-09 14:02:29", "marker-color": "#FF565E"}}, {"type": "Feature", "geometry": {"type": "Point", "coordinates": [2.343162, 48.851517]}, "properties": {"etat de la localisation": "Delocalise", "numparc": 5649, "duree": "00:01:07", "horodatage": "2022-10-09 14:10:27", "marker-color": "#FF565E"}}, {"type": "Feature", "geometry": {"type": "Point", "coordinates": [2.340849, 48.847401]}, "properties": {"etat de la localisation": "Delocalise", "numparc": 5642, "duree": "00:30:18", "horodatage": "2022-10-09 14:11:20", "marker-color": "#FF565E"}}, {"type": "Feature", "geometry": {"type": "Point", "coordinates": [2.348937, 48.859795]}, "properties": {"etat de la localisation": "Delocalise", "numparc": 5649, "duree": "00:00:36", "horodatage": "2022-10-09 14:16:35", "marker-color": "#FF565E"}}, {"type": "Feature", "geometry": {"type": "Point", "coordinates": [2.347897, 48.857716]}, "properties": {"etat de la localisation": "Delocalise", "numparc": 5643, "duree": "00:03:12", "horodatage": "2022-10-09 14:20:59", "marker-color": "#FF565E"}}, {"type": "Feature", "geometry": {"type": "Point", "coordinates": [2.340869, 48.847488]}, "properties": {"etat de la localisation": "Delocalise", "numparc": 5643, "duree": "00:03:39", "horodatage": "2022-10-09 14:30:04", "marker-color": "#FF565E"}}, {"type": "Feature", "geometry": {"type": "Point", "coordinates": [2.359325, 48.896965]}, "properties": {"etat de la localisation": "Mission suivante non connue", "numparc": 5660, "duree": "", "horodatage": "2022-10-09 14:34:28", "marker-color": "#7156FF"}}, {"type": "Feature", "geometry": {"type": "Point", "coordinates": [2.359414, 48.894405]}, "properties": {"etat de la localisation": "Delocalise", "numparc": 5648, "duree": "00:00:40", "horodatage": "2022-10-09 14:45:06", "marker-color": "#FF565E"}}, {"type": "Feature", "geometry": {"type": "Point", "coordinates": [2.348044, 48.85767]}, "properties": {"etat de la localisation": "Delocalise", "numparc": 5677, "duree": "00:04:21", "horodatage": "2022-10-09 14:46:41", "marker-color": "#FF565E"}}, {"type": "Feature", "geometry": {"type": "Point", "coordinates": [2.348964, 48.85984]}, "properties": {"etat de la localisation": "Delocalise", "numparc": 5642, "duree": "00:00:32", "horodatage": "2022-10-09 14:47:52", "marker-color": "#FF565E"}}, {"type": "Feature", "geometry": {"type": "Point", "coordinates": [2.36869, 48.911087]}, "properties": {"etat de la localisation": "Delocalise", "numparc": 5674, "duree": "00:06:49", "horodatage": "2022-10-09 14:53:47", "marker-color": "#FF565E"}}, {"type": "Feature", "geometry": {"type": "Point", "coordinates": [2.340863, 48.847443]}, "properties": {"etat de la localisation": "Delocalise", "numparc": 5677, "duree": "00:09:26", "horodatage": "2022-10-09 14:55:28", "marker-color": "#FF565E"}}, {"type": "Feature", "geometry": {"type": "Point", "coordinates": [2.370099, 48.911259]}, "properties": {"etat de la localisation": "Hors service", "numparc": 5674, "duree": "", "horodatage": "2022-10-09 15:00:36", "marker-color": "#707070"}}, {"type": "Feature", "geometry": {"type": "Point", "coordinates": [2.348106, 48.857666]}, "properties": {"etat de la localisation": "Delocalise", "numparc": 5662, "duree": "00:03:13", "horodatage": "2022-10-09 15:05:20", "marker-color": "#FF565E"}}, {"type": "Feature", "geometry": {"type": "Point", "coordinates": [2.359205, 48.8964]}, "properties": {"etat de la localisation": "Hors service", "numparc": 5652, "duree": "", "horodatage": "2022-10-09 15:07:19", "marker-color": "#707070"}}, {"type": "Feature", "geometry": {"type": "Point", "coordinates": [2.348992, 48.859821]}, "properties": {"etat de la localisation": "Delocalise", "numparc": 5643, "duree": "00:00:34", "horodatage": "2022-10-09 15:10:01", "marker-color": "#FF565E"}}, {"type": "Feature", "geometry": {"type": "Point", "coordinates": [2.340855, 48.847351]}, "properties": {"etat de la localisation": "Delocalise", "numparc": 5662, "duree": "00:01:24", "horodatage": "2022-10-09 15:16:31", "marker-color": "#FF565E"}}, {"type": "Feature", "geometry": {"type": "Point", "coordinates": [2.359206, 48.8964]}, "properties": {"etat de la localisation": "Hors service", "numparc": 5652, "duree": "", "horodatage": "2022-10-09 15:21:19", "marker-color": "#707070"}}, {"type": "Feature", "geometry": {"type": "Point", "coordinates": [2.348076, 48.857666]}, "properties": {"etat de la localisation": "Delocalise", "numparc": 5648, "duree": "00:04:37", "horodatage": "2022-10-09 15:28:24", "marker-color": "#FF565E"}}, {"type": "Feature", "geometry": {"type": "Point", "coordinates": [2.348975, 48.859833]}, "properties": {"etat de la localisation": "Delocalise", "numparc": 5677, "duree": "00:00:37", "horodatage": "2022-10-09 15:33:15", "marker-color": "#FF565E"}}, {"type": "Feature", "geometry": {"type": "Point", "coordinates": [2.348024, 48.857647]}, "properties": {"etat de la localisation": "Delocalise", "numparc": 5660, "duree": "00:05:33", "horodatage": "2022-10-09 15:34:00", "marker-color": "#FF565E"}}, {"type": "Feature", "geometry": {"type": "Point", "coordinates": [2.340851, 48.847393]}, "properties": {"etat de la localisation": "Delocalise", "numparc": 5648, "duree": "00:20:33", "horodatage": "2022-10-09 15:38:45", "marker-color": "#FF565E"}}, {"type": "Feature", "geometry": {"type": "Point", "coordinates": [2.359132, 48.896782]}, "properties": {"etat de la localisation": "Hors service", "numparc": 5642, "duree": "", "horodatage": "2022-10-09 15:38:49", "marker-color": "#707070"}}, {"type": "Feature", "geometry": {"type": "Point", "coordinates": [2.349005, 48.859821]}, "properties": {"etat de la localisation": "Delocalise", "numparc": 5662, "duree": "00:00:37", "horodatage": "2022-10-09 15:42:41", "marker-color": "#FF565E"}}, {"type": "Feature", "geometry": {"type": "Point", "coordinates": [2.340914, 48.847401]}, "properties": {"etat de la localisation": "Delocalise", "numparc": 5660, "duree": "00:13:44", "horodatage": "2022-10-09 15:50:35", "marker-color": "#FF565E"}}, {"type": "Feature", "geometry": {"type": "Point", "coordinates": [2.35913, 48.89679]}, "properties": {"etat de la localisation": "Hors service", "numparc": 5643, "duree": "", "horodatage": "2022-10-09 15:54:07", "marker-color": "#707070"}}, {"type": "Feature", "geometry": {"type": "Point", "coordinates": [2.347942, 48.857704]}, "properties": {"etat de la localisation": "Delocalise", "numparc": 5649, "duree": "00:03:45", "horodatage": "2022-10-09 15:55:37", "marker-color": "#FF565E"}}, {"type": "Feature", "geometry": {"type": "Point", "coordinates": [2.348061, 48.857662]}, "properties": {"etat de la localisation": "Delocalise", "numparc": 5674, "duree": "00:03:55", "horodatage": "2022-10-09 16:04:51", "marker-color": "#FF565E"}}, {"type": "Feature", "geometry": {"type": "Point", "coordinates": [2.340842, 48.847435]}, "properties": {"etat de la localisation": "Delocalise", "numparc": 5649, "duree": "00:14:14", "horodatage": "2022-10-09 16:05:29", "marker-color": "#FF565E"}}, {"type": "Feature", "geometry": {"type": "Point", "coordinates": [2.368721, 48.911087]}, "properties": {"etat de la localisation": "Delocalise", "numparc": 5668, "duree": "00:00:48", "horodatage": "2022-10-09 16:07:34", "marker-color": "#FF565E"}}, {"type": "Feature", "geometry": {"type": "Point", "coordinates": [2.370033, 48.911282]}, "properties": {"etat de la localisation": "Hors service", "numparc": 5668, "duree": "", "horodatage": "2022-10-09 16:08:22", "marker-color": "#707070"}}, {"type": "Feature", "geometry": {"type": "Point", "coordinates": [2.348969, 48.859814]}, "properties": {"etat de la localisation": "Delocalise", "numparc": 5648, "duree": "00:00:34", "horodatage": "2022-10-09 16:09:30", "marker-color": "#FF565E"}}, {"type": "Feature", "geometry": {"type": "Point", "coordinates": [2.347862, 48.857716]}, "properties": {"etat de la localisation": "Delocalise", "numparc": 5652, "duree": "00:04:23", "horodatage": "2022-10-09 16:11:55", "marker-color": "#FF565E"}}, {"type": "Feature", "geometry": {"type": "Point", "coordinates": [2.340868, 48.84745]}, "properties": {"etat de la localisation": "Delocalise", "numparc": 5674, "duree": "00:14:04", "horodatage": "2022-10-09 16:13:37", "marker-color": "#FF565E"}}, {"type": "Feature", "geometry": {"type": "Point", "coordinates": [2.3489, 48.859631]}, "properties": {"etat de la localisation": "Delocalise", "numparc": 5660, "duree": "00:00:38", "horodatage": "2022-10-09 16:18:48", "marker-color": "#FF565E"}}, {"type": "Feature", "geometry": {"type": "Point", "coordinates": [2.359442, 48.894299]}, "properties": {"etat de la localisation": "Delocalise", "numparc": 5677, "duree": "00:00:41", "horodatage": "2022-10-09 16:19:29", "marker-color": "#FF565E"}}, {"type": "Feature", "geometry": {"type": "Point", "coordinates": [2.340907, 48.847378]}, "properties": {"etat de la localisation": "Delocalise", "numparc": 5652, "duree": "00:10:07", "horodatage": "2022-10-09 16:21:45", "marker-color": "#FF565E"}}, {"type": "Feature", "geometry": {"type": "Point", "coordinates": [2.358982, 48.898067]}, "properties": {"etat de la localisation": "Hors service", "numparc": 5665, "duree": "", "horodatage": "2022-10-09 16:23:46", "marker-color": "#707070"}}, {"type": "Feature", "geometry": {"type": "Point", "coordinates": [2.349024, 48.859852]}, "properties": {"etat de la localisation": "Delocalise", "numparc": 5649, "duree": "00:00:32", "horodatage": "2022-10-09 16:25:55", "marker-color": "#FF565E"}}, {"type": "Feature", "geometry": {"type": "Point", "coordinates": [2.341277, 48.848118]}, "properties": {"etat de la localisation": "Hors service", "numparc": 5674, "duree": "", "horodatage": "2022-10-09 16:27:41", "marker-color": "#707070"}}, {"type": "Feature", "geometry": {"type": "Point", "coordinates": [2.341192, 48.848038]}, "properties": {"etat de la localisation": "Hors service", "numparc": 5652, "duree": "", "horodatage": "2022-10-09 16:31:52", "marker-color": "#707070"}}, {"type": "Feature", "geometry": {"type": "Point", "coordinates": [2.359411, 48.89447]}, "properties": {"etat de la localisation": "Delocalise", "numparc": 5662, "duree": "00:00:50", "horodatage": "2022-10-09 16:34:01", "marker-color": "#FF565E"}}, {"type": "Feature", "geometry": {"type": "Point", "coordinates": [2.341303, 48.848248]}, "properties": {"etat de la localisation": "Hors service", "numparc": 5652, "duree": "", "horodatage": "2022-10-09 16:40:25", "marker-color": "#707070"}}, {"type": "Feature", "geometry": {"type": "Point", "coordinates": [2.359514, 48.893852]}, "properties": {"etat de la localisation": "Delocalise", "numparc": 5643, "duree": "00:00:40", "horodatage": "2022-10-09 16:44:53", "marker-color": "#FF565E"}}, {"type": "Feature", "geometry": {"type": "Point", "coordinates": [2.34903, 48.859756]}, "properties": {"etat de la localisation": "Delocalise", "numparc": 5674, "duree": "00:00:34", "horodatage": "2022-10-09 16:45:44", "marker-color": "#FF565E"}}, {"type": "Feature", "geometry": {"type": "Point", "coordinates": [2.359342, 48.896969]}, "properties": {"etat de la localisation": "Mission suivante non connue", "numparc": 5660, "duree": "", "horodatage": "2022-10-09 16:47:48", "marker-color": "#7156FF"}}, {"type": "Feature", "geometry": {"type": "Point", "coordinates": [2.36888, 48.910778]}, "properties": {"etat de la localisation": "Delocalise", "numparc": 5669, "duree": "00:06:37", "horodatage": "2022-10-09 16:54:02", "marker-color": "#FF565E"}}, {"type": "Feature", "geometry": {"type": "Point", "coordinates": [2.34798, 48.857651]}, "properties": {"etat de la localisation": "Delocalise", "numparc": 5677, "duree": "00:04:08", "horodatage": "2022-10-09 16:57:18", "marker-color": "#FF565E"}}, {"type": "Feature", "geometry": {"type": "Point", "coordinates": [2.369359, 48.910984]}, "properties": {"etat de la localisation": "Hors service", "numparc": 5669, "duree": "", "horodatage": "2022-10-09 17:00:39", "marker-color": "#707070"}}, {"type": "Feature", "geometry": {"type": "Point", "coordinates": [2.349022, 48.85984]}, "properties": {"etat de la localisation": "Delocalise", "numparc": 5652, "duree": "00:00:45", "horodatage": "2022-10-09 17:00:55", "marker-color": "#FF565E"}}, {"type": "Feature", "geometry": {"type": "Point", "coordinates": [2.348048, 48.857697]}, "properties": {"etat de la localisation": "Delocalise", "numparc": 5668, "duree": "00:03:49", "horodatage": "2022-10-09 17:04:59", "marker-color": "#FF565E"}}, {"type": "Feature", "geometry": {"type": "Point", "coordinates": [2.357371, 48.875069]}, "properties": {"etat de la localisation": "Delocalise", "numparc": 5643, "duree": "00:01:56", "horodatage": "2022-10-09 17:09:27", "marker-color": "#FF565E"}}, {"type": "Feature", "geometry": {"type": "Point", "coordinates": [2.340808, 48.847279]}, "properties": {"etat de la localisation": "Delocalise", "numparc": 5677, "duree": "00:23:35", "horodatage": "2022-10-09 17:10:01", "marker-color": "#FF565E"}}, {"type": "Feature", "geometry": {"type": "Point", "coordinates": [2.359231, 48.896412]}, "properties": {"etat de la localisation": "Mission suivante non connue", "numparc": 5644, "duree": "", "horodatage": "2022-10-09 17:12:32", "marker-color": "#7156FF"}}, {"type": "Feature", "geometry": {"type": "Point", "coordinates": [2.359242, 48.89603]}, "properties": {"etat de la localisation": "Delocalise", "numparc": 5644, "duree": "00:00:26", "horodatage": "2022-10-09 17:12:38", "marker-color": "#FF565E"}}, {"type": "Feature", "geometry": {"type": "Point", "coordinates": [2.347989, 48.857716]}, "properties": {"etat de la localisation": "Delocalise", "numparc": 5662, "duree": "00:03:08", "horodatage": "2022-10-09 17:12:42", "marker-color": "#FF565E"}}, {"type": "Feature", "geometry": {"type": "Point", "coordinates": [2.359458, 48.894119]}, "properties": {"etat de la localisation": "Delocalise", "numparc": 5644, "duree": "00:01:44", "horodatage": "2022-10-09 17:14:00", "marker-color": "#FF565E"}}, {"type": "Feature", "geometry": {"type": "Point", "coordinates": [2.340908, 48.847397]}, "properties": {"etat de la localisation": "Delocalise", "numparc": 5668, "duree": "00:03:12", "horodatage": "2022-10-09 17:14:27", "marker-color": "#FF565E"}}, {"type": "Feature", "geometry": {"type": "Point", "coordinates": [2.359268, 48.897625]}, "properties": {"etat de la localisation": "Hors service", "numparc": 5674, "duree": "", "horodatage": "2022-10-09 17:18:47", "marker-color": "#707070"}}, {"type": "Feature", "geometry": {"type": "Point", "coordinates": [2.340844, 48.847416]}, "properties": {"etat de la localisation": "Delocalise", "numparc": 5662, "duree": "00:01:17", "horodatage": "2022-10-09 17:23:42", "marker-color": "#FF565E"}}, {"type": "Feature", "geometry": {"type": "Point", "coordinates": [2.341022, 48.847904]}, "properties": {"etat de la localisation": "Delocalise", "numparc": 5662, "duree": "00:00:00", "horodatage": "2022-10-09 17:25:16", "marker-color": "#FF565E"}}, {"type": "Feature", "geometry": {"type": "Point", "coordinates": [2.35743, 48.876236]}, "properties": {"etat de la localisation": "Delocalise", "numparc": 5644, "duree": "00:00:03", "horodatage": "2022-10-09 17:25:22", "marker-color": "#FF565E"}}, {"type": "Feature", "geometry": {"type": "Point", "coordinates": [2.341368, 48.84824]}, "properties": {"etat de la localisation": "Hors service", "numparc": 5677, "duree": "", "horodatage": "2022-10-09 17:33:36", "marker-color": "#707070"}}, {"type": "Feature", "geometry": {"type": "Point", "coordinates": [2.34902, 48.859798]}, "properties": {"etat de la localisation": "Delocalise", "numparc": 5668, "duree": "00:00:32", "horodatage": "2022-10-09 17:35:41", "marker-color": "#FF565E"}}, {"type": "Feature", "geometry": {"type": "Point", "coordinates": [2.347917, 48.8577]}, "properties": {"etat de la localisation": "Delocalise", "numparc": 5648, "duree": "00:04:20", "horodatage": "2022-10-09 17:37:05", "marker-color": "#FF565E"}}, {"type": "Feature", "geometry": {"type": "Point", "coordinates": [2.348095, 48.85767]}, "properties": {"etat de la localisation": "Delocalise", "numparc": 5660, "duree": "00:05:45", "horodatage": "2022-10-09 17:37:36", "marker-color": "#FF565E"}}, {"type": "Feature", "geometry": {"type": "Point", "coordinates": [2.359436, 48.894314]}, "properties": {"etat de la localisation": "Delocalise", "numparc": 5643, "duree": "00:00:35", "horodatage": "2022-10-09 17:39:35", "marker-color": "#FF565E"}}, {"type": "Feature", "geometry": {"type": "Point", "coordinates": [2.340782, 48.847301]}, "properties": {"etat de la localisation": "Delocalise", "numparc": 5648, "duree": "00:18:06", "horodatage": "2022-10-09 17:49:15", "marker-color": "#FF565E"}}, {"type": "Feature", "geometry": {"type": "Point", "coordinates": [2.357248, 48.874969]}, "properties": {"etat de la localisation": "Delocalise", "numparc": 5644, "duree": "00:04:31", "horodatage": "2022-10-09 17:50:13", "marker-color": "#FF565E"}}, {"type": "Feature", "geometry": {"type": "Point", "coordinates": [2.340854, 48.84753]}, "properties": {"etat de la localisation": "Delocalise", "numparc": 5660, "duree": "00:16:29", "horodatage": "2022-10-09 17:50:48", "marker-color": "#FF565E"}}, {"type": "Feature", "geometry": {"type": "Point", "coordinates": [2.347993, 48.857677]}, "properties": {"etat de la localisation": "Delocalise", "numparc": 5649, "duree": "00:03:14", "horodatage": "2022-10-09 17:51:01", "marker-color": "#FF565E"}}, {"type": "Feature", "geometry": {"type": "Point", "coordinates": [2.348981, 48.859798]}, "properties": {"etat de la localisation": "Delocalise", "numparc": 5677, "duree": "00:00:33", "horodatage": "2022-10-09 17:54:31", "marker-color": "#FF565E"}}, {"type": "Feature", "geometry": {"type": "Point", "coordinates": [2.340841, 48.847435]}, "properties": {"etat de la localisation": "Delocalise", "numparc": 5649, "duree": "00:01:27", "horodatage": "2022-10-09 18:01:21", "marker-color": "#FF565E"}}, {"type": "Feature", "geometry": {"type": "Point", "coordinates": [2.347778, 48.857693]}, "properties": {"etat de la localisation": "Delocalise", "numparc": 5669, "duree": "00:03:19", "horodatage": "2022-10-09 18:07:59", "marker-color": "#FF565E"}}, {"type": "Feature", "geometry": {"type": "Point", "coordinates": [2.348974, 48.859772]}, "properties": {"etat de la localisation": "Delocalise", "numparc": 5662, "duree": "00:00:44", "horodatage": "2022-10-09 18:13:44", "marker-color": "#FF565E"}}, {"type": "Feature", "geometry": {"type": "Point", "coordinates": [2.340806, 48.847336]}, "properties": {"etat de la localisation": "Delocalise", "numparc": 5669, "duree": "00:31:40", "horodatage": "2022-10-09 18:17:09", "marker-color": "#FF565E"}}, {"type": "Feature", "geometry": {"type": "Point", "coordinates": [2.35936, 48.897194]}, "properties": {"etat de la localisation": "Delocalise", "numparc": 5644, "duree": "00:22:57", "horodatage": "2022-10-09 18:17:47", "marker-color": "#FF565E"}}, {"type": "Feature", "geometry": {"type": "Point", "coordinates": [2.349035, 48.859913]}, "properties": {"etat de la localisation": "Delocalise", "numparc": 5648, "duree": "00:00:35", "horodatage": "2022-10-09 18:19:44", "marker-color": "#FF565E"}}, {"type": "Feature", "geometry": {"type": "Point", "coordinates": [2.347923, 48.857639]}, "properties": {"etat de la localisation": "Delocalise", "numparc": 5643, "duree": "00:05:11", "horodatage": "2022-10-09 18:24:44", "marker-color": "#FF565E"}}, {"type": "Feature", "geometry": {"type": "Point", "coordinates": [2.347982, 48.857624]}, "properties": {"etat de la localisation": "Delocalise", "numparc": 5674, "duree": "00:05:00", "horodatage": "2022-10-09 18:26:00", "marker-color": "#FF565E"}}, {"type": "Feature", "geometry": {"type": "Point", "coordinates": [2.348971, 48.859795]}, "properties": {"etat de la localisation": "Delocalise", "numparc": 5660, "duree": "00:00:42", "horodatage": "2022-10-09 18:27:22", "marker-color": "#FF565E"}}, {"type": "Feature", "geometry": {"type": "Point", "coordinates": [2.359428, 48.897884]}, "properties": {"etat de la localisation": "Hors service", "numparc": 5668, "duree": "", "horodatage": "2022-10-09 18:31:18", "marker-color": "#707070"}}, {"type": "Feature", "geometry": {"type": "Point", "coordinates": [2.340871, 48.847401]}, "properties": {"etat de la localisation": "Delocalise", "numparc": 5643, "duree": "00:11:52", "horodatage": "2022-10-09 18:35:52", "marker-color": "#FF565E"}}, {"type": "Feature", "geometry": {"type": "Point", "coordinates": [2.340878, 48.847374]}, "properties": {"etat de la localisation": "Delocalise", "numparc": 5674, "duree": "00:20:58", "horodatage": "2022-10-09 18:36:56", "marker-color": "#FF565E"}}, {"type": "Feature", "geometry": {"type": "Point", "coordinates": [2.359346, 48.896591]}, "properties": {"etat de la localisation": "Hors service", "numparc": 5668, "duree": "", "horodatage": "2022-10-09 18:42:27", "marker-color": "#707070"}}, {"type": "Feature", "geometry": {"type": "Point", "coordinates": [2.34805, 48.85767]}, "properties": {"etat de la localisation": "Delocalise", "numparc": 5652, "duree": "00:05:11", "horodatage": "2022-10-09 18:46:53", "marker-color": "#FF565E"}}, {"type": "Feature", "geometry": {"type": "Point", "coordinates": [2.359402, 48.896641]}, "properties": {"etat de la localisation": "Mission suivante non connue", "numparc": 5660, "duree": "", "horodatage": "2022-10-09 18:51:00", "marker-color": "#7156FF"}}, {"type": "Feature", "geometry": {"type": "Point", "coordinates": [2.343216, 48.851509]}, "properties": {"etat de la localisation": "Delocalise", "numparc": 5643, "duree": "00:04:17", "horodatage": "2022-10-09 18:51:09", "marker-color": "#FF565E"}}, {"type": "Feature", "geometry": {"type": "Point", "coordinates": [2.342918, 48.850967]}, "properties": {"etat de la localisation": "Delocalise", "numparc": 5669, "duree": "00:01:43", "horodatage": "2022-10-09 18:51:17", "marker-color": "#FF565E"}}, {"type": "Feature", "geometry": {"type": "Point", "coordinates": [2.342943, 48.850906]}, "properties": {"etat de la localisation": "Delocalise", "numparc": 5649, "duree": "00:05:04", "horodatage": "2022-10-09 18:52:21", "marker-color": "#FF565E"}}, {"type": "Feature", "geometry": {"type": "Point", "coordinates": [2.371793, 48.910351]}, "properties": {"etat de la localisation": "Mission inconnue", "numparc": 5645, "duree": "", "horodatage": "2022-10-09 18:55:45", "marker-color": "#FF9F56"}}, {"type": "Feature", "geometry": {"type": "Point", "coordinates": [2.341274, 48.848209]}, "properties": {"etat de la localisation": "Hors service", "numparc": 5674, "duree": "", "horodatage": "2022-10-09 18:57:54", "marker-color": "#707070"}}, {"type": "Feature", "geometry": {"type": "Point", "coordinates": [2.340883, 48.84737]}, "properties": {"etat de la localisation": "Delocalise", "numparc": 5652, "duree": "00:03:12", "horodatage": "2022-10-09 18:59:20", "marker-color": "#FF565E"}}, {"type": "Feature", "geometry": {"type": "Point", "coordinates": [2.348873, 48.859535]}, "properties": {"etat de la localisation": "Delocalise", "numparc": 5669, "duree": "00:00:55", "horodatage": "2022-10-09 19:00:13", "marker-color": "#FF565E"}}, {"type": "Feature", "geometry": {"type": "Point", "coordinates": [2.349031, 48.859756]}, "properties": {"etat de la localisation": "Delocalise", "numparc": 5649, "duree": "00:00:41", "horodatage": "2022-10-09 19:01:44", "marker-color": "#FF565E"}}, {"type": "Feature", "geometry": {"type": "Point", "coordinates": [2.341217, 48.848045]}, "properties": {"etat de la localisation": "Hors service", "numparc": 5652, "duree": "", "horodatage": "2022-10-09 19:02:32", "marker-color": "#707070"}}, {"type": "Feature", "geometry": {"type": "Point", "coordinates": [2.359444, 48.894356]}, "properties": {"etat de la localisation": "Delocalise", "numparc": 5662, "duree": "00:00:30", "horodatage": "2022-10-09 19:06:10", "marker-color": "#FF565E"}}, {"type": "Feature", "geometry": {"type": "Point", "coordinates": [2.348986, 48.859737]}, "properties": {"etat de la localisation": "Delocalise", "numparc": 5674, "duree": "00:00:41", "horodatage": "2022-10-09 19:13:42", "marker-color": "#FF565E"}}, {"type": "Feature", "geometry": {"type": "Point", "coordinates": [2.347939, 48.857693]}, "properties": {"etat de la localisation": "Delocalise", "numparc": 5644, "duree": "00:03:14", "horodatage": "2022-10-09 19:15:22", "marker-color": "#FF565E"}}, {"type": "Feature", "geometry": {"type": "Point", "coordinates": [2.34796, 48.857697]}, "properties": {"etat de la localisation": "Delocalise", "numparc": 5668, "duree": "00:04:25", "horodatage": "2022-10-09 19:18:49", "marker-color": "#FF565E"}}, {"type": "Feature", "geometry": {"type": "Point", "coordinates": [2.348988, 48.859848]}, "properties": {"etat de la localisation": "Delocalise", "numparc": 5652, "duree": "00:02:30", "horodatage": "2022-10-09 19:22:43", "marker-color": "#FF565E"}}, {"type": "Feature", "geometry": {"type": "Point", "coordinates": [2.340899, 48.847431]}, "properties": {"etat de la localisation": "Delocalise", "numparc": 5644, "duree": "00:15:34", "horodatage": "2022-10-09 19:24:05", "marker-color": "#FF565E"}}, {"type": "Feature", "geometry": {"type": "Point", "coordinates": [2.340911, 48.847363]}, "properties": {"etat de la localisation": "Delocalise", "numparc": 5668, "duree": "00:12:55", "horodatage": "2022-10-09 19:27:06", "marker-color": "#FF565E"}}, {"type": "Feature", "geometry": {"type": "Point", "coordinates": [2.359305, 48.896954]}, "properties": {"etat de la localisation": "Mission suivante non connue", "numparc": 5643, "duree": "", "horodatage": "2022-10-09 19:31:39", "marker-color": "#7156FF"}}, {"type": "Feature", "geometry": {"type": "Point", "coordinates": [2.348022, 48.85767]}, "properties": {"etat de la localisation": "Delocalise", "numparc": 5659, "duree": "00:05:11", "horodatage": "2022-10-09 19:31:41", "marker-color": "#FF565E"}}, {"type": "Feature", "geometry": {"type": "Point", "coordinates": [2.347929, 48.857578]}, "properties": {"etat de la localisation": "Delocalise", "numparc": 5677, "duree": "00:06:09", "horodatage": "2022-10-09 19:31:49", "marker-color": "#FF565E"}}, {"type": "Feature", "geometry": {"type": "Point", "coordinates": [2.359305, 48.896954]}, "properties": {"etat de la localisation": "Mission suivante non connue", "numparc": 5643, "duree": "", "horodatage": "2022-10-09 19:31:54", "marker-color": "#7156FF"}}, {"type": "Feature", "geometry": {"type": "Point", "coordinates": [2.35912, 48.897148]}, "properties": {"etat de la localisation": "Delocalise", "numparc": 5669, "duree": "00:00:52", "horodatage": "2022-10-09 19:35:32", "marker-color": "#FF565E"}}, {"type": "Feature", "geometry": {"type": "Point", "coordinates": [2.359516, 48.893929]}, "properties": {"etat de la localisation": "Delocalise", "numparc": 5643, "duree": "00:00:43", "horodatage": "2022-10-09 19:36:57", "marker-color": "#FF565E"}}, {"type": "Feature", "geometry": {"type": "Point", "coordinates": [2.340868, 48.847343]}, "properties": {"etat de la localisation": "Delocalise", "numparc": 5659, "duree": "00:01:39", "horodatage": "2022-10-09 19:42:06", "marker-color": "#FF565E"}}, {"type": "Feature", "geometry": {"type": "Point", "coordinates": [2.340831, 48.847336]}, "properties": {"etat de la localisation": "Delocalise", "numparc": 5677, "duree": "00:26:06", "horodatage": "2022-10-09 19:44:44", "marker-color": "#FF565E"}}, {"type": "Feature", "geometry": {"type": "Point", "coordinates": [2.359042, 48.875927]}, "properties": {"etat de la localisation": "Mission suivante non connue", "numparc": 5660, "duree": "", "horodatage": "2022-10-09 19:44:59", "marker-color": "#7156FF"}}, {"type": "Feature", "geometry": {"type": "Point", "coordinates": [2.348071, 48.857651]}, "properties": {"etat de la localisation": "Delocalise", "numparc": 5645, "duree": "00:04:18", "horodatage": "2022-10-09 19:46:52", "marker-color": "#FF565E"}}, {"type": "Feature", "geometry": {"type": "Point", "coordinates": [2.348086, 48.857704]}, "properties": {"etat de la localisation": "Delocalise", "numparc": 5648, "duree": "00:03:22", "horodatage": "2022-10-09 19:52:51", "marker-color": "#FF565E"}}, {"type": "Feature", "geometry": {"type": "Point", "coordinates": [2.35947, 48.894207]}, "properties": {"etat de la localisation": "Delocalise", "numparc": 5674, "duree": "00:00:35", "horodatage": "2022-10-09 19:55:31", "marker-color": "#FF565E"}}, {"type": "Feature", "geometry": {"type": "Point", "coordinates": [2.340865, 48.847492]}, "properties": {"etat de la localisation": "Delocalise", "numparc": 5645, "duree": "00:17:55", "horodatage": "2022-10-09 19:56:50", "marker-color": "#FF565E"}}, {"type": "Feature", "geometry": {"type": "Point", "coordinates": [2.358158, 48.876011]}, "properties": {"etat de la localisation": "Hors service", "numparc": 5643, "duree": "", "horodatage": "2022-10-09 19:57:45", "marker-color": "#707070"}}, {"type": "Feature", "geometry": {"type": "Point", "coordinates": [2.348989, 48.859818]}, "properties": {"etat de la localisation": "Delocalise", "numparc": 5644, "duree": "00:00:39", "horodatage": "2022-10-09 20:03:13", "marker-color": "#FF565E"}}, {"type": "Feature", "geometry": {"type": "Point", "coordinates": [2.340842, 48.847427]}, "properties": {"etat de la localisation": "Delocalise", "numparc": 5648, "duree": "00:07:51", "horodatage": "2022-10-09 20:03:28", "marker-color": "#FF565E"}}, {"type": "Feature", "geometry": {"type": "Point", "coordinates": [2.33152, 48.834637]}, "properties": {"etat de la localisation": "Delocalise", "numparc": 5662, "duree": "00:01:26", "horodatage": "2022-10-09 20:05:38", "marker-color": "#FF565E"}}, {"type": "Feature", "geometry": {"type": "Point", "coordinates": [2.348997, 48.859879]}, "properties": {"etat de la localisation": "Delocalise", "numparc": 5668, "duree": "00:00:40", "horodatage": "2022-10-09 20:07:44", "marker-color": "#FF565E"}}, {"type": "Feature", "geometry": {"type": "Point", "coordinates": [2.359462, 48.89426]}, "properties": {"etat de la localisation": "Delocalise", "numparc": 5652, "duree": "00:00:41", "horodatage": "2022-10-09 20:09:57", "marker-color": "#FF565E"}}, {"type": "Feature", "geometry": {"type": "Point", "coordinates": [2.34796, 48.857704]}, "properties": {"etat de la localisation": "Delocalise", "numparc": 5649, "duree": "00:03:10", "horodatage": "2022-10-09 20:11:04", "marker-color": "#FF565E"}}, {"type": "Feature", "geometry": {"type": "Point", "coordinates": [2.347886, 48.857716]}, "properties": {"etat de la localisation": "Delocalise", "numparc": 5669, "duree": "00:03:13", "horodatage": "2022-10-09 20:12:20", "marker-color": "#FF565E"}}, {"type": "Feature", "geometry": {"type": "Point", "coordinates": [2.348999, 48.859821]}, "properties": {"etat de la localisation": "Delocalise", "numparc": 5659, "duree": "00:00:39", "horodatage": "2022-10-09 20:16:46", "marker-color": "#FF565E"}}, {"type": "Feature", "geometry": {"type": "Point", "coordinates": [2.325241, 48.822723]}, "properties": {"etat de la localisation": "Delocalise", "numparc": 5662, "duree": "00:56:08", "horodatage": "2022-10-09 20:17:19", "marker-color": "#FF565E"}}, {"type": "Feature", "geometry": {"type": "Point", "coordinates": [2.340798, 48.847477]}, "properties": {"etat de la localisation": "Delocalise", "numparc": 5649, "duree": "00:00:22", "horodatage": "2022-10-09 20:21:07", "marker-color": "#FF565E"}}, {"type": "Feature", "geometry": {"type": "Point", "coordinates": [2.340882, 48.847462]}, "properties": {"etat de la localisation": "Delocalise", "numparc": 5669, "duree": "00:17:23", "horodatage": "2022-10-09 20:21:34", "marker-color": "#FF565E"}}, {"type": "Feature", "geometry": {"type": "Point", "coordinates": [2.348952, 48.859741]}, "properties": {"etat de la localisation": "Delocalise", "numparc": 5677, "duree": "00:00:41", "horodatage": "2022-10-09 20:24:11", "marker-color": "#FF565E"}}, {"type": "Feature", "geometry": {"type": "Point", "coordinates": [2.348091, 48.857685]}, "properties": {"etat de la localisation": "Delocalise", "numparc": 5674, "duree": "00:04:04", "horodatage": "2022-10-09 20:29:35", "marker-color": "#FF565E"}}, {"type": "Feature", "geometry": {"type": "Point", "coordinates": [2.348933, 48.859726]}, "properties": {"etat de la localisation": "Delocalise", "numparc": 5649, "duree": "00:00:44", "horodatage": "2022-10-09 20:33:11", "marker-color": "#FF565E"}}, {"type": "Feature", "geometry": {"type": "Point", "coordinates": [2.34892, 48.859692]}, "properties": {"etat de la localisation": "Delocalise", "numparc": 5645, "duree": "00:04:40", "horodatage": "2022-10-09 20:34:51", "marker-color": "#FF565E"}}, {"type": "Feature", "geometry": {"type": "Point", "coordinates": [2.3717, 48.910034]}, "properties": {"etat de la localisation": "Hors service", "numparc": 5643, "duree": "", "horodatage": "2022-10-09 20:38:43", "marker-color": "#707070"}}, {"type": "Feature", "geometry": {"type": "Point", "coordinates": [2.348048, 48.857677]}, "properties": {"etat de la localisation": "Delocalise", "numparc": 5652, "duree": "00:03:24", "horodatage": "2022-10-09 20:40:45", "marker-color": "#FF565E"}}, {"type": "Feature", "geometry": {"type": "Point", "coordinates": [2.340855, 48.847393]}, "properties": {"etat de la localisation": "Delocalise", "numparc": 5674, "duree": "00:03:38", "horodatage": "2022-10-09 20:42:05", "marker-color": "#FF565E"}}, {"type": "Feature", "geometry": {"type": "Point", "coordinates": [2.348057, 48.857647]}, "properties": {"etat de la localisation": "Delocalise", "numparc": 5642, "duree": "00:03:22", "horodatage": "2022-10-09 20:46:42", "marker-color": "#FF565E"}}, {"type": "Feature", "geometry": {"type": "Point", "coordinates": [2.349041, 48.859734]}, "properties": {"etat de la localisation": "Delocalise", "numparc": 5669, "duree": "00:00:38", "horodatage": "2022-10-09 20:46:51", "marker-color": "#FF565E"}}, {"type": "Feature", "geometry": {"type": "Point", "coordinates": [2.359422, 48.894314]}, "properties": {"etat de la localisation": "Delocalise", "numparc": 5644, "duree": "00:02:17", "horodatage": "2022-10-09 20:52:35", "marker-color": "#FF565E"}}, {"type": "Feature", "geometry": {"type": "Point", "coordinates": [2.340746, 48.847271]}, "properties": {"etat de la localisation": "Delocalise", "numparc": 5652, "duree": "00:10:15", "horodatage": "2022-10-09 20:52:53", "marker-color": "#FF565E"}}, {"type": "Feature", "geometry": {"type": "Point", "coordinates": [2.340791, 48.847408]}, "properties": {"etat de la localisation": "Delocalise", "numparc": 5642, "duree": "00:02:20", "horodatage": "2022-10-09 20:55:31", "marker-color": "#FF565E"}}, {"type": "Feature", "geometry": {"type": "Point", "coordinates": [2.35944, 48.8946]}, "properties": {"etat de la localisation": "Delocalise", "numparc": 5649, "duree": "00:01:09", "horodatage": "2022-10-09 20:55:48", "marker-color": "#FF565E"}}, {"type": "Feature", "geometry": {"type": "Point", "coordinates": [2.369972, 48.910564]}, "properties": {"etat de la localisation": "Hors service", "numparc": 5648, "duree": "", "horodatage": "2022-10-09 20:56:14", "marker-color": "#707070"}}, {"type": "Feature", "geometry": {"type": "Point", "coordinates": [2.340945, 48.847965]}, "properties": {"etat de la localisation": "Mission inconnue", "numparc": 5642, "duree": "", "horodatage": "2022-10-09 20:57:51", "marker-color": "#FF9F56"}}, {"type": "Feature", "geometry": {"type": "Point", "coordinates": [2.349049, 48.859783]}, "properties": {"etat de la localisation": "Delocalise", "numparc": 5674, "duree": "00:00:44", "horodatage": "2022-10-09 21:01:41", "marker-color": "#FF565E"}}, {"type": "Feature", "geometry": {"type": "Point", "coordinates": [2.371165, 48.909985]}, "properties": {"etat de la localisation": "Hors service", "numparc": 5660, "duree": "", "horodatage": "2022-10-09 21:01:48", "marker-color": "#707070"}}, {"type": "Feature", "geometry": {"type": "Point", "coordinates": [2.343213, 48.85154]}, "properties": {"etat de la localisation": "Delocalise", "numparc": 5652, "duree": "00:00:32", "horodatage": "2022-10-09 21:04:13", "marker-color": "#FF565E"}}, {"type": "Feature", "geometry": {"type": "Point", "coordinates": [2.344818, 48.854214]}, "properties": {"etat de la localisation": "Delocalise", "numparc": 5652, "duree": "00:03:23", "horodatage": "2022-10-09 21:06:05", "marker-color": "#FF565E"}}, {"type": "Feature", "geometry": {"type": "Point", "coordinates": [2.368758, 48.911266]}, "properties": {"etat de la localisation": "Hors service", "numparc": 5648, "duree": "", "horodatage": "2022-10-09 21:06:13", "marker-color": "#707070"}}, {"type": "Feature", "geometry": {"type": "Point", "coordinates": [2.359331, 48.896923]}, "properties": {"etat de la localisation": "Mission suivante non connue", "numparc": 5669, "duree": "", "horodatage": "2022-10-09 21:08:50", "marker-color": "#7156FF"}}, {"type": "Feature", "geometry": {"type": "Point", "coordinates": [2.359482, 48.894325]}, "properties": {"etat de la localisation": "Delocalise", "numparc": 5677, "duree": "00:01:17", "horodatage": "2022-10-09 21:12:25", "marker-color": "#FF565E"}}, {"type": "Feature", "geometry": {"type": "Point", "coordinates": [2.371577, 48.91]}, "properties": {"etat de la localisation": "Hors service", "numparc": 5662, "duree": "", "horodatage": "2022-10-09 21:13:27", "marker-color": "#707070"}}, {"type": "Feature", "geometry": {"type": "Point", "coordinates": [2.368711, 48.910957]}, "properties": {"etat de la localisation": "Hors service", "numparc": 5648, "duree": "", "horodatage": "2022-10-09 21:16:01", "marker-color": "#707070"}}, {"type": "Feature", "geometry": {"type": "Point", "coordinates": [2.371437, 48.909988]}, "properties": {"etat de la localisation": "Hors service", "numparc": 5649, "duree": "", "horodatage": "2022-10-09 21:16:20", "marker-color": "#707070"}}, {"type": "Feature", "geometry": {"type": "Point", "coordinates": [2.347968, 48.85767]}, "properties": {"etat de la localisation": "Delocalise", "numparc": 5644, "duree": "00:02:56", "horodatage": "2022-10-09 21:16:27", "marker-color": "#FF565E"}}, {"type": "Feature", "geometry": {"type": "Point", "coordinates": [2.347686, 48.857735]}, "properties": {"etat de la localisation": "Delocalise", "numparc": 5668, "duree": "00:03:34", "horodatage": "2022-10-09 21:16:37", "marker-color": "#FF565E"}}, {"type": "Feature", "geometry": {"type": "Point", "coordinates": [2.34083, 48.847481]}, "properties": {"etat de la localisation": "Delocalise", "numparc": 5644, "duree": "00:27:17", "horodatage": "2022-10-09 21:23:32", "marker-color": "#FF565E"}}, {"type": "Feature", "geometry": {"type": "Point", "coordinates": [2.340891, 48.847401]}, "properties": {"etat de la localisation": "Delocalise", "numparc": 5668, "duree": "00:03:13", "horodatage": "2022-10-09 21:25:01", "marker-color": "#FF565E"}}, {"type": "Feature", "geometry": {"type": "Point", "coordinates": [2.359407, 48.894371]}, "properties": {"etat de la localisation": "Delocalise", "numparc": 5645, "duree": "00:00:48", "horodatage": "2022-10-09 21:26:59", "marker-color": "#FF565E"}}, {"type": "Feature", "geometry": {"type": "Point", "coordinates": [2.349025, 48.859779]}, "properties": {"etat de la localisation": "Delocalise", "numparc": 5642, "duree": "00:02:20", "horodatage": "2022-10-09 21:28:33", "marker-color": "#FF565E"}}, {"type": "Feature", "geometry": {"type": "Point", "coordinates": [2.348034, 48.857693]}, "properties": {"etat de la localisation": "Delocalise", "numparc": 5659, "duree": "00:02:46", "horodatage": "2022-10-09 21:38:21", "marker-color": "#FF565E"}}, {"type": "Feature", "geometry": {"type": "Point", "coordinates": [2.353567, 48.862091]}, "properties": {"etat de la localisation": "Delocalise", "numparc": 5640, "duree": "00:01:35", "horodatage": "2022-10-09 21:39:43", "marker-color": "#FF565E"}}, {"type": "Feature", "geometry": {"type": "Point", "coordinates": [2.359416, 48.897911]}, "properties": {"etat de la localisation": "Hors service", "numparc": 5652, "duree": "", "horodatage": "2022-10-09 21:41:16", "marker-color": "#707070"}}, {"type": "Feature", "geometry": {"type": "Point", "coordinates": [2.348038, 48.857643]}, "properties": {"etat de la localisation": "Delocalise", "numparc": 5677, "duree": "00:03:11", "horodatage": "2022-10-09 21:43:45", "marker-color": "#FF565E"}}, {"type": "Feature", "geometry": {"type": "Point", "coordinates": [2.347576, 48.857742]}, "properties": {"etat de la localisation": "Delocalise", "numparc": 5640, "duree": "00:03:38", "horodatage": "2022-10-09 21:43:55", "marker-color": "#FF565E"}}, {"type": "Feature", "geometry": {"type": "Point", "coordinates": [2.359374, 48.894348]}, "properties": {"etat de la localisation": "Delocalise", "numparc": 5674, "duree": "00:00:51", "horodatage": "2022-10-09 21:47:09", "marker-color": "#FF565E"}}, {"type": "Feature", "geometry": {"type": "Point", "coordinates": [2.340892, 48.847374]}, "properties": {"etat de la localisation": "Delocalise", "numparc": 5659, "duree": "00:04:34", "horodatage": "2022-10-09 21:48:14", "marker-color": "#FF565E"}}, {"type": "Feature", "geometry": {"type": "Point", "coordinates": [2.359519, 48.897282]}, "properties": {"etat de la localisation": "Delocalise", "numparc": 5642, "duree": "00:18:03", "horodatage": "2022-10-09 21:48:41", "marker-color": "#FF565E"}}, {"type": "Feature", "geometry": {"type": "Point", "coordinates": [2.340782, 48.847263]}, "properties": {"etat de la localisation": "Delocalise", "numparc": 5640, "duree": "00:03:11", "horodatage": "2022-10-09 21:52:37", "marker-color": "#FF565E"}}, {"type": "Feature", "geometry": {"type": "Point", "coordinates": [2.34083, 48.84742]}, "properties": {"etat de la localisation": "Delocalise", "numparc": 5677, "duree": "00:00:53", "horodatage": "2022-10-09 21:54:05", "marker-color": "#FF565E"}}, {"type": "Feature", "geometry": {"type": "Point", "coordinates": [2.34904, 48.859787]}, "properties": {"etat de la localisation": "Delocalise", "numparc": 5644, "duree": "00:00:32", "horodatage": "2022-10-09 21:55:33", "marker-color": "#FF565E"}}, {"type": "Feature", "geometry": {"type": "Point", "coordinates": [2.371175, 48.910034]}, "properties": {"etat de la localisation": "Hors service", "numparc": 5668, "duree": "", "horodatage": "2022-10-09 21:59:05", "marker-color": "#707070"}}, {"type": "Feature", "geometry": {"type": "Point", "coordinates": [2.348893, 48.859673]}, "properties": {"etat de la localisation": "Delocalise", "numparc": 5659, "duree": "00:00:39", "horodatage": "2022-10-09 22:01:44", "marker-color": "#FF565E"}}, {"type": "Feature", "geometry": {"type": "Point", "coordinates": [2.349053, 48.85984]}, "properties": {"etat de la localisation": "Delocalise", "numparc": 5640, "duree": "00:00:27", "horodatage": "2022-10-09 22:05:04", "marker-color": "#FF565E"}}, {"type": "Feature", "geometry": {"type": "Point", "coordinates": [2.348939, 48.85981]}, "properties": {"etat de la localisation": "Delocalise", "numparc": 5677, "duree": "00:00:29", "horodatage": "2022-10-09 22:19:17", "marker-color": "#FF565E"}}, {"type": "Feature", "geometry": {"type": "Point", "coordinates": [2.359473, 48.894249]}, "properties": {"etat de la localisation": "Delocalise", "numparc": 5644, "duree": "00:00:30", "horodatage": "2022-10-09 22:35:44", "marker-color": "#FF565E"}}, {"type": "Feature", "geometry": {"type": "Point", "coordinates": [2.370905, 48.91]}, "properties": {"etat de la localisation": "Hors service", "numparc": 5640, "duree": "", "horodatage": "2022-10-09 22:37:13", "marker-color": "#707070"}}, {"type": "Feature", "geometry": {"type": "Point", "coordinates": [2.325235, 48.822582]}, "properties": {"etat de la localisation": "Delocalise", "numparc": 5674, "duree": "00:33:02", "horodatage": "2022-10-09 22:37:56", "marker-color": "#FF565E"}}, {"type": "Feature", "geometry": {"type": "Point", "coordinates": [2.359366, 48.894249]}, "properties": {"etat de la localisation": "Delocalise", "numparc": 5677, "duree": "00:00:31", "horodatage": "2022-10-09 22:59:35", "marker-color": "#FF565E"}}, {"type": "Feature", "geometry": {"type": "Point", "coordinates": [2.370644, 48.910038]}, "properties": {"etat de la localisation": "Hors service", "numparc": 5674, "duree": "", "horodatage": "2022-10-09 23:10:58", "marker-color": "#707070"}}, {"type": "Feature", "geometry": {"type": "Point", "coordinates": [2.359498, 48.894196]}, "properties": {"etat de la localisation": "Delocalise", "numparc": 5645, "duree": "00:01:56", "horodatage": "2022-10-09 23:13:00", "marker-color": "#FF565E"}}, {"type": "Feature", "geometry": {"type": "Point", "coordinates": [2.368111, 48.911201]}, "properties": {"etat de la localisation": "Hors service", "numparc": 5669, "duree": "", "horodatage": "2022-10-09 23:13:56", "marker-color": "#707070"}}, {"type": "Feature", "geometry": {"type": "Point", "coordinates": [2.348855, 48.857689]}, "properties": {"etat de la localisation": "Delocalise", "numparc": 5645, "duree": "00:01:24", "horodatage": "2022-10-09 23:30:07", "marker-color": "#FF565E"}}, {"type": "Feature", "geometry": {"type": "Point", "coordinates": [2.368664, 48.910927]}, "properties": {"etat de la localisation": "Hors service", "numparc": 5644, "duree": "", "horodatage": "2022-10-09 23:45:23", "marker-color": "#707070"}}, {"type": "Feature", "geometry": {"type": "Point", "coordinates": [2.325224, 48.822685]}, "properties": {"etat de la localisation": "Delocalise", "numparc": 5645, "duree": "00:30:42", "horodatage": "2022-10-09 23:50:00", "marker-color": "#FF565E"}}, {"type": "Feature", "geometry": {"type": "Point", "coordinates": [2.359497, 48.894127]}, "properties": {"etat de la localisation": "Delocalise", "numparc": 5652, "duree": "00:00:31", "horodatage": "2022-10-09 23:56:39", "marker-color": "#FF565E"}}, {"type": "Feature", "geometry": {"type": "Point", "coordinates": [2.368697, 48.911102]}, "properties": {"etat de la localisation": "Hors service", "numparc": 5645, "duree": "", "horodatage": "2022-10-10 00:20:42", "marker-color": "#707070"}}, {"type": "Feature", "geometry": {"type": "Point", "coordinates": [2.359437, 48.894325]}, "properties": {"etat de la localisation": "Delocalise", "numparc": 5659, "duree": "00:01:25", "horodatage": "2022-10-10 00:30:34", "marker-color": "#FF565E"}}, {"type": "Feature", "geometry": {"type": "Point", "coordinates": [2.325236, 48.822624]}, "properties": {"etat de la localisation": "Delocalise", "numparc": 5652, "duree": "00:37:56", "horodatage": "2022-10-10 00:35:25", "marker-color": "#FF565E"}}, {"type": "Feature", "geometry": {"type": "Point", "coordinates": [2.368625, 48.910961]}, "properties": {"etat de la localisation": "Hors service", "numparc": 5677, "duree": "", "horodatage": "2022-10-10 00:44:48", "marker-color": "#707070"}}, {"type": "Feature", "geometry": {"type": "Point", "coordinates": [2.325231, 48.822689]}, "properties": {"etat de la localisation": "Delocalise", "numparc": 5642, "duree": "00:36:09", "horodatage": "2022-10-10 00:46:35", "marker-color": "#FF565E"}}, {"type": "Feature", "geometry": {"type": "Point", "coordinates": [2.325255, 48.822678]}, "properties": {"etat de la localisation": "Delocalise", "numparc": 5659, "duree": "00:34:00", "horodatage": "2022-10-10 01:03:22", "marker-color": "#FF565E"}}, {"type": "Feature", "geometry": {"type": "Point", "coordinates": [2.370665, 48.910091]}, "properties": {"etat de la localisation": "Hors service", "numparc": 5673, "duree": "", "horodatage": "2022-10-10 01:11:55", "marker-color": "#707070"}}, {"type": "Feature", "geometry": {"type": "Point", "coordinates": [2.368312, 48.910938]}, "properties": {"etat de la localisation": "Hors service", "numparc": 5652, "duree": "", "horodatage": "2022-10-10 01:13:21", "marker-color": "#707070"}}, {"type": "Feature", "geometry": {"type": "Point", "coordinates": [2.370367, 48.910091]}, "properties": {"etat de la localisation": "Hors service", "numparc": 5642, "duree": "", "horodatage": "2022-10-10 01:22:44", "marker-color": "#707070"}}, {"type": "Feature", "geometry": {"type": "Point", "coordinates": [2.368614, 48.911076]}, "properties": {"etat de la localisation": "Hors service", "numparc": 5659, "duree": "", "horodatage": "2022-10-10 01:37:22", "marker-color": "#707070"}}]}