{"type": "FeatureCollection", "features": [{"type": "Feature", "geometry": {"type": "Point", "coordinates": [2.65969, 48.842365]}, "properties": {"etat de la localisation": "Delocalise", "numparc": 5882, "duree": "00:00:44", "horodatage": "2022-06-14 04:28:06", "marker-color": "#FF565E"}}, {"type": "Feature", "geometry": {"type": "Point", "coordinates": [2.658907, 48.842545]}, "properties": {"etat de la localisation": "Mission inconnue", "numparc": 5878, "duree": "", "horodatage": "2022-06-14 05:11:29", "marker-color": "#FF9F56"}}, {"type": "Feature", "geometry": {"type": "Point", "coordinates": [2.543746, 48.823868]}, "properties": {"etat de la localisation": "Mission suivante non connue", "numparc": 5878, "duree": "", "horodatage": "2022-06-14 06:54:18", "marker-color": "#7156FF"}}, {"type": "Feature", "geometry": {"type": "Point", "coordinates": [2.544091, 48.823822]}, "properties": {"etat de la localisation": "Mission suivante non connue", "numparc": 5878, "duree": "", "horodatage": "2022-06-14 06:59:32", "marker-color": "#7156FF"}}, {"type": "Feature", "geometry": {"type": "Point", "coordinates": [2.544099, 48.82383]}, "properties": {"etat de la localisation": "Mission suivante non connue", "numparc": 5878, "duree": "", "horodatage": "2022-06-14 06:59:43", "marker-color": "#7156FF"}}, {"type": "Feature", "geometry": {"type": "Point", "coordinates": [2.659062, 48.842594]}, "properties": {"etat de la localisation": "Delocalise", "numparc": 5881, "duree": "00:00:20", "horodatage": "2022-06-14 10:08:01", "marker-color": "#FF565E"}}, {"type": "Feature", "geometry": {"type": "Point", "coordinates": [2.659519, 48.842926]}, "properties": {"etat de la localisation": "Hors service", "numparc": 5882, "duree": "", "horodatage": "2022-06-14 10:30:06", "marker-color": "#707070"}}, {"type": "Feature", "geometry": {"type": "Point", "coordinates": [2.541826, 48.823288]}, "properties": {"etat de la localisation": "Hors service", "numparc": 5878, "duree": "", "horodatage": "2022-06-14 10:40:40", "marker-color": "#707070"}}, {"type": "Feature", "geometry": {"type": "Point", "coordinates": [2.620437, 48.805233]}, "properties": {"etat de la localisation": "Delocalise", "numparc": 5878, "duree": "00:04:55", "horodatage": "2022-06-14 14:05:23", "marker-color": "#FF565E"}}, {"type": "Feature", "geometry": {"type": "Point", "coordinates": [2.621444, 48.804401]}, "properties": {"etat de la localisation": "Delocalise", "numparc": 5880, "duree": "00:00:10", "horodatage": "2022-06-14 18:33:10", "marker-color": "#FF565E"}}, {"type": "Feature", "geometry": {"type": "Point", "coordinates": [2.659456, 48.84182]}, "properties": {"etat de la localisation": "Hors service", "numparc": 5880, "duree": "", "horodatage": "2022-06-14 19:26:27", "marker-color": "#707070"}}, {"type": "Feature", "geometry": {"type": "Point", "coordinates": [2.659245, 48.842068]}, "properties": {"etat de la localisation": "Hors service", "numparc": 5881, "duree": "", "horodatage": "2022-06-14 19:49:46", "marker-color": "#707070"}}, {"type": "Feature", "geometry": {"type": "Point", "coordinates": [2.655107, 48.843422]}, "properties": {"etat de la localisation": "Mission inconnue", "numparc": 5885, "duree": "", "horodatage": "2022-06-14 20:40:47", "marker-color": "#FF9F56"}}, {"type": "Feature", "geometry": {"type": "Point", "coordinates": [2.659153, 48.84248]}, "properties": {"etat de la localisation": "Hors service", "numparc": 5885, "duree": "", "horodatage": "2022-06-14 20:49:15", "marker-color": "#707070"}}, {"type": "Feature", "geometry": {"type": "Point", "coordinates": [2.66005, 48.842106]}, "properties": {"etat de la localisation": "Mission inconnue", "numparc": 5885, "duree": "", "horodatage": "2022-06-14 21:04:18", "marker-color": "#FF9F56"}}, {"type": "Feature", "geometry": {"type": "Point", "coordinates": [2.66005, 48.842106]}, "properties": {"etat de la localisation": "Hors service", "numparc": 5885, "duree": "", "horodatage": "2022-06-14 21:05:22", "marker-color": "#707070"}}, {"type": "Feature", "geometry": {"type": "Point", "coordinates": [2.659397, 48.842785]}, "properties": {"etat de la localisation": "Hors service", "numparc": 5878, "duree": "", "horodatage": "2022-06-14 22:10:02", "marker-color": "#707070"}}, {"type": "Feature", "geometry": {"type": "Point", "coordinates": [2.659477, 48.842758]}, "properties": {"etat de la localisation": "Hors service", "numparc": 5884, "duree": "", "horodatage": "2022-06-15 00:55:08", "marker-color": "#707070"}}]}