{"type": "FeatureCollection", "features": [{"type": "Feature", "geometry": {"type": "Point", "coordinates": [2.260754, 48.713074]}, "properties": {"numparc": 4892, "etat de la localisation": "autre", "ID BDGEO": "7", "horodatage": "2023-03-18 05:35:16", "distance (en metres)": 69.74, "station": "PIERRE CURIE", "marker-color": "#818181"}}, {"type": "Feature", "geometry": {"type": "Point", "coordinates": [2.260696, 48.725414]}, "properties": {"numparc": 4892, "etat de la localisation": "autre", "ID BDGEO": "2", "horodatage": "2023-03-18 06:24:29", "distance (en metres)": 40.42, "station": "MASSY-PALAISEAU RER", "marker-color": "#818181"}}, {"type": "Feature", "geometry": {"type": "Point", "coordinates": [2.271558, 48.708221]}, "properties": {"numparc": 5820, "etat de la localisation": "autre", "ID BDGEO": "9", "horodatage": "2023-03-18 07:18:49", "distance (en metres)": 161.27, "station": "LA FONTAINE", "marker-color": "#818181"}}, {"type": "Feature", "geometry": {"type": "Point", "coordinates": [2.260787, 48.72543]}, "properties": {"numparc": 4892, "etat de la localisation": "autre", "ID BDGEO": "2", "horodatage": "2023-03-18 08:18:53", "distance (en metres)": 45.55, "station": "MASSY-PALAISEAU RER", "marker-color": "#818181"}}, {"type": "Feature", "geometry": {"type": "Point", "coordinates": [2.260755, 48.713081]}, "properties": {"numparc": 5845, "etat de la localisation": "autre", "ID BDGEO": "7", "horodatage": "2023-03-18 08:52:45", "distance (en metres)": 69.28, "station": "PIERRE CURIE", "marker-color": "#818181"}}, {"type": "Feature", "geometry": {"type": "Point", "coordinates": [2.289351, 48.695553]}, "properties": {"numparc": 5845, "etat de la localisation": "autre", "ID BDGEO": "14", "horodatage": "2023-03-18 09:03:00", "distance (en metres)": 47.38, "station": "CANAL DE L'YVETTE", "marker-color": "#818181"}}, {"type": "Feature", "geometry": {"type": "Point", "coordinates": [2.261163, 48.722015]}, "properties": {"numparc": 5820, "etat de la localisation": "autre", "ID BDGEO": "3", "horodatage": "2023-03-18 09:17:06", "distance (en metres)": 110.48, "station": "RUE DE PARIS", "marker-color": "#818181"}}, {"type": "Feature", "geometry": {"type": "Point", "coordinates": [2.261351, 48.719543]}, "properties": {"numparc": 5820, "etat de la localisation": "autre", "ID BDGEO": "4", "horodatage": "2023-03-18 09:18:15", "distance (en metres)": 107.05, "station": "BARBUSSE-BAUDOT", "marker-color": "#818181"}}, {"type": "Feature", "geometry": {"type": "Point", "coordinates": [2.260855, 48.725372]}, "properties": {"numparc": 4892, "etat de la localisation": "autre", "ID BDGEO": "2", "horodatage": "2023-03-18 09:20:20", "distance (en metres)": 44.15, "station": "MASSY-PALAISEAU RER", "marker-color": "#818181"}}, {"type": "Feature", "geometry": {"type": "Point", "coordinates": [2.260828, 48.725365]}, "properties": {"numparc": 5820, "etat de la localisation": "autre", "ID BDGEO": "2", "horodatage": "2023-03-18 10:14:44", "distance (en metres)": 42.13, "station": "MASSY-PALAISEAU RER", "marker-color": "#818181"}}, {"type": "Feature", "geometry": {"type": "Point", "coordinates": [2.260827, 48.719082]}, "properties": {"numparc": 5820, "etat de la localisation": "autre", "ID BDGEO": "4", "horodatage": "2023-03-18 10:18:02", "distance (en metres)": 167.62, "station": "BARBUSSE-BAUDOT", "marker-color": "#818181"}}, {"type": "Feature", "geometry": {"type": "Point", "coordinates": [2.263916, 48.711563]}, "properties": {"numparc": 5820, "etat de la localisation": "autre", "ID BDGEO": "8", "horodatage": "2023-03-18 10:21:16", "distance (en metres)": 109.71, "station": "BUTTE CHAUMONT", "marker-color": "#818181"}}, {"type": "Feature", "geometry": {"type": "Point", "coordinates": [2.260836, 48.725407]}, "properties": {"numparc": 4892, "etat de la localisation": "autre", "ID BDGEO": "48", "horodatage": "2023-03-18 10:30:16", "distance (en metres)": 2715.34, "station": "MASSY  BUS (S)", "marker-color": "#818181"}}, {"type": "Feature", "geometry": {"type": "Point", "coordinates": [2.260795, 48.725372]}, "properties": {"numparc": 5820, "etat de la localisation": "autre", "ID BDGEO": "2", "horodatage": "2023-03-18 11:03:08", "distance (en metres)": 41.04, "station": "MASSY-PALAISEAU RER", "marker-color": "#818181"}}, {"type": "Feature", "geometry": {"type": "Point", "coordinates": [2.260792, 48.713066]}, "properties": {"numparc": 5820, "etat de la localisation": "autre", "ID BDGEO": "7", "horodatage": "2023-03-18 11:20:26", "distance (en metres)": 72.48, "station": "PIERRE CURIE", "marker-color": "#818181"}}, {"type": "Feature", "geometry": {"type": "Point", "coordinates": [2.260796, 48.713078]}, "properties": {"numparc": 5845, "etat de la localisation": "autre", "ID BDGEO": "7", "horodatage": "2023-03-18 11:50:34", "distance (en metres)": 71.97, "station": "PIERRE CURIE", "marker-color": "#818181"}}, {"type": "Feature", "geometry": {"type": "Point", "coordinates": [2.297566, 48.722233]}, "properties": {"numparc": 5821, "etat de la localisation": "autre", "ID BDGEO": "48", "horodatage": "2023-03-18 12:00:20", "distance (en metres)": 72.8, "station": "MASSY  BUS (S)", "marker-color": "#818181"}}, {"type": "Feature", "geometry": {"type": "Point", "coordinates": [2.260308, 48.725155]}, "properties": {"numparc": 5820, "etat de la localisation": "autre", "ID BDGEO": "21", "horodatage": "2023-03-18 12:08:09", "distance (en metres)": 46.58, "station": "MASSY-PALAISEAU RER#", "marker-color": "#818181"}}, {"type": "Feature", "geometry": {"type": "Point", "coordinates": [2.259864, 48.724678]}, "properties": {"numparc": 5821, "etat de la localisation": "autre", "ID BDGEO": "2", "horodatage": "2023-03-18 12:14:11", "distance (en metres)": 62.05, "station": "MASSY-PALAISEAU RER", "marker-color": "#818181"}}, {"type": "Feature", "geometry": {"type": "Point", "coordinates": [2.297551, 48.721493]}, "properties": {"numparc": 5820, "etat de la localisation": "autre", "ID BDGEO": "11", "horodatage": "2023-03-18 12:23:09", "distance (en metres)": 2327.57, "station": "PETIT CHAMPLAN", "marker-color": "#818181"}}, {"type": "Feature", "geometry": {"type": "Point", "coordinates": [2.260797, 48.71302]}, "properties": {"numparc": 4890, "etat de la localisation": "autre", "ID BDGEO": "7", "horodatage": "2023-03-18 13:43:09", "distance (en metres)": 75.89, "station": "PIERRE CURIE", "marker-color": "#818181"}}, {"type": "Feature", "geometry": {"type": "Point", "coordinates": [2.260761, 48.725407]}, "properties": {"numparc": 5821, "etat de la localisation": "autre", "ID BDGEO": "2", "horodatage": "2023-03-18 13:58:48", "distance (en metres)": 42.37, "station": "MASSY-PALAISEAU RER", "marker-color": "#818181"}}, {"type": "Feature", "geometry": {"type": "Point", "coordinates": [2.260745, 48.713085]}, "properties": {"numparc": 4890, "etat de la localisation": "autre", "ID BDGEO": "7", "horodatage": "2023-03-18 14:43:45", "distance (en metres)": 68.45, "station": "PIERRE CURIE", "marker-color": "#818181"}}, {"type": "Feature", "geometry": {"type": "Point", "coordinates": [2.260666, 48.72543]}, "properties": {"numparc": 4869, "etat de la localisation": "autre", "ID BDGEO": "2", "horodatage": "2023-03-18 16:15:47", "distance (en metres)": 40.84, "station": "MASSY-PALAISEAU RER", "marker-color": "#818181"}}, {"type": "Feature", "geometry": {"type": "Point", "coordinates": [2.260826, 48.725407]}, "properties": {"numparc": 4890, "etat de la localisation": "autre", "ID BDGEO": "2", "horodatage": "2023-03-18 16:25:22", "distance (en metres)": 45.4, "station": "MASSY-PALAISEAU RER", "marker-color": "#818181"}}, {"type": "Feature", "geometry": {"type": "Point", "coordinates": [2.260762, 48.713081]}, "properties": {"numparc": 4890, "etat de la localisation": "autre", "ID BDGEO": "7", "horodatage": "2023-03-18 16:44:35", "distance (en metres)": 69.69, "station": "PIERRE CURIE", "marker-color": "#818181"}}, {"type": "Feature", "geometry": {"type": "Point", "coordinates": [2.260829, 48.713039]}, "properties": {"numparc": 5821, "etat de la localisation": "autre", "ID BDGEO": "7", "horodatage": "2023-03-18 17:17:36", "distance (en metres)": 76.42, "station": "PIERRE CURIE", "marker-color": "#818181"}}, {"type": "Feature", "geometry": {"type": "Point", "coordinates": [2.298968, 48.720646]}, "properties": {"numparc": 5820, "etat de la localisation": "autre", "ID BDGEO": "11", "horodatage": "2023-03-18 17:50:37", "distance (en metres)": 2305.8, "station": "PETIT CHAMPLAN", "marker-color": "#818181"}}, {"type": "Feature", "geometry": {"type": "Point", "coordinates": [2.297365, 48.718704]}, "properties": {"numparc": 5816, "etat de la localisation": "autre", "ID BDGEO": "11", "horodatage": "2023-03-18 18:05:03", "distance (en metres)": 2061.64, "station": "PETIT CHAMPLAN", "marker-color": "#818181"}}, {"type": "Feature", "geometry": {"type": "Point", "coordinates": [2.295025, 48.717548]}, "properties": {"numparc": 5816, "etat de la localisation": "autre", "ID BDGEO": "11", "horodatage": "2023-03-18 18:05:46", "distance (en metres)": 1858.2, "station": "PETIT CHAMPLAN", "marker-color": "#818181"}}, {"type": "Feature", "geometry": {"type": "Point", "coordinates": [2.260813, 48.725368]}, "properties": {"numparc": 4890, "etat de la localisation": "autre", "ID BDGEO": "2", "horodatage": "2023-03-18 18:41:01", "distance (en metres)": 41.65, "station": "MASSY-PALAISEAU RER", "marker-color": "#818181"}}, {"type": "Feature", "geometry": {"type": "Point", "coordinates": [2.260813, 48.725368]}, "properties": {"numparc": 4890, "etat de la localisation": "autre", "ID BDGEO": "2", "horodatage": "2023-03-18 18:41:26", "distance (en metres)": 41.65, "station": "MASSY-PALAISEAU RER", "marker-color": "#818181"}}, {"type": "Feature", "geometry": {"type": "Point", "coordinates": [2.260736, 48.713085]}, "properties": {"numparc": 4890, "etat de la localisation": "autre", "ID BDGEO": "7", "horodatage": "2023-03-18 18:47:19", "distance (en metres)": 67.92, "station": "PIERRE CURIE", "marker-color": "#818181"}}, {"type": "Feature", "geometry": {"type": "Point", "coordinates": [2.259891, 48.724598]}, "properties": {"numparc": 5816, "etat de la localisation": "autre", "ID BDGEO": "2", "horodatage": "2023-03-18 19:09:45", "distance (en metres)": 67.92, "station": "MASSY-PALAISEAU RER", "marker-color": "#818181"}}, {"type": "Feature", "geometry": {"type": "Point", "coordinates": [2.260805, 48.725368]}, "properties": {"numparc": 5816, "etat de la localisation": "autre", "ID BDGEO": "2", "horodatage": "2023-03-18 19:17:33", "distance (en metres)": 41.23, "station": "MASSY-PALAISEAU RER", "marker-color": "#818181"}}, {"type": "Feature", "geometry": {"type": "Point", "coordinates": [2.26082, 48.725422]}, "properties": {"numparc": 5816, "etat de la localisation": "autre", "ID BDGEO": "2", "horodatage": "2023-03-18 20:06:24", "distance (en metres)": 46.39, "station": "MASSY-PALAISEAU RER", "marker-color": "#818181"}}, {"type": "Feature", "geometry": {"type": "Point", "coordinates": [2.259873, 48.724819]}, "properties": {"numparc": 5820, "etat de la localisation": "autre", "ID BDGEO": "2", "horodatage": "2023-03-18 20:57:02", "distance (en metres)": 50.64, "station": "MASSY-PALAISEAU RER", "marker-color": "#818181"}}, {"type": "Feature", "geometry": {"type": "Point", "coordinates": [2.260741, 48.713078]}, "properties": {"numparc": 5820, "etat de la localisation": "autre", "ID BDGEO": "7", "horodatage": "2023-03-18 21:08:33", "distance (en metres)": 68.72, "station": "PIERRE CURIE", "marker-color": "#818181"}}, {"type": "Feature", "geometry": {"type": "Point", "coordinates": [2.295294, 48.688412]}, "properties": {"numparc": 5820, "etat de la localisation": "autre", "ID BDGEO": "48", "horodatage": "2023-03-18 21:28:38", "distance (en metres)": 3692.23, "station": "MASSY  BUS (S)", "marker-color": "#818181"}}, {"type": "Feature", "geometry": {"type": "Point", "coordinates": [2.290191, 48.691841]}, "properties": {"numparc": 5820, "etat de la localisation": "autre", "ID BDGEO": "48", "horodatage": "2023-03-18 21:33:10", "distance (en metres)": 3349.68, "station": "MASSY  BUS (S)", "marker-color": "#818181"}}, {"type": "Feature", "geometry": {"type": "Point", "coordinates": [2.289629, 48.696518]}, "properties": {"numparc": 5820, "etat de la localisation": "autre", "ID BDGEO": "48", "horodatage": "2023-03-18 21:35:43", "distance (en metres)": 2845.31, "station": "MASSY  BUS (S)", "marker-color": "#818181"}}, {"type": "Feature", "geometry": {"type": "Point", "coordinates": [2.259366, 48.713764]}, "properties": {"numparc": 5820, "etat de la localisation": "autre", "ID BDGEO": "47", "horodatage": "2023-03-18 21:43:27", "distance (en metres)": 1257.82, "station": "MASSY-PALAISEAU RER#", "marker-color": "#818181"}}, {"type": "Feature", "geometry": {"type": "Point", "coordinates": [2.262064, 48.722832]}, "properties": {"numparc": 5820, "etat de la localisation": "autre", "ID BDGEO": "47", "horodatage": "2023-03-18 22:04:51", "distance (en metres)": 277.21, "station": "MASSY-PALAISEAU RER#", "marker-color": "#818181"}}, {"type": "Feature", "geometry": {"type": "Point", "coordinates": [2.260408, 48.717007]}, "properties": {"numparc": 5820, "etat de la localisation": "autre", "ID BDGEO": "47", "horodatage": "2023-03-18 22:07:50", "distance (en metres)": 895.16, "station": "MASSY-PALAISEAU RER#", "marker-color": "#818181"}}, {"type": "Feature", "geometry": {"type": "Point", "coordinates": [2.258657, 48.714596]}, "properties": {"numparc": 5820, "etat de la localisation": "autre", "ID BDGEO": "47", "horodatage": "2023-03-18 22:08:46", "distance (en metres)": 1169.92, "station": "MASSY-PALAISEAU RER#", "marker-color": "#818181"}}, {"type": "Feature", "geometry": {"type": "Point", "coordinates": [2.26403, 48.710625]}, "properties": {"numparc": 5820, "etat de la localisation": "autre", "ID BDGEO": "47", "horodatage": "2023-03-18 22:10:28", "distance (en metres)": 1627.22, "station": "MASSY-PALAISEAU RER#", "marker-color": "#818181"}}, {"type": "Feature", "geometry": {"type": "Point", "coordinates": [2.273603, 48.706734]}, "properties": {"numparc": 5820, "etat de la localisation": "autre", "ID BDGEO": "47", "horodatage": "2023-03-18 22:13:18", "distance (en metres)": 2257.26, "station": "MASSY-PALAISEAU RER#", "marker-color": "#818181"}}, {"type": "Feature", "geometry": {"type": "Point", "coordinates": [2.281163, 48.703709]}, "properties": {"numparc": 5820, "etat de la localisation": "autre", "ID BDGEO": "48", "horodatage": "2023-03-18 22:14:45", "distance (en metres)": 2317.56, "station": "MASSY  BUS (S)", "marker-color": "#818181"}}, {"type": "Feature", "geometry": {"type": "Point", "coordinates": [2.288389, 48.700272]}, "properties": {"numparc": 5820, "etat de la localisation": "autre", "ID BDGEO": "48", "horodatage": "2023-03-18 22:16:20", "distance (en metres)": 2460.67, "station": "MASSY  BUS (S)", "marker-color": "#818181"}}, {"type": "Feature", "geometry": {"type": "Point", "coordinates": [2.29322, 48.697441]}, "properties": {"numparc": 5820, "etat de la localisation": "autre", "ID BDGEO": "48", "horodatage": "2023-03-18 22:17:53", "distance (en metres)": 2702.42, "station": "MASSY  BUS (S)", "marker-color": "#818181"}}, {"type": "Feature", "geometry": {"type": "Point", "coordinates": [2.289482, 48.696068]}, "properties": {"numparc": 5820, "etat de la localisation": "autre", "ID BDGEO": "48", "horodatage": "2023-03-18 22:19:46", "distance (en metres)": 2896.51, "station": "MASSY  BUS (S)", "marker-color": "#818181"}}, {"type": "Feature", "geometry": {"type": "Point", "coordinates": [2.29008, 48.691849]}, "properties": {"numparc": 5820, "etat de la localisation": "autre", "ID BDGEO": "48", "horodatage": "2023-03-18 22:21:44", "distance (en metres)": 3350.13, "station": "MASSY  BUS (S)", "marker-color": "#818181"}}, {"type": "Feature", "geometry": {"type": "Point", "coordinates": [2.288797, 48.68998]}, "properties": {"numparc": 5820, "etat de la localisation": "autre", "ID BDGEO": "48", "horodatage": "2023-03-18 22:22:43", "distance (en metres)": 3570.88, "station": "MASSY  BUS (S)", "marker-color": "#818181"}}, {"type": "Feature", "geometry": {"type": "Point", "coordinates": [2.289237, 48.687588]}, "properties": {"numparc": 5820, "etat de la localisation": "autre", "ID BDGEO": "48", "horodatage": "2023-03-18 22:23:56", "distance (en metres)": 3827.75, "station": "MASSY  BUS (S)", "marker-color": "#818181"}}, {"type": "Feature", "geometry": {"type": "Point", "coordinates": [2.29166, 48.686737]}, "properties": {"numparc": 5820, "etat de la localisation": "autre", "ID BDGEO": "48", "horodatage": "2023-03-18 22:24:42", "distance (en metres)": 3898.02, "station": "MASSY  BUS (S)", "marker-color": "#818181"}}, {"type": "Feature", "geometry": {"type": "Point", "coordinates": [2.294626, 48.687748]}, "properties": {"numparc": 5820, "etat de la localisation": "autre", "ID BDGEO": "48", "horodatage": "2023-03-18 22:25:29", "distance (en metres)": 3768.3, "station": "MASSY  BUS (S)", "marker-color": "#818181"}}, {"type": "Feature", "geometry": {"type": "Point", "coordinates": [2.295427, 48.688416]}, "properties": {"numparc": 5820, "etat de la localisation": "autre", "ID BDGEO": "48", "horodatage": "2023-03-18 22:26:28", "distance (en metres)": 3691.41, "station": "MASSY  BUS (S)", "marker-color": "#818181"}}, {"type": "Feature", "geometry": {"type": "Point", "coordinates": [2.293051, 48.697399]}, "properties": {"numparc": 5820, "etat de la localisation": "autre", "ID BDGEO": "48", "horodatage": "2023-03-18 22:32:00", "distance (en metres)": 2708.49, "station": "MASSY  BUS (S)", "marker-color": "#818181"}}, {"type": "Feature", "geometry": {"type": "Point", "coordinates": [2.258767, 48.714764]}, "properties": {"numparc": 5820, "etat de la localisation": "autre", "ID BDGEO": "47", "horodatage": "2023-03-18 22:38:35", "distance (en metres)": 1150.52, "station": "MASSY-PALAISEAU RER#", "marker-color": "#818181"}}, {"type": "Feature", "geometry": {"type": "Point", "coordinates": [2.258636, 48.714535]}, "properties": {"numparc": 5820, "etat de la localisation": "autre", "ID BDGEO": "47", "horodatage": "2023-03-18 23:07:06", "distance (en metres)": 1176.83, "station": "MASSY-PALAISEAU RER#", "marker-color": "#818181"}}, {"type": "Feature", "geometry": {"type": "Point", "coordinates": [2.263999, 48.710575]}, "properties": {"numparc": 5820, "etat de la localisation": "autre", "ID BDGEO": "47", "horodatage": "2023-03-18 23:08:46", "distance (en metres)": 1632.29, "station": "MASSY-PALAISEAU RER#", "marker-color": "#818181"}}, {"type": "Feature", "geometry": {"type": "Point", "coordinates": [2.293248, 48.697411]}, "properties": {"numparc": 5820, "etat de la localisation": "autre", "ID BDGEO": "48", "horodatage": "2023-03-18 23:14:44", "distance (en metres)": 2705.56, "station": "MASSY  BUS (S)", "marker-color": "#818181"}}, {"type": "Feature", "geometry": {"type": "Point", "coordinates": [2.289445, 48.696022]}, "properties": {"numparc": 5820, "etat de la localisation": "autre", "ID BDGEO": "48", "horodatage": "2023-03-18 23:16:22", "distance (en metres)": 2902.04, "station": "MASSY  BUS (S)", "marker-color": "#818181"}}, {"type": "Feature", "geometry": {"type": "Point", "coordinates": [2.290054, 48.691795]}, "properties": {"numparc": 5820, "etat de la localisation": "autre", "ID BDGEO": "48", "horodatage": "2023-03-18 23:18:25", "distance (en metres)": 3356.29, "station": "MASSY  BUS (S)", "marker-color": "#818181"}}, {"type": "Feature", "geometry": {"type": "Point", "coordinates": [2.288751, 48.689941]}, "properties": {"numparc": 5820, "etat de la localisation": "autre", "ID BDGEO": "48", "horodatage": "2023-03-18 23:19:12", "distance (en metres)": 3575.65, "station": "MASSY  BUS (S)", "marker-color": "#818181"}}, {"type": "Feature", "geometry": {"type": "Point", "coordinates": [2.295371, 48.688339]}, "properties": {"numparc": 5820, "etat de la localisation": "autre", "ID BDGEO": "48", "horodatage": "2023-03-18 23:21:36", "distance (en metres)": 3700.05, "station": "MASSY  BUS (S)", "marker-color": "#818181"}}, {"type": "Feature", "geometry": {"type": "Point", "coordinates": [2.290134, 48.69183]}, "properties": {"numparc": 5820, "etat de la localisation": "autre", "ID BDGEO": "48", "horodatage": "2023-03-18 23:37:11", "distance (en metres)": 3351.59, "station": "MASSY  BUS (S)", "marker-color": "#818181"}}, {"type": "Feature", "geometry": {"type": "Point", "coordinates": [2.29301, 48.697388]}, "properties": {"numparc": 5820, "etat de la localisation": "autre", "ID BDGEO": "48", "horodatage": "2023-03-18 23:40:11", "distance (en metres)": 2710.11, "station": "MASSY  BUS (S)", "marker-color": "#818181"}}, {"type": "Feature", "geometry": {"type": "Point", "coordinates": [2.288099, 48.700397]}, "properties": {"numparc": 5820, "etat de la localisation": "autre", "ID BDGEO": "48", "horodatage": "2023-03-18 23:41:42", "distance (en metres)": 2453.02, "station": "MASSY  BUS (S)", "marker-color": "#818181"}}, {"type": "Feature", "geometry": {"type": "Point", "coordinates": [2.280894, 48.703819]}, "properties": {"numparc": 5820, "etat de la localisation": "autre", "ID BDGEO": "48", "horodatage": "2023-03-18 23:44:10", "distance (en metres)": 2317.27, "station": "MASSY  BUS (S)", "marker-color": "#818181"}}, {"type": "Feature", "geometry": {"type": "Point", "coordinates": [2.265735, 48.710754]}, "properties": {"numparc": 5820, "etat de la localisation": "autre", "ID BDGEO": "47", "horodatage": "2023-03-18 23:47:14", "distance (en metres)": 1638.53, "station": "MASSY-PALAISEAU RER#", "marker-color": "#818181"}}, {"type": "Feature", "geometry": {"type": "Point", "coordinates": [2.258804, 48.714775]}, "properties": {"numparc": 5820, "etat de la localisation": "autre", "ID BDGEO": "47", "horodatage": "2023-03-18 23:48:54", "distance (en metres)": 1148.97, "station": "MASSY-PALAISEAU RER#", "marker-color": "#818181"}}, {"type": "Feature", "geometry": {"type": "Point", "coordinates": [2.262051, 48.720387]}, "properties": {"numparc": 5820, "etat de la localisation": "autre", "ID BDGEO": "47", "horodatage": "2023-03-18 23:50:33", "distance (en metres)": 533.95, "station": "MASSY-PALAISEAU RER#", "marker-color": "#818181"}}, {"type": "Feature", "geometry": {"type": "Point", "coordinates": [2.261818, 48.720509]}, "properties": {"numparc": 5820, "etat de la localisation": "autre", "ID BDGEO": "47", "horodatage": "2023-03-19 00:04:23", "distance (en metres)": 516.94, "station": "MASSY-PALAISEAU RER#", "marker-color": "#818181"}}, {"type": "Feature", "geometry": {"type": "Point", "coordinates": [2.260365, 48.716961]}, "properties": {"numparc": 5820, "etat de la localisation": "autre", "ID BDGEO": "47", "horodatage": "2023-03-19 00:05:35", "distance (en metres)": 900.24, "station": "MASSY-PALAISEAU RER#", "marker-color": "#818181"}}, {"type": "Feature", "geometry": {"type": "Point", "coordinates": [2.273622, 48.70665]}, "properties": {"numparc": 5820, "etat de la localisation": "autre", "ID BDGEO": "47", "horodatage": "2023-03-19 00:09:55", "distance (en metres)": 2266.28, "station": "MASSY-PALAISEAU RER#", "marker-color": "#818181"}}, {"type": "Feature", "geometry": {"type": "Point", "coordinates": [2.293223, 48.697403]}, "properties": {"numparc": 5820, "etat de la localisation": "autre", "ID BDGEO": "48", "horodatage": "2023-03-19 00:13:48", "distance (en metres)": 2706.61, "station": "MASSY  BUS (S)", "marker-color": "#818181"}}, {"type": "Feature", "geometry": {"type": "Point", "coordinates": [2.290012, 48.691795]}, "properties": {"numparc": 5820, "etat de la localisation": "autre", "ID BDGEO": "48", "horodatage": "2023-03-19 00:16:41", "distance (en metres)": 3356.79, "station": "MASSY  BUS (S)", "marker-color": "#818181"}}, {"type": "Feature", "geometry": {"type": "Point", "coordinates": [2.288707, 48.689941]}, "properties": {"numparc": 5820, "etat de la localisation": "autre", "ID BDGEO": "48", "horodatage": "2023-03-19 00:17:24", "distance (en metres)": 3576.22, "station": "MASSY  BUS (S)", "marker-color": "#818181"}}, {"type": "Feature", "geometry": {"type": "Point", "coordinates": [2.289183, 48.687538]}, "properties": {"numparc": 5820, "etat de la localisation": "autre", "ID BDGEO": "48", "horodatage": "2023-03-19 00:18:28", "distance (en metres)": 3833.83, "station": "MASSY  BUS (S)", "marker-color": "#818181"}}, {"type": "Feature", "geometry": {"type": "Point", "coordinates": [2.295347, 48.688339]}, "properties": {"numparc": 5820, "etat de la localisation": "autre", "ID BDGEO": "48", "horodatage": "2023-03-19 00:20:15", "distance (en metres)": 3700.12, "station": "MASSY  BUS (S)", "marker-color": "#818181"}}, {"type": "Feature", "geometry": {"type": "Point", "coordinates": [2.295347, 48.688339]}, "properties": {"numparc": 5820, "etat de la localisation": "autre", "ID BDGEO": "48", "horodatage": "2023-03-19 00:21:37", "distance (en metres)": 3700.12, "station": "MASSY  BUS (S)", "marker-color": "#818181"}}, {"type": "Feature", "geometry": {"type": "Point", "coordinates": [2.294317, 48.687534]}, "properties": {"numparc": 5820, "etat de la localisation": "autre", "ID BDGEO": "48", "horodatage": "2023-03-19 00:31:32", "distance (en metres)": 3793.3, "station": "MASSY  BUS (S)", "marker-color": "#818181"}}, {"type": "Feature", "geometry": {"type": "Point", "coordinates": [2.293055, 48.697399]}, "properties": {"numparc": 5820, "etat de la localisation": "autre", "ID BDGEO": "48", "horodatage": "2023-03-19 00:36:04", "distance (en metres)": 2708.45, "station": "MASSY  BUS (S)", "marker-color": "#818181"}}, {"type": "Feature", "geometry": {"type": "Point", "coordinates": [2.297574, 48.722321]}, "properties": {"numparc": 5820, "etat de la localisation": "autre", "ID BDGEO": "48", "horodatage": "2023-03-19 00:57:45", "distance (en metres)": 82.52, "station": "MASSY  BUS (S)", "marker-color": "#818181"}}, {"type": "Feature", "geometry": {"type": "Point", "coordinates": [2.297635, 48.722279]}, "properties": {"numparc": 5816, "etat de la localisation": "autre", "ID BDGEO": "48", "horodatage": "2023-03-19 01:01:12", "distance (en metres)": 78.79, "station": "MASSY  BUS (S)", "marker-color": "#818181"}}, {"type": "Feature", "geometry": {"type": "Point", "coordinates": [2.297635, 48.722279]}, "properties": {"numparc": 5816, "etat de la localisation": "autre", "ID BDGEO": "48", "horodatage": "2023-03-19 01:11:31", "distance (en metres)": 78.79, "station": "MASSY  BUS (S)", "marker-color": "#818181"}}, {"type": "Feature", "geometry": {"type": "Point", "coordinates": [2.259997, 48.713453]}, "properties": {"station": "PIERRE CURIE", "ID BDGEO": "7", "marker-color": "#56B3FF"}}, {"type": "Feature", "geometry": {"type": "Point", "coordinates": [2.260414, 48.725102]}, "properties": {"station": "MASSY-PALAISEAU RER", "ID BDGEO": "2", "marker-color": "#56B3FF"}}, {"type": "Feature", "geometry": {"type": "Point", "coordinates": [2.269768, 48.709063]}, "properties": {"station": "LA FONTAINE", "ID BDGEO": "9", "marker-color": "#56B3FF"}}, {"type": "Feature", "geometry": {"type": "Point", "coordinates": [2.289419, 48.695977]}, "properties": {"station": "CANAL DE L'YVETTE", "ID BDGEO": "14", "marker-color": "#56B3FF"}}, {"type": "Feature", "geometry": {"type": "Point", "coordinates": [2.261966, 48.722856]}, "properties": {"station": "RUE DE PARIS", "ID BDGEO": "3", "marker-color": "#56B3FF"}}, {"type": "Feature", "geometry": {"type": "Point", "coordinates": [2.261671, 48.720483]}, "properties": {"station": "BARBUSSE-BAUDOT", "ID BDGEO": "4", "marker-color": "#56B3FF"}}, {"type": "Feature", "geometry": {"type": "Point", "coordinates": [2.264021, 48.710579]}, "properties": {"station": "BUTTE CHAUMONT", "ID BDGEO": "8", "marker-color": "#56B3FF"}}, {"type": "Feature", "geometry": {"type": "Point", "coordinates": [2.297397, 48.721588]}, "properties": {"station": "MASSY  BUS (S)", "ID BDGEO": "48", "marker-color": "#56B3FF"}}, {"type": "Feature", "geometry": {"type": "Point", "coordinates": [2.260631, 48.725516]}, "properties": {"station": "MASSY-PALAISEAU RER#", "ID BDGEO": "21", "marker-color": "#56B3FF"}}, {"type": "Feature", "geometry": {"type": "Point", "coordinates": [2.280965, 48.703649]}, "properties": {"station": "PETIT CHAMPLAN", "ID BDGEO": "11", "marker-color": "#56B3FF"}}, {"type": "Feature", "geometry": {"type": "Point", "coordinates": [2.26036, 48.725057]}, "properties": {"station": "MASSY-PALAISEAU RER#", "ID BDGEO": "47", "marker-color": "#56B3FF"}}]}