{"type": "FeatureCollection", "features": [{"type": "Feature", "geometry": {"type": "Point", "coordinates": [2.371224, 48.81517]}, "properties": {"numparc": 5697, "etat de la localisation": "autre", "ID BDGEO": "7", "horodatage": "2023-02-08 05:05:20", "distance (en metres)": 131.54, "station": "CENTRE BUS D'IVRY-SORTIE", "marker-color": "#818181"}}, {"type": "Feature", "geometry": {"type": "Point", "coordinates": [2.371474, 48.81443]}, "properties": {"numparc": 5689, "etat de la localisation": "autre", "ID BDGEO": "7", "horodatage": "2023-02-08 05:21:15", "distance (en metres)": 52.14, "station": "CENTRE BUS D'IVRY-SORTIE", "marker-color": "#818181"}}, {"type": "Feature", "geometry": {"type": "Point", "coordinates": [2.344973, 48.837746]}, "properties": {"numparc": 5689, "etat de la localisation": "autre", "ID BDGEO": "6", "horodatage": "2023-02-08 05:43:20", "distance (en metres)": 546.31, "station": "LES GOBELINS#", "marker-color": "#818181"}}, {"type": "Feature", "geometry": {"type": "Point", "coordinates": [2.337007, 48.839535]}, "properties": {"numparc": 5689, "etat de la localisation": "autre", "ID BDGEO": "6", "horodatage": "2023-02-08 05:45:35", "distance (en metres)": 1158.28, "station": "LES GOBELINS#", "marker-color": "#818181"}}, {"type": "Feature", "geometry": {"type": "Point", "coordinates": [2.337007, 48.839535]}, "properties": {"numparc": 5689, "etat de la localisation": "autre", "ID BDGEO": "6", "horodatage": "2023-02-08 05:45:49", "distance (en metres)": 1158.28, "station": "LES GOBELINS#", "marker-color": "#818181"}}, {"type": "Feature", "geometry": {"type": "Point", "coordinates": [2.328923, 48.842243]}, "properties": {"numparc": 5689, "etat de la localisation": "autre", "ID BDGEO": "6", "horodatage": "2023-02-08 05:48:16", "distance (en metres)": 1811.88, "station": "LES GOBELINS#", "marker-color": "#818181"}}, {"type": "Feature", "geometry": {"type": "Point", "coordinates": [2.324595, 48.843651]}, "properties": {"numparc": 5689, "etat de la localisation": "autre", "ID BDGEO": "6", "horodatage": "2023-02-08 05:49:46", "distance (en metres)": 2162.73, "station": "LES GOBELINS#", "marker-color": "#818181"}}, {"type": "Feature", "geometry": {"type": "Point", "coordinates": [2.323581, 48.842934]}, "properties": {"numparc": 5689, "etat de la localisation": "autre", "ID BDGEO": "6", "horodatage": "2023-02-08 05:51:19", "distance (en metres)": 2207.24, "station": "LES GOBELINS#", "marker-color": "#818181"}}, {"type": "Feature", "geometry": {"type": "Point", "coordinates": [2.321539, 48.841244]}, "properties": {"numparc": 5689, "etat de la localisation": "autre", "ID BDGEO": "6", "horodatage": "2023-02-08 05:52:11", "distance (en metres)": 2304.12, "station": "LES GOBELINS#", "marker-color": "#818181"}}, {"type": "Feature", "geometry": {"type": "Point", "coordinates": [2.31908, 48.837841]}, "properties": {"numparc": 5689, "etat de la localisation": "autre", "ID BDGEO": "6", "horodatage": "2023-02-08 05:54:33", "distance (en metres)": 2436.24, "station": "LES GOBELINS#", "marker-color": "#818181"}}, {"type": "Feature", "geometry": {"type": "Point", "coordinates": [2.370967, 48.815289]}, "properties": {"numparc": 5702, "etat de la localisation": "autre", "ID BDGEO": "44", "horodatage": "2023-02-08 06:55:19", "distance (en metres)": 2773.97, "station": "LES GOBELINS.", "marker-color": "#818181"}}, {"type": "Feature", "geometry": {"type": "Point", "coordinates": [2.372415, 48.814342]}, "properties": {"numparc": 5702, "etat de la localisation": "autre", "ID BDGEO": "44", "horodatage": "2023-02-08 06:58:08", "distance (en metres)": 2918.94, "station": "LES GOBELINS.", "marker-color": "#818181"}}, {"type": "Feature", "geometry": {"type": "Point", "coordinates": [2.370972, 48.814846]}, "properties": {"numparc": 5692, "etat de la localisation": "autre", "ID BDGEO": "44", "horodatage": "2023-02-08 07:06:13", "distance (en metres)": 2816.47, "station": "LES GOBELINS.", "marker-color": "#818181"}}, {"type": "Feature", "geometry": {"type": "Point", "coordinates": [2.319686, 48.841774]}, "properties": {"numparc": 5692, "etat de la localisation": "autre", "ID BDGEO": "24", "horodatage": "2023-02-08 07:42:39", "distance (en metres)": 164.01, "station": "GARE MONTPARNASSE", "marker-color": "#818181"}}, {"type": "Feature", "geometry": {"type": "Point", "coordinates": [2.323699, 48.843597]}, "properties": {"numparc": 5692, "etat de la localisation": "autre", "ID BDGEO": "23", "horodatage": "2023-02-08 07:44:53", "distance (en metres)": 74.29, "station": "MONTPARNASSE-RUE DU DEPART", "marker-color": "#818181"}}, {"type": "Feature", "geometry": {"type": "Point", "coordinates": [2.33426, 48.840481]}, "properties": {"numparc": 5692, "etat de la localisation": "autre", "ID BDGEO": "20", "horodatage": "2023-02-08 07:48:28", "distance (en metres)": 87.52, "station": "CAMPAGNE PREMIERE", "marker-color": "#818181"}}, {"type": "Feature", "geometry": {"type": "Point", "coordinates": [2.339953, 48.83873]}, "properties": {"numparc": 5692, "etat de la localisation": "autre", "ID BDGEO": "18", "horodatage": "2023-02-08 07:52:16", "distance (en metres)": 73.99, "station": "PORT ROYAL-SAINT JACQUES", "marker-color": "#818181"}}, {"type": "Feature", "geometry": {"type": "Point", "coordinates": [2.346169, 48.837452]}, "properties": {"numparc": 5692, "etat de la localisation": "autre", "ID BDGEO": "17", "horodatage": "2023-02-08 07:54:24", "distance (en metres)": 93.34, "station": "PORT ROYAL-BERTHOLLET", "marker-color": "#818181"}}, {"type": "Feature", "geometry": {"type": "Point", "coordinates": [2.352707, 48.836952]}, "properties": {"numparc": 5692, "etat de la localisation": "autre", "ID BDGEO": "16", "horodatage": "2023-02-08 07:56:21", "distance (en metres)": 41.36, "station": "LES GOBELINS", "marker-color": "#818181"}}, {"type": "Feature", "geometry": {"type": "Point", "coordinates": [2.317378, 48.838474]}, "properties": {"numparc": 5689, "etat de la localisation": "autre", "ID BDGEO": "24", "horodatage": "2023-02-08 08:02:17", "distance (en metres)": 465.48, "station": "GARE MONTPARNASSE", "marker-color": "#818181"}}, {"type": "Feature", "geometry": {"type": "Point", "coordinates": [2.363895, 48.842571]}, "properties": {"numparc": 5692, "etat de la localisation": "autre", "ID BDGEO": "13", "horodatage": "2023-02-08 08:03:25", "distance (en metres)": 106.33, "station": "GARE D'AUSTERLITZ", "marker-color": "#818181"}}, {"type": "Feature", "geometry": {"type": "Point", "coordinates": [2.372176, 48.844154]}, "properties": {"numparc": 5692, "etat de la localisation": "Deviation programmee", "ID BDGEO": "11", "horodatage": "2023-02-08 08:07:36", "distance (en metres)": 163.0, "station": "GARE DE LYON-DIDEROT", "marker-color": "#56FF93"}}, {"type": "Feature", "geometry": {"type": "Point", "coordinates": [2.373739, 48.845875]}, "properties": {"numparc": 5692, "etat de la localisation": "autre", "ID BDGEO": "11", "horodatage": "2023-02-08 08:11:13", "distance (en metres)": 173.87, "station": "GARE DE LYON-DIDEROT", "marker-color": "#818181"}}, {"type": "Feature", "geometry": {"type": "Point", "coordinates": [2.317035, 48.838833]}, "properties": {"numparc": 5689, "etat de la localisation": "autre", "ID BDGEO": "24", "horodatage": "2023-02-08 08:12:44", "distance (en metres)": 457.28, "station": "GARE MONTPARNASSE", "marker-color": "#818181"}}, {"type": "Feature", "geometry": {"type": "Point", "coordinates": [2.317035, 48.838833]}, "properties": {"numparc": 5689, "etat de la localisation": "autre", "ID BDGEO": "24", "horodatage": "2023-02-08 08:14:40", "distance (en metres)": 457.28, "station": "GARE MONTPARNASSE", "marker-color": "#818181"}}, {"type": "Feature", "geometry": {"type": "Point", "coordinates": [2.317032, 48.838837]}, "properties": {"numparc": 5689, "etat de la localisation": "autre", "ID BDGEO": "24", "horodatage": "2023-02-08 08:15:08", "distance (en metres)": 457.18, "station": "GARE MONTPARNASSE", "marker-color": "#818181"}}, {"type": "Feature", "geometry": {"type": "Point", "coordinates": [2.31573, 48.840645]}, "properties": {"numparc": 5689, "etat de la localisation": "autre", "ID BDGEO": "24", "horodatage": "2023-02-08 08:16:56", "distance (en metres)": 457.82, "station": "GARE MONTPARNASSE", "marker-color": "#818181"}}, {"type": "Feature", "geometry": {"type": "Point", "coordinates": [2.319499, 48.841702]}, "properties": {"numparc": 5689, "etat de la localisation": "autre", "ID BDGEO": "24", "horodatage": "2023-02-08 08:18:14", "distance (en metres)": 175.84, "station": "GARE MONTPARNASSE", "marker-color": "#818181"}}, {"type": "Feature", "geometry": {"type": "Point", "coordinates": [2.319517, 48.841709]}, "properties": {"numparc": 5689, "etat de la localisation": "autre", "ID BDGEO": "24", "horodatage": "2023-02-08 08:18:40", "distance (en metres)": 174.69, "station": "GARE MONTPARNASSE", "marker-color": "#818181"}}, {"type": "Feature", "geometry": {"type": "Point", "coordinates": [2.323768, 48.843586]}, "properties": {"numparc": 5689, "etat de la localisation": "autre", "ID BDGEO": "23", "horodatage": "2023-02-08 08:21:00", "distance (en metres)": 73.57, "station": "MONTPARNASSE-RUE DU DEPART", "marker-color": "#818181"}}, {"type": "Feature", "geometry": {"type": "Point", "coordinates": [2.333232, 48.84079]}, "properties": {"numparc": 5702, "etat de la localisation": "autre", "ID BDGEO": "19", "horodatage": "2023-02-08 08:21:48", "distance (en metres)": 301.23, "station": "OBSERVATOIRE-PORT ROYAL", "marker-color": "#818181"}}, {"type": "Feature", "geometry": {"type": "Point", "coordinates": [2.32897, 48.842216]}, "properties": {"numparc": 5702, "etat de la localisation": "autre", "ID BDGEO": "19", "horodatage": "2023-02-08 08:23:43", "distance (en metres)": 651.14, "station": "OBSERVATOIRE-PORT ROYAL", "marker-color": "#818181"}}, {"type": "Feature", "geometry": {"type": "Point", "coordinates": [2.324613, 48.843651]}, "properties": {"numparc": 5702, "etat de la localisation": "autre", "ID BDGEO": "19", "horodatage": "2023-02-08 08:25:29", "distance (en metres)": 1007.64, "station": "OBSERVATOIRE-PORT ROYAL", "marker-color": "#818181"}}, {"type": "Feature", "geometry": {"type": "Point", "coordinates": [2.323739, 48.843021]}, "properties": {"numparc": 5702, "etat de la localisation": "autre", "ID BDGEO": "19", "horodatage": "2023-02-08 08:27:12", "distance (en metres)": 1037.57, "station": "OBSERVATOIRE-PORT ROYAL", "marker-color": "#818181"}}, {"type": "Feature", "geometry": {"type": "Point", "coordinates": [2.340135, 48.838669]}, "properties": {"numparc": 5689, "etat de la localisation": "autre", "ID BDGEO": "18", "horodatage": "2023-02-08 08:28:07", "distance (en metres)": 88.94, "station": "PORT ROYAL-SAINT JACQUES", "marker-color": "#818181"}}, {"type": "Feature", "geometry": {"type": "Point", "coordinates": [2.321712, 48.841362]}, "properties": {"numparc": 5702, "etat de la localisation": "autre", "ID BDGEO": "19", "horodatage": "2023-02-08 08:28:35", "distance (en metres)": 1130.71, "station": "OBSERVATOIRE-PORT ROYAL", "marker-color": "#818181"}}, {"type": "Feature", "geometry": {"type": "Point", "coordinates": [2.346174, 48.83744]}, "properties": {"numparc": 5689, "etat de la localisation": "autre", "ID BDGEO": "17", "horodatage": "2023-02-08 08:30:11", "distance (en metres)": 94.13, "station": "PORT ROYAL-BERTHOLLET", "marker-color": "#818181"}}, {"type": "Feature", "geometry": {"type": "Point", "coordinates": [2.319019, 48.837868]}, "properties": {"numparc": 5702, "etat de la localisation": "autre", "ID BDGEO": "19", "horodatage": "2023-02-08 08:30:45", "distance (en metres)": 1324.72, "station": "OBSERVATOIRE-PORT ROYAL", "marker-color": "#818181"}}, {"type": "Feature", "geometry": {"type": "Point", "coordinates": [2.352704, 48.836967]}, "properties": {"numparc": 5689, "etat de la localisation": "autre", "ID BDGEO": "16", "horodatage": "2023-02-08 08:32:19", "distance (en metres)": 41.47, "station": "LES GOBELINS", "marker-color": "#818181"}}, {"type": "Feature", "geometry": {"type": "Point", "coordinates": [2.3177, 48.838234]}, "properties": {"numparc": 5696, "etat de la localisation": "autre", "ID BDGEO": "24", "horodatage": "2023-02-08 08:37:14", "distance (en metres)": 469.13, "station": "GARE MONTPARNASSE", "marker-color": "#818181"}}, {"type": "Feature", "geometry": {"type": "Point", "coordinates": [2.333196, 48.840816]}, "properties": {"numparc": 5692, "etat de la localisation": "autre", "ID BDGEO": "19", "horodatage": "2023-02-08 08:37:47", "distance (en metres)": 304.9, "station": "OBSERVATOIRE-PORT ROYAL", "marker-color": "#818181"}}, {"type": "Feature", "geometry": {"type": "Point", "coordinates": [2.328931, 48.842228]}, "properties": {"numparc": 5692, "etat de la localisation": "autre", "ID BDGEO": "19", "horodatage": "2023-02-08 08:39:47", "distance (en metres)": 654.25, "station": "OBSERVATOIRE-PORT ROYAL", "marker-color": "#818181"}}, {"type": "Feature", "geometry": {"type": "Point", "coordinates": [2.36391, 48.842594]}, "properties": {"numparc": 5689, "etat de la localisation": "autre", "ID BDGEO": "13", "horodatage": "2023-02-08 08:40:13", "distance (en metres)": 103.59, "station": "GARE D'AUSTERLITZ", "marker-color": "#818181"}}, {"type": "Feature", "geometry": {"type": "Point", "coordinates": [2.324576, 48.843651]}, "properties": {"numparc": 5692, "etat de la localisation": "autre", "ID BDGEO": "19", "horodatage": "2023-02-08 08:41:33", "distance (en metres)": 1010.08, "station": "OBSERVATOIRE-PORT ROYAL", "marker-color": "#818181"}}, {"type": "Feature", "geometry": {"type": "Point", "coordinates": [2.323638, 48.842957]}, "properties": {"numparc": 5692, "etat de la localisation": "autre", "ID BDGEO": "19", "horodatage": "2023-02-08 08:44:15", "distance (en metres)": 1041.85, "station": "OBSERVATOIRE-PORT ROYAL", "marker-color": "#818181"}}, {"type": "Feature", "geometry": {"type": "Point", "coordinates": [2.317297, 48.838676]}, "properties": {"numparc": 5696, "etat de la localisation": "autre", "ID BDGEO": "24", "horodatage": "2023-02-08 08:44:23", "distance (en metres)": 454.2, "station": "GARE MONTPARNASSE", "marker-color": "#818181"}}, {"type": "Feature", "geometry": {"type": "Point", "coordinates": [2.321548, 48.841251]}, "properties": {"numparc": 5692, "etat de la localisation": "autre", "ID BDGEO": "19", "horodatage": "2023-02-08 08:45:09", "distance (en metres)": 1140.49, "station": "OBSERVATOIRE-PORT ROYAL", "marker-color": "#818181"}}, {"type": "Feature", "geometry": {"type": "Point", "coordinates": [2.319136, 48.837906]}, "properties": {"numparc": 5692, "etat de la localisation": "autre", "ID BDGEO": "19", "horodatage": "2023-02-08 08:47:09", "distance (en metres)": 1315.65, "station": "OBSERVATOIRE-PORT ROYAL", "marker-color": "#818181"}}, {"type": "Feature", "geometry": {"type": "Point", "coordinates": [2.317297, 48.838676]}, "properties": {"numparc": 5696, "etat de la localisation": "autre", "ID BDGEO": "24", "horodatage": "2023-02-08 08:47:39", "distance (en metres)": 454.2, "station": "GARE MONTPARNASSE", "marker-color": "#818181"}}, {"type": "Feature", "geometry": {"type": "Point", "coordinates": [2.317197, 48.838779]}, "properties": {"numparc": 5696, "etat de la localisation": "autre", "ID BDGEO": "24", "horodatage": "2023-02-08 08:48:15", "distance (en metres)": 452.03, "station": "GARE MONTPARNASSE", "marker-color": "#818181"}}, {"type": "Feature", "geometry": {"type": "Point", "coordinates": [2.373194, 48.845829]}, "properties": {"numparc": 5689, "etat de la localisation": "Delocalise", "ID BDGEO": "11", "horodatage": "2023-02-08 08:48:43", "distance (en metres)": 133.9, "station": "GARE DE LYON-DIDEROT", "marker-color": "#FF565E"}}, {"type": "Feature", "geometry": {"type": "Point", "coordinates": [2.315682, 48.840614]}, "properties": {"numparc": 5696, "etat de la localisation": "autre", "ID BDGEO": "24", "horodatage": "2023-02-08 08:51:32", "distance (en metres)": 461.94, "station": "GARE MONTPARNASSE", "marker-color": "#818181"}}, {"type": "Feature", "geometry": {"type": "Point", "coordinates": [2.319671, 48.841755]}, "properties": {"numparc": 5696, "etat de la localisation": "autre", "ID BDGEO": "24", "horodatage": "2023-02-08 08:52:40", "distance (en metres)": 164.61, "station": "GARE MONTPARNASSE", "marker-color": "#818181"}}, {"type": "Feature", "geometry": {"type": "Point", "coordinates": [2.323728, 48.84362]}, "properties": {"numparc": 5696, "etat de la localisation": "autre", "ID BDGEO": "23", "horodatage": "2023-02-08 08:54:34", "distance (en metres)": 77.01, "station": "MONTPARNASSE-RUE DU DEPART", "marker-color": "#818181"}}, {"type": "Feature", "geometry": {"type": "Point", "coordinates": [2.323756, 48.843586]}, "properties": {"numparc": 5696, "etat de la localisation": "autre", "ID BDGEO": "23", "horodatage": "2023-02-08 08:54:54", "distance (en metres)": 73.45, "station": "MONTPARNASSE-RUE DU DEPART", "marker-color": "#818181"}}, {"type": "Feature", "geometry": {"type": "Point", "coordinates": [2.334239, 48.840488]}, "properties": {"numparc": 5696, "etat de la localisation": "autre", "ID BDGEO": "20", "horodatage": "2023-02-08 09:00:29", "distance (en metres)": 85.78, "station": "CAMPAGNE PREMIERE", "marker-color": "#818181"}}, {"type": "Feature", "geometry": {"type": "Point", "coordinates": [2.340066, 48.838722]}, "properties": {"numparc": 5696, "etat de la localisation": "autre", "ID BDGEO": "18", "horodatage": "2023-02-08 09:04:14", "distance (en metres)": 81.88, "station": "PORT ROYAL-SAINT JACQUES", "marker-color": "#818181"}}, {"type": "Feature", "geometry": {"type": "Point", "coordinates": [2.346131, 48.837551]}, "properties": {"numparc": 5696, "etat de la localisation": "autre", "ID BDGEO": "17", "horodatage": "2023-02-08 09:06:14", "distance (en metres)": 87.38, "station": "PORT ROYAL-BERTHOLLET", "marker-color": "#818181"}}, {"type": "Feature", "geometry": {"type": "Point", "coordinates": [2.352683, 48.836998]}, "properties": {"numparc": 5696, "etat de la localisation": "autre", "ID BDGEO": "16", "horodatage": "2023-02-08 09:08:22", "distance (en metres)": 40.82, "station": "LES GOBELINS", "marker-color": "#818181"}}, {"type": "Feature", "geometry": {"type": "Point", "coordinates": [2.363881, 48.842583]}, "properties": {"numparc": 5696, "etat de la localisation": "autre", "ID BDGEO": "13", "horodatage": "2023-02-08 09:16:05", "distance (en metres)": 105.37, "station": "GARE D'AUSTERLITZ", "marker-color": "#818181"}}, {"type": "Feature", "geometry": {"type": "Point", "coordinates": [2.333224, 48.840813]}, "properties": {"numparc": 5689, "etat de la localisation": "autre", "ID BDGEO": "19", "horodatage": "2023-02-08 09:18:03", "distance (en metres)": 302.87, "station": "OBSERVATOIRE-PORT ROYAL", "marker-color": "#818181"}}, {"type": "Feature", "geometry": {"type": "Point", "coordinates": [2.328981, 48.842239]}, "properties": {"numparc": 5689, "etat de la localisation": "autre", "ID BDGEO": "19", "horodatage": "2023-02-08 09:19:35", "distance (en metres)": 651.57, "station": "OBSERVATOIRE-PORT ROYAL", "marker-color": "#818181"}}, {"type": "Feature", "geometry": {"type": "Point", "coordinates": [2.372241, 48.844219]}, "properties": {"numparc": 5696, "etat de la localisation": "Deviation programmee", "ID BDGEO": "11", "horodatage": "2023-02-08 09:19:39", "distance (en metres)": 157.99, "station": "GARE DE LYON-DIDEROT", "marker-color": "#56FF93"}}, {"type": "Feature", "geometry": {"type": "Point", "coordinates": [2.324694, 48.843647]}, "properties": {"numparc": 5689, "etat de la localisation": "autre", "ID BDGEO": "19", "horodatage": "2023-02-08 09:21:14", "distance (en metres)": 1002.16, "station": "OBSERVATOIRE-PORT ROYAL", "marker-color": "#818181"}}, {"type": "Feature", "geometry": {"type": "Point", "coordinates": [2.323739, 48.843037]}, "properties": {"numparc": 5689, "etat de la localisation": "autre", "ID BDGEO": "19", "horodatage": "2023-02-08 09:22:57", "distance (en metres)": 1038.19, "station": "OBSERVATOIRE-PORT ROYAL", "marker-color": "#818181"}}, {"type": "Feature", "geometry": {"type": "Point", "coordinates": [2.373656, 48.845867]}, "properties": {"numparc": 5696, "etat de la localisation": "Delocalise", "ID BDGEO": "11", "horodatage": "2023-02-08 09:23:59", "distance (en metres)": 167.76, "station": "GARE DE LYON-DIDEROT", "marker-color": "#FF565E"}}, {"type": "Feature", "geometry": {"type": "Point", "coordinates": [2.373656, 48.845867]}, "properties": {"numparc": 5696, "etat de la localisation": "Delocalise", "ID BDGEO": "11", "horodatage": "2023-02-08 09:24:12", "distance (en metres)": 167.76, "station": "GARE DE LYON-DIDEROT", "marker-color": "#FF565E"}}, {"type": "Feature", "geometry": {"type": "Point", "coordinates": [2.321673, 48.841396]}, "properties": {"numparc": 5689, "etat de la localisation": "autre", "ID BDGEO": "19", "horodatage": "2023-02-08 09:24:32", "distance (en metres)": 1134.19, "station": "OBSERVATOIRE-PORT ROYAL", "marker-color": "#818181"}}, {"type": "Feature", "geometry": {"type": "Point", "coordinates": [2.372034, 48.84639]}, "properties": {"numparc": 5696, "etat de la localisation": "Delocalise", "ID BDGEO": "11", "horodatage": "2023-02-08 09:37:34", "distance (en metres)": 105.29, "station": "GARE DE LYON-DIDEROT", "marker-color": "#FF565E"}}, {"type": "Feature", "geometry": {"type": "Point", "coordinates": [2.372034, 48.84639]}, "properties": {"numparc": 5696, "etat de la localisation": "Delocalise", "ID BDGEO": "11", "horodatage": "2023-02-08 09:39:37", "distance (en metres)": 105.29, "station": "GARE DE LYON-DIDEROT", "marker-color": "#FF565E"}}, {"type": "Feature", "geometry": {"type": "Point", "coordinates": [2.33323, 48.840836]}, "properties": {"numparc": 5696, "etat de la localisation": "autre", "ID BDGEO": "19", "horodatage": "2023-02-08 10:08:23", "distance (en metres)": 303.63, "station": "OBSERVATOIRE-PORT ROYAL", "marker-color": "#818181"}}, {"type": "Feature", "geometry": {"type": "Point", "coordinates": [2.32898, 48.842262]}, "properties": {"numparc": 5696, "etat de la localisation": "autre", "ID BDGEO": "19", "horodatage": "2023-02-08 10:10:12", "distance (en metres)": 652.78, "station": "OBSERVATOIRE-PORT ROYAL", "marker-color": "#818181"}}, {"type": "Feature", "geometry": {"type": "Point", "coordinates": [2.324573, 48.843689]}, "properties": {"numparc": 5696, "etat de la localisation": "autre", "ID BDGEO": "19", "horodatage": "2023-02-08 10:11:50", "distance (en metres)": 1012.16, "station": "OBSERVATOIRE-PORT ROYAL", "marker-color": "#818181"}}, {"type": "Feature", "geometry": {"type": "Point", "coordinates": [2.324573, 48.843689]}, "properties": {"numparc": 5696, "etat de la localisation": "autre", "ID BDGEO": "19", "horodatage": "2023-02-08 10:12:17", "distance (en metres)": 1012.16, "station": "OBSERVATOIRE-PORT ROYAL", "marker-color": "#818181"}}, {"type": "Feature", "geometry": {"type": "Point", "coordinates": [2.323645, 48.842983]}, "properties": {"numparc": 5696, "etat de la localisation": "autre", "ID BDGEO": "19", "horodatage": "2023-02-08 10:13:34", "distance (en metres)": 1042.43, "station": "OBSERVATOIRE-PORT ROYAL", "marker-color": "#818181"}}, {"type": "Feature", "geometry": {"type": "Point", "coordinates": [2.321566, 48.841305]}, "properties": {"numparc": 5696, "etat de la localisation": "autre", "ID BDGEO": "19", "horodatage": "2023-02-08 10:14:25", "distance (en metres)": 1140.15, "station": "OBSERVATOIRE-PORT ROYAL", "marker-color": "#818181"}}, {"type": "Feature", "geometry": {"type": "Point", "coordinates": [2.319027, 48.837833]}, "properties": {"numparc": 5696, "etat de la localisation": "autre", "ID BDGEO": "19", "horodatage": "2023-02-08 10:16:44", "distance (en metres)": 1324.71, "station": "OBSERVATOIRE-PORT ROYAL", "marker-color": "#818181"}}, {"type": "Feature", "geometry": {"type": "Point", "coordinates": [2.371539, 48.814377]}, "properties": {"numparc": 5702, "etat de la localisation": "autre", "ID BDGEO": "7", "horodatage": "2023-02-08 17:59:51", "distance (en metres)": 44.57, "station": "CENTRE BUS D'IVRY-SORTIE", "marker-color": "#818181"}}, {"type": "Feature", "geometry": {"type": "Point", "coordinates": [2.35341, 48.834652]}, "properties": {"numparc": 5702, "etat de la localisation": "autre", "ID BDGEO": "45", "horodatage": "2023-02-08 18:21:00", "distance (en metres)": 266.08, "station": "LES GOBELINS#", "marker-color": "#818181"}}, {"type": "Feature", "geometry": {"type": "Point", "coordinates": [2.372248, 48.844238]}, "properties": {"numparc": 5702, "etat de la localisation": "Delocalise", "ID BDGEO": "11", "horodatage": "2023-02-08 18:36:14", "distance (en metres)": 156.22, "station": "GARE DE LYON-DIDEROT", "marker-color": "#FF565E"}}, {"type": "Feature", "geometry": {"type": "Point", "coordinates": [2.354146, 48.878906]}, "properties": {"numparc": 5689, "etat de la localisation": "autre", "ID BDGEO": "51", "horodatage": "2023-02-08 18:36:29", "distance (en metres)": 5221.83, "station": "MONTPARNASSE 2-GARE TGV#", "marker-color": "#818181"}}, {"type": "Feature", "geometry": {"type": "Point", "coordinates": [2.372271, 48.844254]}, "properties": {"numparc": 5702, "etat de la localisation": "Delocalise", "ID BDGEO": "11", "horodatage": "2023-02-08 18:36:48", "distance (en metres)": 155.33, "station": "GARE DE LYON-DIDEROT", "marker-color": "#FF565E"}}, {"type": "Feature", "geometry": {"type": "Point", "coordinates": [2.373258, 48.845882]}, "properties": {"numparc": 5702, "etat de la localisation": "autre", "ID BDGEO": "11", "horodatage": "2023-02-08 18:39:14", "distance (en metres)": 139.98, "station": "GARE DE LYON-DIDEROT", "marker-color": "#818181"}}, {"type": "Feature", "geometry": {"type": "Point", "coordinates": [2.3332, 48.84082]}, "properties": {"numparc": 5702, "etat de la localisation": "autre", "ID BDGEO": "19", "horodatage": "2023-02-08 19:13:38", "distance (en metres)": 304.83, "station": "OBSERVATOIRE-PORT ROYAL", "marker-color": "#818181"}}, {"type": "Feature", "geometry": {"type": "Point", "coordinates": [2.328957, 48.842247]}, "properties": {"numparc": 5702, "etat de la localisation": "autre", "ID BDGEO": "19", "horodatage": "2023-02-08 19:15:45", "distance (en metres)": 653.5, "station": "OBSERVATOIRE-PORT ROYAL", "marker-color": "#818181"}}, {"type": "Feature", "geometry": {"type": "Point", "coordinates": [2.324629, 48.843674]}, "properties": {"numparc": 5702, "etat de la localisation": "autre", "ID BDGEO": "19", "horodatage": "2023-02-08 19:17:35", "distance (en metres)": 1007.74, "station": "OBSERVATOIRE-PORT ROYAL", "marker-color": "#818181"}}, {"type": "Feature", "geometry": {"type": "Point", "coordinates": [2.323626, 48.84293]}, "properties": {"numparc": 5702, "etat de la localisation": "autre", "ID BDGEO": "19", "horodatage": "2023-02-08 19:19:19", "distance (en metres)": 1041.6, "station": "OBSERVATOIRE-PORT ROYAL", "marker-color": "#818181"}}, {"type": "Feature", "geometry": {"type": "Point", "coordinates": [2.321535, 48.841228]}, "properties": {"numparc": 5702, "etat de la localisation": "autre", "ID BDGEO": "19", "horodatage": "2023-02-08 19:20:21", "distance (en metres)": 1141.01, "station": "OBSERVATOIRE-PORT ROYAL", "marker-color": "#818181"}}, {"type": "Feature", "geometry": {"type": "Point", "coordinates": [2.319023, 48.837837]}, "properties": {"numparc": 5702, "etat de la localisation": "autre", "ID BDGEO": "19", "horodatage": "2023-02-08 19:22:06", "distance (en metres)": 1324.94, "station": "OBSERVATOIRE-PORT ROYAL", "marker-color": "#818181"}}, {"type": "Feature", "geometry": {"type": "Point", "coordinates": [2.372091, 48.844109]}, "properties": {"numparc": 5692, "etat de la localisation": "Deviation programmee", "ID BDGEO": "40", "horodatage": "2023-02-08 20:21:03", "distance (en metres)": 164.44, "station": "GARE DE LYON-DIDEROT", "marker-color": "#56FF93"}}, {"type": "Feature", "geometry": {"type": "Point", "coordinates": [2.371041, 48.848831]}, "properties": {"numparc": 5692, "etat de la localisation": "autre", "ID BDGEO": "74", "horodatage": "2023-02-08 20:24:02", "distance (en metres)": 42.61, "station": "LYON-LEDRU ROLLIN", "marker-color": "#818181"}}, {"type": "Feature", "geometry": {"type": "Point", "coordinates": [2.37201, 48.814125]}, "properties": {"numparc": 5702, "etat de la localisation": "autre", "ID BDGEO": "44", "horodatage": "2023-02-09 00:05:51", "distance (en metres)": 2924.2, "station": "LES GOBELINS.", "marker-color": "#818181"}}, {"type": "Feature", "geometry": {"type": "Point", "coordinates": [2.354233, 48.878967]}, "properties": {"numparc": 5696, "etat de la localisation": "autre", "ID BDGEO": "22", "horodatage": "2023-02-09 00:18:03", "distance (en metres)": 4486.66, "station": "MONTPARNASSE-CINEMAS", "marker-color": "#818181"}}, {"type": "Feature", "geometry": {"type": "Point", "coordinates": [2.35577, 48.879177]}, "properties": {"numparc": 5696, "etat de la localisation": "autre", "ID BDGEO": "21", "horodatage": "2023-02-09 00:19:29", "distance (en metres)": 4555.67, "station": "VAVIN", "marker-color": "#818181"}}, {"type": "Feature", "geometry": {"type": "Point", "coordinates": [2.35577, 48.879177]}, "properties": {"numparc": 5696, "etat de la localisation": "autre", "ID BDGEO": "21", "horodatage": "2023-02-09 00:29:29", "distance (en metres)": 4555.67, "station": "VAVIN", "marker-color": "#818181"}}, {"type": "Feature", "geometry": {"type": "Point", "coordinates": [2.358952, 48.876022]}, "properties": {"numparc": 5696, "etat de la localisation": "autre", "ID BDGEO": "20", "horodatage": "2023-02-09 00:32:25", "distance (en metres)": 4349.12, "station": "CAMPAGNE PREMIERE", "marker-color": "#818181"}}, {"type": "Feature", "geometry": {"type": "Point", "coordinates": [2.36237, 48.86919]}, "properties": {"numparc": 5696, "etat de la localisation": "autre", "ID BDGEO": "58", "horodatage": "2023-02-09 00:36:59", "distance (en metres)": 3662.28, "station": "LES GOBELINS.", "marker-color": "#818181"}}, {"type": "Feature", "geometry": {"type": "Point", "coordinates": [2.367435, 48.859901]}, "properties": {"numparc": 5696, "etat de la localisation": "autre", "ID BDGEO": "58", "horodatage": "2023-02-09 00:41:20", "distance (en metres)": 2798.02, "station": "LES GOBELINS.", "marker-color": "#818181"}}, {"type": "Feature", "geometry": {"type": "Point", "coordinates": [2.369812, 48.851547]}, "properties": {"numparc": 5696, "etat de la localisation": "autre", "ID BDGEO": "58", "horodatage": "2023-02-09 00:46:01", "distance (en metres)": 2100.01, "station": "LES GOBELINS.", "marker-color": "#818181"}}, {"type": "Feature", "geometry": {"type": "Point", "coordinates": [2.369812, 48.851547]}, "properties": {"numparc": 5696, "etat de la localisation": "autre", "ID BDGEO": "58", "horodatage": "2023-02-09 00:46:06", "distance (en metres)": 2100.01, "station": "LES GOBELINS.", "marker-color": "#818181"}}, {"type": "Feature", "geometry": {"type": "Point", "coordinates": [2.371513, 48.845627]}, "properties": {"numparc": 5696, "etat de la localisation": "autre", "ID BDGEO": "58", "horodatage": "2023-02-09 00:48:28", "distance (en metres)": 1752.8, "station": "LES GOBELINS.", "marker-color": "#818181"}}, {"type": "Feature", "geometry": {"type": "Point", "coordinates": [2.364255, 48.84338]}, "properties": {"numparc": 5696, "etat de la localisation": "autre", "ID BDGEO": "58", "horodatage": "2023-02-09 00:51:21", "distance (en metres)": 1173.89, "station": "LES GOBELINS.", "marker-color": "#818181"}}, {"type": "Feature", "geometry": {"type": "Point", "coordinates": [2.356301, 48.838192]}, "properties": {"numparc": 5696, "etat de la localisation": "autre", "ID BDGEO": "58", "horodatage": "2023-02-09 00:55:45", "distance (en metres)": 379.41, "station": "LES GOBELINS.", "marker-color": "#818181"}}, {"type": "Feature", "geometry": {"type": "Point", "coordinates": [2.371933, 48.814171]}, "properties": {"numparc": 5696, "etat de la localisation": "autre", "ID BDGEO": "11", "horodatage": "2023-02-09 01:11:07", "distance (en metres)": 3487.56, "station": "GARE DE LYON-DIDEROT", "marker-color": "#818181"}}, {"type": "Feature", "geometry": {"type": "Point", "coordinates": [2.371971, 48.814095]}, "properties": {"station": "CENTRE BUS D'IVRY-SORTIE", "ID BDGEO": "7", "marker-color": "#56B3FF"}}, {"type": "Feature", "geometry": {"type": "Point", "coordinates": [2.35234, 48.836954]}, "properties": {"station": "LES GOBELINS#", "ID BDGEO": "6", "marker-color": "#56B3FF"}}, {"type": "Feature", "geometry": {"type": "Point", "coordinates": [2.351482, 48.836685]}, "properties": {"station": "LES GOBELINS.", "ID BDGEO": "44", "marker-color": "#56B3FF"}}, {"type": "Feature", "geometry": {"type": "Point", "coordinates": [2.321868, 48.841439]}, "properties": {"station": "GARE MONTPARNASSE", "ID BDGEO": "24", "marker-color": "#56B3FF"}}, {"type": "Feature", "geometry": {"type": "Point", "coordinates": [2.323625, 48.842931]}, "properties": {"station": "MONTPARNASSE-RUE DU DEPART", "ID BDGEO": "23", "marker-color": "#56B3FF"}}, {"type": "Feature", "geometry": {"type": "Point", "coordinates": [2.333156, 48.840784]}, "properties": {"station": "CAMPAGNE PREMIERE", "ID BDGEO": "20", "marker-color": "#56B3FF"}}, {"type": "Feature", "geometry": {"type": "Point", "coordinates": [2.339038, 48.839013]}, "properties": {"station": "PORT ROYAL-SAINT JACQUES", "ID BDGEO": "18", "marker-color": "#56B3FF"}}, {"type": "Feature", "geometry": {"type": "Point", "coordinates": [2.344974, 48.837746]}, "properties": {"station": "PORT ROYAL-BERTHOLLET", "ID BDGEO": "17", "marker-color": "#56B3FF"}}, {"type": "Feature", "geometry": {"type": "Point", "coordinates": [2.352149, 48.836891]}, "properties": {"station": "LES GOBELINS", "ID BDGEO": "16", "marker-color": "#56B3FF"}}, {"type": "Feature", "geometry": {"type": "Point", "coordinates": [2.36427, 48.843495]}, "properties": {"station": "GARE D'AUSTERLITZ", "ID BDGEO": "13", "marker-color": "#56B3FF"}}, {"type": "Feature", "geometry": {"type": "Point", "coordinates": [2.37142, 48.845533]}, "properties": {"station": "GARE DE LYON-DIDEROT", "ID BDGEO": "11", "marker-color": "#56B3FF"}}, {"type": "Feature", "geometry": {"type": "Point", "coordinates": [2.336928, 48.839598]}, "properties": {"station": "OBSERVATOIRE-PORT ROYAL", "ID BDGEO": "19", "marker-color": "#56B3FF"}}, {"type": "Feature", "geometry": {"type": "Point", "coordinates": [2.352204, 48.836909]}, "properties": {"station": "LES GOBELINS#", "ID BDGEO": "45", "marker-color": "#56B3FF"}}, {"type": "Feature", "geometry": {"type": "Point", "coordinates": [2.316845, 48.838868]}, "properties": {"station": "MONTPARNASSE 2-GARE TGV#", "ID BDGEO": "51", "marker-color": "#56B3FF"}}, {"type": "Feature", "geometry": {"type": "Point", "coordinates": [2.371597, 48.845551]}, "properties": {"station": "GARE DE LYON-DIDEROT", "ID BDGEO": "40", "marker-color": "#56B3FF"}}, {"type": "Feature", "geometry": {"type": "Point", "coordinates": [2.371204, 48.848463]}, "properties": {"station": "LYON-LEDRU ROLLIN", "ID BDGEO": "74", "marker-color": "#56B3FF"}}, {"type": "Feature", "geometry": {"type": "Point", "coordinates": [2.325122, 48.843453]}, "properties": {"station": "MONTPARNASSE-CINEMAS", "ID BDGEO": "22", "marker-color": "#56B3FF"}}, {"type": "Feature", "geometry": {"type": "Point", "coordinates": [2.328772, 48.842258]}, "properties": {"station": "VAVIN", "ID BDGEO": "21", "marker-color": "#56B3FF"}}, {"type": "Feature", "geometry": {"type": "Point", "coordinates": [2.351414, 48.837053]}, "properties": {"station": "LES GOBELINS.", "ID BDGEO": "58", "marker-color": "#56B3FF"}}]}