{"type": "FeatureCollection", "features": [{"type": "Feature", "geometry": {"type": "Point", "coordinates": [2.329461, 48.823421]}, "properties": {"numparc": 1451, "etat de la localisation": "autre", "ID BDGEO": "5391", "horodatage": "2022-11-22 08:37:42", "distance (en metres)": 1133.64, "station": "DENFERT ROCHEREAU", "marker-color": "#818181"}}, {"type": "Feature", "geometry": {"type": "Point", "coordinates": [2.341436, 48.834545]}, "properties": {"numparc": 1412, "etat de la localisation": "autre", "ID BDGEO": "5406", "horodatage": "2022-11-22 09:01:02", "distance (en metres)": 49.68, "station": "ARAGO - SANTE", "marker-color": "#818181"}}, {"type": "Feature", "geometry": {"type": "Point", "coordinates": [2.327357, 48.823765]}, "properties": {"numparc": 1381, "etat de la localisation": "autre", "ID BDGEO": "5429", "horodatage": "2022-11-22 09:32:00", "distance (en metres)": 198.71, "station": "MONTROUGE SORTIE#", "marker-color": "#818181"}}, {"type": "Feature", "geometry": {"type": "Point", "coordinates": [2.316752, 48.833324]}, "properties": {"numparc": 1412, "etat de la localisation": "autre", "ID BDGEO": "5387", "horodatage": "2022-11-22 09:40:06", "distance (en metres)": 97.53, "station": "PERNETY", "marker-color": "#818181"}}, {"type": "Feature", "geometry": {"type": "Point", "coordinates": [2.332972, 48.833332]}, "properties": {"numparc": 1412, "etat de la localisation": "autre", "ID BDGEO": "5391", "horodatage": "2022-11-22 09:56:00", "distance (en metres)": 43.71, "station": "DENFERT ROCHEREAU", "marker-color": "#818181"}}, {"type": "Feature", "geometry": {"type": "Point", "coordinates": [2.327348, 48.823772]}, "properties": {"numparc": 1381, "etat de la localisation": "autre", "ID BDGEO": "5429", "horodatage": "2022-11-22 11:13:58", "distance (en metres)": 199.56, "station": "MONTROUGE SORTIE#", "marker-color": "#818181"}}, {"type": "Feature", "geometry": {"type": "Point", "coordinates": [2.327348, 48.823772]}, "properties": {"numparc": 1381, "etat de la localisation": "autre", "ID BDGEO": "5429", "horodatage": "2022-11-22 11:14:31", "distance (en metres)": 199.56, "station": "MONTROUGE SORTIE#", "marker-color": "#818181"}}, {"type": "Feature", "geometry": {"type": "Point", "coordinates": [2.328417, 48.823547]}, "properties": {"numparc": 1418, "etat de la localisation": "autre", "ID BDGEO": "5429", "horodatage": "2022-11-22 11:42:04", "distance (en metres)": 117.61, "station": "MONTROUGE SORTIE#", "marker-color": "#818181"}}, {"type": "Feature", "geometry": {"type": "Point", "coordinates": [2.326762, 48.82325]}, "properties": {"numparc": 1418, "etat de la localisation": "autre", "ID BDGEO": "5429", "horodatage": "2022-11-22 11:50:38", "distance (en metres)": 236.18, "station": "MONTROUGE SORTIE#", "marker-color": "#818181"}}, {"type": "Feature", "geometry": {"type": "Point", "coordinates": [2.329751, 48.823048]}, "properties": {"numparc": 1412, "etat de la localisation": "autre", "ID BDGEO": "5391", "horodatage": "2022-11-22 12:24:14", "distance (en metres)": 1170.79, "station": "DENFERT ROCHEREAU", "marker-color": "#818181"}}, {"type": "Feature", "geometry": {"type": "Point", "coordinates": [2.327603, 48.823612]}, "properties": {"numparc": 1381, "etat de la localisation": "autre", "ID BDGEO": "5429", "horodatage": "2022-11-22 13:01:17", "distance (en metres)": 177.45, "station": "MONTROUGE SORTIE#", "marker-color": "#818181"}}, {"type": "Feature", "geometry": {"type": "Point", "coordinates": [2.329751, 48.823048]}, "properties": {"numparc": 1412, "etat de la localisation": "autre", "ID BDGEO": "5391", "horodatage": "2022-11-22 14:24:52", "distance (en metres)": 1170.79, "station": "DENFERT ROCHEREAU", "marker-color": "#818181"}}, {"type": "Feature", "geometry": {"type": "Point", "coordinates": [2.328186, 48.82357]}, "properties": {"numparc": 1412, "etat de la localisation": "autre", "ID BDGEO": "5391", "horodatage": "2022-11-22 14:34:17", "distance (en metres)": 1139.03, "station": "DENFERT ROCHEREAU", "marker-color": "#818181"}}, {"type": "Feature", "geometry": {"type": "Point", "coordinates": [2.328186, 48.82357]}, "properties": {"numparc": 1412, "etat de la localisation": "autre", "ID BDGEO": "5391", "horodatage": "2022-11-22 14:51:25", "distance (en metres)": 1139.03, "station": "DENFERT ROCHEREAU", "marker-color": "#818181"}}, {"type": "Feature", "geometry": {"type": "Point", "coordinates": [2.286593, 48.818707]}, "properties": {"numparc": 1378, "etat de la localisation": "Delocalise", "ID BDGEO": "5379", "horodatage": "2022-11-22 18:29:33", "distance (en metres)": 67.44, "station": "DIDEROT", "marker-color": "#FF565E"}}, {"type": "Feature", "geometry": {"type": "Point", "coordinates": [2.275908, 48.81599]}, "properties": {"numparc": 1378, "etat de la localisation": "Delocalise", "ID BDGEO": "5376", "horodatage": "2022-11-22 18:34:05", "distance (en metres)": 60.27, "station": "CLOS MONTHOLON - LARMEROUX", "marker-color": "#FF565E"}}, {"type": "Feature", "geometry": {"type": "Point", "coordinates": [2.272207, 48.814907]}, "properties": {"numparc": 1378, "etat de la localisation": "Delocalise", "ID BDGEO": "5375", "horodatage": "2022-11-22 18:35:57", "distance (en metres)": 48.54, "station": "GARE DE CLAMART", "marker-color": "#FF565E"}}, {"type": "Feature", "geometry": {"type": "Point", "coordinates": [2.330513, 48.823441]}, "properties": {"numparc": 1378, "etat de la localisation": "Delocalise", "ID BDGEO": "5391", "horodatage": "2022-11-22 19:02:00", "distance (en metres)": 1119.5, "station": "DENFERT ROCHEREAU", "marker-color": "#FF565E"}}, {"type": "Feature", "geometry": {"type": "Point", "coordinates": [2.33027, 48.82304]}, "properties": {"numparc": 1378, "etat de la localisation": "Delocalise", "ID BDGEO": "5391", "horodatage": "2022-11-22 19:07:08", "distance (en metres)": 1165.95, "station": "DENFERT ROCHEREAU", "marker-color": "#FF565E"}}, {"type": "Feature", "geometry": {"type": "Point", "coordinates": [2.33027, 48.82304]}, "properties": {"numparc": 1378, "etat de la localisation": "autre", "ID BDGEO": "5391", "horodatage": "2022-11-22 19:21:27", "distance (en metres)": 1165.95, "station": "DENFERT ROCHEREAU", "marker-color": "#818181"}}, {"type": "Feature", "geometry": {"type": "Point", "coordinates": [2.327906, 48.823742]}, "properties": {"numparc": 1413, "etat de la localisation": "autre", "ID BDGEO": "5426", "horodatage": "2022-11-23 00:47:24", "distance (en metres)": 192.21, "station": "MONTROUGE RENTREE#", "marker-color": "#818181"}}, {"type": "Feature", "geometry": {"type": "Point", "coordinates": [2.327767, 48.823746]}, "properties": {"numparc": 1418, "etat de la localisation": "Delocalise", "ID BDGEO": "5429", "horodatage": "2022-11-23 01:25:42", "distance (en metres)": 169.2, "station": "MONTROUGE SORTIE#", "marker-color": "#FF565E"}}, {"type": "Feature", "geometry": {"type": "Point", "coordinates": [2.329472, 48.822884]}, "properties": {"numparc": 1418, "etat de la localisation": "Delocalise", "ID BDGEO": "5429", "horodatage": "2022-11-23 01:30:34", "distance (en metres)": 61.48, "station": "MONTROUGE SORTIE#", "marker-color": "#FF565E"}}, {"type": "Feature", "geometry": {"type": "Point", "coordinates": [2.329472, 48.822884]}, "properties": {"numparc": 1418, "etat de la localisation": "autre", "ID BDGEO": "5429", "horodatage": "2022-11-23 01:32:32", "distance (en metres)": 61.48, "station": "MONTROUGE SORTIE#", "marker-color": "#818181"}}, {"type": "Feature", "geometry": {"type": "Point", "coordinates": [2.329488, 48.822884]}, "properties": {"numparc": 1418, "etat de la localisation": "autre", "ID BDGEO": "5429", "horodatage": "2022-11-23 01:34:04", "distance (en metres)": 60.77, "station": "MONTROUGE SORTIE#", "marker-color": "#818181"}}, {"type": "Feature", "geometry": {"type": "Point", "coordinates": [2.332394, 48.833432]}, "properties": {"station": "DENFERT ROCHEREAU", "ID BDGEO": "5391", "marker-color": "#56B3FF"}}, {"type": "Feature", "geometry": {"type": "Point", "coordinates": [2.340835, 48.834753]}, "properties": {"station": "ARAGO - SANTE", "ID BDGEO": "5406", "marker-color": "#56B3FF"}}, {"type": "Feature", "geometry": {"type": "Point", "coordinates": [2.329986, 48.823321]}, "properties": {"station": "MONTROUGE SORTIE#", "ID BDGEO": "5429", "marker-color": "#56B3FF"}}, {"type": "Feature", "geometry": {"type": "Point", "coordinates": [2.317855, 48.833817]}, "properties": {"station": "PERNETY", "ID BDGEO": "5387", "marker-color": "#56B3FF"}}, {"type": "Feature", "geometry": {"type": "Point", "coordinates": [2.287332, 48.819068]}, "properties": {"station": "DIDEROT", "ID BDGEO": "5379", "marker-color": "#56B3FF"}}, {"type": "Feature", "geometry": {"type": "Point", "coordinates": [2.276557, 48.815657]}, "properties": {"station": "CLOS MONTHOLON - LARMEROUX", "ID BDGEO": "5376", "marker-color": "#56B3FF"}}, {"type": "Feature", "geometry": {"type": "Point", "coordinates": [2.27287, 48.814918]}, "properties": {"station": "GARE DE CLAMART", "ID BDGEO": "5375", "marker-color": "#56B3FF"}}, {"type": "Feature", "geometry": {"type": "Point", "coordinates": [2.329959, 48.822665]}, "properties": {"station": "MONTROUGE RENTREE#", "ID BDGEO": "5426", "marker-color": "#56B3FF"}}]}