{"type": "FeatureCollection", "features": [{"type": "Feature", "geometry": {"type": "Point", "coordinates": [2.387883, 48.755909]}, "properties": {"etat de la localisation": "Delocalise", "numparc": 5918, "duree": "00:08:11", "horodatage": "2022-05-17 05:24:00", "marker-color": "#FF565E"}}, {"type": "Feature", "geometry": {"type": "Point", "coordinates": [2.387886, 48.75589]}, "properties": {"etat de la localisation": "Delocalise", "numparc": 5911, "duree": "00:03:34", "horodatage": "2022-05-17 05:34:52", "marker-color": "#FF565E"}}, {"type": "Feature", "geometry": {"type": "Point", "coordinates": [2.365044, 48.759441]}, "properties": {"etat de la localisation": "Delocalise", "numparc": 5911, "duree": "00:16:15", "horodatage": "2022-05-17 06:03:08", "marker-color": "#FF565E"}}, {"type": "Feature", "geometry": {"type": "Point", "coordinates": [2.387828, 48.756008]}, "properties": {"etat de la localisation": "Delocalise", "numparc": 5910, "duree": "00:08:52", "horodatage": "2022-05-17 06:13:47", "marker-color": "#FF565E"}}, {"type": "Feature", "geometry": {"type": "Point", "coordinates": [2.364259, 48.759441]}, "properties": {"etat de la localisation": "Delocalise", "numparc": 5910, "duree": "00:05:29", "horodatage": "2022-05-17 06:26:20", "marker-color": "#FF565E"}}, {"type": "Feature", "geometry": {"type": "Point", "coordinates": [2.315566, 48.779972]}, "properties": {"etat de la localisation": "Deviation programmee", "numparc": 5911, "duree": "", "horodatage": "2022-05-17 06:27:40", "marker-color": "#56FF93"}}, {"type": "Feature", "geometry": {"type": "Point", "coordinates": [2.315566, 48.779991]}, "properties": {"etat de la localisation": "Deviation programmee", "numparc": 5910, "duree": "", "horodatage": "2022-05-17 06:48:19", "marker-color": "#56FF93"}}, {"type": "Feature", "geometry": {"type": "Point", "coordinates": [2.387931, 48.756065]}, "properties": {"etat de la localisation": "Delocalise", "numparc": 5794, "duree": "00:07:42", "horodatage": "2022-05-17 06:49:17", "marker-color": "#FF565E"}}, {"type": "Feature", "geometry": {"type": "Point", "coordinates": [2.38795, 48.756035]}, "properties": {"etat de la localisation": "Delocalise", "numparc": 5913, "duree": "00:12:19", "horodatage": "2022-05-17 06:56:46", "marker-color": "#FF565E"}}, {"type": "Feature", "geometry": {"type": "Point", "coordinates": [2.387982, 48.75592]}, "properties": {"etat de la localisation": "Delocalise", "numparc": 5912, "duree": "00:15:58", "horodatage": "2022-05-17 07:10:01", "marker-color": "#FF565E"}}, {"type": "Feature", "geometry": {"type": "Point", "coordinates": [2.387979, 48.756004]}, "properties": {"etat de la localisation": "Delocalise", "numparc": 5923, "duree": "00:10:34", "horodatage": "2022-05-17 07:10:38", "marker-color": "#FF565E"}}, {"type": "Feature", "geometry": {"type": "Point", "coordinates": [2.364302, 48.759422]}, "properties": {"etat de la localisation": "Delocalise", "numparc": 5794, "duree": "00:01:32", "horodatage": "2022-05-17 07:10:40", "marker-color": "#FF565E"}}, {"type": "Feature", "geometry": {"type": "Point", "coordinates": [2.364828, 48.759438]}, "properties": {"etat de la localisation": "Delocalise", "numparc": 5918, "duree": "00:05:56", "horodatage": "2022-05-17 07:20:33", "marker-color": "#FF565E"}}, {"type": "Feature", "geometry": {"type": "Point", "coordinates": [2.361705, 48.771145]}, "properties": {"etat de la localisation": "Delocalise", "numparc": 5918, "duree": "00:02:59", "horodatage": "2022-05-17 07:27:39", "marker-color": "#FF565E"}}, {"type": "Feature", "geometry": {"type": "Point", "coordinates": [2.352887, 48.770634]}, "properties": {"etat de la localisation": "Delocalise", "numparc": 5918, "duree": "00:02:43", "horodatage": "2022-05-17 07:31:03", "marker-color": "#FF565E"}}, {"type": "Feature", "geometry": {"type": "Point", "coordinates": [2.346888, 48.77166]}, "properties": {"etat de la localisation": "Delocalise", "numparc": 5918, "duree": "00:00:53", "horodatage": "2022-05-17 07:34:22", "marker-color": "#FF565E"}}, {"type": "Feature", "geometry": {"type": "Point", "coordinates": [2.340794, 48.772686]}, "properties": {"etat de la localisation": "Delocalise", "numparc": 5918, "duree": "00:00:16", "horodatage": "2022-05-17 07:35:44", "marker-color": "#FF565E"}}, {"type": "Feature", "geometry": {"type": "Point", "coordinates": [2.339734, 48.774128]}, "properties": {"etat de la localisation": "Delocalise", "numparc": 5918, "duree": "00:00:28", "horodatage": "2022-05-17 07:37:50", "marker-color": "#FF565E"}}, {"type": "Feature", "geometry": {"type": "Point", "coordinates": [2.340497, 48.777779]}, "properties": {"etat de la localisation": "Delocalise", "numparc": 5918, "duree": "00:04:26", "horodatage": "2022-05-17 07:38:59", "marker-color": "#FF565E"}}, {"type": "Feature", "geometry": {"type": "Point", "coordinates": [2.315541, 48.780014]}, "properties": {"etat de la localisation": "Deviation programmee", "numparc": 5794, "duree": "", "horodatage": "2022-05-17 07:39:19", "marker-color": "#56FF93"}}, {"type": "Feature", "geometry": {"type": "Point", "coordinates": [2.315586, 48.779953]}, "properties": {"etat de la localisation": "Deviation programmee", "numparc": 5913, "duree": "", "horodatage": "2022-05-17 07:41:00", "marker-color": "#56FF93"}}, {"type": "Feature", "geometry": {"type": "Point", "coordinates": [2.333439, 48.777641]}, "properties": {"etat de la localisation": "Delocalise", "numparc": 5918, "duree": "00:00:34", "horodatage": "2022-05-17 07:43:50", "marker-color": "#FF565E"}}, {"type": "Feature", "geometry": {"type": "Point", "coordinates": [2.328758, 48.775536]}, "properties": {"etat de la localisation": "Delocalise", "numparc": 5918, "duree": "00:00:34", "horodatage": "2022-05-17 07:45:32", "marker-color": "#FF565E"}}, {"type": "Feature", "geometry": {"type": "Point", "coordinates": [2.323374, 48.776787]}, "properties": {"etat de la localisation": "Delocalise", "numparc": 5918, "duree": "00:10:35", "horodatage": "2022-05-17 07:47:09", "marker-color": "#FF565E"}}, {"type": "Feature", "geometry": {"type": "Point", "coordinates": [2.309789, 48.777084]}, "properties": {"etat de la localisation": "Delocalise", "numparc": 5918, "duree": "00:00:50", "horodatage": "2022-05-17 07:58:28", "marker-color": "#FF565E"}}, {"type": "Feature", "geometry": {"type": "Point", "coordinates": [2.304017, 48.778187]}, "properties": {"etat de la localisation": "Delocalise", "numparc": 5918, "duree": "00:00:20", "horodatage": "2022-05-17 07:59:57", "marker-color": "#FF565E"}}, {"type": "Feature", "geometry": {"type": "Point", "coordinates": [2.301829, 48.778564]}, "properties": {"etat de la localisation": "Delocalise", "numparc": 5918, "duree": "00:01:35", "horodatage": "2022-05-17 08:01:43", "marker-color": "#FF565E"}}, {"type": "Feature", "geometry": {"type": "Point", "coordinates": [2.294117, 48.778927]}, "properties": {"etat de la localisation": "Delocalise", "numparc": 5918, "duree": "00:01:49", "horodatage": "2022-05-17 08:04:35", "marker-color": "#FF565E"}}, {"type": "Feature", "geometry": {"type": "Point", "coordinates": [2.315567, 48.779984]}, "properties": {"etat de la localisation": "Deviation programmee", "numparc": 5912, "duree": "", "horodatage": "2022-05-17 08:13:45", "marker-color": "#56FF93"}}, {"type": "Feature", "geometry": {"type": "Point", "coordinates": [2.315532, 48.779987]}, "properties": {"etat de la localisation": "Deviation programmee", "numparc": 5923, "duree": "", "horodatage": "2022-05-17 08:24:15", "marker-color": "#56FF93"}}, {"type": "Feature", "geometry": {"type": "Point", "coordinates": [2.315552, 48.779972]}, "properties": {"etat de la localisation": "Deviation programmee", "numparc": 5907, "duree": "", "horodatage": "2022-05-17 08:25:33", "marker-color": "#56FF93"}}, {"type": "Feature", "geometry": {"type": "Point", "coordinates": [2.315553, 48.779995]}, "properties": {"etat de la localisation": "Deviation programmee", "numparc": 5911, "duree": "", "horodatage": "2022-05-17 08:27:27", "marker-color": "#56FF93"}}, {"type": "Feature", "geometry": {"type": "Point", "coordinates": [2.315522, 48.779987]}, "properties": {"etat de la localisation": "Deviation programmee", "numparc": 5798, "duree": "", "horodatage": "2022-05-17 08:28:56", "marker-color": "#56FF93"}}, {"type": "Feature", "geometry": {"type": "Point", "coordinates": [2.313673, 48.780014]}, "properties": {"etat de la localisation": "Mission suivante non connue", "numparc": 5923, "duree": "", "horodatage": "2022-05-17 08:33:38", "marker-color": "#7156FF"}}, {"type": "Feature", "geometry": {"type": "Point", "coordinates": [2.313588, 48.779491]}, "properties": {"etat de la localisation": "Delocalise", "numparc": 5923, "duree": "00:03:05", "horodatage": "2022-05-17 08:33:47", "marker-color": "#FF565E"}}, {"type": "Feature", "geometry": {"type": "Point", "coordinates": [2.313651, 48.779972]}, "properties": {"etat de la localisation": "Mission suivante non connue", "numparc": 5911, "duree": "", "horodatage": "2022-05-17 08:35:43", "marker-color": "#7156FF"}}, {"type": "Feature", "geometry": {"type": "Point", "coordinates": [2.313571, 48.779469]}, "properties": {"etat de la localisation": "Delocalise", "numparc": 5911, "duree": "00:01:02", "horodatage": "2022-05-17 08:35:50", "marker-color": "#FF565E"}}, {"type": "Feature", "geometry": {"type": "Point", "coordinates": [2.314471, 48.777699]}, "properties": {"etat de la localisation": "Mission inconnue", "numparc": 5923, "duree": "", "horodatage": "2022-05-17 08:36:52", "marker-color": "#FF9F56"}}, {"type": "Feature", "geometry": {"type": "Point", "coordinates": [2.313777, 48.776943]}, "properties": {"etat de la localisation": "Mission inconnue", "numparc": 5911, "duree": "", "horodatage": "2022-05-17 08:36:52", "marker-color": "#FF9F56"}}, {"type": "Feature", "geometry": {"type": "Point", "coordinates": [2.328985, 48.775597]}, "properties": {"etat de la localisation": "Mission inconnue", "numparc": 5923, "duree": "", "horodatage": "2022-05-17 08:48:00", "marker-color": "#FF9F56"}}, {"type": "Feature", "geometry": {"type": "Point", "coordinates": [2.328985, 48.775597]}, "properties": {"etat de la localisation": "Mission inconnue", "numparc": 5923, "duree": "", "horodatage": "2022-05-17 08:48:15", "marker-color": "#FF9F56"}}, {"type": "Feature", "geometry": {"type": "Point", "coordinates": [2.325203, 48.775848]}, "properties": {"etat de la localisation": "Delocalise", "numparc": 5911, "duree": "00:00:29", "horodatage": "2022-05-17 08:49:11", "marker-color": "#FF565E"}}, {"type": "Feature", "geometry": {"type": "Point", "coordinates": [2.333211, 48.777512]}, "properties": {"etat de la localisation": "Delocalise", "numparc": 5923, "duree": "00:00:38", "horodatage": "2022-05-17 08:50:44", "marker-color": "#FF565E"}}, {"type": "Feature", "geometry": {"type": "Point", "coordinates": [2.327767, 48.775333]}, "properties": {"etat de la localisation": "Delocalise", "numparc": 5911, "duree": "00:03:02", "horodatage": "2022-05-17 08:51:49", "marker-color": "#FF565E"}}, {"type": "Feature", "geometry": {"type": "Point", "coordinates": [2.336839, 48.779057]}, "properties": {"etat de la localisation": "Delocalise", "numparc": 5923, "duree": "00:01:24", "horodatage": "2022-05-17 08:52:21", "marker-color": "#FF565E"}}, {"type": "Feature", "geometry": {"type": "Point", "coordinates": [2.340124, 48.777096]}, "properties": {"etat de la localisation": "Delocalise", "numparc": 5923, "duree": "00:02:50", "horodatage": "2022-05-17 08:54:21", "marker-color": "#FF565E"}}, {"type": "Feature", "geometry": {"type": "Point", "coordinates": [2.333312, 48.777569]}, "properties": {"etat de la localisation": "Delocalise", "numparc": 5911, "duree": "00:02:27", "horodatage": "2022-05-17 08:55:27", "marker-color": "#FF565E"}}, {"type": "Feature", "geometry": {"type": "Point", "coordinates": [2.341727, 48.772537]}, "properties": {"etat de la localisation": "Delocalise", "numparc": 5923, "duree": "00:00:55", "horodatage": "2022-05-17 08:58:03", "marker-color": "#FF565E"}}, {"type": "Feature", "geometry": {"type": "Point", "coordinates": [2.340132, 48.777016]}, "properties": {"etat de la localisation": "Delocalise", "numparc": 5911, "duree": "00:02:54", "horodatage": "2022-05-17 08:58:34", "marker-color": "#FF565E"}}, {"type": "Feature", "geometry": {"type": "Point", "coordinates": [2.346165, 48.771706]}, "properties": {"etat de la localisation": "Delocalise", "numparc": 5923, "duree": "00:04:50", "horodatage": "2022-05-17 08:59:35", "marker-color": "#FF565E"}}, {"type": "Feature", "geometry": {"type": "Point", "coordinates": [2.342195, 48.772419]}, "properties": {"etat de la localisation": "Delocalise", "numparc": 5911, "duree": "00:00:49", "horodatage": "2022-05-17 09:02:16", "marker-color": "#FF565E"}}, {"type": "Feature", "geometry": {"type": "Point", "coordinates": [2.346092, 48.771709]}, "properties": {"etat de la localisation": "Delocalise", "numparc": 5911, "duree": "00:01:26", "horodatage": "2022-05-17 09:03:56", "marker-color": "#FF565E"}}, {"type": "Feature", "geometry": {"type": "Point", "coordinates": [2.358969, 48.771793]}, "properties": {"etat de la localisation": "Delocalise", "numparc": 5923, "duree": "00:00:47", "horodatage": "2022-05-17 09:05:12", "marker-color": "#FF565E"}}, {"type": "Feature", "geometry": {"type": "Point", "coordinates": [2.350858, 48.7705]}, "properties": {"etat de la localisation": "Delocalise", "numparc": 5911, "duree": "00:03:14", "horodatage": "2022-05-17 09:07:02", "marker-color": "#FF565E"}}, {"type": "Feature", "geometry": {"type": "Point", "coordinates": [2.36534, 48.76968]}, "properties": {"etat de la localisation": "Delocalise", "numparc": 5923, "duree": "00:00:51", "horodatage": "2022-05-17 09:07:22", "marker-color": "#FF565E"}}, {"type": "Feature", "geometry": {"type": "Point", "coordinates": [2.315575, 48.780006]}, "properties": {"etat de la localisation": "Deviation programmee", "numparc": 5910, "duree": "", "horodatage": "2022-05-17 09:07:58", "marker-color": "#56FF93"}}, {"type": "Feature", "geometry": {"type": "Point", "coordinates": [2.367988, 48.767136]}, "properties": {"etat de la localisation": "Delocalise", "numparc": 5923, "duree": "00:14:24", "horodatage": "2022-05-17 09:09:39", "marker-color": "#FF565E"}}, {"type": "Feature", "geometry": {"type": "Point", "coordinates": [2.360099, 48.771618]}, "properties": {"etat de la localisation": "Delocalise", "numparc": 5911, "duree": "00:16:19", "horodatage": "2022-05-17 09:11:11", "marker-color": "#FF565E"}}, {"type": "Feature", "geometry": {"type": "Point", "coordinates": [2.35778, 48.763393]}, "properties": {"etat de la localisation": "Hors service", "numparc": 5918, "duree": "", "horodatage": "2022-05-17 09:13:38", "marker-color": "#707070"}}, {"type": "Feature", "geometry": {"type": "Point", "coordinates": [2.31556, 48.779984]}, "properties": {"etat de la localisation": "Deviation programmee", "numparc": 5913, "duree": "", "horodatage": "2022-05-17 10:00:44", "marker-color": "#56FF93"}}, {"type": "Feature", "geometry": {"type": "Point", "coordinates": [2.3874, 48.755676]}, "properties": {"etat de la localisation": "Hors service", "numparc": 5907, "duree": "", "horodatage": "2022-05-17 10:03:16", "marker-color": "#707070"}}, {"type": "Feature", "geometry": {"type": "Point", "coordinates": [2.315531, 48.78001]}, "properties": {"etat de la localisation": "Deviation programmee", "numparc": 5794, "duree": "", "horodatage": "2022-05-17 10:05:24", "marker-color": "#56FF93"}}, {"type": "Feature", "geometry": {"type": "Point", "coordinates": [2.315555, 48.779999]}, "properties": {"etat de la localisation": "Deviation programmee", "numparc": 5923, "duree": "", "horodatage": "2022-05-17 10:11:00", "marker-color": "#56FF93"}}, {"type": "Feature", "geometry": {"type": "Point", "coordinates": [2.315553, 48.780014]}, "properties": {"etat de la localisation": "Deviation programmee", "numparc": 5911, "duree": "", "horodatage": "2022-05-17 10:14:17", "marker-color": "#56FF93"}}, {"type": "Feature", "geometry": {"type": "Point", "coordinates": [2.315454, 48.779705]}, "properties": {"etat de la localisation": "Mission suivante non connue", "numparc": 5912, "duree": "", "horodatage": "2022-05-17 10:24:01", "marker-color": "#7156FF"}}, {"type": "Feature", "geometry": {"type": "Point", "coordinates": [2.315448, 48.779705]}, "properties": {"etat de la localisation": "Mission inconnue", "numparc": 5912, "duree": "", "horodatage": "2022-05-17 10:24:21", "marker-color": "#FF9F56"}}, {"type": "Feature", "geometry": {"type": "Point", "coordinates": [2.281584, 48.779755]}, "properties": {"etat de la localisation": "Mission suivante non connue", "numparc": 5923, "duree": "", "horodatage": "2022-05-17 10:28:33", "marker-color": "#7156FF"}}, {"type": "Feature", "geometry": {"type": "Point", "coordinates": [2.281584, 48.779755]}, "properties": {"etat de la localisation": "Mission inconnue", "numparc": 5923, "duree": "", "horodatage": "2022-05-17 10:28:58", "marker-color": "#FF9F56"}}, {"type": "Feature", "geometry": {"type": "Point", "coordinates": [2.315567, 48.779984]}, "properties": {"etat de la localisation": "Deviation programmee", "numparc": 5798, "duree": "", "horodatage": "2022-05-17 10:42:03", "marker-color": "#56FF93"}}, {"type": "Feature", "geometry": {"type": "Point", "coordinates": [2.357454, 48.763531]}, "properties": {"etat de la localisation": "Delocalise", "numparc": 5912, "duree": "00:00:00", "horodatage": "2022-05-17 10:46:50", "marker-color": "#FF565E"}}, {"type": "Feature", "geometry": {"type": "Point", "coordinates": [2.387141, 48.75396]}, "properties": {"etat de la localisation": "Hors service", "numparc": 5913, "duree": "", "horodatage": "2022-05-17 10:47:57", "marker-color": "#707070"}}, {"type": "Feature", "geometry": {"type": "Point", "coordinates": [2.364242, 48.75943]}, "properties": {"etat de la localisation": "Delocalise", "numparc": 5910, "duree": "00:01:45", "horodatage": "2022-05-17 10:50:56", "marker-color": "#FF565E"}}, {"type": "Feature", "geometry": {"type": "Point", "coordinates": [2.281545, 48.779938]}, "properties": {"etat de la localisation": "Mission suivante non connue", "numparc": 5798, "duree": "", "horodatage": "2022-05-17 10:59:01", "marker-color": "#7156FF"}}, {"type": "Feature", "geometry": {"type": "Point", "coordinates": [2.281518, 48.77977]}, "properties": {"etat de la localisation": "Mission inconnue", "numparc": 5798, "duree": "", "horodatage": "2022-05-17 10:59:25", "marker-color": "#FF9F56"}}, {"type": "Feature", "geometry": {"type": "Point", "coordinates": [2.315586, 48.779991]}, "properties": {"etat de la localisation": "Deviation programmee", "numparc": 5910, "duree": "", "horodatage": "2022-05-17 11:20:01", "marker-color": "#56FF93"}}, {"type": "Feature", "geometry": {"type": "Point", "coordinates": [2.315582, 48.779991]}, "properties": {"etat de la localisation": "Deviation programmee", "numparc": 5912, "duree": "", "horodatage": "2022-05-17 11:32:08", "marker-color": "#56FF93"}}, {"type": "Feature", "geometry": {"type": "Point", "coordinates": [2.31554, 48.780014]}, "properties": {"etat de la localisation": "Deviation programmee", "numparc": 5923, "duree": "", "horodatage": "2022-05-17 11:50:14", "marker-color": "#56FF93"}}, {"type": "Feature", "geometry": {"type": "Point", "coordinates": [2.387866, 48.755978]}, "properties": {"etat de la localisation": "Hors service", "numparc": 5911, "duree": "", "horodatage": "2022-05-17 11:56:06", "marker-color": "#707070"}}, {"type": "Feature", "geometry": {"type": "Point", "coordinates": [2.315556, 48.779972]}, "properties": {"etat de la localisation": "Deviation programmee", "numparc": 5794, "duree": "", "horodatage": "2022-05-17 12:02:18", "marker-color": "#56FF93"}}, {"type": "Feature", "geometry": {"type": "Point", "coordinates": [2.313623, 48.780029]}, "properties": {"etat de la localisation": "Mission suivante non connue", "numparc": 5794, "duree": "", "horodatage": "2022-05-17 12:05:30", "marker-color": "#7156FF"}}, {"type": "Feature", "geometry": {"type": "Point", "coordinates": [2.313464, 48.779079]}, "properties": {"etat de la localisation": "Delocalise", "numparc": 5794, "duree": "00:01:51", "horodatage": "2022-05-17 12:06:00", "marker-color": "#FF565E"}}, {"type": "Feature", "geometry": {"type": "Point", "coordinates": [2.314686, 48.777954]}, "properties": {"etat de la localisation": "Mission inconnue", "numparc": 5794, "duree": "", "horodatage": "2022-05-17 12:07:51", "marker-color": "#FF9F56"}}, {"type": "Feature", "geometry": {"type": "Point", "coordinates": [2.342093, 48.772411]}, "properties": {"etat de la localisation": "Delocalise", "numparc": 5794, "duree": "00:00:37", "horodatage": "2022-05-17 12:18:09", "marker-color": "#FF565E"}}, {"type": "Feature", "geometry": {"type": "Point", "coordinates": [2.315569, 48.77998]}, "properties": {"etat de la localisation": "Deviation programmee", "numparc": 5798, "duree": "", "horodatage": "2022-05-17 12:18:09", "marker-color": "#56FF93"}}, {"type": "Feature", "geometry": {"type": "Point", "coordinates": [2.346192, 48.771687]}, "properties": {"etat de la localisation": "Delocalise", "numparc": 5794, "duree": "00:00:56", "horodatage": "2022-05-17 12:19:16", "marker-color": "#FF565E"}}, {"type": "Feature", "geometry": {"type": "Point", "coordinates": [2.348169, 48.771408]}, "properties": {"etat de la localisation": "Mission inconnue", "numparc": 5794, "duree": "", "horodatage": "2022-05-17 12:20:12", "marker-color": "#FF9F56"}}, {"type": "Feature", "geometry": {"type": "Point", "coordinates": [2.359298, 48.771793]}, "properties": {"etat de la localisation": "Delocalise", "numparc": 5794, "duree": "00:02:38", "horodatage": "2022-05-17 12:23:30", "marker-color": "#FF565E"}}, {"type": "Feature", "geometry": {"type": "Point", "coordinates": [2.367969, 48.767227]}, "properties": {"etat de la localisation": "Delocalise", "numparc": 5794, "duree": "00:07:21", "horodatage": "2022-05-17 12:27:25", "marker-color": "#FF565E"}}, {"type": "Feature", "geometry": {"type": "Point", "coordinates": [2.281438, 48.779819]}, "properties": {"etat de la localisation": "Hors service", "numparc": 5923, "duree": "", "horodatage": "2022-05-17 12:32:31", "marker-color": "#707070"}}, {"type": "Feature", "geometry": {"type": "Point", "coordinates": [2.357859, 48.763256]}, "properties": {"etat de la localisation": "Hors service", "numparc": 5794, "duree": "", "horodatage": "2022-05-17 13:00:30", "marker-color": "#707070"}}, {"type": "Feature", "geometry": {"type": "Point", "coordinates": [2.315541, 48.779995]}, "properties": {"etat de la localisation": "Deviation programmee", "numparc": 5910, "duree": "", "horodatage": "2022-05-17 13:13:54", "marker-color": "#56FF93"}}, {"type": "Feature", "geometry": {"type": "Point", "coordinates": [2.315561, 48.779984]}, "properties": {"etat de la localisation": "Deviation programmee", "numparc": 5912, "duree": "", "horodatage": "2022-05-17 13:31:56", "marker-color": "#56FF93"}}, {"type": "Feature", "geometry": {"type": "Point", "coordinates": [2.315543, 48.779972]}, "properties": {"etat de la localisation": "Deviation programmee", "numparc": 5794, "duree": "", "horodatage": "2022-05-17 13:51:42", "marker-color": "#56FF93"}}, {"type": "Feature", "geometry": {"type": "Point", "coordinates": [2.315577, 48.780014]}, "properties": {"etat de la localisation": "Deviation programmee", "numparc": 5923, "duree": "", "horodatage": "2022-05-17 14:09:44", "marker-color": "#56FF93"}}, {"type": "Feature", "geometry": {"type": "Point", "coordinates": [2.315562, 48.780006]}, "properties": {"etat de la localisation": "Deviation programmee", "numparc": 5798, "duree": "", "horodatage": "2022-05-17 14:20:00", "marker-color": "#56FF93"}}, {"type": "Feature", "geometry": {"type": "Point", "coordinates": [2.387941, 48.755856]}, "properties": {"etat de la localisation": "Delocalise", "numparc": 5924, "duree": "00:27:33", "horodatage": "2022-05-17 14:35:08", "marker-color": "#FF565E"}}, {"type": "Feature", "geometry": {"type": "Point", "coordinates": [2.357978, 48.763065]}, "properties": {"etat de la localisation": "Deviation programmee", "numparc": 5910, "duree": "", "horodatage": "2022-05-17 14:37:56", "marker-color": "#56FF93"}}, {"type": "Feature", "geometry": {"type": "Point", "coordinates": [2.361732, 48.758743]}, "properties": {"etat de la localisation": "Delocalise", "numparc": 5910, "duree": "00:02:10", "horodatage": "2022-05-17 14:39:57", "marker-color": "#FF565E"}}, {"type": "Feature", "geometry": {"type": "Point", "coordinates": [2.357984, 48.763058]}, "properties": {"etat de la localisation": "Deviation programmee", "numparc": 5912, "duree": "", "horodatage": "2022-05-17 14:57:05", "marker-color": "#56FF93"}}, {"type": "Feature", "geometry": {"type": "Point", "coordinates": [2.387866, 48.755978]}, "properties": {"etat de la localisation": "Delocalise", "numparc": 5911, "duree": "00:15:28", "horodatage": "2022-05-17 15:04:07", "marker-color": "#FF565E"}}, {"type": "Feature", "geometry": {"type": "Point", "coordinates": [2.315567, 48.780003]}, "properties": {"etat de la localisation": "Deviation programmee", "numparc": 5910, "duree": "", "horodatage": "2022-05-17 15:06:26", "marker-color": "#56FF93"}}, {"type": "Feature", "geometry": {"type": "Point", "coordinates": [2.357976, 48.763092]}, "properties": {"etat de la localisation": "Deviation programmee", "numparc": 5794, "duree": "", "horodatage": "2022-05-17 15:19:18", "marker-color": "#56FF93"}}, {"type": "Feature", "geometry": {"type": "Point", "coordinates": [2.281509, 48.77993]}, "properties": {"etat de la localisation": "Mission suivante non connue", "numparc": 5910, "duree": "", "horodatage": "2022-05-17 15:19:53", "marker-color": "#7156FF"}}, {"type": "Feature", "geometry": {"type": "Point", "coordinates": [2.281496, 48.779888]}, "properties": {"etat de la localisation": "Mission inconnue", "numparc": 5910, "duree": "", "horodatage": "2022-05-17 15:20:12", "marker-color": "#FF9F56"}}, {"type": "Feature", "geometry": {"type": "Point", "coordinates": [2.300364, 48.778481]}, "properties": {"etat de la localisation": "Delocalise", "numparc": 5911, "duree": "00:00:26", "horodatage": "2022-05-17 15:21:14", "marker-color": "#FF565E"}}, {"type": "Feature", "geometry": {"type": "Point", "coordinates": [2.361815, 48.758743]}, "properties": {"etat de la localisation": "Delocalise", "numparc": 5794, "duree": "00:02:25", "horodatage": "2022-05-17 15:21:24", "marker-color": "#FF565E"}}, {"type": "Feature", "geometry": {"type": "Point", "coordinates": [2.28648, 48.778954]}, "properties": {"etat de la localisation": "Delocalise", "numparc": 5911, "duree": "00:01:56", "horodatage": "2022-05-17 15:23:55", "marker-color": "#FF565E"}}, {"type": "Feature", "geometry": {"type": "Point", "coordinates": [2.315563, 48.779968]}, "properties": {"etat de la localisation": "Deviation programmee", "numparc": 5912, "duree": "", "horodatage": "2022-05-17 15:25:50", "marker-color": "#56FF93"}}, {"type": "Feature", "geometry": {"type": "Point", "coordinates": [2.357983, 48.763096]}, "properties": {"etat de la localisation": "Deviation programmee", "numparc": 5923, "duree": "", "horodatage": "2022-05-17 15:39:56", "marker-color": "#56FF93"}}, {"type": "Feature", "geometry": {"type": "Point", "coordinates": [2.387864, 48.755959]}, "properties": {"etat de la localisation": "Hors service", "numparc": 5910, "duree": "", "horodatage": "2022-05-17 15:49:48", "marker-color": "#707070"}}, {"type": "Feature", "geometry": {"type": "Point", "coordinates": [2.315548, 48.779995]}, "properties": {"etat de la localisation": "Deviation programmee", "numparc": 5794, "duree": "", "horodatage": "2022-05-17 15:51:34", "marker-color": "#56FF93"}}, {"type": "Feature", "geometry": {"type": "Point", "coordinates": [2.387696, 48.75589]}, "properties": {"etat de la localisation": "Delocalise", "numparc": 5913, "duree": "00:24:02", "horodatage": "2022-05-17 15:54:58", "marker-color": "#FF565E"}}, {"type": "Feature", "geometry": {"type": "Point", "coordinates": [2.357976, 48.763073]}, "properties": {"etat de la localisation": "Deviation programmee", "numparc": 5798, "duree": "", "horodatage": "2022-05-17 16:00:21", "marker-color": "#56FF93"}}, {"type": "Feature", "geometry": {"type": "Point", "coordinates": [2.281421, 48.77977]}, "properties": {"etat de la localisation": "Mission suivante non connue", "numparc": 5794, "duree": "", "horodatage": "2022-05-17 16:10:29", "marker-color": "#7156FF"}}, {"type": "Feature", "geometry": {"type": "Point", "coordinates": [2.315587, 48.779961]}, "properties": {"etat de la localisation": "Deviation programmee", "numparc": 5923, "duree": "", "horodatage": "2022-05-17 16:10:34", "marker-color": "#56FF93"}}, {"type": "Feature", "geometry": {"type": "Point", "coordinates": [2.387396, 48.755768]}, "properties": {"etat de la localisation": "Mission inconnue", "numparc": 5928, "duree": "", "horodatage": "2022-05-17 16:15:06", "marker-color": "#FF9F56"}}, {"type": "Feature", "geometry": {"type": "Point", "coordinates": [2.357993, 48.763092]}, "properties": {"etat de la localisation": "Deviation programmee", "numparc": 5924, "duree": "", "horodatage": "2022-05-17 16:16:51", "marker-color": "#56FF93"}}, {"type": "Feature", "geometry": {"type": "Point", "coordinates": [2.361817, 48.758762]}, "properties": {"etat de la localisation": "Delocalise", "numparc": 5924, "duree": "00:02:15", "horodatage": "2022-05-17 16:19:07", "marker-color": "#FF565E"}}, {"type": "Feature", "geometry": {"type": "Point", "coordinates": [2.285875, 48.778996]}, "properties": {"etat de la localisation": "Delocalise", "numparc": 5913, "duree": "00:02:33", "horodatage": "2022-05-17 16:19:46", "marker-color": "#FF565E"}}, {"type": "Feature", "geometry": {"type": "Point", "coordinates": [2.315548, 48.779991]}, "properties": {"etat de la localisation": "Deviation programmee", "numparc": 5798, "duree": "", "horodatage": "2022-05-17 16:36:40", "marker-color": "#56FF93"}}, {"type": "Feature", "geometry": {"type": "Point", "coordinates": [2.35596, 48.762875]}, "properties": {"etat de la localisation": "Delocalise", "numparc": 5912, "duree": "00:01:30", "horodatage": "2022-05-17 16:45:18", "marker-color": "#FF565E"}}, {"type": "Feature", "geometry": {"type": "Point", "coordinates": [2.315572, 48.779984]}, "properties": {"etat de la localisation": "Deviation programmee", "numparc": 5924, "duree": "", "horodatage": "2022-05-17 16:45:50", "marker-color": "#56FF93"}}, {"type": "Feature", "geometry": {"type": "Point", "coordinates": [2.288834, 48.778938]}, "properties": {"etat de la localisation": "Delocalise", "numparc": 5928, "duree": "00:02:24", "horodatage": "2022-05-17 16:46:32", "marker-color": "#FF565E"}}, {"type": "Feature", "geometry": {"type": "Point", "coordinates": [2.357732, 48.763248]}, "properties": {"etat de la localisation": "Mission suivante non connue", "numparc": 5912, "duree": "", "horodatage": "2022-05-17 16:46:48", "marker-color": "#7156FF"}}, {"type": "Feature", "geometry": {"type": "Point", "coordinates": [2.357839, 48.763309]}, "properties": {"etat de la localisation": "Hors service", "numparc": 5911, "duree": "", "horodatage": "2022-05-17 16:51:04", "marker-color": "#707070"}}, {"type": "Feature", "geometry": {"type": "Point", "coordinates": [2.357729, 48.763248]}, "properties": {"etat de la localisation": "Hors service", "numparc": 5912, "duree": "", "horodatage": "2022-05-17 17:07:47", "marker-color": "#707070"}}, {"type": "Feature", "geometry": {"type": "Point", "coordinates": [2.315585, 48.779991]}, "properties": {"etat de la localisation": "Deviation programmee", "numparc": 5934, "duree": "", "horodatage": "2022-05-17 17:21:49", "marker-color": "#56FF93"}}, {"type": "Feature", "geometry": {"type": "Point", "coordinates": [2.357641, 48.763351]}, "properties": {"etat de la localisation": "Hors service", "numparc": 5794, "duree": "", "horodatage": "2022-05-17 17:29:03", "marker-color": "#707070"}}, {"type": "Feature", "geometry": {"type": "Point", "coordinates": [2.35797, 48.763088]}, "properties": {"etat de la localisation": "Deviation programmee", "numparc": 5913, "duree": "", "horodatage": "2022-05-17 17:48:07", "marker-color": "#56FF93"}}, {"type": "Feature", "geometry": {"type": "Point", "coordinates": [2.387445, 48.755684]}, "properties": {"etat de la localisation": "Delocalise", "numparc": 5907, "duree": "00:46:26", "horodatage": "2022-05-17 18:15:12", "marker-color": "#FF565E"}}, {"type": "Feature", "geometry": {"type": "Point", "coordinates": [2.357996, 48.763077]}, "properties": {"etat de la localisation": "Deviation programmee", "numparc": 5928, "duree": "", "horodatage": "2022-05-17 18:15:17", "marker-color": "#56FF93"}}, {"type": "Feature", "geometry": {"type": "Point", "coordinates": [2.315558, 48.779991]}, "properties": {"etat de la localisation": "Deviation programmee", "numparc": 5913, "duree": "", "horodatage": "2022-05-17 18:24:05", "marker-color": "#56FF93"}}, {"type": "Feature", "geometry": {"type": "Point", "coordinates": [2.357987, 48.763084]}, "properties": {"etat de la localisation": "Deviation programmee", "numparc": 5798, "duree": "", "horodatage": "2022-05-17 18:30:38", "marker-color": "#56FF93"}}, {"type": "Feature", "geometry": {"type": "Point", "coordinates": [2.315596, 48.779961]}, "properties": {"etat de la localisation": "Deviation programmee", "numparc": 5923, "duree": "", "horodatage": "2022-05-17 18:31:40", "marker-color": "#56FF93"}}, {"type": "Feature", "geometry": {"type": "Point", "coordinates": [2.361864, 48.758823]}, "properties": {"etat de la localisation": "Delocalise", "numparc": 5798, "duree": "00:01:57", "horodatage": "2022-05-17 18:32:16", "marker-color": "#FF565E"}}, {"type": "Feature", "geometry": {"type": "Point", "coordinates": [2.357952, 48.763062]}, "properties": {"etat de la localisation": "Deviation programmee", "numparc": 5924, "duree": "", "horodatage": "2022-05-17 18:45:38", "marker-color": "#56FF93"}}, {"type": "Feature", "geometry": {"type": "Point", "coordinates": [2.361807, 48.75877]}, "properties": {"etat de la localisation": "Delocalise", "numparc": 5924, "duree": "00:02:10", "horodatage": "2022-05-17 18:47:51", "marker-color": "#FF565E"}}, {"type": "Feature", "geometry": {"type": "Point", "coordinates": [2.315553, 48.779976]}, "properties": {"etat de la localisation": "Deviation programmee", "numparc": 5928, "duree": "", "horodatage": "2022-05-17 18:50:02", "marker-color": "#56FF93"}}, {"type": "Feature", "geometry": {"type": "Point", "coordinates": [2.281449, 48.779785]}, "properties": {"etat de la localisation": "Mission suivante non connue", "numparc": 5923, "duree": "", "horodatage": "2022-05-17 18:56:59", "marker-color": "#7156FF"}}, {"type": "Feature", "geometry": {"type": "Point", "coordinates": [2.281443, 48.779751]}, "properties": {"etat de la localisation": "Mission inconnue", "numparc": 5923, "duree": "", "horodatage": "2022-05-17 18:57:41", "marker-color": "#FF9F56"}}, {"type": "Feature", "geometry": {"type": "Point", "coordinates": [2.356011, 48.762848]}, "properties": {"etat de la localisation": "Delocalise", "numparc": 5934, "duree": "00:01:58", "horodatage": "2022-05-17 18:59:32", "marker-color": "#FF565E"}}, {"type": "Feature", "geometry": {"type": "Point", "coordinates": [2.315595, 48.779999]}, "properties": {"etat de la localisation": "Deviation programmee", "numparc": 5798, "duree": "", "horodatage": "2022-05-17 19:05:06", "marker-color": "#56FF93"}}, {"type": "Feature", "geometry": {"type": "Point", "coordinates": [2.357978, 48.763073]}, "properties": {"etat de la localisation": "Deviation programmee", "numparc": 5934, "duree": "", "horodatage": "2022-05-17 19:14:58", "marker-color": "#56FF93"}}, {"type": "Feature", "geometry": {"type": "Point", "coordinates": [2.315549, 48.780014]}, "properties": {"etat de la localisation": "Deviation programmee", "numparc": 5924, "duree": "", "horodatage": "2022-05-17 19:17:00", "marker-color": "#56FF93"}}, {"type": "Feature", "geometry": {"type": "Point", "coordinates": [2.387995, 48.755966]}, "properties": {"etat de la localisation": "Hors service", "numparc": 5923, "duree": "", "horodatage": "2022-05-17 19:32:30", "marker-color": "#707070"}}, {"type": "Feature", "geometry": {"type": "Point", "coordinates": [2.315531, 48.779999]}, "properties": {"etat de la localisation": "Deviation programmee", "numparc": 5934, "duree": "", "horodatage": "2022-05-17 19:45:04", "marker-color": "#56FF93"}}, {"type": "Feature", "geometry": {"type": "Point", "coordinates": [2.281599, 48.780041]}, "properties": {"etat de la localisation": "Mission suivante non connue", "numparc": 5934, "duree": "", "horodatage": "2022-05-17 20:00:02", "marker-color": "#7156FF"}}, {"type": "Feature", "geometry": {"type": "Point", "coordinates": [2.281583, 48.779999]}, "properties": {"etat de la localisation": "Mission inconnue", "numparc": 5934, "duree": "", "horodatage": "2022-05-17 20:00:24", "marker-color": "#FF9F56"}}, {"type": "Feature", "geometry": {"type": "Point", "coordinates": [2.357979, 48.763081]}, "properties": {"etat de la localisation": "Deviation programmee", "numparc": 5913, "duree": "", "horodatage": "2022-05-17 20:01:21", "marker-color": "#56FF93"}}, {"type": "Feature", "geometry": {"type": "Point", "coordinates": [2.358025, 48.763042]}, "properties": {"etat de la localisation": "Deviation programmee", "numparc": 5907, "duree": "", "horodatage": "2022-05-17 20:10:44", "marker-color": "#56FF93"}}, {"type": "Feature", "geometry": {"type": "Point", "coordinates": [2.363768, 48.759396]}, "properties": {"etat de la localisation": "Delocalise", "numparc": 5798, "duree": "00:08:26", "horodatage": "2022-05-17 20:13:20", "marker-color": "#FF565E"}}, {"type": "Feature", "geometry": {"type": "Point", "coordinates": [2.387981, 48.75589]}, "properties": {"etat de la localisation": "Hors service", "numparc": 5798, "duree": "", "horodatage": "2022-05-17 20:21:46", "marker-color": "#707070"}}, {"type": "Feature", "geometry": {"type": "Point", "coordinates": [2.357819, 48.763336]}, "properties": {"etat de la localisation": "Hors service", "numparc": 5928, "duree": "", "horodatage": "2022-05-17 20:25:31", "marker-color": "#707070"}}, {"type": "Feature", "geometry": {"type": "Point", "coordinates": [2.31557, 48.780014]}, "properties": {"etat de la localisation": "Deviation programmee", "numparc": 5913, "duree": "", "horodatage": "2022-05-17 20:31:56", "marker-color": "#56FF93"}}, {"type": "Feature", "geometry": {"type": "Point", "coordinates": [2.387403, 48.755615]}, "properties": {"etat de la localisation": "Hors service", "numparc": 5934, "duree": "", "horodatage": "2022-05-17 20:38:04", "marker-color": "#707070"}}, {"type": "Feature", "geometry": {"type": "Point", "coordinates": [2.31553, 48.77998]}, "properties": {"etat de la localisation": "Deviation programmee", "numparc": 5907, "duree": "", "horodatage": "2022-05-17 20:39:33", "marker-color": "#56FF93"}}, {"type": "Feature", "geometry": {"type": "Point", "coordinates": [2.387803, 48.756016]}, "properties": {"etat de la localisation": "Hors service", "numparc": 5924, "duree": "", "horodatage": "2022-05-17 20:59:58", "marker-color": "#707070"}}, {"type": "Feature", "geometry": {"type": "Point", "coordinates": [2.315565, 48.77998]}, "properties": {"etat de la localisation": "Deviation programmee", "numparc": 5928, "duree": "", "horodatage": "2022-05-17 21:00:32", "marker-color": "#56FF93"}}, {"type": "Feature", "geometry": {"type": "Point", "coordinates": [2.315577, 48.779995]}, "properties": {"etat de la localisation": "Deviation programmee", "numparc": 5797, "duree": "", "horodatage": "2022-05-17 21:31:53", "marker-color": "#56FF93"}}, {"type": "Feature", "geometry": {"type": "Point", "coordinates": [2.388194, 48.754143]}, "properties": {"etat de la localisation": "Hors service", "numparc": 5913, "duree": "", "horodatage": "2022-05-17 21:53:07", "marker-color": "#707070"}}, {"type": "Feature", "geometry": {"type": "Point", "coordinates": [2.387602, 48.75539]}, "properties": {"etat de la localisation": "Hors service", "numparc": 5928, "duree": "", "horodatage": "2022-05-17 22:15:07", "marker-color": "#707070"}}, {"type": "Feature", "geometry": {"type": "Point", "coordinates": [2.315543, 48.78001]}, "properties": {"etat de la localisation": "Deviation programmee", "numparc": 5907, "duree": "", "horodatage": "2022-05-17 22:30:12", "marker-color": "#56FF93"}}, {"type": "Feature", "geometry": {"type": "Point", "coordinates": [2.315679, 48.779942]}, "properties": {"etat de la localisation": "Deviation programmee", "numparc": 5797, "duree": "", "horodatage": "2022-05-17 23:06:11", "marker-color": "#56FF93"}}, {"type": "Feature", "geometry": {"type": "Point", "coordinates": [2.315528, 48.779972]}, "properties": {"etat de la localisation": "Deviation programmee", "numparc": 5907, "duree": "", "horodatage": "2022-05-17 23:55:38", "marker-color": "#56FF93"}}, {"type": "Feature", "geometry": {"type": "Point", "coordinates": [2.357965, 48.763256]}, "properties": {"etat de la localisation": "Hors service", "numparc": 5797, "duree": "", "horodatage": "2022-05-18 00:08:09", "marker-color": "#707070"}}, {"type": "Feature", "geometry": {"type": "Point", "coordinates": [2.364118, 48.759449]}, "properties": {"etat de la localisation": "Delocalise", "numparc": 5797, "duree": "00:00:18", "horodatage": "2022-05-18 00:09:33", "marker-color": "#FF565E"}}, {"type": "Feature", "geometry": {"type": "Point", "coordinates": [2.361536, 48.771202]}, "properties": {"etat de la localisation": "Delocalise", "numparc": 5797, "duree": "00:01:59", "horodatage": "2022-05-18 00:14:37", "marker-color": "#FF565E"}}, {"type": "Feature", "geometry": {"type": "Point", "coordinates": [2.31555, 48.780014]}, "properties": {"etat de la localisation": "Deviation programmee", "numparc": 5797, "duree": "", "horodatage": "2022-05-18 00:28:35", "marker-color": "#56FF93"}}, {"type": "Feature", "geometry": {"type": "Point", "coordinates": [2.315503, 48.779991]}, "properties": {"etat de la localisation": "Deviation programmee", "numparc": 5933, "duree": "", "horodatage": "2022-05-18 00:51:03", "marker-color": "#56FF93"}}, {"type": "Feature", "geometry": {"type": "Point", "coordinates": [2.387761, 48.755951]}, "properties": {"etat de la localisation": "Hors service", "numparc": 5797, "duree": "", "horodatage": "2022-05-18 01:04:21", "marker-color": "#707070"}}, {"type": "Feature", "geometry": {"type": "Point", "coordinates": [2.387393, 48.755684]}, "properties": {"etat de la localisation": "Hors service", "numparc": 5907, "duree": "", "horodatage": "2022-05-18 01:12:22", "marker-color": "#707070"}}, {"type": "Feature", "geometry": {"type": "Point", "coordinates": [2.387695, 48.755447]}, "properties": {"etat de la localisation": "Hors service", "numparc": 5933, "duree": "", "horodatage": "2022-05-18 01:22:39", "marker-color": "#707070"}}]}