{"type": "FeatureCollection", "features": [{"type": "Feature", "geometry": {"type": "Point", "coordinates": [2.590845, 48.878204]}, "properties": {"alarme": "DEFAUT LIAISON DATA SAEIV / AIGLE", "numparc": 6902, "type": "TECHNIQUE", "duree": "00:00:08", "horodatage": "2023-04-12 16:53:04", "statut": "start", "marker-color": "#ff0000"}}, {"type": "Feature", "geometry": {"type": "Point", "coordinates": [2.590845, 48.878204]}, "properties": {"alarme": "DEFAUT LIAISON DATA SAEIV / AIGLE", "numparc": 6902, "type": "TECHNIQUE", "duree": "00:00:08", "horodatage": "2023-04-12 16:53:12", "statut": "end", "marker-color": "#2fe184"}}, {"type": "Feature", "geometry": {"type": "Point", "coordinates": [2.660125, 48.842216]}, "properties": {"alarme": "DEFAUT LIAISON DATA SAEIV / AIGLE", "numparc": 6888, "type": "TECHNIQUE", "duree": "24:00:00", "horodatage": "2023-04-12 19:38:36", "statut": "start", "marker-color": "#000000"}}]}