{"type": "FeatureCollection", "features": [{"type": "Feature", "geometry": {"type": "Point", "coordinates": [2.297946, 48.721802]}, "properties": {"numparc": 4847, "etat de la localisation": "autre", "ID BDGEO": "118", "horodatage": "2021-11-12 03:09:02", "distance (en metres)": 46.79, "station": "CENTRE BUS DE MASSY-SORTIE", "marker-color": "#818181"}}, {"type": "Feature", "geometry": {"type": "Point", "coordinates": [2.297775, 48.722343]}, "properties": {"numparc": 4847, "etat de la localisation": "autre", "ID BDGEO": "118", "horodatage": "2021-11-12 03:10:32", "distance (en metres)": 88.45, "station": "CENTRE BUS DE MASSY-SORTIE", "marker-color": "#818181"}}, {"type": "Feature", "geometry": {"type": "Point", "coordinates": [2.296894, 48.721912]}, "properties": {"numparc": 4874, "etat de la localisation": "autre", "ID BDGEO": "118", "horodatage": "2021-11-12 04:54:26", "distance (en metres)": 51.6, "station": "CENTRE BUS DE MASSY-SORTIE", "marker-color": "#818181"}}, {"type": "Feature", "geometry": {"type": "Point", "coordinates": [2.297775, 48.722359]}, "properties": {"numparc": 4847, "etat de la localisation": "Delocalise", "ID BDGEO": "118", "horodatage": "2021-11-12 04:56:20", "distance (en metres)": 90.14, "station": "CENTRE BUS DE MASSY-SORTIE", "marker-color": "#FF565E"}}, {"type": "Feature", "geometry": {"type": "Point", "coordinates": [2.297425, 48.721153]}, "properties": {"numparc": 4876, "etat de la localisation": "autre", "ID BDGEO": "118", "horodatage": "2021-11-12 05:11:09", "distance (en metres)": 48.38, "station": "CENTRE BUS DE MASSY-SORTIE", "marker-color": "#818181"}}, {"type": "Feature", "geometry": {"type": "Point", "coordinates": [2.296645, 48.721737]}, "properties": {"numparc": 4873, "etat de la localisation": "autre", "ID BDGEO": "118", "horodatage": "2021-11-12 05:13:00", "distance (en metres)": 57.61, "station": "CENTRE BUS DE MASSY-SORTIE", "marker-color": "#818181"}}, {"type": "Feature", "geometry": {"type": "Point", "coordinates": [2.297863, 48.72126]}, "properties": {"numparc": 4888, "etat de la localisation": "autre", "ID BDGEO": "45", "horodatage": "2021-11-12 05:38:38", "distance (en metres)": 2879.15, "station": "VALLEE DE LA BIEVRE", "marker-color": "#818181"}}, {"type": "Feature", "geometry": {"type": "Point", "coordinates": [2.301418, 48.755539]}, "properties": {"numparc": 4873, "etat de la localisation": "autre", "ID BDGEO": "82", "horodatage": "2021-11-12 06:09:55", "distance (en metres)": 43.45, "station": "ANTONY RER", "marker-color": "#818181"}}, {"type": "Feature", "geometry": {"type": "Point", "coordinates": [2.277987, 48.757618]}, "properties": {"numparc": 4888, "etat de la localisation": "autre", "ID BDGEO": "36", "horodatage": "2021-11-12 06:27:20", "distance (en metres)": 40.46, "station": "LES GODETS", "marker-color": "#818181"}}, {"type": "Feature", "geometry": {"type": "Point", "coordinates": [2.297884, 48.721245]}, "properties": {"numparc": 4885, "etat de la localisation": "autre", "ID BDGEO": "118", "horodatage": "2021-11-12 06:39:33", "distance (en metres)": 52.23, "station": "CENTRE BUS DE MASSY-SORTIE", "marker-color": "#818181"}}, {"type": "Feature", "geometry": {"type": "Point", "coordinates": [2.297725, 48.721283]}, "properties": {"numparc": 4885, "etat de la localisation": "autre", "ID BDGEO": "118", "horodatage": "2021-11-12 06:53:35", "distance (en metres)": 41.55, "station": "CENTRE BUS DE MASSY-SORTIE", "marker-color": "#818181"}}, {"type": "Feature", "geometry": {"type": "Point", "coordinates": [2.272113, 48.750496]}, "properties": {"numparc": 4874, "etat de la localisation": "Deviation programmee", "ID BDGEO": "39", "horodatage": "2021-11-12 06:59:08", "distance (en metres)": 108.73, "station": "LE CLOS", "marker-color": "#56FF93"}}, {"type": "Feature", "geometry": {"type": "Point", "coordinates": [2.301427, 48.755539]}, "properties": {"numparc": 4884, "etat de la localisation": "autre", "ID BDGEO": "82", "horodatage": "2021-11-12 07:02:19", "distance (en metres)": 43.62, "station": "ANTONY RER", "marker-color": "#818181"}}, {"type": "Feature", "geometry": {"type": "Point", "coordinates": [2.296971, 48.754787]}, "properties": {"numparc": 4882, "etat de la localisation": "autre", "ID BDGEO": "145", "horodatage": "2021-11-12 07:06:54", "distance (en metres)": 321.34, "station": "ANTONY RER", "marker-color": "#818181"}}, {"type": "Feature", "geometry": {"type": "Point", "coordinates": [2.301155, 48.755653]}, "properties": {"numparc": 4882, "etat de la localisation": "autre", "ID BDGEO": "145", "horodatage": "2021-11-12 07:09:50", "distance (en metres)": 40.96, "station": "ANTONY RER", "marker-color": "#818181"}}, {"type": "Feature", "geometry": {"type": "Point", "coordinates": [2.29819, 48.721634]}, "properties": {"numparc": 4886, "etat de la localisation": "autre", "ID BDGEO": "118", "horodatage": "2021-11-12 07:11:10", "distance (en metres)": 58.39, "station": "CENTRE BUS DE MASSY-SORTIE", "marker-color": "#818181"}}, {"type": "Feature", "geometry": {"type": "Point", "coordinates": [2.297795, 48.721317]}, "properties": {"numparc": 4886, "etat de la localisation": "autre", "ID BDGEO": "118", "horodatage": "2021-11-12 07:12:19", "distance (en metres)": 41.93, "station": "CENTRE BUS DE MASSY-SORTIE", "marker-color": "#818181"}}, {"type": "Feature", "geometry": {"type": "Point", "coordinates": [2.301419, 48.755554]}, "properties": {"numparc": 4885, "etat de la localisation": "autre", "ID BDGEO": "82", "horodatage": "2021-11-12 07:25:00", "distance (en metres)": 45.09, "station": "ANTONY RER", "marker-color": "#818181"}}, {"type": "Feature", "geometry": {"type": "Point", "coordinates": [2.272098, 48.737869]}, "properties": {"numparc": 4886, "etat de la localisation": "autre", "ID BDGEO": "17", "horodatage": "2021-11-12 07:26:00", "distance (en metres)": 336.31, "station": "VALLEE DE LA BIEVRE", "marker-color": "#818181"}}, {"type": "Feature", "geometry": {"type": "Point", "coordinates": [2.272086, 48.750439]}, "properties": {"numparc": 4884, "etat de la localisation": "Deviation programmee", "ID BDGEO": "39", "horodatage": "2021-11-12 07:26:40", "distance (en metres)": 102.27, "station": "LE CLOS", "marker-color": "#56FF93"}}, {"type": "Feature", "geometry": {"type": "Point", "coordinates": [2.301126, 48.755646]}, "properties": {"numparc": 4847, "etat de la localisation": "autre", "ID BDGEO": "82", "horodatage": "2021-11-12 07:27:40", "distance (en metres)": 55.09, "station": "ANTONY RER", "marker-color": "#818181"}}, {"type": "Feature", "geometry": {"type": "Point", "coordinates": [2.301541, 48.755672]}, "properties": {"numparc": 4847, "etat de la localisation": "autre", "ID BDGEO": "82", "horodatage": "2021-11-12 07:29:37", "distance (en metres)": 60.22, "station": "ANTONY RER", "marker-color": "#818181"}}, {"type": "Feature", "geometry": {"type": "Point", "coordinates": [2.27207, 48.750504]}, "properties": {"numparc": 4873, "etat de la localisation": "Deviation programmee", "ID BDGEO": "39", "horodatage": "2021-11-12 07:38:03", "distance (en metres)": 109.42, "station": "LE CLOS", "marker-color": "#56FF93"}}, {"type": "Feature", "geometry": {"type": "Point", "coordinates": [2.272079, 48.750458]}, "properties": {"numparc": 4888, "etat de la localisation": "Deviation programmee", "ID BDGEO": "39", "horodatage": "2021-11-12 08:00:46", "distance (en metres)": 104.35, "station": "LE CLOS", "marker-color": "#56FF93"}}, {"type": "Feature", "geometry": {"type": "Point", "coordinates": [2.301109, 48.755692]}, "properties": {"numparc": 4881, "etat de la localisation": "autre", "ID BDGEO": "155", "horodatage": "2021-11-12 08:05:58", "distance (en metres)": 47.94, "station": "ANTONY RER", "marker-color": "#818181"}}, {"type": "Feature", "geometry": {"type": "Point", "coordinates": [2.298033, 48.721874]}, "properties": {"numparc": 4883, "etat de la localisation": "autre", "ID BDGEO": "118", "horodatage": "2021-11-12 08:07:07", "distance (en metres)": 56.48, "station": "CENTRE BUS DE MASSY-SORTIE", "marker-color": "#818181"}}, {"type": "Feature", "geometry": {"type": "Point", "coordinates": [2.301119, 48.755596]}, "properties": {"numparc": 4876, "etat de la localisation": "autre", "ID BDGEO": "82", "horodatage": "2021-11-12 08:08:08", "distance (en metres)": 49.76, "station": "ANTONY RER", "marker-color": "#818181"}}, {"type": "Feature", "geometry": {"type": "Point", "coordinates": [2.25681, 48.725765]}, "properties": {"numparc": 4847, "etat de la localisation": "autre", "ID BDGEO": "10", "horodatage": "2021-11-12 08:09:38", "distance (en metres)": 51.06, "station": "MASSY-PALAISEAU RER", "marker-color": "#818181"}}, {"type": "Feature", "geometry": {"type": "Point", "coordinates": [2.272097, 48.750473]}, "properties": {"numparc": 4874, "etat de la localisation": "Deviation programmee", "ID BDGEO": "39", "horodatage": "2021-11-12 08:14:18", "distance (en metres)": 106.1, "station": "LE CLOS", "marker-color": "#56FF93"}}, {"type": "Feature", "geometry": {"type": "Point", "coordinates": [2.272072, 48.750477]}, "properties": {"numparc": 4881, "etat de la localisation": "Deviation programmee", "ID BDGEO": "39", "horodatage": "2021-11-12 08:25:17", "distance (en metres)": 106.43, "station": "LE CLOS", "marker-color": "#56FF93"}}, {"type": "Feature", "geometry": {"type": "Point", "coordinates": [2.301485, 48.75555]}, "properties": {"numparc": 4884, "etat de la localisation": "autre", "ID BDGEO": "82", "horodatage": "2021-11-12 08:26:34", "distance (en metres)": 46.06, "station": "ANTONY RER", "marker-color": "#818181"}}, {"type": "Feature", "geometry": {"type": "Point", "coordinates": [2.301493, 48.755642]}, "properties": {"numparc": 4873, "etat de la localisation": "autre", "ID BDGEO": "82", "horodatage": "2021-11-12 08:29:49", "distance (en metres)": 55.96, "station": "ANTONY RER", "marker-color": "#818181"}}, {"type": "Feature", "geometry": {"type": "Point", "coordinates": [2.272085, 48.7505]}, "properties": {"numparc": 4876, "etat de la localisation": "Deviation programmee", "ID BDGEO": "39", "horodatage": "2021-11-12 08:31:53", "distance (en metres)": 109.04, "station": "LE CLOS", "marker-color": "#56FF93"}}, {"type": "Feature", "geometry": {"type": "Point", "coordinates": [2.358367, 48.620739]}, "properties": {"numparc": 4883, "etat de la localisation": "autre", "ID BDGEO": "118", "horodatage": "2021-11-12 08:32:44", "distance (en metres)": 12074.57, "station": "CENTRE BUS DE MASSY-SORTIE", "marker-color": "#818181"}}, {"type": "Feature", "geometry": {"type": "Point", "coordinates": [2.297983, 48.724796]}, "properties": {"numparc": 4887, "etat de la localisation": "autre", "ID BDGEO": "45", "horodatage": "2021-11-12 08:33:43", "distance (en metres)": 2652.24, "station": "VALLEE DE LA BIEVRE", "marker-color": "#818181"}}, {"type": "Feature", "geometry": {"type": "Point", "coordinates": [2.297983, 48.724796]}, "properties": {"numparc": 4887, "etat de la localisation": "autre", "ID BDGEO": "45", "horodatage": "2021-11-12 08:33:46", "distance (en metres)": 2652.24, "station": "VALLEE DE LA BIEVRE", "marker-color": "#818181"}}, {"type": "Feature", "geometry": {"type": "Point", "coordinates": [2.272145, 48.750607]}, "properties": {"numparc": 4887, "etat de la localisation": "Deviation programmee", "ID BDGEO": "39", "horodatage": "2021-11-12 08:38:57", "distance (en metres)": 121.22, "station": "LE CLOS", "marker-color": "#56FF93"}}, {"type": "Feature", "geometry": {"type": "Point", "coordinates": [2.358367, 48.620739]}, "properties": {"numparc": 4883, "etat de la localisation": "autre", "ID BDGEO": "118", "horodatage": "2021-11-12 08:39:33", "distance (en metres)": 12074.57, "station": "CENTRE BUS DE MASSY-SORTIE", "marker-color": "#818181"}}, {"type": "Feature", "geometry": {"type": "Point", "coordinates": [2.318985, 48.769451]}, "properties": {"numparc": 4882, "etat de la localisation": "autre", "ID BDGEO": "118", "horodatage": "2021-11-12 08:40:49", "distance (en metres)": 5552.56, "station": "CENTRE BUS DE MASSY-SORTIE", "marker-color": "#818181"}}, {"type": "Feature", "geometry": {"type": "Point", "coordinates": [2.301472, 48.755634]}, "properties": {"numparc": 4877, "etat de la localisation": "autre", "ID BDGEO": "82", "horodatage": "2021-11-12 08:42:24", "distance (en metres)": 54.68, "station": "ANTONY RER", "marker-color": "#818181"}}, {"type": "Feature", "geometry": {"type": "Point", "coordinates": [2.29698, 48.75481]}, "properties": {"numparc": 4847, "etat de la localisation": "autre", "ID BDGEO": "124", "horodatage": "2021-11-12 08:44:29", "distance (en metres)": 301.45, "station": "ANTONY RER#", "marker-color": "#818181"}}, {"type": "Feature", "geometry": {"type": "Point", "coordinates": [2.301509, 48.755627]}, "properties": {"numparc": 4885, "etat de la localisation": "autre", "ID BDGEO": "82", "horodatage": "2021-11-12 08:48:24", "distance (en metres)": 54.73, "station": "ANTONY RER", "marker-color": "#818181"}}, {"type": "Feature", "geometry": {"type": "Point", "coordinates": [2.358368, 48.620739]}, "properties": {"numparc": 4883, "etat de la localisation": "autre", "ID BDGEO": "118", "horodatage": "2021-11-12 08:51:11", "distance (en metres)": 12074.6, "station": "CENTRE BUS DE MASSY-SORTIE", "marker-color": "#818181"}}, {"type": "Feature", "geometry": {"type": "Point", "coordinates": [2.358381, 48.620739]}, "properties": {"numparc": 4883, "etat de la localisation": "autre", "ID BDGEO": "118", "horodatage": "2021-11-12 08:53:05", "distance (en metres)": 12074.96, "station": "CENTRE BUS DE MASSY-SORTIE", "marker-color": "#818181"}}, {"type": "Feature", "geometry": {"type": "Point", "coordinates": [2.272099, 48.750492]}, "properties": {"numparc": 4873, "etat de la localisation": "Deviation programmee", "ID BDGEO": "39", "horodatage": "2021-11-12 08:54:51", "distance (en metres)": 108.21, "station": "LE CLOS", "marker-color": "#56FF93"}}, {"type": "Feature", "geometry": {"type": "Point", "coordinates": [2.301491, 48.755692]}, "properties": {"numparc": 4888, "etat de la localisation": "autre", "ID BDGEO": "82", "horodatage": "2021-11-12 08:55:25", "distance (en metres)": 61.26, "station": "ANTONY RER", "marker-color": "#818181"}}, {"type": "Feature", "geometry": {"type": "Point", "coordinates": [2.358735, 48.62096]}, "properties": {"numparc": 4883, "etat de la localisation": "autre", "ID BDGEO": "118", "horodatage": "2021-11-12 08:56:00", "distance (en metres)": 12061.82, "station": "CENTRE BUS DE MASSY-SORTIE", "marker-color": "#818181"}}, {"type": "Feature", "geometry": {"type": "Point", "coordinates": [2.298575, 48.722412]}, "properties": {"numparc": 4882, "etat de la localisation": "autre", "ID BDGEO": "118", "horodatage": "2021-11-12 08:56:56", "distance (en metres)": 125.97, "station": "CENTRE BUS DE MASSY-SORTIE", "marker-color": "#818181"}}, {"type": "Feature", "geometry": {"type": "Point", "coordinates": [2.298304, 48.722534]}, "properties": {"numparc": 4847, "etat de la localisation": "autre", "ID BDGEO": "118", "horodatage": "2021-11-12 09:03:53", "distance (en metres)": 124.49, "station": "CENTRE BUS DE MASSY-SORTIE", "marker-color": "#818181"}}, {"type": "Feature", "geometry": {"type": "Point", "coordinates": [2.272099, 48.750477]}, "properties": {"numparc": 4877, "etat de la localisation": "Deviation programmee", "ID BDGEO": "39", "horodatage": "2021-11-12 09:06:12", "distance (en metres)": 106.55, "station": "LE CLOS", "marker-color": "#56FF93"}}, {"type": "Feature", "geometry": {"type": "Point", "coordinates": [2.256732, 48.7258]}, "properties": {"numparc": 4884, "etat de la localisation": "autre", "ID BDGEO": "10", "horodatage": "2021-11-12 09:09:37", "distance (en metres)": 51.58, "station": "MASSY-PALAISEAU RER", "marker-color": "#818181"}}, {"type": "Feature", "geometry": {"type": "Point", "coordinates": [2.301518, 48.755661]}, "properties": {"numparc": 4886, "etat de la localisation": "autre", "ID BDGEO": "82", "horodatage": "2021-11-12 09:15:30", "distance (en metres)": 58.52, "station": "ANTONY RER", "marker-color": "#818181"}}, {"type": "Feature", "geometry": {"type": "Point", "coordinates": [2.272092, 48.750473]}, "properties": {"numparc": 4885, "etat de la localisation": "Deviation programmee", "ID BDGEO": "39", "horodatage": "2021-11-12 09:17:49", "distance (en metres)": 106.07, "station": "LE CLOS", "marker-color": "#56FF93"}}, {"type": "Feature", "geometry": {"type": "Point", "coordinates": [2.297001, 48.754829]}, "properties": {"numparc": 4876, "etat de la localisation": "autre", "ID BDGEO": "124", "horodatage": "2021-11-12 09:18:57", "distance (en metres)": 299.46, "station": "ANTONY RER#", "marker-color": "#818181"}}, {"type": "Feature", "geometry": {"type": "Point", "coordinates": [2.272076, 48.750515]}, "properties": {"numparc": 4888, "etat de la localisation": "Deviation programmee", "ID BDGEO": "39", "horodatage": "2021-11-12 09:22:05", "distance (en metres)": 110.67, "station": "LE CLOS", "marker-color": "#56FF93"}}, {"type": "Feature", "geometry": {"type": "Point", "coordinates": [2.301181, 48.754551]}, "properties": {"numparc": 4886, "etat de la localisation": "autre", "ID BDGEO": "82", "horodatage": "2021-11-12 09:31:43", "distance (en metres)": 68.07, "station": "ANTONY RER", "marker-color": "#818181"}}, {"type": "Feature", "geometry": {"type": "Point", "coordinates": [2.272105, 48.750511]}, "properties": {"numparc": 4874, "etat de la localisation": "Deviation programmee", "ID BDGEO": "39", "horodatage": "2021-11-12 09:33:30", "distance (en metres)": 110.35, "station": "LE CLOS", "marker-color": "#56FF93"}}, {"type": "Feature", "geometry": {"type": "Point", "coordinates": [2.256695, 48.72583]}, "properties": {"numparc": 4888, "etat de la localisation": "autre", "ID BDGEO": "10", "horodatage": "2021-11-12 09:37:27", "distance (en metres)": 51.13, "station": "MASSY-PALAISEAU RER", "marker-color": "#818181"}}, {"type": "Feature", "geometry": {"type": "Point", "coordinates": [2.272063, 48.750549]}, "properties": {"numparc": 4886, "etat de la localisation": "Deviation programmee", "ID BDGEO": "39", "horodatage": "2021-11-12 09:42:39", "distance (en metres)": 114.4, "station": "LE CLOS", "marker-color": "#56FF93"}}, {"type": "Feature", "geometry": {"type": "Point", "coordinates": [2.358735, 48.62096]}, "properties": {"numparc": 4883, "etat de la localisation": "autre", "ID BDGEO": "118", "horodatage": "2021-11-12 09:50:47", "distance (en metres)": 12061.82, "station": "CENTRE BUS DE MASSY-SORTIE", "marker-color": "#818181"}}, {"type": "Feature", "geometry": {"type": "Point", "coordinates": [2.357943, 48.620708]}, "properties": {"numparc": 4883, "etat de la localisation": "autre", "ID BDGEO": "118", "horodatage": "2021-11-12 09:55:45", "distance (en metres)": 12066.27, "station": "CENTRE BUS DE MASSY-SORTIE", "marker-color": "#818181"}}, {"type": "Feature", "geometry": {"type": "Point", "coordinates": [2.357942, 48.620708]}, "properties": {"numparc": 4883, "etat de la localisation": "autre", "ID BDGEO": "118", "horodatage": "2021-11-12 09:57:11", "distance (en metres)": 12066.24, "station": "CENTRE BUS DE MASSY-SORTIE", "marker-color": "#818181"}}, {"type": "Feature", "geometry": {"type": "Point", "coordinates": [2.357942, 48.620708]}, "properties": {"numparc": 4883, "etat de la localisation": "autre", "ID BDGEO": "118", "horodatage": "2021-11-12 09:57:24", "distance (en metres)": 12066.24, "station": "CENTRE BUS DE MASSY-SORTIE", "marker-color": "#818181"}}, {"type": "Feature", "geometry": {"type": "Point", "coordinates": [2.357942, 48.620708]}, "properties": {"numparc": 4883, "etat de la localisation": "autre", "ID BDGEO": "118", "horodatage": "2021-11-12 09:58:01", "distance (en metres)": 12066.24, "station": "CENTRE BUS DE MASSY-SORTIE", "marker-color": "#818181"}}, {"type": "Feature", "geometry": {"type": "Point", "coordinates": [2.357942, 48.620708]}, "properties": {"numparc": 4883, "etat de la localisation": "autre", "ID BDGEO": "118", "horodatage": "2021-11-12 09:58:22", "distance (en metres)": 12066.24, "station": "CENTRE BUS DE MASSY-SORTIE", "marker-color": "#818181"}}, {"type": "Feature", "geometry": {"type": "Point", "coordinates": [2.357942, 48.620708]}, "properties": {"numparc": 4883, "etat de la localisation": "autre", "ID BDGEO": "118", "horodatage": "2021-11-12 09:58:52", "distance (en metres)": 12066.24, "station": "CENTRE BUS DE MASSY-SORTIE", "marker-color": "#818181"}}, {"type": "Feature", "geometry": {"type": "Point", "coordinates": [2.356769, 48.62056]}, "properties": {"numparc": 4883, "etat de la localisation": "autre", "ID BDGEO": "118", "horodatage": "2021-11-12 10:02:04", "distance (en metres)": 12050.12, "station": "CENTRE BUS DE MASSY-SORTIE", "marker-color": "#818181"}}, {"type": "Feature", "geometry": {"type": "Point", "coordinates": [2.272081, 48.750484]}, "properties": {"numparc": 4884, "etat de la localisation": "Deviation programmee", "ID BDGEO": "39", "horodatage": "2021-11-12 10:05:06", "distance (en metres)": 107.24, "station": "LE CLOS", "marker-color": "#56FF93"}}, {"type": "Feature", "geometry": {"type": "Point", "coordinates": [2.297032, 48.754841]}, "properties": {"numparc": 4888, "etat de la localisation": "autre", "ID BDGEO": "124", "horodatage": "2021-11-12 10:12:27", "distance (en metres)": 296.94, "station": "ANTONY RER#", "marker-color": "#818181"}}, {"type": "Feature", "geometry": {"type": "Point", "coordinates": [2.301438, 48.755516]}, "properties": {"numparc": 4881, "etat de la localisation": "autre", "ID BDGEO": "82", "horodatage": "2021-11-12 10:24:01", "distance (en metres)": 41.38, "station": "ANTONY RER", "marker-color": "#818181"}}, {"type": "Feature", "geometry": {"type": "Point", "coordinates": [2.272079, 48.750473]}, "properties": {"numparc": 4885, "etat de la localisation": "Deviation programmee", "ID BDGEO": "39", "horodatage": "2021-11-12 10:32:22", "distance (en metres)": 106.02, "station": "LE CLOS", "marker-color": "#56FF93"}}, {"type": "Feature", "geometry": {"type": "Point", "coordinates": [2.272094, 48.75045]}, "properties": {"numparc": 4881, "etat de la localisation": "Deviation programmee", "ID BDGEO": "39", "horodatage": "2021-11-12 10:43:30", "distance (en metres)": 103.53, "station": "LE CLOS", "marker-color": "#56FF93"}}, {"type": "Feature", "geometry": {"type": "Point", "coordinates": [2.272095, 48.750473]}, "properties": {"numparc": 4885, "etat de la localisation": "Deviation programmee", "ID BDGEO": "39", "horodatage": "2021-11-12 11:49:28", "distance (en metres)": 106.09, "station": "LE CLOS", "marker-color": "#56FF93"}}, {"type": "Feature", "geometry": {"type": "Point", "coordinates": [2.297594, 48.721203]}, "properties": {"numparc": 4874, "etat de la localisation": "autre", "ID BDGEO": "118", "horodatage": "2021-11-12 12:09:42", "distance (en metres)": 45.15, "station": "CENTRE BUS DE MASSY-SORTIE", "marker-color": "#818181"}}, {"type": "Feature", "geometry": {"type": "Point", "coordinates": [2.272073, 48.750496]}, "properties": {"numparc": 4882, "etat de la localisation": "Deviation programmee", "ID BDGEO": "39", "horodatage": "2021-11-12 12:14:44", "distance (en metres)": 108.54, "station": "LE CLOS", "marker-color": "#56FF93"}}, {"type": "Feature", "geometry": {"type": "Point", "coordinates": [2.358168, 48.620811]}, "properties": {"numparc": 4883, "etat de la localisation": "autre", "ID BDGEO": "118", "horodatage": "2021-11-12 12:19:47", "distance (en metres)": 12061.72, "station": "CENTRE BUS DE MASSY-SORTIE", "marker-color": "#818181"}}, {"type": "Feature", "geometry": {"type": "Point", "coordinates": [2.298288, 48.722538]}, "properties": {"numparc": 4847, "etat de la localisation": "autre", "ID BDGEO": "118", "horodatage": "2021-11-12 12:21:43", "distance (en metres)": 124.25, "station": "CENTRE BUS DE MASSY-SORTIE", "marker-color": "#818181"}}, {"type": "Feature", "geometry": {"type": "Point", "coordinates": [2.297873, 48.721134]}, "properties": {"numparc": 4881, "etat de la localisation": "autre", "ID BDGEO": "118", "horodatage": "2021-11-12 12:31:41", "distance (en metres)": 61.35, "station": "CENTRE BUS DE MASSY-SORTIE", "marker-color": "#818181"}}, {"type": "Feature", "geometry": {"type": "Point", "coordinates": [2.272124, 48.750488]}, "properties": {"numparc": 4877, "etat de la localisation": "Deviation programmee", "ID BDGEO": "39", "horodatage": "2021-11-12 12:43:50", "distance (en metres)": 107.91, "station": "LE CLOS", "marker-color": "#56FF93"}}, {"type": "Feature", "geometry": {"type": "Point", "coordinates": [2.297902, 48.721169]}, "properties": {"numparc": 4882, "etat de la localisation": "autre", "ID BDGEO": "118", "horodatage": "2021-11-12 12:48:16", "distance (en metres)": 59.5, "station": "CENTRE BUS DE MASSY-SORTIE", "marker-color": "#818181"}}, {"type": "Feature", "geometry": {"type": "Point", "coordinates": [2.298175, 48.722309]}, "properties": {"numparc": 4876, "etat de la localisation": "autre", "ID BDGEO": "118", "horodatage": "2021-11-12 12:52:11", "distance (en metres)": 98.44, "station": "CENTRE BUS DE MASSY-SORTIE", "marker-color": "#818181"}}, {"type": "Feature", "geometry": {"type": "Point", "coordinates": [2.298175, 48.722309]}, "properties": {"numparc": 4876, "etat de la localisation": "autre", "ID BDGEO": "118", "horodatage": "2021-11-12 12:53:38", "distance (en metres)": 98.44, "station": "CENTRE BUS DE MASSY-SORTIE", "marker-color": "#818181"}}, {"type": "Feature", "geometry": {"type": "Point", "coordinates": [2.272097, 48.750477]}, "properties": {"numparc": 4885, "etat de la localisation": "Deviation programmee", "ID BDGEO": "39", "horodatage": "2021-11-12 13:01:51", "distance (en metres)": 106.54, "station": "LE CLOS", "marker-color": "#56FF93"}}, {"type": "Feature", "geometry": {"type": "Point", "coordinates": [2.297027, 48.75481]}, "properties": {"numparc": 4886, "etat de la localisation": "autre", "ID BDGEO": "124", "horodatage": "2021-11-12 13:14:45", "distance (en metres)": 298.1, "station": "ANTONY RER#", "marker-color": "#818181"}}, {"type": "Feature", "geometry": {"type": "Point", "coordinates": [2.272091, 48.750507]}, "properties": {"numparc": 4874, "etat de la localisation": "Deviation programmee", "ID BDGEO": "39", "horodatage": "2021-11-12 13:15:34", "distance (en metres)": 109.84, "station": "LE CLOS", "marker-color": "#56FF93"}}, {"type": "Feature", "geometry": {"type": "Point", "coordinates": [2.272105, 48.750496]}, "properties": {"numparc": 4847, "etat de la localisation": "autre", "ID BDGEO": "39", "horodatage": "2021-11-12 13:29:15", "distance (en metres)": 108.69, "station": "LE CLOS", "marker-color": "#818181"}}, {"type": "Feature", "geometry": {"type": "Point", "coordinates": [2.297017, 48.754818]}, "properties": {"numparc": 4877, "etat de la localisation": "autre", "ID BDGEO": "124", "horodatage": "2021-11-12 13:38:39", "distance (en metres)": 298.6, "station": "ANTONY RER#", "marker-color": "#818181"}}, {"type": "Feature", "geometry": {"type": "Point", "coordinates": [2.300884, 48.7551]}, "properties": {"numparc": 4877, "etat de la localisation": "autre", "ID BDGEO": "124", "horodatage": "2021-11-12 13:41:02", "distance (en metres)": 40.2, "station": "ANTONY RER#", "marker-color": "#818181"}}, {"type": "Feature", "geometry": {"type": "Point", "coordinates": [2.297365, 48.72216]}, "properties": {"numparc": 4883, "etat de la localisation": "autre", "ID BDGEO": "118", "horodatage": "2021-11-12 13:53:54", "distance (en metres)": 63.68, "station": "CENTRE BUS DE MASSY-SORTIE", "marker-color": "#818181"}}, {"type": "Feature", "geometry": {"type": "Point", "coordinates": [2.301107, 48.75555]}, "properties": {"numparc": 4876, "etat de la localisation": "autre", "ID BDGEO": "82", "horodatage": "2021-11-12 13:55:08", "distance (en metres)": 45.02, "station": "ANTONY RER", "marker-color": "#818181"}}, {"type": "Feature", "geometry": {"type": "Point", "coordinates": [2.272135, 48.750507]}, "properties": {"numparc": 4888, "etat de la localisation": "autre", "ID BDGEO": "39", "horodatage": "2021-11-12 13:58:51", "distance (en metres)": 110.08, "station": "LE CLOS", "marker-color": "#818181"}}, {"type": "Feature", "geometry": {"type": "Point", "coordinates": [2.272102, 48.750515]}, "properties": {"numparc": 4874, "etat de la localisation": "Deviation programmee", "ID BDGEO": "39", "horodatage": "2021-11-12 14:30:22", "distance (en metres)": 110.78, "station": "LE CLOS", "marker-color": "#56FF93"}}, {"type": "Feature", "geometry": {"type": "Point", "coordinates": [2.272111, 48.7505]}, "properties": {"numparc": 4847, "etat de la localisation": "autre", "ID BDGEO": "39", "horodatage": "2021-11-12 14:43:56", "distance (en metres)": 109.16, "station": "LE CLOS", "marker-color": "#818181"}}, {"type": "Feature", "geometry": {"type": "Point", "coordinates": [2.255563, 48.725613]}, "properties": {"numparc": 4874, "etat de la localisation": "autre", "ID BDGEO": "10", "horodatage": "2021-11-12 14:51:55", "distance (en metres)": 134.15, "station": "MASSY-PALAISEAU RER", "marker-color": "#818181"}}, {"type": "Feature", "geometry": {"type": "Point", "coordinates": [2.272083, 48.750511]}, "properties": {"numparc": 4873, "etat de la localisation": "Deviation programmee", "ID BDGEO": "39", "horodatage": "2021-11-12 14:57:45", "distance (en metres)": 110.25, "station": "LE CLOS", "marker-color": "#56FF93"}}, {"type": "Feature", "geometry": {"type": "Point", "coordinates": [2.301141, 48.755596]}, "properties": {"numparc": 4876, "etat de la localisation": "autre", "ID BDGEO": "82", "horodatage": "2021-11-12 15:09:50", "distance (en metres)": 49.42, "station": "ANTONY RER", "marker-color": "#818181"}}, {"type": "Feature", "geometry": {"type": "Point", "coordinates": [2.272082, 48.750492]}, "properties": {"numparc": 4876, "etat de la localisation": "autre", "ID BDGEO": "39", "horodatage": "2021-11-12 15:29:23", "distance (en metres)": 108.13, "station": "LE CLOS", "marker-color": "#818181"}}, {"type": "Feature", "geometry": {"type": "Point", "coordinates": [2.272089, 48.75042]}, "properties": {"numparc": 4884, "etat de la localisation": "autre", "ID BDGEO": "39", "horodatage": "2021-11-12 15:38:25", "distance (en metres)": 100.18, "station": "LE CLOS", "marker-color": "#818181"}}, {"type": "Feature", "geometry": {"type": "Point", "coordinates": [2.27211, 48.750504]}, "properties": {"numparc": 4874, "etat de la localisation": "Deviation programmee", "ID BDGEO": "39", "horodatage": "2021-11-12 15:47:32", "distance (en metres)": 109.6, "station": "LE CLOS", "marker-color": "#56FF93"}}, {"type": "Feature", "geometry": {"type": "Point", "coordinates": [2.301516, 48.755615]}, "properties": {"numparc": 4888, "etat de la localisation": "autre", "ID BDGEO": "31", "horodatage": "2021-11-12 16:11:12", "distance (en metres)": 56.57, "station": "ANTONY RER.", "marker-color": "#818181"}}, {"type": "Feature", "geometry": {"type": "Point", "coordinates": [2.301516, 48.755615]}, "properties": {"numparc": 4888, "etat de la localisation": "autre", "ID BDGEO": "31", "horodatage": "2021-11-12 16:11:32", "distance (en metres)": 56.57, "station": "ANTONY RER.", "marker-color": "#818181"}}, {"type": "Feature", "geometry": {"type": "Point", "coordinates": [2.272107, 48.750511]}, "properties": {"numparc": 4873, "etat de la localisation": "Delocalise", "ID BDGEO": "39", "horodatage": "2021-11-12 16:17:43", "distance (en metres)": 110.36, "station": "LE CLOS", "marker-color": "#FF565E"}}, {"type": "Feature", "geometry": {"type": "Point", "coordinates": [2.272107, 48.750511]}, "properties": {"numparc": 4873, "etat de la localisation": "Delocalise", "ID BDGEO": "39", "horodatage": "2021-11-12 16:17:46", "distance (en metres)": 110.36, "station": "LE CLOS", "marker-color": "#FF565E"}}, {"type": "Feature", "geometry": {"type": "Point", "coordinates": [2.272075, 48.750477]}, "properties": {"numparc": 4877, "etat de la localisation": "Deviation programmee", "ID BDGEO": "39", "horodatage": "2021-11-12 16:26:02", "distance (en metres)": 106.44, "station": "LE CLOS", "marker-color": "#56FF93"}}, {"type": "Feature", "geometry": {"type": "Point", "coordinates": [2.30116, 48.755688]}, "properties": {"numparc": 4876, "etat de la localisation": "autre", "ID BDGEO": "82", "horodatage": "2021-11-12 16:29:24", "distance (en metres)": 59.27, "station": "ANTONY RER", "marker-color": "#818181"}}, {"type": "Feature", "geometry": {"type": "Point", "coordinates": [2.272065, 48.750492]}, "properties": {"numparc": 4887, "etat de la localisation": "autre", "ID BDGEO": "39", "horodatage": "2021-11-12 16:33:21", "distance (en metres)": 108.07, "station": "LE CLOS", "marker-color": "#818181"}}, {"type": "Feature", "geometry": {"type": "Point", "coordinates": [2.301486, 48.755581]}, "properties": {"numparc": 4882, "etat de la localisation": "autre", "ID BDGEO": "82", "horodatage": "2021-11-12 16:51:18", "distance (en metres)": 49.34, "station": "ANTONY RER", "marker-color": "#818181"}}, {"type": "Feature", "geometry": {"type": "Point", "coordinates": [2.272084, 48.750504]}, "properties": {"numparc": 4882, "etat de la localisation": "autre", "ID BDGEO": "39", "horodatage": "2021-11-12 17:18:38", "distance (en metres)": 109.48, "station": "LE CLOS", "marker-color": "#818181"}}, {"type": "Feature", "geometry": {"type": "Point", "coordinates": [2.272084, 48.750504]}, "properties": {"numparc": 4882, "etat de la localisation": "autre", "ID BDGEO": "39", "horodatage": "2021-11-12 17:18:42", "distance (en metres)": 109.48, "station": "LE CLOS", "marker-color": "#818181"}}, {"type": "Feature", "geometry": {"type": "Point", "coordinates": [2.301121, 48.755585]}, "properties": {"numparc": 4886, "etat de la localisation": "autre", "ID BDGEO": "82", "horodatage": "2021-11-12 17:19:33", "distance (en metres)": 48.53, "station": "ANTONY RER", "marker-color": "#818181"}}, {"type": "Feature", "geometry": {"type": "Point", "coordinates": [2.272107, 48.750511]}, "properties": {"numparc": 4847, "etat de la localisation": "autre", "ID BDGEO": "39", "horodatage": "2021-11-12 17:25:02", "distance (en metres)": 110.36, "station": "LE CLOS", "marker-color": "#818181"}}, {"type": "Feature", "geometry": {"type": "Point", "coordinates": [2.27215, 48.750458]}, "properties": {"numparc": 4885, "etat de la localisation": "autre", "ID BDGEO": "39", "horodatage": "2021-11-12 17:27:45", "distance (en metres)": 104.77, "station": "LE CLOS", "marker-color": "#818181"}}, {"type": "Feature", "geometry": {"type": "Point", "coordinates": [2.301478, 48.755558]}, "properties": {"numparc": 4887, "etat de la localisation": "autre", "ID BDGEO": "82", "horodatage": "2021-11-12 17:31:52", "distance (en metres)": 46.73, "station": "ANTONY RER", "marker-color": "#818181"}}, {"type": "Feature", "geometry": {"type": "Point", "coordinates": [2.262659, 48.742847]}, "properties": {"numparc": 4847, "etat de la localisation": "autre", "ID BDGEO": "105", "horodatage": "2021-11-12 17:32:16", "distance (en metres)": 53.59, "station": "GRANDS CHENES", "marker-color": "#818181"}}, {"type": "Feature", "geometry": {"type": "Point", "coordinates": [2.316203, 48.770412]}, "properties": {"numparc": 4877, "etat de la localisation": "autre", "ID BDGEO": "68", "horodatage": "2021-11-12 17:46:04", "distance (en metres)": 202.91, "station": "PIERRE KOLHMANN", "marker-color": "#818181"}}, {"type": "Feature", "geometry": {"type": "Point", "coordinates": [2.301478, 48.755699]}, "properties": {"numparc": 4884, "etat de la localisation": "autre", "ID BDGEO": "82", "horodatage": "2021-11-12 17:47:44", "distance (en metres)": 61.78, "station": "ANTONY RER", "marker-color": "#818181"}}, {"type": "Feature", "geometry": {"type": "Point", "coordinates": [2.309853, 48.765995]}, "properties": {"numparc": 4877, "etat de la localisation": "autre", "ID BDGEO": "71", "horodatage": "2021-11-12 17:58:10", "distance (en metres)": 264.25, "station": "NORMANDIE", "marker-color": "#818181"}}, {"type": "Feature", "geometry": {"type": "Point", "coordinates": [2.297001, 48.754799]}, "properties": {"numparc": 4874, "etat de la localisation": "autre", "ID BDGEO": "118", "horodatage": "2021-11-12 17:58:29", "distance (en metres)": 3693.05, "station": "CENTRE BUS DE MASSY-SORTIE", "marker-color": "#818181"}}, {"type": "Feature", "geometry": {"type": "Point", "coordinates": [2.308442, 48.762215]}, "properties": {"numparc": 4877, "etat de la localisation": "autre", "ID BDGEO": "72", "horodatage": "2021-11-12 17:59:34", "distance (en metres)": 48.38, "station": "GENERAL DE GAULLE-CROIX DE BERNY", "marker-color": "#818181"}}, {"type": "Feature", "geometry": {"type": "Point", "coordinates": [2.301043, 48.755398]}, "properties": {"numparc": 4874, "etat de la localisation": "autre", "ID BDGEO": "118", "horodatage": "2021-11-12 18:00:39", "distance (en metres)": 3769.03, "station": "CENTRE BUS DE MASSY-SORTIE", "marker-color": "#818181"}}, {"type": "Feature", "geometry": {"type": "Point", "coordinates": [2.302031, 48.755947]}, "properties": {"numparc": 4877, "etat de la localisation": "autre", "ID BDGEO": "82", "horodatage": "2021-11-12 18:04:06", "distance (en metres)": 103.66, "station": "ANTONY RER", "marker-color": "#818181"}}, {"type": "Feature", "geometry": {"type": "Point", "coordinates": [2.256892, 48.725857]}, "properties": {"numparc": 4886, "etat de la localisation": "autre", "ID BDGEO": "105", "horodatage": "2021-11-12 18:05:48", "distance (en metres)": 1934.33, "station": "GRANDS CHENES", "marker-color": "#818181"}}, {"type": "Feature", "geometry": {"type": "Point", "coordinates": [2.256978, 48.725937]}, "properties": {"numparc": 4886, "etat de la localisation": "autre", "ID BDGEO": "105", "horodatage": "2021-11-12 18:09:26", "distance (en metres)": 1924.16, "station": "GRANDS CHENES", "marker-color": "#818181"}}, {"type": "Feature", "geometry": {"type": "Point", "coordinates": [2.272084, 48.750488]}, "properties": {"numparc": 4882, "etat de la localisation": "autre", "ID BDGEO": "39", "horodatage": "2021-11-12 18:15:11", "distance (en metres)": 107.7, "station": "LE CLOS", "marker-color": "#818181"}}, {"type": "Feature", "geometry": {"type": "Point", "coordinates": [2.298581, 48.722435]}, "properties": {"numparc": 4874, "etat de la localisation": "autre", "ID BDGEO": "118", "horodatage": "2021-11-12 18:16:49", "distance (en metres)": 128.14, "station": "CENTRE BUS DE MASSY-SORTIE", "marker-color": "#818181"}}, {"type": "Feature", "geometry": {"type": "Point", "coordinates": [2.257227, 48.726181]}, "properties": {"numparc": 4886, "etat de la localisation": "autre", "ID BDGEO": "105", "horodatage": "2021-11-12 18:22:31", "distance (en metres)": 1893.44, "station": "GRANDS CHENES", "marker-color": "#818181"}}, {"type": "Feature", "geometry": {"type": "Point", "coordinates": [2.25722, 48.726189]}, "properties": {"numparc": 4886, "etat de la localisation": "autre", "ID BDGEO": "105", "horodatage": "2021-11-12 18:24:15", "distance (en metres)": 1892.69, "station": "GRANDS CHENES", "marker-color": "#818181"}}, {"type": "Feature", "geometry": {"type": "Point", "coordinates": [2.301456, 48.755589]}, "properties": {"numparc": 4881, "etat de la localisation": "autre", "ID BDGEO": "82", "horodatage": "2021-11-12 18:25:59", "distance (en metres)": 49.54, "station": "ANTONY RER", "marker-color": "#818181"}}, {"type": "Feature", "geometry": {"type": "Point", "coordinates": [2.298168, 48.722374]}, "properties": {"numparc": 4887, "etat de la localisation": "autre", "ID BDGEO": "118", "horodatage": "2021-11-12 18:26:50", "distance (en metres)": 104.13, "station": "CENTRE BUS DE MASSY-SORTIE", "marker-color": "#818181"}}, {"type": "Feature", "geometry": {"type": "Point", "coordinates": [2.272112, 48.750477]}, "properties": {"numparc": 4847, "etat de la localisation": "autre", "ID BDGEO": "39", "horodatage": "2021-11-12 18:26:55", "distance (en metres)": 106.62, "station": "LE CLOS", "marker-color": "#818181"}}, {"type": "Feature", "geometry": {"type": "Point", "coordinates": [2.272069, 48.750477]}, "properties": {"numparc": 4876, "etat de la localisation": "autre", "ID BDGEO": "39", "horodatage": "2021-11-12 18:30:19", "distance (en metres)": 106.42, "station": "LE CLOS", "marker-color": "#818181"}}, {"type": "Feature", "geometry": {"type": "Point", "coordinates": [2.301529, 48.755695]}, "properties": {"numparc": 4885, "etat de la localisation": "autre", "ID BDGEO": "82", "horodatage": "2021-11-12 18:31:19", "distance (en metres)": 62.37, "station": "ANTONY RER", "marker-color": "#818181"}}, {"type": "Feature", "geometry": {"type": "Point", "coordinates": [2.301513, 48.755646]}, "properties": {"numparc": 4885, "etat de la localisation": "autre", "ID BDGEO": "82", "horodatage": "2021-11-12 18:32:06", "distance (en metres)": 56.83, "station": "ANTONY RER", "marker-color": "#818181"}}, {"type": "Feature", "geometry": {"type": "Point", "coordinates": [2.272092, 48.750477]}, "properties": {"numparc": 4877, "etat de la localisation": "Deviation programmee", "ID BDGEO": "39", "horodatage": "2021-11-12 18:37:24", "distance (en metres)": 106.52, "station": "LE CLOS", "marker-color": "#56FF93"}}, {"type": "Feature", "geometry": {"type": "Point", "coordinates": [2.296961, 48.75478]}, "properties": {"numparc": 4847, "etat de la localisation": "autre", "ID BDGEO": "124", "horodatage": "2021-11-12 18:47:26", "distance (en metres)": 303.61, "station": "ANTONY RER#", "marker-color": "#818181"}}, {"type": "Feature", "geometry": {"type": "Point", "coordinates": [2.300919, 48.755096]}, "properties": {"numparc": 4847, "etat de la localisation": "autre", "ID BDGEO": "124", "horodatage": "2021-11-12 18:50:00", "distance (en metres)": 40.3, "station": "ANTONY RER#", "marker-color": "#818181"}}, {"type": "Feature", "geometry": {"type": "Point", "coordinates": [2.300835, 48.754883]}, "properties": {"numparc": 4873, "etat de la localisation": "autre", "ID BDGEO": "82", "horodatage": "2021-11-12 18:50:02", "distance (en metres)": 44.49, "station": "ANTONY RER", "marker-color": "#818181"}}, {"type": "Feature", "geometry": {"type": "Point", "coordinates": [2.301453, 48.755596]}, "properties": {"numparc": 4873, "etat de la localisation": "autre", "ID BDGEO": "82", "horodatage": "2021-11-12 18:52:39", "distance (en metres)": 50.24, "station": "ANTONY RER", "marker-color": "#818181"}}, {"type": "Feature", "geometry": {"type": "Point", "coordinates": [2.272072, 48.750454]}, "properties": {"numparc": 4885, "etat de la localisation": "autre", "ID BDGEO": "39", "horodatage": "2021-11-12 18:53:30", "distance (en metres)": 103.88, "station": "LE CLOS", "marker-color": "#818181"}}, {"type": "Feature", "geometry": {"type": "Point", "coordinates": [2.263369, 48.736919]}, "properties": {"numparc": 4882, "etat de la localisation": "autre", "ID BDGEO": "46", "horodatage": "2021-11-12 18:55:09", "distance (en metres)": 86.4, "station": "EMILE ZOLA", "marker-color": "#818181"}}, {"type": "Feature", "geometry": {"type": "Point", "coordinates": [2.26488, 48.74144]}, "properties": {"numparc": 4882, "etat de la localisation": "autre", "ID BDGEO": "44", "horodatage": "2021-11-12 18:58:07", "distance (en metres)": 43.06, "station": "CARNOT", "marker-color": "#818181"}}, {"type": "Feature", "geometry": {"type": "Point", "coordinates": [2.263544, 48.742771]}, "properties": {"numparc": 4882, "etat de la localisation": "autre", "ID BDGEO": "94", "horodatage": "2021-11-12 18:59:42", "distance (en metres)": 51.6, "station": "GRANDS CHENES", "marker-color": "#818181"}}, {"type": "Feature", "geometry": {"type": "Point", "coordinates": [2.270019, 48.746643]}, "properties": {"numparc": 4882, "etat de la localisation": "autre", "ID BDGEO": "40", "horodatage": "2021-11-12 19:01:40", "distance (en metres)": 112.39, "station": "PARON", "marker-color": "#818181"}}, {"type": "Feature", "geometry": {"type": "Point", "coordinates": [2.29836, 48.722572]}, "properties": {"numparc": 4874, "etat de la localisation": "autre", "ID BDGEO": "118", "horodatage": "2021-11-12 19:02:21", "distance (en metres)": 130.26, "station": "CENTRE BUS DE MASSY-SORTIE", "marker-color": "#818181"}}, {"type": "Feature", "geometry": {"type": "Point", "coordinates": [2.276488, 48.75705]}, "properties": {"numparc": 4882, "etat de la localisation": "autre", "ID BDGEO": "36", "horodatage": "2021-11-12 19:06:24", "distance (en metres)": 102.15, "station": "LES GODETS", "marker-color": "#818181"}}, {"type": "Feature", "geometry": {"type": "Point", "coordinates": [2.297398, 48.722008]}, "properties": {"numparc": 4874, "etat de la localisation": "autre", "ID BDGEO": "118", "horodatage": "2021-11-12 19:11:01", "distance (en metres)": 46.74, "station": "CENTRE BUS DE MASSY-SORTIE", "marker-color": "#818181"}}, {"type": "Feature", "geometry": {"type": "Point", "coordinates": [2.30111, 48.755531]}, "properties": {"numparc": 4882, "etat de la localisation": "autre", "ID BDGEO": "82", "horodatage": "2021-11-12 19:13:59", "distance (en metres)": 42.93, "station": "ANTONY RER", "marker-color": "#818181"}}, {"type": "Feature", "geometry": {"type": "Point", "coordinates": [2.272118, 48.750477]}, "properties": {"numparc": 4873, "etat de la localisation": "Deviation programmee", "ID BDGEO": "39", "horodatage": "2021-11-12 19:18:13", "distance (en metres)": 106.66, "station": "LE CLOS", "marker-color": "#56FF93"}}, {"type": "Feature", "geometry": {"type": "Point", "coordinates": [2.272085, 48.750515]}, "properties": {"numparc": 4888, "etat de la localisation": "autre", "ID BDGEO": "39", "horodatage": "2021-11-12 19:23:08", "distance (en metres)": 110.7, "station": "LE CLOS", "marker-color": "#818181"}}, {"type": "Feature", "geometry": {"type": "Point", "coordinates": [2.30148, 48.755653]}, "properties": {"numparc": 4884, "etat de la localisation": "autre", "ID BDGEO": "82", "horodatage": "2021-11-12 19:26:00", "distance (en metres)": 56.87, "station": "ANTONY RER", "marker-color": "#818181"}}, {"type": "Feature", "geometry": {"type": "Point", "coordinates": [2.299018, 48.721951]}, "properties": {"numparc": 4881, "etat de la localisation": "autre", "ID BDGEO": "118", "horodatage": "2021-11-12 19:29:21", "distance (en metres)": 125.58, "station": "CENTRE BUS DE MASSY-SORTIE", "marker-color": "#818181"}}, {"type": "Feature", "geometry": {"type": "Point", "coordinates": [2.272072, 48.750515]}, "properties": {"numparc": 4883, "etat de la localisation": "autre", "ID BDGEO": "39", "horodatage": "2021-11-12 19:31:55", "distance (en metres)": 110.65, "station": "LE CLOS", "marker-color": "#818181"}}, {"type": "Feature", "geometry": {"type": "Point", "coordinates": [2.301546, 48.755646]}, "properties": {"numparc": 4885, "etat de la localisation": "autre", "ID BDGEO": "82", "horodatage": "2021-11-12 19:33:06", "distance (en metres)": 57.62, "station": "ANTONY RER", "marker-color": "#818181"}}, {"type": "Feature", "geometry": {"type": "Point", "coordinates": [2.256353, 48.726109]}, "properties": {"numparc": 4888, "etat de la localisation": "autre", "ID BDGEO": "10", "horodatage": "2021-11-12 19:45:14", "distance (en metres)": 62.7, "station": "MASSY-PALAISEAU RER", "marker-color": "#818181"}}, {"type": "Feature", "geometry": {"type": "Point", "coordinates": [2.272085, 48.750465]}, "properties": {"numparc": 4885, "etat de la localisation": "autre", "ID BDGEO": "39", "horodatage": "2021-11-12 19:54:27", "distance (en metres)": 105.15, "station": "LE CLOS", "marker-color": "#818181"}}, {"type": "Feature", "geometry": {"type": "Point", "coordinates": [2.272094, 48.750336]}, "properties": {"numparc": 4884, "etat de la localisation": "autre", "ID BDGEO": "39", "horodatage": "2021-11-12 20:05:32", "distance (en metres)": 90.89, "station": "LE CLOS", "marker-color": "#818181"}}, {"type": "Feature", "geometry": {"type": "Point", "coordinates": [2.257174, 48.734379]}, "properties": {"numparc": 4882, "etat de la localisation": "autre", "ID BDGEO": "138", "horodatage": "2021-11-12 20:14:37", "distance (en metres)": 927.86, "station": "MASSY-PALAISEAU RER#", "marker-color": "#818181"}}, {"type": "Feature", "geometry": {"type": "Point", "coordinates": [2.262737, 48.733662]}, "properties": {"numparc": 4882, "etat de la localisation": "autre", "ID BDGEO": "138", "horodatage": "2021-11-12 20:15:58", "distance (en metres)": 942.73, "station": "MASSY-PALAISEAU RER#", "marker-color": "#818181"}}, {"type": "Feature", "geometry": {"type": "Point", "coordinates": [2.263319, 48.736912]}, "properties": {"numparc": 4882, "etat de la localisation": "autre", "ID BDGEO": "138", "horodatage": "2021-11-12 20:17:20", "distance (en metres)": 1292.02, "station": "MASSY-PALAISEAU RER#", "marker-color": "#818181"}}, {"type": "Feature", "geometry": {"type": "Point", "coordinates": [2.272088, 48.750443]}, "properties": {"numparc": 4874, "etat de la localisation": "autre", "ID BDGEO": "39", "horodatage": "2021-11-12 20:19:33", "distance (en metres)": 102.72, "station": "LE CLOS", "marker-color": "#818181"}}, {"type": "Feature", "geometry": {"type": "Point", "coordinates": [2.263543, 48.742748]}, "properties": {"numparc": 4882, "etat de la localisation": "autre", "ID BDGEO": "138", "horodatage": "2021-11-12 20:21:18", "distance (en metres)": 1917.13, "station": "MASSY-PALAISEAU RER#", "marker-color": "#818181"}}, {"type": "Feature", "geometry": {"type": "Point", "coordinates": [2.298421, 48.722267]}, "properties": {"numparc": 4888, "etat de la localisation": "autre", "ID BDGEO": "118", "horodatage": "2021-11-12 20:22:24", "distance (en metres)": 106.52, "station": "CENTRE BUS DE MASSY-SORTIE", "marker-color": "#818181"}}, {"type": "Feature", "geometry": {"type": "Point", "coordinates": [2.267264, 48.744488]}, "properties": {"numparc": 4882, "etat de la localisation": "autre", "ID BDGEO": "138", "horodatage": "2021-11-12 20:22:25", "distance (en metres)": 2182.5, "station": "MASSY-PALAISEAU RER#", "marker-color": "#818181"}}, {"type": "Feature", "geometry": {"type": "Point", "coordinates": [2.270012, 48.746632]}, "properties": {"numparc": 4882, "etat de la localisation": "autre", "ID BDGEO": "138", "horodatage": "2021-11-12 20:23:19", "distance (en metres)": 2477.66, "station": "MASSY-PALAISEAU RER#", "marker-color": "#818181"}}, {"type": "Feature", "geometry": {"type": "Point", "coordinates": [2.272073, 48.749691]}, "properties": {"numparc": 4882, "etat de la localisation": "autre", "ID BDGEO": "138", "horodatage": "2021-11-12 20:24:24", "distance (en metres)": 2849.74, "station": "MASSY-PALAISEAU RER#", "marker-color": "#818181"}}, {"type": "Feature", "geometry": {"type": "Point", "coordinates": [2.272434, 48.751984]}, "properties": {"numparc": 4882, "etat de la localisation": "autre", "ID BDGEO": "138", "horodatage": "2021-11-12 20:25:14", "distance (en metres)": 3096.15, "station": "MASSY-PALAISEAU RER#", "marker-color": "#818181"}}, {"type": "Feature", "geometry": {"type": "Point", "coordinates": [2.277935, 48.757584]}, "properties": {"numparc": 4882, "etat de la localisation": "autre", "ID BDGEO": "138", "horodatage": "2021-11-12 20:28:14", "distance (en metres)": 3825.65, "station": "MASSY-PALAISEAU RER#", "marker-color": "#818181"}}, {"type": "Feature", "geometry": {"type": "Point", "coordinates": [2.281922, 48.756493]}, "properties": {"numparc": 4882, "etat de la localisation": "autre", "ID BDGEO": "138", "horodatage": "2021-11-12 20:29:13", "distance (en metres)": 3844.08, "station": "MASSY-PALAISEAU RER#", "marker-color": "#818181"}}, {"type": "Feature", "geometry": {"type": "Point", "coordinates": [2.272091, 48.750477]}, "properties": {"numparc": 4886, "etat de la localisation": "autre", "ID BDGEO": "39", "horodatage": "2021-11-12 20:30:52", "distance (en metres)": 106.51, "station": "LE CLOS", "marker-color": "#818181"}}, {"type": "Feature", "geometry": {"type": "Point", "coordinates": [2.301049, 48.755451]}, "properties": {"numparc": 4882, "etat de la localisation": "autre", "ID BDGEO": "118", "horodatage": "2021-11-12 20:33:53", "distance (en metres)": 3774.94, "station": "CENTRE BUS DE MASSY-SORTIE", "marker-color": "#818181"}}, {"type": "Feature", "geometry": {"type": "Point", "coordinates": [2.272089, 48.750492]}, "properties": {"numparc": 4883, "etat de la localisation": "autre", "ID BDGEO": "39", "horodatage": "2021-11-12 20:46:14", "distance (en metres)": 108.16, "station": "LE CLOS", "marker-color": "#818181"}}, {"type": "Feature", "geometry": {"type": "Point", "coordinates": [2.272089, 48.750492]}, "properties": {"numparc": 4883, "etat de la localisation": "autre", "ID BDGEO": "39", "horodatage": "2021-11-12 20:46:19", "distance (en metres)": 108.16, "station": "LE CLOS", "marker-color": "#818181"}}, {"type": "Feature", "geometry": {"type": "Point", "coordinates": [2.296985, 48.754841]}, "properties": {"numparc": 4884, "etat de la localisation": "autre", "ID BDGEO": "124", "horodatage": "2021-11-12 20:54:39", "distance (en metres)": 300.29, "station": "ANTONY RER#", "marker-color": "#818181"}}, {"type": "Feature", "geometry": {"type": "Point", "coordinates": [2.300738, 48.754963]}, "properties": {"numparc": 4884, "etat de la localisation": "autre", "ID BDGEO": "124", "horodatage": "2021-11-12 20:56:49", "distance (en metres)": 57.54, "station": "ANTONY RER#", "marker-color": "#818181"}}, {"type": "Feature", "geometry": {"type": "Point", "coordinates": [2.298018, 48.721516]}, "properties": {"numparc": 4884, "etat de la localisation": "autre", "ID BDGEO": "118", "horodatage": "2021-11-12 21:08:01", "distance (en metres)": 46.24, "station": "CENTRE BUS DE MASSY-SORTIE", "marker-color": "#818181"}}, {"type": "Feature", "geometry": {"type": "Point", "coordinates": [2.298302, 48.721745]}, "properties": {"numparc": 4884, "etat de la localisation": "autre", "ID BDGEO": "118", "horodatage": "2021-11-12 21:08:58", "distance (en metres)": 68.65, "station": "CENTRE BUS DE MASSY-SORTIE", "marker-color": "#818181"}}, {"type": "Feature", "geometry": {"type": "Point", "coordinates": [2.272429, 48.749977]}, "properties": {"numparc": 4874, "etat de la localisation": "autre", "ID BDGEO": "39", "horodatage": "2021-11-12 21:23:28", "distance (en metres)": 59.69, "station": "LE CLOS", "marker-color": "#818181"}}, {"type": "Feature", "geometry": {"type": "Point", "coordinates": [2.272046, 48.750519]}, "properties": {"numparc": 4883, "etat de la localisation": "autre", "ID BDGEO": "39", "horodatage": "2021-11-12 22:08:18", "distance (en metres)": 111.02, "station": "LE CLOS", "marker-color": "#818181"}}, {"type": "Feature", "geometry": {"type": "Point", "coordinates": [2.29776, 48.722122]}, "properties": {"numparc": 4886, "etat de la localisation": "autre", "ID BDGEO": "118", "horodatage": "2021-11-12 22:14:28", "distance (en metres)": 65.1, "station": "CENTRE BUS DE MASSY-SORTIE", "marker-color": "#818181"}}, {"type": "Feature", "geometry": {"type": "Point", "coordinates": [2.2721, 48.750443]}, "properties": {"numparc": 4874, "etat de la localisation": "autre", "ID BDGEO": "39", "horodatage": "2021-11-12 22:44:26", "distance (en metres)": 102.78, "station": "LE CLOS", "marker-color": "#818181"}}, {"type": "Feature", "geometry": {"type": "Point", "coordinates": [2.297176, 48.72253]}, "properties": {"numparc": 4874, "etat de la localisation": "autre", "ID BDGEO": "118", "horodatage": "2021-11-13 01:13:15", "distance (en metres)": 106.02, "station": "CENTRE BUS DE MASSY-SORTIE", "marker-color": "#818181"}}, {"type": "Feature", "geometry": {"type": "Point", "coordinates": [2.297397, 48.721588]}, "properties": {"station": "CENTRE BUS DE MASSY-SORTIE", "ID BDGEO": "118", "marker-color": "#56B3FF"}}, {"type": "Feature", "geometry": {"type": "Point", "coordinates": [2.267693, 48.737825]}, "properties": {"station": "VALLEE DE LA BIEVRE", "ID BDGEO": "45", "marker-color": "#56B3FF"}}, {"type": "Feature", "geometry": {"type": "Point", "coordinates": [2.301273, 48.75516]}, "properties": {"station": "ANTONY RER", "ID BDGEO": "82", "marker-color": "#56B3FF"}}, {"type": "Feature", "geometry": {"type": "Point", "coordinates": [2.277454, 48.757712]}, "properties": {"station": "LES GODETS", "ID BDGEO": "36", "marker-color": "#56B3FF"}}, {"type": "Feature", "geometry": {"type": "Point", "coordinates": [2.271999, 48.749521]}, "properties": {"station": "LE CLOS", "ID BDGEO": "39", "marker-color": "#56B3FF"}}, {"type": "Feature", "geometry": {"type": "Point", "coordinates": [2.301286, 48.755295]}, "properties": {"station": "ANTONY RER", "ID BDGEO": "145", "marker-color": "#56B3FF"}}, {"type": "Feature", "geometry": {"type": "Point", "coordinates": [2.267529, 48.73813]}, "properties": {"station": "VALLEE DE LA BIEVRE", "ID BDGEO": "17", "marker-color": "#56B3FF"}}, {"type": "Feature", "geometry": {"type": "Point", "coordinates": [2.301286, 48.755277]}, "properties": {"station": "ANTONY RER", "ID BDGEO": "155", "marker-color": "#56B3FF"}}, {"type": "Feature", "geometry": {"type": "Point", "coordinates": [2.257206, 48.726142]}, "properties": {"station": "MASSY-PALAISEAU RER", "ID BDGEO": "10", "marker-color": "#56B3FF"}}, {"type": "Feature", "geometry": {"type": "Point", "coordinates": [2.300973, 48.755457]}, "properties": {"station": "ANTONY RER#", "ID BDGEO": "124", "marker-color": "#56B3FF"}}, {"type": "Feature", "geometry": {"type": "Point", "coordinates": [2.300906, 48.755304]}, "properties": {"station": "ANTONY RER.", "ID BDGEO": "31", "marker-color": "#56B3FF"}}, {"type": "Feature", "geometry": {"type": "Point", "coordinates": [2.263364, 48.742721]}, "properties": {"station": "GRANDS CHENES", "ID BDGEO": "105", "marker-color": "#56B3FF"}}, {"type": "Feature", "geometry": {"type": "Point", "coordinates": [2.318789, 48.769761]}, "properties": {"station": "PIERRE KOLHMANN", "ID BDGEO": "68", "marker-color": "#56B3FF"}}, {"type": "Feature", "geometry": {"type": "Point", "coordinates": [2.310863, 48.768276]}, "properties": {"station": "NORMANDIE", "ID BDGEO": "71", "marker-color": "#56B3FF"}}, {"type": "Feature", "geometry": {"type": "Point", "coordinates": [2.308582, 48.76264]}, "properties": {"station": "GENERAL DE GAULLE-CROIX DE BERNY", "ID BDGEO": "72", "marker-color": "#56B3FF"}}, {"type": "Feature", "geometry": {"type": "Point", "coordinates": [2.262708, 48.736276]}, "properties": {"station": "EMILE ZOLA", "ID BDGEO": "46", "marker-color": "#56B3FF"}}, {"type": "Feature", "geometry": {"type": "Point", "coordinates": [2.265283, 48.741158]}, "properties": {"station": "CARNOT", "ID BDGEO": "44", "marker-color": "#56B3FF"}}, {"type": "Feature", "geometry": {"type": "Point", "coordinates": [2.262848, 48.742703]}, "properties": {"station": "GRANDS CHENES", "ID BDGEO": "94", "marker-color": "#56B3FF"}}, {"type": "Feature", "geometry": {"type": "Point", "coordinates": [2.269082, 48.745843]}, "properties": {"station": "PARON", "ID BDGEO": "40", "marker-color": "#56B3FF"}}, {"type": "Feature", "geometry": {"type": "Point", "coordinates": [2.257125, 48.726035]}, "properties": {"station": "MASSY-PALAISEAU RER#", "ID BDGEO": "138", "marker-color": "#56B3FF"}}]}