{"type": "FeatureCollection", "features": [{"type": "Feature", "geometry": {"type": "Point", "coordinates": [2.33322, 48.832726]}, "properties": {"numparc": 7060, "etat de la localisation": "autre", "ID BDGEO": "2", "horodatage": "2022-10-08 06:51:07", "distance (en metres)": 140.16, "station": "DENFERT ROCHEREAU-METRO-RER", "marker-color": "#818181"}}, {"type": "Feature", "geometry": {"type": "Point", "coordinates": [2.352579, 48.755081]}, "properties": {"numparc": 7060, "etat de la localisation": "autre", "ID BDGEO": "13", "horodatage": "2022-10-08 07:27:37", "distance (en metres)": 44.83, "station": "CONCARNEAU", "marker-color": "#818181"}}, {"type": "Feature", "geometry": {"type": "Point", "coordinates": [2.347604, 48.759933]}, "properties": {"numparc": 7060, "etat de la localisation": "autre", "ID BDGEO": "1", "horodatage": "2022-10-08 07:29:30", "distance (en metres)": 848.19, "station": "RUNGIS-MARCHE INTERNATIONAL", "marker-color": "#818181"}}, {"type": "Feature", "geometry": {"type": "Point", "coordinates": [2.34761, 48.759922]}, "properties": {"numparc": 7060, "etat de la localisation": "autre", "ID BDGEO": "1", "horodatage": "2022-10-08 07:29:57", "distance (en metres)": 848.32, "station": "RUNGIS-MARCHE INTERNATIONAL", "marker-color": "#818181"}}, {"type": "Feature", "geometry": {"type": "Point", "coordinates": [2.333114, 48.832794]}, "properties": {"numparc": 7060, "etat de la localisation": "autre", "ID BDGEO": "2", "horodatage": "2022-10-08 07:50:59", "distance (en metres)": 143.99, "station": "DENFERT ROCHEREAU-METRO-RER", "marker-color": "#818181"}}, {"type": "Feature", "geometry": {"type": "Point", "coordinates": [2.352624, 48.755066]}, "properties": {"numparc": 7060, "etat de la localisation": "autre", "ID BDGEO": "13", "horodatage": "2022-10-08 08:29:51", "distance (en metres)": 41.41, "station": "CONCARNEAU", "marker-color": "#818181"}}, {"type": "Feature", "geometry": {"type": "Point", "coordinates": [2.347327, 48.760242]}, "properties": {"numparc": 7060, "etat de la localisation": "autre", "ID BDGEO": "1", "horodatage": "2022-10-08 08:31:30", "distance (en metres)": 853.37, "station": "RUNGIS-MARCHE INTERNATIONAL", "marker-color": "#818181"}}, {"type": "Feature", "geometry": {"type": "Point", "coordinates": [2.333187, 48.832699]}, "properties": {"numparc": 7060, "etat de la localisation": "autre", "ID BDGEO": "2", "horodatage": "2022-10-08 08:49:51", "distance (en metres)": 143.66, "station": "DENFERT ROCHEREAU-METRO-RER", "marker-color": "#818181"}}, {"type": "Feature", "geometry": {"type": "Point", "coordinates": [2.333189, 48.832775]}, "properties": {"numparc": 7060, "etat de la localisation": "autre", "ID BDGEO": "2", "horodatage": "2022-10-08 08:50:16", "distance (en metres)": 139.81, "station": "DENFERT ROCHEREAU-METRO-RER", "marker-color": "#818181"}}, {"type": "Feature", "geometry": {"type": "Point", "coordinates": [2.352588, 48.755081]}, "properties": {"numparc": 7060, "etat de la localisation": "autre", "ID BDGEO": "13", "horodatage": "2022-10-08 09:27:49", "distance (en metres)": 44.41, "station": "CONCARNEAU", "marker-color": "#818181"}}, {"type": "Feature", "geometry": {"type": "Point", "coordinates": [2.34902, 48.761162]}, "properties": {"numparc": 7060, "etat de la localisation": "autre", "ID BDGEO": "15", "horodatage": "2022-10-08 09:31:50", "distance (en metres)": 43.98, "station": "VIADUC", "marker-color": "#818181"}}, {"type": "Feature", "geometry": {"type": "Point", "coordinates": [2.333132, 48.832592]}, "properties": {"numparc": 7060, "etat de la localisation": "autre", "ID BDGEO": "2", "horodatage": "2022-10-08 09:53:39", "distance (en metres)": 152.98, "station": "DENFERT ROCHEREAU-METRO-RER", "marker-color": "#818181"}}, {"type": "Feature", "geometry": {"type": "Point", "coordinates": [2.333079, 48.832607]}, "properties": {"numparc": 7060, "etat de la localisation": "autre", "ID BDGEO": "2", "horodatage": "2022-10-08 10:57:07", "distance (en metres)": 155.48, "station": "DENFERT ROCHEREAU-METRO-RER", "marker-color": "#818181"}}, {"type": "Feature", "geometry": {"type": "Point", "coordinates": [2.296969, 48.721325]}, "properties": {"numparc": 7065, "etat de la localisation": "autre", "ID BDGEO": "84", "horodatage": "2022-10-08 12:28:38", "distance (en metres)": 172.19, "station": "MASSY (ANNEXE MON) ENTREE", "marker-color": "#818181"}}, {"type": "Feature", "geometry": {"type": "Point", "coordinates": [2.334615, 48.833359]}, "properties": {"numparc": 7065, "etat de la localisation": "autre", "ID BDGEO": "24", "horodatage": "2022-10-08 12:58:07", "distance (en metres)": 127.72, "station": "DENFERT ROCHEREAU-METRO-RER.", "marker-color": "#818181"}}, {"type": "Feature", "geometry": {"type": "Point", "coordinates": [2.354985, 48.750114]}, "properties": {"numparc": 7065, "etat de la localisation": "autre", "ID BDGEO": "1", "horodatage": "2022-10-08 13:15:48", "distance (en metres)": 1461.35, "station": "RUNGIS-MARCHE INTERNATIONAL", "marker-color": "#818181"}}, {"type": "Feature", "geometry": {"type": "Point", "coordinates": [2.333309, 48.832581]}, "properties": {"numparc": 7065, "etat de la localisation": "autre", "ID BDGEO": "2", "horodatage": "2022-10-08 13:41:26", "distance (en metres)": 142.73, "station": "DENFERT ROCHEREAU-METRO-RER", "marker-color": "#818181"}}, {"type": "Feature", "geometry": {"type": "Point", "coordinates": [2.333309, 48.832581]}, "properties": {"numparc": 7065, "etat de la localisation": "autre", "ID BDGEO": "2", "horodatage": "2022-10-08 13:51:12", "distance (en metres)": 142.73, "station": "DENFERT ROCHEREAU-METRO-RER", "marker-color": "#818181"}}, {"type": "Feature", "geometry": {"type": "Point", "coordinates": [2.333183, 48.832611]}, "properties": {"numparc": 7065, "etat de la localisation": "autre", "ID BDGEO": "2", "horodatage": "2022-10-08 14:44:19", "distance (en metres)": 148.69, "station": "DENFERT ROCHEREAU-METRO-RER", "marker-color": "#818181"}}, {"type": "Feature", "geometry": {"type": "Point", "coordinates": [2.333183, 48.832611]}, "properties": {"numparc": 7065, "etat de la localisation": "autre", "ID BDGEO": "2", "horodatage": "2022-10-08 14:54:04", "distance (en metres)": 148.69, "station": "DENFERT ROCHEREAU-METRO-RER", "marker-color": "#818181"}}, {"type": "Feature", "geometry": {"type": "Point", "coordinates": [2.334116, 48.830189]}, "properties": {"numparc": 7065, "etat de la localisation": "autre", "ID BDGEO": "20", "horodatage": "2022-10-08 15:43:43", "distance (en metres)": 45.19, "station": "DAREAU-RENE COTY", "marker-color": "#818181"}}, {"type": "Feature", "geometry": {"type": "Point", "coordinates": [2.333477, 48.832211]}, "properties": {"numparc": 7065, "etat de la localisation": "autre", "ID BDGEO": "2", "horodatage": "2022-10-08 15:44:30", "distance (en metres)": 160.81, "station": "DENFERT ROCHEREAU-METRO-RER", "marker-color": "#818181"}}, {"type": "Feature", "geometry": {"type": "Point", "coordinates": [2.333295, 48.832588]}, "properties": {"numparc": 7065, "etat de la localisation": "autre", "ID BDGEO": "2", "horodatage": "2022-10-08 16:41:41", "distance (en metres)": 143.1, "station": "DENFERT ROCHEREAU-METRO-RER", "marker-color": "#818181"}}, {"type": "Feature", "geometry": {"type": "Point", "coordinates": [2.333294, 48.832592]}, "properties": {"numparc": 7065, "etat de la localisation": "autre", "ID BDGEO": "2", "horodatage": "2022-10-08 16:51:46", "distance (en metres)": 142.94, "station": "DENFERT ROCHEREAU-METRO-RER", "marker-color": "#818181"}}, {"type": "Feature", "geometry": {"type": "Point", "coordinates": [2.333364, 48.83358]}, "properties": {"numparc": 7065, "etat de la localisation": "autre", "ID BDGEO": "2", "horodatage": "2022-10-08 16:53:00", "distance (en metres)": 118.62, "station": "DENFERT ROCHEREAU-METRO-RER", "marker-color": "#818181"}}, {"type": "Feature", "geometry": {"type": "Point", "coordinates": [2.333377, 48.832466]}, "properties": {"numparc": 7065, "etat de la localisation": "autre", "ID BDGEO": "24", "horodatage": "2022-10-08 17:40:42", "distance (en metres)": 67.93, "station": "DENFERT ROCHEREAU-METRO-RER.", "marker-color": "#818181"}}, {"type": "Feature", "geometry": {"type": "Point", "coordinates": [2.334667, 48.833424]}, "properties": {"numparc": 7065, "etat de la localisation": "autre", "ID BDGEO": "24", "horodatage": "2022-10-08 17:56:26", "distance (en metres)": 133.66, "station": "DENFERT ROCHEREAU-METRO-RER.", "marker-color": "#818181"}}, {"type": "Feature", "geometry": {"type": "Point", "coordinates": [2.338914, 48.832165]}, "properties": {"numparc": 7065, "etat de la localisation": "autre", "ID BDGEO": "20", "horodatage": "2022-10-08 17:58:24", "distance (en metres)": 411.48, "station": "DAREAU-RENE COTY", "marker-color": "#818181"}}, {"type": "Feature", "geometry": {"type": "Point", "coordinates": [2.341062, 48.825771]}, "properties": {"numparc": 7065, "etat de la localisation": "autre", "ID BDGEO": "18", "horodatage": "2022-10-08 18:01:18", "distance (en metres)": 388.34, "station": "PARC MONTSOURIS", "marker-color": "#818181"}}, {"type": "Feature", "geometry": {"type": "Point", "coordinates": [2.340894, 48.821438]}, "properties": {"numparc": 7065, "etat de la localisation": "autre", "ID BDGEO": "18", "horodatage": "2022-10-08 18:02:40", "distance (en metres)": 484.75, "station": "PARC MONTSOURIS", "marker-color": "#818181"}}, {"type": "Feature", "geometry": {"type": "Point", "coordinates": [2.346204, 48.759052]}, "properties": {"numparc": 7065, "etat de la localisation": "autre", "ID BDGEO": "1", "horodatage": "2022-10-08 18:11:57", "distance (en metres)": 983.28, "station": "RUNGIS-MARCHE INTERNATIONAL", "marker-color": "#818181"}}, {"type": "Feature", "geometry": {"type": "Point", "coordinates": [2.35395, 48.751358]}, "properties": {"numparc": 7065, "etat de la localisation": "autre", "ID BDGEO": "1", "horodatage": "2022-10-08 18:16:02", "distance (en metres)": 1340.31, "station": "RUNGIS-MARCHE INTERNATIONAL", "marker-color": "#818181"}}, {"type": "Feature", "geometry": {"type": "Point", "coordinates": [2.334927, 48.833297]}, "properties": {"station": "DENFERT ROCHEREAU-METRO-RER", "ID BDGEO": "2", "marker-color": "#56B3FF"}}, {"type": "Feature", "geometry": {"type": "Point", "coordinates": [2.352982, 48.754778]}, "properties": {"station": "CONCARNEAU", "ID BDGEO": "13", "marker-color": "#56B3FF"}}, {"type": "Feature", "geometry": {"type": "Point", "coordinates": [2.358137, 48.763091]}, "properties": {"station": "RUNGIS-MARCHE INTERNATIONAL", "ID BDGEO": "1", "marker-color": "#56B3FF"}}, {"type": "Feature", "geometry": {"type": "Point", "coordinates": [2.349341, 48.760827]}, "properties": {"station": "VIADUC", "ID BDGEO": "15", "marker-color": "#56B3FF"}}, {"type": "Feature", "geometry": {"type": "Point", "coordinates": [2.297831, 48.722765]}, "properties": {"station": "MASSY (ANNEXE MON) ENTREE", "ID BDGEO": "84", "marker-color": "#56B3FF"}}, {"type": "Feature", "geometry": {"type": "Point", "coordinates": [2.332953, 48.83301]}, "properties": {"station": "DENFERT ROCHEREAU-METRO-RER.", "ID BDGEO": "24", "marker-color": "#56B3FF"}}, {"type": "Feature", "geometry": {"type": "Point", "coordinates": [2.333851, 48.830556]}, "properties": {"station": "DAREAU-RENE COTY", "ID BDGEO": "20", "marker-color": "#56B3FF"}}, {"type": "Feature", "geometry": {"type": "Point", "coordinates": [2.336139, 48.824471]}, "properties": {"station": "PARC MONTSOURIS", "ID BDGEO": "18", "marker-color": "#56B3FF"}}]}