{"type": "FeatureCollection", "features": [{"type": "Feature", "geometry": {"type": "Point", "coordinates": [2.32985, 48.822853]}, "properties": {"numparc": 1472, "etat de la localisation": "autre", "ID BDGEO": "5429", "horodatage": "2022-07-16 05:25:45", "distance (en metres)": 52.95, "station": "MONTROUGE SORTIE#", "marker-color": "#818181"}}, {"type": "Feature", "geometry": {"type": "Point", "coordinates": [2.328586, 48.823307]}, "properties": {"numparc": 1472, "etat de la localisation": "autre", "ID BDGEO": "5429", "horodatage": "2022-07-16 05:31:20", "distance (en metres)": 102.51, "station": "MONTROUGE SORTIE#", "marker-color": "#818181"}}, {"type": "Feature", "geometry": {"type": "Point", "coordinates": [2.327229, 48.823666]}, "properties": {"numparc": 1472, "etat de la localisation": "autre", "ID BDGEO": "5416", "horodatage": "2022-07-16 05:32:21", "distance (en metres)": 1702.52, "station": "PORTE DE VANVES", "marker-color": "#818181"}}, {"type": "Feature", "geometry": {"type": "Point", "coordinates": [2.292084, 48.820972]}, "properties": {"numparc": 1472, "etat de la localisation": "autre", "ID BDGEO": "5380", "horodatage": "2022-07-16 06:06:51", "distance (en metres)": 49.29, "station": "INSURRECTION-BLEUZEN", "marker-color": "#818181"}}, {"type": "Feature", "geometry": {"type": "Point", "coordinates": [2.328224, 48.823437]}, "properties": {"numparc": 1474, "etat de la localisation": "autre", "ID BDGEO": "5429", "horodatage": "2022-07-16 07:08:42", "distance (en metres)": 129.66, "station": "MONTROUGE SORTIE#", "marker-color": "#818181"}}, {"type": "Feature", "geometry": {"type": "Point", "coordinates": [2.291987, 48.820961]}, "properties": {"numparc": 1472, "etat de la localisation": "autre", "ID BDGEO": "5380", "horodatage": "2022-07-16 07:20:15", "distance (en metres)": 42.64, "station": "INSURRECTION-BLEUZEN", "marker-color": "#818181"}}, {"type": "Feature", "geometry": {"type": "Point", "coordinates": [2.291987, 48.820995]}, "properties": {"numparc": 1474, "etat de la localisation": "autre", "ID BDGEO": "5380", "horodatage": "2022-07-16 08:10:18", "distance (en metres)": 44.94, "station": "INSURRECTION-BLEUZEN", "marker-color": "#818181"}}, {"type": "Feature", "geometry": {"type": "Point", "coordinates": [2.292099, 48.820976]}, "properties": {"numparc": 1472, "etat de la localisation": "autre", "ID BDGEO": "5380", "horodatage": "2022-07-16 08:48:50", "distance (en metres)": 50.45, "station": "INSURRECTION-BLEUZEN", "marker-color": "#818181"}}, {"type": "Feature", "geometry": {"type": "Point", "coordinates": [2.292012, 48.820976]}, "properties": {"numparc": 1474, "etat de la localisation": "autre", "ID BDGEO": "5380", "horodatage": "2022-07-16 09:45:15", "distance (en metres)": 45.12, "station": "INSURRECTION-BLEUZEN", "marker-color": "#818181"}}, {"type": "Feature", "geometry": {"type": "Point", "coordinates": [2.304226, 48.827026]}, "properties": {"numparc": 1472, "etat de la localisation": "autre", "ID BDGEO": "5383", "horodatage": "2022-07-16 09:57:01", "distance (en metres)": 71.33, "station": "PORTE DE VANVES", "marker-color": "#818181"}}, {"type": "Feature", "geometry": {"type": "Point", "coordinates": [2.332197, 48.833572]}, "properties": {"numparc": 1474, "etat de la localisation": "autre", "ID BDGEO": "5408", "horodatage": "2022-07-16 10:03:31", "distance (en metres)": 122.79, "station": "DENFERT-ROCHEREAU - FROIDEVAUX", "marker-color": "#818181"}}, {"type": "Feature", "geometry": {"type": "Point", "coordinates": [2.332197, 48.833572]}, "properties": {"numparc": 1474, "etat de la localisation": "autre", "ID BDGEO": "5408", "horodatage": "2022-07-16 10:10:49", "distance (en metres)": 122.79, "station": "DENFERT-ROCHEREAU - FROIDEVAUX", "marker-color": "#818181"}}, {"type": "Feature", "geometry": {"type": "Point", "coordinates": [2.313915, 48.831791]}, "properties": {"numparc": 1472, "etat de la localisation": "autre", "ID BDGEO": "5385", "horodatage": "2022-07-16 10:13:33", "distance (en metres)": 43.23, "station": "PLAISANCE", "marker-color": "#818181"}}, {"type": "Feature", "geometry": {"type": "Point", "coordinates": [2.291997, 48.820995]}, "properties": {"numparc": 1474, "etat de la localisation": "autre", "ID BDGEO": "5380", "horodatage": "2022-07-16 11:05:12", "distance (en metres)": 45.51, "station": "INSURRECTION-BLEUZEN", "marker-color": "#818181"}}, {"type": "Feature", "geometry": {"type": "Point", "coordinates": [2.292084, 48.820953]}, "properties": {"numparc": 1472, "etat de la localisation": "autre", "ID BDGEO": "5380", "horodatage": "2022-07-16 11:52:00", "distance (en metres)": 48.22, "station": "INSURRECTION-BLEUZEN", "marker-color": "#818181"}}, {"type": "Feature", "geometry": {"type": "Point", "coordinates": [2.292073, 48.820992]}, "properties": {"numparc": 1474, "etat de la localisation": "autre", "ID BDGEO": "5380", "horodatage": "2022-07-16 12:36:59", "distance (en metres)": 49.76, "station": "INSURRECTION-BLEUZEN", "marker-color": "#818181"}}, {"type": "Feature", "geometry": {"type": "Point", "coordinates": [2.304306, 48.827057]}, "properties": {"numparc": 1472, "etat de la localisation": "autre", "ID BDGEO": "5383", "horodatage": "2022-07-16 13:04:31", "distance (en metres)": 64.65, "station": "PORTE DE VANVES", "marker-color": "#818181"}}, {"type": "Feature", "geometry": {"type": "Point", "coordinates": [2.304306, 48.827057]}, "properties": {"numparc": 1472, "etat de la localisation": "autre", "ID BDGEO": "5383", "horodatage": "2022-07-16 13:04:40", "distance (en metres)": 64.65, "station": "PORTE DE VANVES", "marker-color": "#818181"}}, {"type": "Feature", "geometry": {"type": "Point", "coordinates": [2.345252, 48.835045]}, "properties": {"numparc": 1474, "etat de la localisation": "autre", "ID BDGEO": "5524", "horodatage": "2022-07-16 13:09:42", "distance (en metres)": 869.39, "station": "PLACE D'ITALIE#", "marker-color": "#818181"}}, {"type": "Feature", "geometry": {"type": "Point", "coordinates": [2.329707, 48.823101]}, "properties": {"numparc": 1474, "etat de la localisation": "autre", "ID BDGEO": "5408", "horodatage": "2022-07-16 13:19:59", "distance (en metres)": 1284.77, "station": "DENFERT-ROCHEREAU - FROIDEVAUX", "marker-color": "#818181"}}, {"type": "Feature", "geometry": {"type": "Point", "coordinates": [2.329704, 48.823101]}, "properties": {"numparc": 1474, "etat de la localisation": "autre", "ID BDGEO": "5408", "horodatage": "2022-07-16 13:20:44", "distance (en metres)": 1284.79, "station": "DENFERT-ROCHEREAU - FROIDEVAUX", "marker-color": "#818181"}}, {"type": "Feature", "geometry": {"type": "Point", "coordinates": [2.329641, 48.823025]}, "properties": {"numparc": 1474, "etat de la localisation": "autre", "ID BDGEO": "5408", "horodatage": "2022-07-16 13:21:31", "distance (en metres)": 1293.71, "station": "DENFERT-ROCHEREAU - FROIDEVAUX", "marker-color": "#818181"}}, {"type": "Feature", "geometry": {"type": "Point", "coordinates": [2.274726, 48.816364]}, "properties": {"numparc": 1472, "etat de la localisation": "autre", "ID BDGEO": "5376", "horodatage": "2022-07-16 14:58:35", "distance (en metres)": 155.44, "station": "CLOS MONTHOLON - LARMEROUX", "marker-color": "#818181"}}, {"type": "Feature", "geometry": {"type": "Point", "coordinates": [2.292125, 48.820915]}, "properties": {"numparc": 1472, "etat de la localisation": "autre", "ID BDGEO": "5380", "horodatage": "2022-07-16 15:07:00", "distance (en metres)": 49.04, "station": "INSURRECTION-BLEUZEN", "marker-color": "#818181"}}, {"type": "Feature", "geometry": {"type": "Point", "coordinates": [2.353844, 48.833786]}, "properties": {"numparc": 1472, "etat de la localisation": "autre", "ID BDGEO": "5397", "horodatage": "2022-07-16 15:37:52", "distance (en metres)": 44.96, "station": "BANQUIER", "marker-color": "#818181"}}, {"type": "Feature", "geometry": {"type": "Point", "coordinates": [2.272652, 48.814449]}, "properties": {"numparc": 1472, "etat de la localisation": "autre", "ID BDGEO": "5375", "horodatage": "2022-07-16 16:48:57", "distance (en metres)": 54.5, "station": "GARE DE CLAMART", "marker-color": "#818181"}}, {"type": "Feature", "geometry": {"type": "Point", "coordinates": [2.27255, 48.814278]}, "properties": {"numparc": 1472, "etat de la localisation": "autre", "ID BDGEO": "5375", "horodatage": "2022-07-16 16:49:43", "distance (en metres)": 74.95, "station": "GARE DE CLAMART", "marker-color": "#818181"}}, {"type": "Feature", "geometry": {"type": "Point", "coordinates": [2.328465, 48.823601]}, "properties": {"numparc": 1465, "etat de la localisation": "autre", "ID BDGEO": "5429", "horodatage": "2022-07-16 17:03:25", "distance (en metres)": 115.64, "station": "MONTROUGE SORTIE#", "marker-color": "#818181"}}, {"type": "Feature", "geometry": {"type": "Point", "coordinates": [2.277098, 48.815395]}, "properties": {"numparc": 1472, "etat de la localisation": "autre", "ID BDGEO": "5376", "horodatage": "2022-07-16 17:13:21", "distance (en metres)": 49.14, "station": "CLOS MONTHOLON - LARMEROUX", "marker-color": "#818181"}}, {"type": "Feature", "geometry": {"type": "Point", "coordinates": [2.292146, 48.821003]}, "properties": {"numparc": 1472, "etat de la localisation": "autre", "ID BDGEO": "5380", "horodatage": "2022-07-16 17:20:19", "distance (en metres)": 54.94, "station": "INSURRECTION-BLEUZEN", "marker-color": "#818181"}}, {"type": "Feature", "geometry": {"type": "Point", "coordinates": [2.292106, 48.82098]}, "properties": {"numparc": 1465, "etat de la localisation": "autre", "ID BDGEO": "5380", "horodatage": "2022-07-16 17:37:10", "distance (en metres)": 51.1, "station": "INSURRECTION-BLEUZEN", "marker-color": "#818181"}}, {"type": "Feature", "geometry": {"type": "Point", "coordinates": [2.329641, 48.823025]}, "properties": {"numparc": 1474, "etat de la localisation": "autre", "ID BDGEO": "5408", "horodatage": "2022-07-16 17:40:05", "distance (en metres)": 1293.71, "station": "DENFERT-ROCHEREAU - FROIDEVAUX", "marker-color": "#818181"}}, {"type": "Feature", "geometry": {"type": "Point", "coordinates": [2.329289, 48.823158]}, "properties": {"numparc": 1383, "etat de la localisation": "Delocalise", "ID BDGEO": "5429", "horodatage": "2022-07-16 18:15:46", "distance (en metres)": 54.15, "station": "MONTROUGE SORTIE#", "marker-color": "#FF565E"}}, {"type": "Feature", "geometry": {"type": "Point", "coordinates": [2.332044, 48.833996]}, "properties": {"numparc": 1465, "etat de la localisation": "Deviation programmee", "ID BDGEO": "5408", "horodatage": "2022-07-16 18:51:49", "distance (en metres)": 75.43, "station": "DENFERT-ROCHEREAU - FROIDEVAUX", "marker-color": "#56FF93"}}, {"type": "Feature", "geometry": {"type": "Point", "coordinates": [2.272645, 48.814445]}, "properties": {"numparc": 1472, "etat de la localisation": "autre", "ID BDGEO": "5375", "horodatage": "2022-07-16 18:59:20", "distance (en metres)": 55.06, "station": "GARE DE CLAMART", "marker-color": "#818181"}}, {"type": "Feature", "geometry": {"type": "Point", "coordinates": [2.272557, 48.814278]}, "properties": {"numparc": 1472, "etat de la localisation": "autre", "ID BDGEO": "5375", "horodatage": "2022-07-16 19:00:09", "distance (en metres)": 74.79, "station": "GARE DE CLAMART", "marker-color": "#818181"}}, {"type": "Feature", "geometry": {"type": "Point", "coordinates": [2.292039, 48.820976]}, "properties": {"numparc": 1383, "etat de la localisation": "autre", "ID BDGEO": "5380", "horodatage": "2022-07-16 19:08:38", "distance (en metres)": 46.74, "station": "INSURRECTION-BLEUZEN", "marker-color": "#818181"}}, {"type": "Feature", "geometry": {"type": "Point", "coordinates": [2.328267, 48.823627]}, "properties": {"numparc": 1427, "etat de la localisation": "autre", "ID BDGEO": "5429", "horodatage": "2022-07-16 19:10:56", "distance (en metres)": 130.39, "station": "MONTROUGE SORTIE#", "marker-color": "#818181"}}, {"type": "Feature", "geometry": {"type": "Point", "coordinates": [2.292054, 48.820984]}, "properties": {"numparc": 1472, "etat de la localisation": "autre", "ID BDGEO": "5380", "horodatage": "2022-07-16 19:31:54", "distance (en metres)": 48.13, "station": "INSURRECTION-BLEUZEN", "marker-color": "#818181"}}, {"type": "Feature", "geometry": {"type": "Point", "coordinates": [2.292053, 48.820995]}, "properties": {"numparc": 1465, "etat de la localisation": "autre", "ID BDGEO": "5380", "horodatage": "2022-07-16 19:40:29", "distance (en metres)": 48.79, "station": "INSURRECTION-BLEUZEN", "marker-color": "#818181"}}, {"type": "Feature", "geometry": {"type": "Point", "coordinates": [2.292039, 48.821018]}, "properties": {"numparc": 1427, "etat de la localisation": "autre", "ID BDGEO": "5380", "horodatage": "2022-07-16 20:35:20", "distance (en metres)": 49.5, "station": "INSURRECTION-BLEUZEN", "marker-color": "#818181"}}, {"type": "Feature", "geometry": {"type": "Point", "coordinates": [2.292045, 48.820972]}, "properties": {"numparc": 1383, "etat de la localisation": "autre", "ID BDGEO": "5380", "horodatage": "2022-07-16 21:16:54", "distance (en metres)": 46.88, "station": "INSURRECTION-BLEUZEN", "marker-color": "#818181"}}, {"type": "Feature", "geometry": {"type": "Point", "coordinates": [2.292094, 48.82093]}, "properties": {"numparc": 1465, "etat de la localisation": "autre", "ID BDGEO": "5380", "horodatage": "2022-07-16 21:58:47", "distance (en metres)": 47.69, "station": "INSURRECTION-BLEUZEN", "marker-color": "#818181"}}, {"type": "Feature", "geometry": {"type": "Point", "coordinates": [2.331706, 48.833805]}, "properties": {"numparc": 1383, "etat de la localisation": "autre", "ID BDGEO": "5391", "horodatage": "2022-07-16 23:39:20", "distance (en metres)": 65.27, "station": "DENFERT ROCHEREAU", "marker-color": "#818181"}}, {"type": "Feature", "geometry": {"type": "Point", "coordinates": [2.292059, 48.820961]}, "properties": {"numparc": 1427, "etat de la localisation": "autre", "ID BDGEO": "5380", "horodatage": "2022-07-16 23:51:48", "distance (en metres)": 47.06, "station": "INSURRECTION-BLEUZEN", "marker-color": "#818181"}}, {"type": "Feature", "geometry": {"type": "Point", "coordinates": [2.327928, 48.823681]}, "properties": {"numparc": 1465, "etat de la localisation": "autre", "ID BDGEO": "5429", "horodatage": "2022-07-16 23:51:56", "distance (en metres)": 155.9, "station": "MONTROUGE SORTIE#", "marker-color": "#818181"}}, {"type": "Feature", "geometry": {"type": "Point", "coordinates": [2.328389, 48.823193]}, "properties": {"numparc": 1465, "etat de la localisation": "autre", "ID BDGEO": "5429", "horodatage": "2022-07-16 23:55:41", "distance (en metres)": 117.8, "station": "MONTROUGE SORTIE#", "marker-color": "#818181"}}, {"type": "Feature", "geometry": {"type": "Point", "coordinates": [2.327948, 48.823719]}, "properties": {"numparc": 1383, "etat de la localisation": "autre", "ID BDGEO": "5429", "horodatage": "2022-07-17 00:45:17", "distance (en metres)": 155.64, "station": "MONTROUGE SORTIE#", "marker-color": "#818181"}}, {"type": "Feature", "geometry": {"type": "Point", "coordinates": [2.328465, 48.823479]}, "properties": {"numparc": 1383, "etat de la localisation": "autre", "ID BDGEO": "5429", "horodatage": "2022-07-17 00:47:11", "distance (en metres)": 112.74, "station": "MONTROUGE SORTIE#", "marker-color": "#818181"}}, {"type": "Feature", "geometry": {"type": "Point", "coordinates": [2.328327, 48.82328]}, "properties": {"numparc": 1383, "etat de la localisation": "autre", "ID BDGEO": "5429", "horodatage": "2022-07-17 00:48:34", "distance (en metres)": 121.56, "station": "MONTROUGE SORTIE#", "marker-color": "#818181"}}, {"type": "Feature", "geometry": {"type": "Point", "coordinates": [2.327963, 48.823734]}, "properties": {"numparc": 1427, "etat de la localisation": "autre", "ID BDGEO": "5429", "horodatage": "2022-07-17 01:17:53", "distance (en metres)": 155.08, "station": "MONTROUGE SORTIE#", "marker-color": "#818181"}}, {"type": "Feature", "geometry": {"type": "Point", "coordinates": [2.328531, 48.82338]}, "properties": {"numparc": 1427, "etat de la localisation": "autre", "ID BDGEO": "5429", "horodatage": "2022-07-17 01:20:52", "distance (en metres)": 106.73, "station": "MONTROUGE SORTIE#", "marker-color": "#818181"}}, {"type": "Feature", "geometry": {"type": "Point", "coordinates": [2.329986, 48.823321]}, "properties": {"station": "MONTROUGE SORTIE#", "ID BDGEO": "5429", "marker-color": "#56B3FF"}}, {"type": "Feature", "geometry": {"type": "Point", "coordinates": [2.304571, 48.827118]}, "properties": {"station": "PORTE DE VANVES", "ID BDGEO": "5416", "marker-color": "#56B3FF"}}, {"type": "Feature", "geometry": {"type": "Point", "coordinates": [2.291509, 48.820742]}, "properties": {"station": "INSURRECTION-BLEUZEN", "ID BDGEO": "5380", "marker-color": "#56B3FF"}}, {"type": "Feature", "geometry": {"type": "Point", "coordinates": [2.30498, 48.827433]}, "properties": {"station": "PORTE DE VANVES", "ID BDGEO": "5383", "marker-color": "#56B3FF"}}, {"type": "Feature", "geometry": {"type": "Point", "coordinates": [2.33155, 48.834591]}, "properties": {"station": "DENFERT-ROCHEREAU - FROIDEVAUX", "ID BDGEO": "5408", "marker-color": "#56B3FF"}}, {"type": "Feature", "geometry": {"type": "Point", "coordinates": [2.313513, 48.831506]}, "properties": {"station": "PLAISANCE", "ID BDGEO": "5385", "marker-color": "#56B3FF"}}, {"type": "Feature", "geometry": {"type": "Point", "coordinates": [2.356055, 48.831795]}, "properties": {"station": "PLACE D'ITALIE#", "ID BDGEO": "5524", "marker-color": "#56B3FF"}}, {"type": "Feature", "geometry": {"type": "Point", "coordinates": [2.276557, 48.815657]}, "properties": {"station": "CLOS MONTHOLON - LARMEROUX", "ID BDGEO": "5376", "marker-color": "#56B3FF"}}, {"type": "Feature", "geometry": {"type": "Point", "coordinates": [2.353687, 48.834177]}, "properties": {"station": "BANQUIER", "ID BDGEO": "5397", "marker-color": "#56B3FF"}}, {"type": "Feature", "geometry": {"type": "Point", "coordinates": [2.27287, 48.814918]}, "properties": {"station": "GARE DE CLAMART", "ID BDGEO": "5375", "marker-color": "#56B3FF"}}, {"type": "Feature", "geometry": {"type": "Point", "coordinates": [2.332394, 48.833432]}, "properties": {"station": "DENFERT ROCHEREAU", "ID BDGEO": "5391", "marker-color": "#56B3FF"}}]}