{"type": "FeatureCollection", "features": [{"type": "Feature", "geometry": {"type": "Point", "coordinates": [2.188566, 48.902496]}, "properties": {"etat de la localisation": "Delocalise", "numparc": 2896, "duree": "00:13:48", "horodatage": "2022-08-09 04:39:43", "marker-color": "#FF565E"}}, {"type": "Feature", "geometry": {"type": "Point", "coordinates": [2.186514, 48.875824]}, "properties": {"etat de la localisation": "Deviation programmee", "numparc": 2896, "duree": "", "horodatage": "2022-08-09 05:04:51", "marker-color": "#56FF93"}}, {"type": "Feature", "geometry": {"type": "Point", "coordinates": [2.278913, 48.87785]}, "properties": {"etat de la localisation": "Mission suivante non connue", "numparc": 2896, "duree": "", "horodatage": "2022-08-09 05:27:13", "marker-color": "#7156FF"}}, {"type": "Feature", "geometry": {"type": "Point", "coordinates": [2.203743, 48.868313]}, "properties": {"etat de la localisation": "Deviation programmee", "numparc": 2896, "duree": "", "horodatage": "2022-08-09 05:59:19", "marker-color": "#56FF93"}}, {"type": "Feature", "geometry": {"type": "Point", "coordinates": [2.186599, 48.87574]}, "properties": {"etat de la localisation": "Deviation programmee", "numparc": 2896, "duree": "", "horodatage": "2022-08-09 06:31:29", "marker-color": "#56FF93"}}, {"type": "Feature", "geometry": {"type": "Point", "coordinates": [2.278913, 48.877876]}, "properties": {"etat de la localisation": "Mission suivante non connue", "numparc": 2896, "duree": "", "horodatage": "2022-08-09 06:54:07", "marker-color": "#7156FF"}}, {"type": "Feature", "geometry": {"type": "Point", "coordinates": [2.203745, 48.868259]}, "properties": {"etat de la localisation": "Deviation programmee", "numparc": 2896, "duree": "", "horodatage": "2022-08-09 07:19:18", "marker-color": "#56FF93"}}, {"type": "Feature", "geometry": {"type": "Point", "coordinates": [2.188391, 48.902603]}, "properties": {"etat de la localisation": "Delocalise", "numparc": 2901, "duree": "00:03:24", "horodatage": "2022-08-09 07:20:43", "marker-color": "#FF565E"}}, {"type": "Feature", "geometry": {"type": "Point", "coordinates": [2.188499, 48.902554]}, "properties": {"etat de la localisation": "Delocalise", "numparc": 2889, "duree": "00:15:51", "horodatage": "2022-08-09 07:34:25", "marker-color": "#FF565E"}}, {"type": "Feature", "geometry": {"type": "Point", "coordinates": [2.186469, 48.875805]}, "properties": {"etat de la localisation": "Deviation programmee", "numparc": 2896, "duree": "", "horodatage": "2022-08-09 07:54:25", "marker-color": "#56FF93"}}, {"type": "Feature", "geometry": {"type": "Point", "coordinates": [2.18648, 48.875816]}, "properties": {"etat de la localisation": "Deviation programmee", "numparc": 2889, "duree": "", "horodatage": "2022-08-09 08:07:44", "marker-color": "#56FF93"}}, {"type": "Feature", "geometry": {"type": "Point", "coordinates": [2.203744, 48.868267]}, "properties": {"etat de la localisation": "Deviation programmee", "numparc": 2901, "duree": "", "horodatage": "2022-08-09 08:10:43", "marker-color": "#56FF93"}}, {"type": "Feature", "geometry": {"type": "Point", "coordinates": [2.278928, 48.877922]}, "properties": {"etat de la localisation": "Mission suivante non connue", "numparc": 2896, "duree": "", "horodatage": "2022-08-09 08:20:43", "marker-color": "#7156FF"}}, {"type": "Feature", "geometry": {"type": "Point", "coordinates": [2.278915, 48.877899]}, "properties": {"etat de la localisation": "Mission suivante non connue", "numparc": 2889, "duree": "", "horodatage": "2022-08-09 08:34:09", "marker-color": "#7156FF"}}, {"type": "Feature", "geometry": {"type": "Point", "coordinates": [2.186523, 48.875771]}, "properties": {"etat de la localisation": "Deviation programmee", "numparc": 2901, "duree": "", "horodatage": "2022-08-09 08:50:32", "marker-color": "#56FF93"}}, {"type": "Feature", "geometry": {"type": "Point", "coordinates": [2.20375, 48.868275]}, "properties": {"etat de la localisation": "Deviation programmee", "numparc": 2896, "duree": "", "horodatage": "2022-08-09 08:51:43", "marker-color": "#56FF93"}}, {"type": "Feature", "geometry": {"type": "Point", "coordinates": [2.203728, 48.868298]}, "properties": {"etat de la localisation": "Deviation programmee", "numparc": 2889, "duree": "", "horodatage": "2022-08-09 09:00:43", "marker-color": "#56FF93"}}, {"type": "Feature", "geometry": {"type": "Point", "coordinates": [2.253753, 48.871941]}, "properties": {"etat de la localisation": "Delocalise", "numparc": 2901, "duree": "00:02:55", "horodatage": "2022-08-09 09:14:51", "marker-color": "#FF565E"}}, {"type": "Feature", "geometry": {"type": "Point", "coordinates": [2.264358, 48.872967]}, "properties": {"etat de la localisation": "Deviation programmee", "numparc": 2901, "duree": "", "horodatage": "2022-08-09 09:17:46", "marker-color": "#56FF93"}}, {"type": "Feature", "geometry": {"type": "Point", "coordinates": [2.186507, 48.875793]}, "properties": {"etat de la localisation": "Deviation programmee", "numparc": 2896, "duree": "", "horodatage": "2022-08-09 09:28:10", "marker-color": "#56FF93"}}, {"type": "Feature", "geometry": {"type": "Point", "coordinates": [2.244031, 48.8652]}, "properties": {"etat de la localisation": "Delocalise", "numparc": 2901, "duree": "00:00:29", "horodatage": "2022-08-09 09:41:08", "marker-color": "#FF565E"}}, {"type": "Feature", "geometry": {"type": "Point", "coordinates": [2.278934, 48.877846]}, "properties": {"etat de la localisation": "Mission suivante non connue", "numparc": 2896, "duree": "", "horodatage": "2022-08-09 09:52:18", "marker-color": "#7156FF"}}, {"type": "Feature", "geometry": {"type": "Point", "coordinates": [2.186527, 48.875801]}, "properties": {"etat de la localisation": "Deviation programmee", "numparc": 2889, "duree": "", "horodatage": "2022-08-09 09:57:21", "marker-color": "#56FF93"}}, {"type": "Feature", "geometry": {"type": "Point", "coordinates": [2.202552, 48.868382]}, "properties": {"etat de la localisation": "Delocalise", "numparc": 2901, "duree": "00:05:06", "horodatage": "2022-08-09 09:57:42", "marker-color": "#FF565E"}}, {"type": "Feature", "geometry": {"type": "Point", "coordinates": [2.173052, 48.887142]}, "properties": {"etat de la localisation": "Mission suivante non connue", "numparc": 2901, "duree": "", "horodatage": "2022-08-09 10:11:47", "marker-color": "#7156FF"}}, {"type": "Feature", "geometry": {"type": "Point", "coordinates": [2.203751, 48.86829]}, "properties": {"etat de la localisation": "Deviation programmee", "numparc": 2896, "duree": "", "horodatage": "2022-08-09 10:25:31", "marker-color": "#56FF93"}}, {"type": "Feature", "geometry": {"type": "Point", "coordinates": [2.278804, 48.877819]}, "properties": {"etat de la localisation": "Mission suivante non connue", "numparc": 2889, "duree": "", "horodatage": "2022-08-09 10:25:41", "marker-color": "#7156FF"}}, {"type": "Feature", "geometry": {"type": "Point", "coordinates": [2.172758, 48.887295]}, "properties": {"etat de la localisation": "Mission suivante non connue", "numparc": 2901, "duree": "", "horodatage": "2022-08-09 10:40:07", "marker-color": "#7156FF"}}, {"type": "Feature", "geometry": {"type": "Point", "coordinates": [2.203743, 48.868279]}, "properties": {"etat de la localisation": "Deviation programmee", "numparc": 2889, "duree": "", "horodatage": "2022-08-09 10:49:21", "marker-color": "#56FF93"}}, {"type": "Feature", "geometry": {"type": "Point", "coordinates": [2.188703, 48.903049]}, "properties": {"etat de la localisation": "Hors service", "numparc": 2896, "duree": "", "horodatage": "2022-08-09 10:54:03", "marker-color": "#707070"}}, {"type": "Feature", "geometry": {"type": "Point", "coordinates": [2.188635, 48.902969]}, "properties": {"etat de la localisation": "Hors service", "numparc": 2901, "duree": "", "horodatage": "2022-08-09 10:55:54", "marker-color": "#707070"}}, {"type": "Feature", "geometry": {"type": "Point", "coordinates": [2.199401, 48.899624]}, "properties": {"etat de la localisation": "Mission inconnue", "numparc": 2891, "duree": "", "horodatage": "2022-08-09 11:07:58", "marker-color": "#FF9F56"}}, {"type": "Feature", "geometry": {"type": "Point", "coordinates": [2.18652, 48.87582]}, "properties": {"etat de la localisation": "Deviation programmee", "numparc": 2889, "duree": "", "horodatage": "2022-08-09 11:34:34", "marker-color": "#56FF93"}}, {"type": "Feature", "geometry": {"type": "Point", "coordinates": [2.186506, 48.875805]}, "properties": {"etat de la localisation": "Deviation programmee", "numparc": 2891, "duree": "", "horodatage": "2022-08-09 11:51:58", "marker-color": "#56FF93"}}, {"type": "Feature", "geometry": {"type": "Point", "coordinates": [2.225033, 48.868206]}, "properties": {"etat de la localisation": "Delocalise", "numparc": 2889, "duree": "00:00:17", "horodatage": "2022-08-09 12:01:39", "marker-color": "#FF565E"}}, {"type": "Feature", "geometry": {"type": "Point", "coordinates": [2.203747, 48.868275]}, "properties": {"etat de la localisation": "Deviation programmee", "numparc": 2889, "duree": "", "horodatage": "2022-08-09 12:14:22", "marker-color": "#56FF93"}}, {"type": "Feature", "geometry": {"type": "Point", "coordinates": [2.203772, 48.868305]}, "properties": {"etat de la localisation": "Deviation programmee", "numparc": 2891, "duree": "", "horodatage": "2022-08-09 12:54:01", "marker-color": "#56FF93"}}, {"type": "Feature", "geometry": {"type": "Point", "coordinates": [2.1865, 48.875801]}, "properties": {"etat de la localisation": "Deviation programmee", "numparc": 2889, "duree": "", "horodatage": "2022-08-09 12:54:24", "marker-color": "#56FF93"}}, {"type": "Feature", "geometry": {"type": "Point", "coordinates": [2.186497, 48.875786]}, "properties": {"etat de la localisation": "Deviation programmee", "numparc": 2891, "duree": "", "horodatage": "2022-08-09 13:33:03", "marker-color": "#56FF93"}}, {"type": "Feature", "geometry": {"type": "Point", "coordinates": [2.203737, 48.868298]}, "properties": {"etat de la localisation": "Deviation programmee", "numparc": 2889, "duree": "", "horodatage": "2022-08-09 13:51:06", "marker-color": "#56FF93"}}, {"type": "Feature", "geometry": {"type": "Point", "coordinates": [2.186516, 48.875801]}, "properties": {"etat de la localisation": "Deviation programmee", "numparc": 2889, "duree": "", "horodatage": "2022-08-09 14:30:26", "marker-color": "#56FF93"}}, {"type": "Feature", "geometry": {"type": "Point", "coordinates": [2.196856, 48.902351]}, "properties": {"etat de la localisation": "Mission inconnue", "numparc": 2901, "duree": "", "horodatage": "2022-08-09 14:45:58", "marker-color": "#FF9F56"}}, {"type": "Feature", "geometry": {"type": "Point", "coordinates": [2.203755, 48.868263]}, "properties": {"etat de la localisation": "Deviation programmee", "numparc": 2891, "duree": "", "horodatage": "2022-08-09 14:52:13", "marker-color": "#56FF93"}}, {"type": "Feature", "geometry": {"type": "Point", "coordinates": [2.278784, 48.877888]}, "properties": {"etat de la localisation": "Mission suivante non connue", "numparc": 2889, "duree": "", "horodatage": "2022-08-09 15:00:24", "marker-color": "#7156FF"}}, {"type": "Feature", "geometry": {"type": "Point", "coordinates": [2.186499, 48.875786]}, "properties": {"etat de la localisation": "Deviation programmee", "numparc": 2901, "duree": "", "horodatage": "2022-08-09 15:33:09", "marker-color": "#56FF93"}}, {"type": "Feature", "geometry": {"type": "Point", "coordinates": [2.203753, 48.868267]}, "properties": {"etat de la localisation": "Deviation programmee", "numparc": 2889, "duree": "", "horodatage": "2022-08-09 15:51:12", "marker-color": "#56FF93"}}, {"type": "Feature", "geometry": {"type": "Point", "coordinates": [2.265298, 48.872799]}, "properties": {"etat de la localisation": "Deviation programmee", "numparc": 2901, "duree": "", "horodatage": "2022-08-09 16:02:46", "marker-color": "#56FF93"}}, {"type": "Feature", "geometry": {"type": "Point", "coordinates": [2.278981, 48.877338]}, "properties": {"etat de la localisation": "Delocalise", "numparc": 2901, "duree": "00:01:19", "horodatage": "2022-08-09 16:13:20", "marker-color": "#FF565E"}}, {"type": "Feature", "geometry": {"type": "Point", "coordinates": [2.266537, 48.873352]}, "properties": {"etat de la localisation": "Delocalise", "numparc": 2901, "duree": "00:00:29", "horodatage": "2022-08-09 16:15:19", "marker-color": "#FF565E"}}, {"type": "Feature", "geometry": {"type": "Point", "coordinates": [2.260974, 48.871357]}, "properties": {"etat de la localisation": "Delocalise", "numparc": 2901, "duree": "00:01:39", "horodatage": "2022-08-09 16:16:30", "marker-color": "#FF565E"}}, {"type": "Feature", "geometry": {"type": "Point", "coordinates": [2.246659, 48.866207]}, "properties": {"etat de la localisation": "Mission inconnue", "numparc": 2901, "duree": "", "horodatage": "2022-08-09 16:18:41", "marker-color": "#FF9F56"}}, {"type": "Feature", "geometry": {"type": "Point", "coordinates": [2.222107, 48.867939]}, "properties": {"etat de la localisation": "Delocalise", "numparc": 2901, "duree": "00:01:04", "horodatage": "2022-08-09 16:24:45", "marker-color": "#FF565E"}}, {"type": "Feature", "geometry": {"type": "Point", "coordinates": [2.202586, 48.868374]}, "properties": {"etat de la localisation": "Delocalise", "numparc": 2901, "duree": "00:06:14", "horodatage": "2022-08-09 16:34:05", "marker-color": "#FF565E"}}, {"type": "Feature", "geometry": {"type": "Point", "coordinates": [2.186505, 48.875797]}, "properties": {"etat de la localisation": "Deviation programmee", "numparc": 2891, "duree": "", "horodatage": "2022-08-09 16:43:50", "marker-color": "#56FF93"}}, {"type": "Feature", "geometry": {"type": "Point", "coordinates": [2.173018, 48.887127]}, "properties": {"etat de la localisation": "Hors service", "numparc": 2901, "duree": "", "horodatage": "2022-08-09 16:52:00", "marker-color": "#707070"}}, {"type": "Feature", "geometry": {"type": "Point", "coordinates": [2.186547, 48.875778]}, "properties": {"etat de la localisation": "Deviation programmee", "numparc": 2889, "duree": "", "horodatage": "2022-08-09 17:13:20", "marker-color": "#56FF93"}}, {"type": "Feature", "geometry": {"type": "Point", "coordinates": [2.242923, 48.864792]}, "properties": {"etat de la localisation": "Delocalise", "numparc": 2891, "duree": "00:00:20", "horodatage": "2022-08-09 17:21:47", "marker-color": "#FF565E"}}, {"type": "Feature", "geometry": {"type": "Point", "coordinates": [2.237522, 48.8638]}, "properties": {"etat de la localisation": "Delocalise", "numparc": 2891, "duree": "00:02:15", "horodatage": "2022-08-09 17:23:14", "marker-color": "#FF565E"}}, {"type": "Feature", "geometry": {"type": "Point", "coordinates": [2.203733, 48.868298]}, "properties": {"etat de la localisation": "Deviation programmee", "numparc": 2891, "duree": "", "horodatage": "2022-08-09 17:38:31", "marker-color": "#56FF93"}}, {"type": "Feature", "geometry": {"type": "Point", "coordinates": [2.188703, 48.903046]}, "properties": {"etat de la localisation": "Delocalise", "numparc": 2896, "duree": "00:12:53", "horodatage": "2022-08-09 17:41:38", "marker-color": "#FF565E"}}, {"type": "Feature", "geometry": {"type": "Point", "coordinates": [2.278763, 48.877884]}, "properties": {"etat de la localisation": "Mission suivante non connue", "numparc": 2889, "duree": "", "horodatage": "2022-08-09 17:44:11", "marker-color": "#7156FF"}}, {"type": "Feature", "geometry": {"type": "Point", "coordinates": [2.173031, 48.887161]}, "properties": {"etat de la localisation": "Mission inconnue", "numparc": 2891, "duree": "", "horodatage": "2022-08-09 17:59:34", "marker-color": "#FF9F56"}}, {"type": "Feature", "geometry": {"type": "Point", "coordinates": [2.186534, 48.87579]}, "properties": {"etat de la localisation": "Deviation programmee", "numparc": 2891, "duree": "", "horodatage": "2022-08-09 18:14:37", "marker-color": "#56FF93"}}, {"type": "Feature", "geometry": {"type": "Point", "coordinates": [2.203742, 48.868275]}, "properties": {"etat de la localisation": "Deviation programmee", "numparc": 2889, "duree": "", "horodatage": "2022-08-09 18:23:26", "marker-color": "#56FF93"}}, {"type": "Feature", "geometry": {"type": "Point", "coordinates": [2.186497, 48.875782]}, "properties": {"etat de la localisation": "Deviation programmee", "numparc": 2901, "duree": "", "horodatage": "2022-08-09 18:41:31", "marker-color": "#56FF93"}}, {"type": "Feature", "geometry": {"type": "Point", "coordinates": [2.278754, 48.877922]}, "properties": {"etat de la localisation": "Mission suivante non connue", "numparc": 2891, "duree": "", "horodatage": "2022-08-09 18:44:05", "marker-color": "#7156FF"}}, {"type": "Feature", "geometry": {"type": "Point", "coordinates": [2.203723, 48.868286]}, "properties": {"etat de la localisation": "Deviation programmee", "numparc": 2896, "duree": "", "horodatage": "2022-08-09 18:55:52", "marker-color": "#56FF93"}}, {"type": "Feature", "geometry": {"type": "Point", "coordinates": [2.265247, 48.87278]}, "properties": {"etat de la localisation": "Deviation programmee", "numparc": 2901, "duree": "", "horodatage": "2022-08-09 19:06:39", "marker-color": "#56FF93"}}, {"type": "Feature", "geometry": {"type": "Point", "coordinates": [2.186542, 48.875778]}, "properties": {"etat de la localisation": "Deviation programmee", "numparc": 2889, "duree": "", "horodatage": "2022-08-09 19:10:24", "marker-color": "#56FF93"}}, {"type": "Feature", "geometry": {"type": "Point", "coordinates": [2.203739, 48.868267]}, "properties": {"etat de la localisation": "Deviation programmee", "numparc": 2891, "duree": "", "horodatage": "2022-08-09 19:26:01", "marker-color": "#56FF93"}}, {"type": "Feature", "geometry": {"type": "Point", "coordinates": [2.278852, 48.877831]}, "properties": {"etat de la localisation": "Mission suivante non connue", "numparc": 2889, "duree": "", "horodatage": "2022-08-09 19:40:18", "marker-color": "#7156FF"}}, {"type": "Feature", "geometry": {"type": "Point", "coordinates": [2.18651, 48.875797]}, "properties": {"etat de la localisation": "Deviation programmee", "numparc": 2896, "duree": "", "horodatage": "2022-08-09 19:41:28", "marker-color": "#56FF93"}}, {"type": "Feature", "geometry": {"type": "Point", "coordinates": [2.278903, 48.877876]}, "properties": {"etat de la localisation": "Mission suivante non connue", "numparc": 2896, "duree": "", "horodatage": "2022-08-09 20:13:35", "marker-color": "#7156FF"}}, {"type": "Feature", "geometry": {"type": "Point", "coordinates": [2.186527, 48.875793]}, "properties": {"etat de la localisation": "Deviation programmee", "numparc": 2891, "duree": "", "horodatage": "2022-08-09 20:14:18", "marker-color": "#56FF93"}}, {"type": "Feature", "geometry": {"type": "Point", "coordinates": [2.203748, 48.868298]}, "properties": {"etat de la localisation": "Deviation programmee", "numparc": 2889, "duree": "", "horodatage": "2022-08-09 20:22:27", "marker-color": "#56FF93"}}, {"type": "Feature", "geometry": {"type": "Point", "coordinates": [2.186518, 48.875797]}, "properties": {"etat de la localisation": "Deviation programmee", "numparc": 2901, "duree": "", "horodatage": "2022-08-09 20:41:20", "marker-color": "#56FF93"}}, {"type": "Feature", "geometry": {"type": "Point", "coordinates": [2.278776, 48.877876]}, "properties": {"etat de la localisation": "Mission suivante non connue", "numparc": 2891, "duree": "", "horodatage": "2022-08-09 20:41:23", "marker-color": "#7156FF"}}, {"type": "Feature", "geometry": {"type": "Point", "coordinates": [2.203754, 48.868286]}, "properties": {"etat de la localisation": "Deviation programmee", "numparc": 2896, "duree": "", "horodatage": "2022-08-09 20:51:10", "marker-color": "#56FF93"}}, {"type": "Feature", "geometry": {"type": "Point", "coordinates": [2.26532, 48.872829]}, "properties": {"etat de la localisation": "Deviation programmee", "numparc": 2901, "duree": "", "horodatage": "2022-08-09 21:03:00", "marker-color": "#56FF93"}}, {"type": "Feature", "geometry": {"type": "Point", "coordinates": [2.186535, 48.875774]}, "properties": {"etat de la localisation": "Deviation programmee", "numparc": 2889, "duree": "", "horodatage": "2022-08-09 21:10:41", "marker-color": "#56FF93"}}, {"type": "Feature", "geometry": {"type": "Point", "coordinates": [2.203766, 48.868275]}, "properties": {"etat de la localisation": "Deviation programmee", "numparc": 2891, "duree": "", "horodatage": "2022-08-09 21:21:41", "marker-color": "#56FF93"}}, {"type": "Feature", "geometry": {"type": "Point", "coordinates": [2.186491, 48.87579]}, "properties": {"etat de la localisation": "Deviation programmee", "numparc": 2896, "duree": "", "horodatage": "2022-08-09 21:38:00", "marker-color": "#56FF93"}}, {"type": "Feature", "geometry": {"type": "Point", "coordinates": [2.278912, 48.87785]}, "properties": {"etat de la localisation": "Mission suivante non connue", "numparc": 2889, "duree": "", "horodatage": "2022-08-09 21:38:49", "marker-color": "#7156FF"}}, {"type": "Feature", "geometry": {"type": "Point", "coordinates": [2.186539, 48.875793]}, "properties": {"etat de la localisation": "Deviation programmee", "numparc": 2891, "duree": "", "horodatage": "2022-08-09 21:59:40", "marker-color": "#56FF93"}}, {"type": "Feature", "geometry": {"type": "Point", "coordinates": [2.278911, 48.877907]}, "properties": {"etat de la localisation": "Mission suivante non connue", "numparc": 2896, "duree": "", "horodatage": "2022-08-09 22:03:18", "marker-color": "#7156FF"}}, {"type": "Feature", "geometry": {"type": "Point", "coordinates": [2.20374, 48.868309]}, "properties": {"etat de la localisation": "Deviation programmee", "numparc": 2889, "duree": "", "horodatage": "2022-08-09 22:20:43", "marker-color": "#56FF93"}}, {"type": "Feature", "geometry": {"type": "Point", "coordinates": [2.278807, 48.877846]}, "properties": {"etat de la localisation": "Mission suivante non connue", "numparc": 2891, "duree": "", "horodatage": "2022-08-09 22:24:05", "marker-color": "#7156FF"}}, {"type": "Feature", "geometry": {"type": "Point", "coordinates": [2.186532, 48.875763]}, "properties": {"etat de la localisation": "Deviation programmee", "numparc": 2901, "duree": "", "horodatage": "2022-08-09 22:26:16", "marker-color": "#56FF93"}}, {"type": "Feature", "geometry": {"type": "Point", "coordinates": [2.203764, 48.868286]}, "properties": {"etat de la localisation": "Deviation programmee", "numparc": 2896, "duree": "", "horodatage": "2022-08-09 22:34:50", "marker-color": "#56FF93"}}, {"type": "Feature", "geometry": {"type": "Point", "coordinates": [2.186544, 48.875786]}, "properties": {"etat de la localisation": "Deviation programmee", "numparc": 2889, "duree": "", "horodatage": "2022-08-09 22:48:55", "marker-color": "#56FF93"}}, {"type": "Feature", "geometry": {"type": "Point", "coordinates": [2.265323, 48.872822]}, "properties": {"etat de la localisation": "Deviation programmee", "numparc": 2901, "duree": "", "horodatage": "2022-08-09 22:49:22", "marker-color": "#56FF93"}}, {"type": "Feature", "geometry": {"type": "Point", "coordinates": [2.203746, 48.868298]}, "properties": {"etat de la localisation": "Deviation programmee", "numparc": 2891, "duree": "", "horodatage": "2022-08-09 23:05:47", "marker-color": "#56FF93"}}, {"type": "Feature", "geometry": {"type": "Point", "coordinates": [2.278892, 48.87785]}, "properties": {"etat de la localisation": "Mission suivante non connue", "numparc": 2889, "duree": "", "horodatage": "2022-08-09 23:10:53", "marker-color": "#7156FF"}}, {"type": "Feature", "geometry": {"type": "Point", "coordinates": [2.186523, 48.875786]}, "properties": {"etat de la localisation": "Deviation programmee", "numparc": 2896, "duree": "", "horodatage": "2022-08-09 23:15:46", "marker-color": "#56FF93"}}, {"type": "Feature", "geometry": {"type": "Point", "coordinates": [2.278887, 48.877861]}, "properties": {"etat de la localisation": "Mission suivante non connue", "numparc": 2896, "duree": "", "horodatage": "2022-08-09 23:39:23", "marker-color": "#7156FF"}}, {"type": "Feature", "geometry": {"type": "Point", "coordinates": [2.186556, 48.875805]}, "properties": {"etat de la localisation": "Deviation programmee", "numparc": 2891, "duree": "", "horodatage": "2022-08-09 23:43:34", "marker-color": "#56FF93"}}, {"type": "Feature", "geometry": {"type": "Point", "coordinates": [2.203756, 48.868263]}, "properties": {"etat de la localisation": "Deviation programmee", "numparc": 2889, "duree": "", "horodatage": "2022-08-09 23:50:32", "marker-color": "#56FF93"}}, {"type": "Feature", "geometry": {"type": "Point", "coordinates": [2.278795, 48.877934]}, "properties": {"etat de la localisation": "Mission suivante non connue", "numparc": 2891, "duree": "", "horodatage": "2022-08-10 00:10:57", "marker-color": "#7156FF"}}, {"type": "Feature", "geometry": {"type": "Point", "coordinates": [2.186529, 48.875782]}, "properties": {"etat de la localisation": "Deviation programmee", "numparc": 2901, "duree": "", "horodatage": "2022-08-10 00:14:25", "marker-color": "#56FF93"}}, {"type": "Feature", "geometry": {"type": "Point", "coordinates": [2.20374, 48.868282]}, "properties": {"etat de la localisation": "Deviation programmee", "numparc": 2896, "duree": "", "horodatage": "2022-08-10 00:20:46", "marker-color": "#56FF93"}}, {"type": "Feature", "geometry": {"type": "Point", "coordinates": [2.26533, 48.872852]}, "properties": {"etat de la localisation": "Deviation programmee", "numparc": 2901, "duree": "", "horodatage": "2022-08-10 00:35:01", "marker-color": "#56FF93"}}, {"type": "Feature", "geometry": {"type": "Point", "coordinates": [2.186606, 48.875751]}, "properties": {"etat de la localisation": "Deviation programmee", "numparc": 2889, "duree": "", "horodatage": "2022-08-10 00:42:13", "marker-color": "#56FF93"}}, {"type": "Feature", "geometry": {"type": "Point", "coordinates": [2.203754, 48.868267]}, "properties": {"etat de la localisation": "Deviation programmee", "numparc": 2891, "duree": "", "horodatage": "2022-08-10 00:50:19", "marker-color": "#56FF93"}}, {"type": "Feature", "geometry": {"type": "Point", "coordinates": [2.188342, 48.902496]}, "properties": {"etat de la localisation": "Hors service", "numparc": 2896, "duree": "", "horodatage": "2022-08-10 00:54:36", "marker-color": "#707070"}}, {"type": "Feature", "geometry": {"type": "Point", "coordinates": [2.278914, 48.877823]}, "properties": {"etat de la localisation": "Mission suivante non connue", "numparc": 2889, "duree": "", "horodatage": "2022-08-10 01:02:42", "marker-color": "#7156FF"}}, {"type": "Feature", "geometry": {"type": "Point", "coordinates": [2.188268, 48.902592]}, "properties": {"etat de la localisation": "Hors service", "numparc": 2901, "duree": "", "horodatage": "2022-08-10 01:14:48", "marker-color": "#707070"}}, {"type": "Feature", "geometry": {"type": "Point", "coordinates": [2.188677, 48.902412]}, "properties": {"etat de la localisation": "Hors service", "numparc": 2891, "duree": "", "horodatage": "2022-08-10 01:21:06", "marker-color": "#707070"}}, {"type": "Feature", "geometry": {"type": "Point", "coordinates": [2.189848, 48.901787]}, "properties": {"etat de la localisation": "Hors service", "numparc": 2889, "duree": "", "horodatage": "2022-08-10 01:24:14", "marker-color": "#707070"}}]}