{"type": "FeatureCollection", "features": [{"type": "Feature", "geometry": {"type": "Point", "coordinates": [2.189748, 48.902222]}, "properties": {"numparc": 8949, "etat de la localisation": "autre", "ID BDGEO": "238", "horodatage": "2022-11-01 02:32:05", "distance (en metres)": 66.18, "station": "CENTRE BUS NANTERRE SORTIE", "marker-color": "#818181"}}, {"type": "Feature", "geometry": {"type": "Point", "coordinates": [2.189776, 48.902588]}, "properties": {"numparc": 8949, "etat de la localisation": "autre", "ID BDGEO": "238", "horodatage": "2022-11-01 02:37:25", "distance (en metres)": 106.93, "station": "CENTRE BUS NANTERRE SORTIE", "marker-color": "#818181"}}, {"type": "Feature", "geometry": {"type": "Point", "coordinates": [2.213866, 48.900051]}, "properties": {"numparc": 8952, "etat de la localisation": "autre", "ID BDGEO": "157", "horodatage": "2022-11-01 02:46:20", "distance (en metres)": 108.02, "station": "NANTERRE-UNIVERSITE RER", "marker-color": "#818181"}}, {"type": "Feature", "geometry": {"type": "Point", "coordinates": [2.189764, 48.90221]}, "properties": {"numparc": 8952, "etat de la localisation": "autre", "ID BDGEO": "238", "horodatage": "2022-11-01 03:02:48", "distance (en metres)": 64.94, "station": "CENTRE BUS NANTERRE SORTIE", "marker-color": "#818181"}}, {"type": "Feature", "geometry": {"type": "Point", "coordinates": [2.189332, 48.902786]}, "properties": {"numparc": 8952, "etat de la localisation": "autre", "ID BDGEO": "238", "horodatage": "2022-11-01 03:05:59", "distance (en metres)": 132.18, "station": "CENTRE BUS NANTERRE SORTIE", "marker-color": "#818181"}}, {"type": "Feature", "geometry": {"type": "Point", "coordinates": [2.189773, 48.902584]}, "properties": {"numparc": 8949, "etat de la localisation": "autre", "ID BDGEO": "238", "horodatage": "2022-11-01 06:02:49", "distance (en metres)": 106.51, "station": "CENTRE BUS NANTERRE SORTIE", "marker-color": "#818181"}}, {"type": "Feature", "geometry": {"type": "Point", "coordinates": [2.189773, 48.902584]}, "properties": {"numparc": 8949, "etat de la localisation": "autre", "ID BDGEO": "238", "horodatage": "2022-11-01 06:02:49", "distance (en metres)": 106.51, "station": "CENTRE BUS NANTERRE SORTIE", "marker-color": "#818181"}}, {"type": "Feature", "geometry": {"type": "Point", "coordinates": [2.190392, 48.902557]}, "properties": {"numparc": 8943, "etat de la localisation": "autre", "ID BDGEO": "238", "horodatage": "2022-11-01 06:17:07", "distance (en metres)": 114.25, "station": "CENTRE BUS NANTERRE SORTIE", "marker-color": "#818181"}}, {"type": "Feature", "geometry": {"type": "Point", "coordinates": [2.189333, 48.902786]}, "properties": {"numparc": 8952, "etat de la localisation": "autre", "ID BDGEO": "238", "horodatage": "2022-11-01 06:24:17", "distance (en metres)": 132.16, "station": "CENTRE BUS NANTERRE SORTIE", "marker-color": "#818181"}}, {"type": "Feature", "geometry": {"type": "Point", "coordinates": [2.189595, 48.902473]}, "properties": {"numparc": 8942, "etat de la localisation": "autre", "ID BDGEO": "238", "horodatage": "2022-11-01 06:31:27", "distance (en metres)": 94.67, "station": "CENTRE BUS NANTERRE SORTIE", "marker-color": "#818181"}}, {"type": "Feature", "geometry": {"type": "Point", "coordinates": [2.189595, 48.902473]}, "properties": {"numparc": 8942, "etat de la localisation": "autre", "ID BDGEO": "238", "horodatage": "2022-11-01 06:34:42", "distance (en metres)": 94.67, "station": "CENTRE BUS NANTERRE SORTIE", "marker-color": "#818181"}}, {"type": "Feature", "geometry": {"type": "Point", "coordinates": [2.189398, 48.902626]}, "properties": {"numparc": 8933, "etat de la localisation": "autre", "ID BDGEO": "238", "horodatage": "2022-11-01 06:35:50", "distance (en metres)": 113.74, "station": "CENTRE BUS NANTERRE SORTIE", "marker-color": "#818181"}}, {"type": "Feature", "geometry": {"type": "Point", "coordinates": [2.19026, 48.902546]}, "properties": {"numparc": 8942, "etat de la localisation": "autre", "ID BDGEO": "238", "horodatage": "2022-11-01 06:36:10", "distance (en metres)": 109.31, "station": "CENTRE BUS NANTERRE SORTIE", "marker-color": "#818181"}}, {"type": "Feature", "geometry": {"type": "Point", "coordinates": [2.189248, 48.902771]}, "properties": {"numparc": 8956, "etat de la localisation": "autre", "ID BDGEO": "238", "horodatage": "2022-11-01 06:45:27", "distance (en metres)": 132.02, "station": "CENTRE BUS NANTERRE SORTIE", "marker-color": "#818181"}}, {"type": "Feature", "geometry": {"type": "Point", "coordinates": [2.189566, 48.902477]}, "properties": {"numparc": 8956, "etat de la localisation": "autre", "ID BDGEO": "238", "horodatage": "2022-11-01 06:46:12", "distance (en metres)": 95.34, "station": "CENTRE BUS NANTERRE SORTIE", "marker-color": "#818181"}}, {"type": "Feature", "geometry": {"type": "Point", "coordinates": [2.188836, 48.902752]}, "properties": {"numparc": 8944, "etat de la localisation": "autre", "ID BDGEO": "238", "horodatage": "2022-11-01 07:13:02", "distance (en metres)": 141.15, "station": "CENTRE BUS NANTERRE SORTIE", "marker-color": "#818181"}}, {"type": "Feature", "geometry": {"type": "Point", "coordinates": [2.188836, 48.902752]}, "properties": {"numparc": 8944, "etat de la localisation": "autre", "ID BDGEO": "238", "horodatage": "2022-11-01 07:14:34", "distance (en metres)": 141.15, "station": "CENTRE BUS NANTERRE SORTIE", "marker-color": "#818181"}}, {"type": "Feature", "geometry": {"type": "Point", "coordinates": [2.189724, 48.902534]}, "properties": {"numparc": 8944, "etat de la localisation": "autre", "ID BDGEO": "238", "horodatage": "2022-11-01 07:17:30", "distance (en metres)": 100.94, "station": "CENTRE BUS NANTERRE SORTIE", "marker-color": "#818181"}}, {"type": "Feature", "geometry": {"type": "Point", "coordinates": [2.189724, 48.902534]}, "properties": {"numparc": 8944, "etat de la localisation": "autre", "ID BDGEO": "238", "horodatage": "2022-11-01 07:27:22", "distance (en metres)": 100.94, "station": "CENTRE BUS NANTERRE SORTIE", "marker-color": "#818181"}}, {"type": "Feature", "geometry": {"type": "Point", "coordinates": [2.19054, 48.902714]}, "properties": {"numparc": 8944, "etat de la localisation": "autre", "ID BDGEO": "238", "horodatage": "2022-11-01 07:28:14", "distance (en metres)": 134.61, "station": "CENTRE BUS NANTERRE SORTIE", "marker-color": "#818181"}}, {"type": "Feature", "geometry": {"type": "Point", "coordinates": [2.19054, 48.902714]}, "properties": {"numparc": 8944, "etat de la localisation": "autre", "ID BDGEO": "238", "horodatage": "2022-11-01 07:33:57", "distance (en metres)": 134.61, "station": "CENTRE BUS NANTERRE SORTIE", "marker-color": "#818181"}}, {"type": "Feature", "geometry": {"type": "Point", "coordinates": [2.188982, 48.902691]}, "properties": {"numparc": 8945, "etat de la localisation": "autre", "ID BDGEO": "238", "horodatage": "2022-11-01 12:28:34", "distance (en metres)": 130.35, "station": "CENTRE BUS NANTERRE SORTIE", "marker-color": "#818181"}}, {"type": "Feature", "geometry": {"type": "Point", "coordinates": [2.195933, 48.896252]}, "properties": {"numparc": 8949, "etat de la localisation": "autre", "ID BDGEO": "238", "horodatage": "2022-11-01 12:40:39", "distance (en metres)": 750.22, "station": "CENTRE BUS NANTERRE SORTIE", "marker-color": "#818181"}}, {"type": "Feature", "geometry": {"type": "Point", "coordinates": [2.195933, 48.896252]}, "properties": {"numparc": 8949, "etat de la localisation": "autre", "ID BDGEO": "238", "horodatage": "2022-11-01 12:40:39", "distance (en metres)": 750.22, "station": "CENTRE BUS NANTERRE SORTIE", "marker-color": "#818181"}}, {"type": "Feature", "geometry": {"type": "Point", "coordinates": [2.189735, 48.90258]}, "properties": {"numparc": 8943, "etat de la localisation": "Delocalise", "ID BDGEO": "1333", "horodatage": "2022-11-01 12:45:37", "distance (en metres)": 1226.18, "station": "JEAN BAILLET", "marker-color": "#FF565E"}}, {"type": "Feature", "geometry": {"type": "Point", "coordinates": [2.191003, 48.902855]}, "properties": {"numparc": 8949, "etat de la localisation": "autre", "ID BDGEO": "238", "horodatage": "2022-11-01 12:46:11", "distance (en metres)": 165.27, "station": "CENTRE BUS NANTERRE SORTIE", "marker-color": "#818181"}}, {"type": "Feature", "geometry": {"type": "Point", "coordinates": [2.191003, 48.902855]}, "properties": {"numparc": 8949, "etat de la localisation": "autre", "ID BDGEO": "238", "horodatage": "2022-11-01 12:46:11", "distance (en metres)": 165.27, "station": "CENTRE BUS NANTERRE SORTIE", "marker-color": "#818181"}}, {"type": "Feature", "geometry": {"type": "Point", "coordinates": [2.189541, 48.902714]}, "properties": {"numparc": 8949, "etat de la localisation": "autre", "ID BDGEO": "238", "horodatage": "2022-11-01 12:47:57", "distance (en metres)": 121.67, "station": "CENTRE BUS NANTERRE SORTIE", "marker-color": "#818181"}}, {"type": "Feature", "geometry": {"type": "Point", "coordinates": [2.189541, 48.902714]}, "properties": {"numparc": 8949, "etat de la localisation": "autre", "ID BDGEO": "238", "horodatage": "2022-11-01 12:47:57", "distance (en metres)": 121.67, "station": "CENTRE BUS NANTERRE SORTIE", "marker-color": "#818181"}}, {"type": "Feature", "geometry": {"type": "Point", "coordinates": [2.200106, 48.887535]}, "properties": {"numparc": 8945, "etat de la localisation": "autre", "ID BDGEO": "80", "horodatage": "2022-11-01 12:48:04", "distance (en metres)": 1475.69, "station": "PREFECTURE HAUTS-DE-SEINE", "marker-color": "#818181"}}, {"type": "Feature", "geometry": {"type": "Point", "coordinates": [2.200138, 48.887535]}, "properties": {"numparc": 8945, "etat de la localisation": "autre", "ID BDGEO": "80", "horodatage": "2022-11-01 12:49:15", "distance (en metres)": 1473.9, "station": "PREFECTURE HAUTS-DE-SEINE", "marker-color": "#818181"}}, {"type": "Feature", "geometry": {"type": "Point", "coordinates": [2.200136, 48.887524]}, "properties": {"numparc": 8945, "etat de la localisation": "autre", "ID BDGEO": "80", "horodatage": "2022-11-01 12:50:47", "distance (en metres)": 1474.85, "station": "PREFECTURE HAUTS-DE-SEINE", "marker-color": "#818181"}}, {"type": "Feature", "geometry": {"type": "Point", "coordinates": [2.204885, 48.889637]}, "properties": {"numparc": 8945, "etat de la localisation": "autre", "ID BDGEO": "80", "horodatage": "2022-11-01 12:52:57", "distance (en metres)": 1059.36, "station": "PREFECTURE HAUTS-DE-SEINE", "marker-color": "#818181"}}, {"type": "Feature", "geometry": {"type": "Point", "coordinates": [2.189113, 48.902645]}, "properties": {"numparc": 8937, "etat de la localisation": "autre", "ID BDGEO": "238", "horodatage": "2022-11-01 12:53:11", "distance (en metres)": 121.89, "station": "CENTRE BUS NANTERRE SORTIE", "marker-color": "#818181"}}, {"type": "Feature", "geometry": {"type": "Point", "coordinates": [2.210358, 48.892708]}, "properties": {"numparc": 8945, "etat de la localisation": "autre", "ID BDGEO": "80", "horodatage": "2022-11-01 12:54:22", "distance (en metres)": 534.5, "station": "PREFECTURE HAUTS-DE-SEINE", "marker-color": "#818181"}}, {"type": "Feature", "geometry": {"type": "Point", "coordinates": [2.212608, 48.893951]}, "properties": {"numparc": 8945, "etat de la localisation": "autre", "ID BDGEO": "80", "horodatage": "2022-11-01 12:55:59", "distance (en metres)": 321.42, "station": "PREFECTURE HAUTS-DE-SEINE", "marker-color": "#818181"}}, {"type": "Feature", "geometry": {"type": "Point", "coordinates": [2.19078, 48.902824]}, "properties": {"numparc": 8937, "etat de la localisation": "autre", "ID BDGEO": "238", "horodatage": "2022-11-01 12:57:39", "distance (en metres)": 153.72, "station": "CENTRE BUS NANTERRE SORTIE", "marker-color": "#818181"}}, {"type": "Feature", "geometry": {"type": "Point", "coordinates": [2.213304, 48.900539]}, "properties": {"numparc": 8945, "etat de la localisation": "autre", "ID BDGEO": "82", "horodatage": "2022-11-01 12:59:37", "distance (en metres)": 53.2, "station": "NANTERRE-UNIVERSITE RER", "marker-color": "#818181"}}, {"type": "Feature", "geometry": {"type": "Point", "coordinates": [2.210087, 48.905529]}, "properties": {"numparc": 8945, "etat de la localisation": "autre", "ID BDGEO": "598", "horodatage": "2022-11-01 13:03:24", "distance (en metres)": 62.66, "station": "UNIVERSITE PARIS X", "marker-color": "#818181"}}, {"type": "Feature", "geometry": {"type": "Point", "coordinates": [2.194554, 48.903782]}, "properties": {"numparc": 8942, "etat de la localisation": "autre", "ID BDGEO": "238", "horodatage": "2022-11-01 13:10:02", "distance (en metres)": 426.35, "station": "CENTRE BUS NANTERRE SORTIE", "marker-color": "#818181"}}, {"type": "Feature", "geometry": {"type": "Point", "coordinates": [2.191087, 48.902897]}, "properties": {"numparc": 8942, "etat de la localisation": "autre", "ID BDGEO": "238", "horodatage": "2022-11-01 13:11:14", "distance (en metres)": 172.6, "station": "CENTRE BUS NANTERRE SORTIE", "marker-color": "#818181"}}, {"type": "Feature", "geometry": {"type": "Point", "coordinates": [2.189431, 48.902836]}, "properties": {"numparc": 8942, "etat de la localisation": "autre", "ID BDGEO": "238", "horodatage": "2022-11-01 13:13:39", "distance (en metres)": 136.22, "station": "CENTRE BUS NANTERRE SORTIE", "marker-color": "#818181"}}, {"type": "Feature", "geometry": {"type": "Point", "coordinates": [2.236623, 48.923504]}, "properties": {"numparc": 8945, "etat de la localisation": "autre", "ID BDGEO": "93", "horodatage": "2022-11-01 13:18:03", "distance (en metres)": 98.71, "station": "HOPITAL LOUIS MOURIER", "marker-color": "#818181"}}, {"type": "Feature", "geometry": {"type": "Point", "coordinates": [2.247137, 48.928051]}, "properties": {"numparc": 8945, "etat de la localisation": "Delocalise", "ID BDGEO": "96", "horodatage": "2022-11-01 13:23:01", "distance (en metres)": 119.88, "station": "AUDRA", "marker-color": "#FF565E"}}, {"type": "Feature", "geometry": {"type": "Point", "coordinates": [2.252858, 48.926014]}, "properties": {"numparc": 8945, "etat de la localisation": "Delocalise", "ID BDGEO": "99", "horodatage": "2022-11-01 13:26:21", "distance (en metres)": 338.36, "station": "MAIRIE DE COLOMBES", "marker-color": "#FF565E"}}, {"type": "Feature", "geometry": {"type": "Point", "coordinates": [2.254838, 48.923]}, "properties": {"numparc": 8945, "etat de la localisation": "Delocalise", "ID BDGEO": "99", "horodatage": "2022-11-01 13:29:26", "distance (en metres)": 63.77, "station": "MAIRIE DE COLOMBES", "marker-color": "#FF565E"}}, {"type": "Feature", "geometry": {"type": "Point", "coordinates": [2.283813, 48.93005]}, "properties": {"numparc": 8945, "etat de la localisation": "autre", "ID BDGEO": "141", "horodatage": "2022-11-01 13:39:58", "distance (en metres)": 2536.58, "station": "EGLISE DE COLOMBES", "marker-color": "#818181"}}, {"type": "Feature", "geometry": {"type": "Point", "coordinates": [2.283813, 48.93005]}, "properties": {"numparc": 8945, "etat de la localisation": "autre", "ID BDGEO": "141", "horodatage": "2022-11-01 13:40:17", "distance (en metres)": 2536.58, "station": "EGLISE DE COLOMBES", "marker-color": "#818181"}}, {"type": "Feature", "geometry": {"type": "Point", "coordinates": [2.282999, 48.929832]}, "properties": {"numparc": 8945, "etat de la localisation": "autre", "ID BDGEO": "141", "horodatage": "2022-11-01 13:42:35", "distance (en metres)": 2472.59, "station": "EGLISE DE COLOMBES", "marker-color": "#818181"}}, {"type": "Feature", "geometry": {"type": "Point", "coordinates": [2.282786, 48.929771]}, "properties": {"numparc": 8945, "etat de la localisation": "autre", "ID BDGEO": "141", "horodatage": "2022-11-01 13:53:06", "distance (en metres)": 2455.7, "station": "EGLISE DE COLOMBES", "marker-color": "#818181"}}, {"type": "Feature", "geometry": {"type": "Point", "coordinates": [2.28006, 48.92905]}, "properties": {"numparc": 8945, "etat de la localisation": "autre", "ID BDGEO": "141", "horodatage": "2022-11-01 13:54:02", "distance (en metres)": 2241.72, "station": "EGLISE DE COLOMBES", "marker-color": "#818181"}}, {"type": "Feature", "geometry": {"type": "Point", "coordinates": [2.276571, 48.927982]}, "properties": {"numparc": 8945, "etat de la localisation": "autre", "ID BDGEO": "141", "horodatage": "2022-11-01 13:55:10", "distance (en metres)": 1963.54, "station": "EGLISE DE COLOMBES", "marker-color": "#818181"}}, {"type": "Feature", "geometry": {"type": "Point", "coordinates": [2.274575, 48.927406]}, "properties": {"numparc": 8945, "etat de la localisation": "autre", "ID BDGEO": "141", "horodatage": "2022-11-01 13:56:25", "distance (en metres)": 1805.84, "station": "EGLISE DE COLOMBES", "marker-color": "#818181"}}, {"type": "Feature", "geometry": {"type": "Point", "coordinates": [2.267248, 48.924969]}, "properties": {"numparc": 8945, "etat de la localisation": "autre", "ID BDGEO": "141", "horodatage": "2022-11-01 13:58:50", "distance (en metres)": 1223.81, "station": "EGLISE DE COLOMBES", "marker-color": "#818181"}}, {"type": "Feature", "geometry": {"type": "Point", "coordinates": [2.264832, 48.924549]}, "properties": {"numparc": 8945, "etat de la localisation": "autre", "ID BDGEO": "141", "horodatage": "2022-11-01 13:59:40", "distance (en metres)": 1042.09, "station": "EGLISE DE COLOMBES", "marker-color": "#818181"}}, {"type": "Feature", "geometry": {"type": "Point", "coordinates": [2.259477, 48.923592]}, "properties": {"numparc": 8945, "etat de la localisation": "autre", "ID BDGEO": "141", "horodatage": "2022-11-01 14:01:17", "distance (en metres)": 640.73, "station": "EGLISE DE COLOMBES", "marker-color": "#818181"}}, {"type": "Feature", "geometry": {"type": "Point", "coordinates": [2.256638, 48.923286]}, "properties": {"numparc": 8945, "etat de la localisation": "autre", "ID BDGEO": "141", "horodatage": "2022-11-01 14:02:35", "distance (en metres)": 431.53, "station": "EGLISE DE COLOMBES", "marker-color": "#818181"}}, {"type": "Feature", "geometry": {"type": "Point", "coordinates": [2.254587, 48.923153]}, "properties": {"numparc": 8945, "etat de la localisation": "autre", "ID BDGEO": "141", "horodatage": "2022-11-01 14:03:39", "distance (en metres)": 281.27, "station": "EGLISE DE COLOMBES", "marker-color": "#818181"}}, {"type": "Feature", "geometry": {"type": "Point", "coordinates": [2.252862, 48.924202]}, "properties": {"numparc": 8945, "etat de la localisation": "autre", "ID BDGEO": "141", "horodatage": "2022-11-01 14:05:09", "distance (en metres)": 196.94, "station": "EGLISE DE COLOMBES", "marker-color": "#818181"}}, {"type": "Feature", "geometry": {"type": "Point", "coordinates": [2.253117, 48.925926]}, "properties": {"numparc": 8945, "etat de la localisation": "autre", "ID BDGEO": "141", "horodatage": "2022-11-01 14:05:53", "distance (en metres)": 358.01, "station": "EGLISE DE COLOMBES", "marker-color": "#818181"}}, {"type": "Feature", "geometry": {"type": "Point", "coordinates": [2.250926, 48.928009]}, "properties": {"numparc": 8945, "etat de la localisation": "autre", "ID BDGEO": "143", "horodatage": "2022-11-01 14:07:29", "distance (en metres)": 341.0, "station": "AUDRA", "marker-color": "#818181"}}, {"type": "Feature", "geometry": {"type": "Point", "coordinates": [2.238659, 48.924519]}, "properties": {"numparc": 8945, "etat de la localisation": "Delocalise", "ID BDGEO": "145", "horodatage": "2022-11-01 14:12:50", "distance (en metres)": 64.95, "station": "EUROPE", "marker-color": "#FF565E"}}, {"type": "Feature", "geometry": {"type": "Point", "coordinates": [2.215981, 48.90979]}, "properties": {"numparc": 8945, "etat de la localisation": "Delocalise", "ID BDGEO": "153", "horodatage": "2022-11-01 14:26:35", "distance (en metres)": 45.89, "station": "LES SAULES", "marker-color": "#FF565E"}}, {"type": "Feature", "geometry": {"type": "Point", "coordinates": [2.209602, 48.905968]}, "properties": {"numparc": 8945, "etat de la localisation": "Delocalise", "ID BDGEO": "595", "horodatage": "2022-11-01 14:29:27", "distance (en metres)": 124.25, "station": "UNIVERSITE PARIS X", "marker-color": "#FF565E"}}, {"type": "Feature", "geometry": {"type": "Point", "coordinates": [2.213027, 48.894436]}, "properties": {"numparc": 8945, "etat de la localisation": "autre", "ID BDGEO": "160", "horodatage": "2022-11-01 14:36:15", "distance (en metres)": 83.04, "station": "JOLIOT-CURIE-COURBEVOIE", "marker-color": "#818181"}}, {"type": "Feature", "geometry": {"type": "Point", "coordinates": [2.207144, 48.891071]}, "properties": {"numparc": 8945, "etat de la localisation": "autre", "ID BDGEO": "162", "horodatage": "2022-11-01 14:37:56", "distance (en metres)": 46.44, "station": "MAIRIE DE NANTERRE", "marker-color": "#818181"}}, {"type": "Feature", "geometry": {"type": "Point", "coordinates": [2.200578, 48.887566]}, "properties": {"numparc": 8945, "etat de la localisation": "Delocalise", "ID BDGEO": "80", "horodatage": "2022-11-01 14:39:58", "distance (en metres)": 1447.38, "station": "PREFECTURE HAUTS-DE-SEINE", "marker-color": "#FF565E"}}, {"type": "Feature", "geometry": {"type": "Point", "coordinates": [2.200494, 48.887512]}, "properties": {"numparc": 8945, "etat de la localisation": "Delocalise", "ID BDGEO": "80", "horodatage": "2022-11-01 14:53:51", "distance (en metres)": 1455.91, "station": "PREFECTURE HAUTS-DE-SEINE", "marker-color": "#FF565E"}}, {"type": "Feature", "geometry": {"type": "Point", "coordinates": [2.202873, 48.88847]}, "properties": {"numparc": 8945, "etat de la localisation": "autre", "ID BDGEO": "80", "horodatage": "2022-11-01 14:56:56", "distance (en metres)": 1255.46, "station": "PREFECTURE HAUTS-DE-SEINE", "marker-color": "#818181"}}, {"type": "Feature", "geometry": {"type": "Point", "coordinates": [2.205322, 48.889866]}, "properties": {"numparc": 8945, "etat de la localisation": "autre", "ID BDGEO": "80", "horodatage": "2022-11-01 14:57:46", "distance (en metres)": 1018.65, "station": "PREFECTURE HAUTS-DE-SEINE", "marker-color": "#818181"}}, {"type": "Feature", "geometry": {"type": "Point", "coordinates": [2.207369, 48.891014]}, "properties": {"numparc": 8945, "etat de la localisation": "autre", "ID BDGEO": "80", "horodatage": "2022-11-01 14:58:31", "distance (en metres)": 822.24, "station": "PREFECTURE HAUTS-DE-SEINE", "marker-color": "#818181"}}, {"type": "Feature", "geometry": {"type": "Point", "coordinates": [2.21053, 48.892792]}, "properties": {"numparc": 8945, "etat de la localisation": "autre", "ID BDGEO": "80", "horodatage": "2022-11-01 14:59:26", "distance (en metres)": 519.05, "station": "PREFECTURE HAUTS-DE-SEINE", "marker-color": "#818181"}}, {"type": "Feature", "geometry": {"type": "Point", "coordinates": [2.212718, 48.893982]}, "properties": {"numparc": 8945, "etat de la localisation": "autre", "ID BDGEO": "80", "horodatage": "2022-11-01 15:01:04", "distance (en metres)": 313.66, "station": "PREFECTURE HAUTS-DE-SEINE", "marker-color": "#818181"}}, {"type": "Feature", "geometry": {"type": "Point", "coordinates": [2.214937, 48.89653]}, "properties": {"numparc": 8945, "etat de la localisation": "autre", "ID BDGEO": "80", "horodatage": "2022-11-01 15:02:10", "distance (en metres)": 56.17, "station": "PREFECTURE HAUTS-DE-SEINE", "marker-color": "#818181"}}, {"type": "Feature", "geometry": {"type": "Point", "coordinates": [2.213306, 48.900558]}, "properties": {"numparc": 8945, "etat de la localisation": "Delocalise", "ID BDGEO": "82", "horodatage": "2022-11-01 15:04:39", "distance (en metres)": 52.36, "station": "NANTERRE-UNIVERSITE RER", "marker-color": "#FF565E"}}, {"type": "Feature", "geometry": {"type": "Point", "coordinates": [2.210159, 48.90556]}, "properties": {"numparc": 8945, "etat de la localisation": "Delocalise", "ID BDGEO": "598", "horodatage": "2022-11-01 15:07:31", "distance (en metres)": 68.86, "station": "UNIVERSITE PARIS X", "marker-color": "#FF565E"}}, {"type": "Feature", "geometry": {"type": "Point", "coordinates": [2.22453, 48.917942]}, "properties": {"numparc": 8945, "etat de la localisation": "autre", "ID BDGEO": "90", "horodatage": "2022-11-01 15:18:10", "distance (en metres)": 72.35, "station": "PARC LAGRAVERE", "marker-color": "#818181"}}, {"type": "Feature", "geometry": {"type": "Point", "coordinates": [2.236575, 48.9235]}, "properties": {"numparc": 8945, "etat de la localisation": "autre", "ID BDGEO": "93", "horodatage": "2022-11-01 15:24:35", "distance (en metres)": 95.31, "station": "HOPITAL LOUIS MOURIER", "marker-color": "#818181"}}, {"type": "Feature", "geometry": {"type": "Point", "coordinates": [2.247167, 48.928173]}, "properties": {"numparc": 8945, "etat de la localisation": "Delocalise", "ID BDGEO": "96", "horodatage": "2022-11-01 15:30:20", "distance (en metres)": 133.53, "station": "AUDRA", "marker-color": "#FF565E"}}, {"type": "Feature", "geometry": {"type": "Point", "coordinates": [2.252938, 48.926064]}, "properties": {"numparc": 8945, "etat de la localisation": "Delocalise", "ID BDGEO": "99", "horodatage": "2022-11-01 15:33:07", "distance (en metres)": 342.38, "station": "MAIRIE DE COLOMBES", "marker-color": "#FF565E"}}, {"type": "Feature", "geometry": {"type": "Point", "coordinates": [2.25264, 48.924377]}, "properties": {"numparc": 8945, "etat de la localisation": "Delocalise", "ID BDGEO": "98", "horodatage": "2022-11-01 15:34:11", "distance (en metres)": 168.78, "station": "EGLISE DE COLOMBES", "marker-color": "#FF565E"}}, {"type": "Feature", "geometry": {"type": "Point", "coordinates": [2.254518, 48.923031]}, "properties": {"numparc": 8945, "etat de la localisation": "autre", "ID BDGEO": "99", "horodatage": "2022-11-01 15:35:18", "distance (en metres)": 40.18, "station": "MAIRIE DE COLOMBES", "marker-color": "#818181"}}, {"type": "Feature", "geometry": {"type": "Point", "coordinates": [2.259575, 48.923447]}, "properties": {"numparc": 8945, "etat de la localisation": "Delocalise", "ID BDGEO": "141", "horodatage": "2022-11-01 15:37:38", "distance (en metres)": 646.74, "station": "EGLISE DE COLOMBES", "marker-color": "#FF565E"}}, {"type": "Feature", "geometry": {"type": "Point", "coordinates": [2.265304, 48.924526]}, "properties": {"numparc": 8945, "etat de la localisation": "Delocalise", "ID BDGEO": "141", "horodatage": "2022-11-01 15:40:24", "distance (en metres)": 1075.8, "station": "EGLISE DE COLOMBES", "marker-color": "#FF565E"}}, {"type": "Feature", "geometry": {"type": "Point", "coordinates": [2.268965, 48.925343]}, "properties": {"numparc": 8945, "etat de la localisation": "Delocalise", "ID BDGEO": "141", "horodatage": "2022-11-01 15:41:57", "distance (en metres)": 1354.62, "station": "EGLISE DE COLOMBES", "marker-color": "#FF565E"}}, {"type": "Feature", "geometry": {"type": "Point", "coordinates": [2.273806, 48.926949]}, "properties": {"numparc": 8945, "etat de la localisation": "Delocalise", "ID BDGEO": "141", "horodatage": "2022-11-01 15:43:05", "distance (en metres)": 1738.54, "station": "EGLISE DE COLOMBES", "marker-color": "#FF565E"}}, {"type": "Feature", "geometry": {"type": "Point", "coordinates": [2.274201, 48.927078]}, "properties": {"numparc": 8945, "etat de la localisation": "Delocalise", "ID BDGEO": "141", "horodatage": "2022-11-01 15:43:50", "distance (en metres)": 1770.06, "station": "EGLISE DE COLOMBES", "marker-color": "#FF565E"}}, {"type": "Feature", "geometry": {"type": "Point", "coordinates": [2.277947, 48.928234]}, "properties": {"numparc": 8945, "etat de la localisation": "Delocalise", "ID BDGEO": "141", "horodatage": "2022-11-01 15:45:41", "distance (en metres)": 2067.88, "station": "EGLISE DE COLOMBES", "marker-color": "#FF565E"}}, {"type": "Feature", "geometry": {"type": "Point", "coordinates": [2.27797, 48.928253]}, "properties": {"numparc": 8945, "etat de la localisation": "Delocalise", "ID BDGEO": "141", "horodatage": "2022-11-01 15:45:56", "distance (en metres)": 2070.09, "station": "EGLISE DE COLOMBES", "marker-color": "#FF565E"}}, {"type": "Feature", "geometry": {"type": "Point", "coordinates": [2.283574, 48.929874]}, "properties": {"numparc": 8945, "etat de la localisation": "Delocalise", "ID BDGEO": "141", "horodatage": "2022-11-01 15:47:38", "distance (en metres)": 2514.06, "station": "EGLISE DE COLOMBES", "marker-color": "#FF565E"}}, {"type": "Feature", "geometry": {"type": "Point", "coordinates": [2.282866, 48.929852]}, "properties": {"numparc": 8945, "etat de la localisation": "autre", "ID BDGEO": "141", "horodatage": "2022-11-01 15:59:02", "distance (en metres)": 2463.97, "station": "EGLISE DE COLOMBES", "marker-color": "#818181"}}, {"type": "Feature", "geometry": {"type": "Point", "coordinates": [2.282618, 48.929768]}, "properties": {"numparc": 8945, "etat de la localisation": "autre", "ID BDGEO": "141", "horodatage": "2022-11-01 15:59:20", "distance (en metres)": 2443.88, "station": "EGLISE DE COLOMBES", "marker-color": "#818181"}}, {"type": "Feature", "geometry": {"type": "Point", "coordinates": [2.282451, 48.929718]}, "properties": {"numparc": 8945, "etat de la localisation": "autre", "ID BDGEO": "141", "horodatage": "2022-11-01 15:59:41", "distance (en metres)": 2430.57, "station": "EGLISE DE COLOMBES", "marker-color": "#818181"}}, {"type": "Feature", "geometry": {"type": "Point", "coordinates": [2.282254, 48.929676]}, "properties": {"numparc": 8945, "etat de la localisation": "autre", "ID BDGEO": "141", "horodatage": "2022-11-01 16:00:02", "distance (en metres)": 2415.45, "station": "EGLISE DE COLOMBES", "marker-color": "#818181"}}, {"type": "Feature", "geometry": {"type": "Point", "coordinates": [2.214022, 48.897434]}, "properties": {"numparc": 8955, "etat de la localisation": "autre", "ID BDGEO": "158", "horodatage": "2022-11-01 16:00:08", "distance (en metres)": 112.34, "station": "SOUFFLOT", "marker-color": "#818181"}}, {"type": "Feature", "geometry": {"type": "Point", "coordinates": [2.212909, 48.894379]}, "properties": {"numparc": 8955, "etat de la localisation": "autre", "ID BDGEO": "160", "horodatage": "2022-11-01 16:02:29", "distance (en metres)": 72.43, "station": "JOLIOT-CURIE-COURBEVOIE", "marker-color": "#818181"}}, {"type": "Feature", "geometry": {"type": "Point", "coordinates": [2.276628, 48.92799]}, "properties": {"numparc": 8945, "etat de la localisation": "autre", "ID BDGEO": "141", "horodatage": "2022-11-01 16:02:35", "distance (en metres)": 1967.77, "station": "EGLISE DE COLOMBES", "marker-color": "#818181"}}, {"type": "Feature", "geometry": {"type": "Point", "coordinates": [2.207157, 48.891079]}, "properties": {"numparc": 8955, "etat de la localisation": "autre", "ID BDGEO": "162", "horodatage": "2022-11-01 16:03:52", "distance (en metres)": 47.71, "station": "MAIRIE DE NANTERRE", "marker-color": "#818181"}}, {"type": "Feature", "geometry": {"type": "Point", "coordinates": [2.274582, 48.927387]}, "properties": {"numparc": 8945, "etat de la localisation": "autre", "ID BDGEO": "141", "horodatage": "2022-11-01 16:04:01", "distance (en metres)": 1805.76, "station": "EGLISE DE COLOMBES", "marker-color": "#818181"}}, {"type": "Feature", "geometry": {"type": "Point", "coordinates": [2.274463, 48.927349]}, "properties": {"numparc": 8945, "etat de la localisation": "autre", "ID BDGEO": "141", "horodatage": "2022-11-01 16:04:42", "distance (en metres)": 1796.26, "station": "EGLISE DE COLOMBES", "marker-color": "#818181"}}, {"type": "Feature", "geometry": {"type": "Point", "coordinates": [2.267347, 48.92498]}, "properties": {"numparc": 8945, "etat de la localisation": "autre", "ID BDGEO": "141", "horodatage": "2022-11-01 16:06:08", "distance (en metres)": 1231.16, "station": "EGLISE DE COLOMBES", "marker-color": "#818181"}}, {"type": "Feature", "geometry": {"type": "Point", "coordinates": [2.264866, 48.924541]}, "properties": {"numparc": 8945, "etat de la localisation": "autre", "ID BDGEO": "141", "horodatage": "2022-11-01 16:06:49", "distance (en metres)": 1044.42, "station": "EGLISE DE COLOMBES", "marker-color": "#818181"}}, {"type": "Feature", "geometry": {"type": "Point", "coordinates": [2.259398, 48.923542]}, "properties": {"numparc": 8945, "etat de la localisation": "autre", "ID BDGEO": "141", "horodatage": "2022-11-01 16:08:09", "distance (en metres)": 634.55, "station": "EGLISE DE COLOMBES", "marker-color": "#818181"}}, {"type": "Feature", "geometry": {"type": "Point", "coordinates": [2.256483, 48.923183]}, "properties": {"numparc": 8945, "etat de la localisation": "autre", "ID BDGEO": "141", "horodatage": "2022-11-01 16:09:37", "distance (en metres)": 419.84, "station": "EGLISE DE COLOMBES", "marker-color": "#818181"}}, {"type": "Feature", "geometry": {"type": "Point", "coordinates": [2.254438, 48.923035]}, "properties": {"numparc": 8945, "etat de la localisation": "autre", "ID BDGEO": "141", "horodatage": "2022-11-01 16:11:08", "distance (en metres)": 270.48, "station": "EGLISE DE COLOMBES", "marker-color": "#818181"}}, {"type": "Feature", "geometry": {"type": "Point", "coordinates": [2.252684, 48.924175]}, "properties": {"numparc": 8945, "etat de la localisation": "autre", "ID BDGEO": "141", "horodatage": "2022-11-01 16:13:08", "distance (en metres)": 184.96, "station": "EGLISE DE COLOMBES", "marker-color": "#818181"}}, {"type": "Feature", "geometry": {"type": "Point", "coordinates": [2.250606, 48.928062]}, "properties": {"numparc": 8945, "etat de la localisation": "autre", "ID BDGEO": "143", "horodatage": "2022-11-01 16:16:34", "distance (en metres)": 320.21, "station": "AUDRA", "marker-color": "#818181"}}, {"type": "Feature", "geometry": {"type": "Point", "coordinates": [2.238689, 48.92458]}, "properties": {"numparc": 8945, "etat de la localisation": "autre", "ID BDGEO": "145", "horodatage": "2022-11-01 16:22:03", "distance (en metres)": 59.85, "station": "EUROPE", "marker-color": "#818181"}}, {"type": "Feature", "geometry": {"type": "Point", "coordinates": [2.209159, 48.905689]}, "properties": {"numparc": 8945, "etat de la localisation": "autre", "ID BDGEO": "595", "horodatage": "2022-11-01 16:37:23", "distance (en metres)": 79.44, "station": "UNIVERSITE PARIS X", "marker-color": "#818181"}}, {"type": "Feature", "geometry": {"type": "Point", "coordinates": [2.213027, 48.894356]}, "properties": {"numparc": 8945, "etat de la localisation": "autre", "ID BDGEO": "160", "horodatage": "2022-11-01 16:45:03", "distance (en metres)": 77.08, "station": "JOLIOT-CURIE-COURBEVOIE", "marker-color": "#818181"}}, {"type": "Feature", "geometry": {"type": "Point", "coordinates": [2.207195, 48.891033]}, "properties": {"numparc": 8945, "etat de la localisation": "autre", "ID BDGEO": "162", "horodatage": "2022-11-01 16:47:19", "distance (en metres)": 46.18, "station": "MAIRIE DE NANTERRE", "marker-color": "#818181"}}, {"type": "Feature", "geometry": {"type": "Point", "coordinates": [2.201214, 48.88763]}, "properties": {"numparc": 8945, "etat de la localisation": "autre", "ID BDGEO": "80", "horodatage": "2022-11-01 16:49:41", "distance (en metres)": 1407.91, "station": "PREFECTURE HAUTS-DE-SEINE", "marker-color": "#818181"}}, {"type": "Feature", "geometry": {"type": "Point", "coordinates": [2.200308, 48.887428]}, "properties": {"numparc": 8945, "etat de la localisation": "autre", "ID BDGEO": "80", "horodatage": "2022-11-01 16:50:26", "distance (en metres)": 1472.28, "station": "PREFECTURE HAUTS-DE-SEINE", "marker-color": "#818181"}}, {"type": "Feature", "geometry": {"type": "Point", "coordinates": [2.200308, 48.887428]}, "properties": {"numparc": 8945, "etat de la localisation": "autre", "ID BDGEO": "80", "horodatage": "2022-11-01 17:04:06", "distance (en metres)": 1472.28, "station": "PREFECTURE HAUTS-DE-SEINE", "marker-color": "#818181"}}, {"type": "Feature", "geometry": {"type": "Point", "coordinates": [2.200308, 48.887428]}, "properties": {"numparc": 8945, "etat de la localisation": "autre", "ID BDGEO": "80", "horodatage": "2022-11-01 17:05:34", "distance (en metres)": 1472.28, "station": "PREFECTURE HAUTS-DE-SEINE", "marker-color": "#818181"}}, {"type": "Feature", "geometry": {"type": "Point", "coordinates": [2.20284, 48.888462]}, "properties": {"numparc": 8945, "etat de la localisation": "autre", "ID BDGEO": "80", "horodatage": "2022-11-01 17:07:27", "distance (en metres)": 1257.81, "station": "PREFECTURE HAUTS-DE-SEINE", "marker-color": "#818181"}}, {"type": "Feature", "geometry": {"type": "Point", "coordinates": [2.205296, 48.889874]}, "properties": {"numparc": 8945, "etat de la localisation": "autre", "ID BDGEO": "80", "horodatage": "2022-11-01 17:08:10", "distance (en metres)": 1019.45, "station": "PREFECTURE HAUTS-DE-SEINE", "marker-color": "#818181"}}, {"type": "Feature", "geometry": {"type": "Point", "coordinates": [2.207392, 48.891079]}, "properties": {"numparc": 8945, "etat de la localisation": "autre", "ID BDGEO": "80", "horodatage": "2022-11-01 17:08:48", "distance (en metres)": 816.03, "station": "PREFECTURE HAUTS-DE-SEINE", "marker-color": "#818181"}}, {"type": "Feature", "geometry": {"type": "Point", "coordinates": [2.210536, 48.892879]}, "properties": {"numparc": 8945, "etat de la localisation": "autre", "ID BDGEO": "80", "horodatage": "2022-11-01 17:09:38", "distance (en metres)": 511.75, "station": "PREFECTURE HAUTS-DE-SEINE", "marker-color": "#818181"}}, {"type": "Feature", "geometry": {"type": "Point", "coordinates": [2.212503, 48.893917]}, "properties": {"numparc": 8945, "etat de la localisation": "autre", "ID BDGEO": "80", "horodatage": "2022-11-01 17:11:06", "distance (en metres)": 329.32, "station": "PREFECTURE HAUTS-DE-SEINE", "marker-color": "#818181"}}, {"type": "Feature", "geometry": {"type": "Point", "coordinates": [2.214923, 48.896503]}, "properties": {"numparc": 8945, "etat de la localisation": "autre", "ID BDGEO": "80", "horodatage": "2022-11-01 17:12:15", "distance (en metres)": 54.73, "station": "PREFECTURE HAUTS-DE-SEINE", "marker-color": "#818181"}}, {"type": "Feature", "geometry": {"type": "Point", "coordinates": [2.213182, 48.900539]}, "properties": {"numparc": 8945, "etat de la localisation": "autre", "ID BDGEO": "82", "horodatage": "2022-11-01 17:14:45", "distance (en metres)": 45.5, "station": "NANTERRE-UNIVERSITE RER", "marker-color": "#818181"}}, {"type": "Feature", "geometry": {"type": "Point", "coordinates": [2.210202, 48.905594]}, "properties": {"numparc": 8945, "etat de la localisation": "autre", "ID BDGEO": "598", "horodatage": "2022-11-01 17:17:30", "distance (en metres)": 73.73, "station": "UNIVERSITE PARIS X", "marker-color": "#818181"}}, {"type": "Feature", "geometry": {"type": "Point", "coordinates": [2.236596, 48.923519]}, "properties": {"numparc": 8945, "etat de la localisation": "autre", "ID BDGEO": "93", "horodatage": "2022-11-01 17:33:54", "distance (en metres)": 97.6, "station": "HOPITAL LOUIS MOURIER", "marker-color": "#818181"}}, {"type": "Feature", "geometry": {"type": "Point", "coordinates": [2.247155, 48.928181]}, "properties": {"numparc": 8945, "etat de la localisation": "Delocalise", "ID BDGEO": "96", "horodatage": "2022-11-01 17:38:58", "distance (en metres)": 134.34, "station": "AUDRA", "marker-color": "#FF565E"}}, {"type": "Feature", "geometry": {"type": "Point", "coordinates": [2.252934, 48.925903]}, "properties": {"numparc": 8945, "etat de la localisation": "Delocalise", "ID BDGEO": "99", "horodatage": "2022-11-01 17:41:42", "distance (en metres)": 325.1, "station": "MAIRIE DE COLOMBES", "marker-color": "#FF565E"}}, {"type": "Feature", "geometry": {"type": "Point", "coordinates": [2.252627, 48.924141]}, "properties": {"numparc": 8945, "etat de la localisation": "Delocalise", "ID BDGEO": "98", "horodatage": "2022-11-01 17:42:37", "distance (en metres)": 144.45, "station": "EGLISE DE COLOMBES", "marker-color": "#FF565E"}}, {"type": "Feature", "geometry": {"type": "Point", "coordinates": [2.260012, 48.923553]}, "properties": {"numparc": 8945, "etat de la localisation": "autre", "ID BDGEO": "141", "horodatage": "2022-11-01 17:49:23", "distance (en metres)": 679.37, "station": "EGLISE DE COLOMBES", "marker-color": "#818181"}}, {"type": "Feature", "geometry": {"type": "Point", "coordinates": [2.274061, 48.92704]}, "properties": {"numparc": 8945, "etat de la localisation": "autre", "ID BDGEO": "141", "horodatage": "2022-11-01 17:51:49", "distance (en metres)": 1759.1, "station": "EGLISE DE COLOMBES", "marker-color": "#818181"}}, {"type": "Feature", "geometry": {"type": "Point", "coordinates": [2.275591, 48.927483]}, "properties": {"numparc": 8945, "etat de la localisation": "autre", "ID BDGEO": "141", "horodatage": "2022-11-01 17:53:17", "distance (en metres)": 1879.69, "station": "EGLISE DE COLOMBES", "marker-color": "#818181"}}, {"type": "Feature", "geometry": {"type": "Point", "coordinates": [2.275823, 48.927517]}, "properties": {"numparc": 8945, "etat de la localisation": "autre", "ID BDGEO": "141", "horodatage": "2022-11-01 17:54:15", "distance (en metres)": 1897.07, "station": "EGLISE DE COLOMBES", "marker-color": "#818181"}}, {"type": "Feature", "geometry": {"type": "Point", "coordinates": [2.284017, 48.93018]}, "properties": {"numparc": 8945, "etat de la localisation": "Delocalise", "ID BDGEO": "141", "horodatage": "2022-11-01 17:56:15", "distance (en metres)": 2555.19, "station": "EGLISE DE COLOMBES", "marker-color": "#FF565E"}}, {"type": "Feature", "geometry": {"type": "Point", "coordinates": [2.283151, 48.929947]}, "properties": {"numparc": 8945, "etat de la localisation": "autre", "ID BDGEO": "141", "horodatage": "2022-11-01 18:03:57", "distance (en metres)": 2487.03, "station": "EGLISE DE COLOMBES", "marker-color": "#818181"}}, {"type": "Feature", "geometry": {"type": "Point", "coordinates": [2.283088, 48.929924]}, "properties": {"numparc": 8945, "etat de la localisation": "autre", "ID BDGEO": "141", "horodatage": "2022-11-01 18:04:16", "distance (en metres)": 2481.87, "station": "EGLISE DE COLOMBES", "marker-color": "#818181"}}, {"type": "Feature", "geometry": {"type": "Point", "coordinates": [2.282514, 48.929779]}, "properties": {"numparc": 8945, "etat de la localisation": "autre", "ID BDGEO": "141", "horodatage": "2022-11-01 18:05:38", "distance (en metres)": 2437.03, "station": "EGLISE DE COLOMBES", "marker-color": "#818181"}}, {"type": "Feature", "geometry": {"type": "Point", "coordinates": [2.28232, 48.929718]}, "properties": {"numparc": 8945, "etat de la localisation": "autre", "ID BDGEO": "141", "horodatage": "2022-11-01 18:06:51", "distance (en metres)": 2421.46, "station": "EGLISE DE COLOMBES", "marker-color": "#818181"}}, {"type": "Feature", "geometry": {"type": "Point", "coordinates": [2.282277, 48.929703]}, "properties": {"numparc": 8945, "etat de la localisation": "autre", "ID BDGEO": "141", "horodatage": "2022-11-01 18:07:25", "distance (en metres)": 2417.96, "station": "EGLISE DE COLOMBES", "marker-color": "#818181"}}, {"type": "Feature", "geometry": {"type": "Point", "coordinates": [2.259356, 48.92355]}, "properties": {"numparc": 8945, "etat de la localisation": "autre", "ID BDGEO": "141", "horodatage": "2022-11-01 18:10:37", "distance (en metres)": 631.55, "station": "EGLISE DE COLOMBES", "marker-color": "#818181"}}, {"type": "Feature", "geometry": {"type": "Point", "coordinates": [2.256629, 48.923279]}, "properties": {"numparc": 8945, "etat de la localisation": "autre", "ID BDGEO": "141", "horodatage": "2022-11-01 18:11:21", "distance (en metres)": 430.83, "station": "EGLISE DE COLOMBES", "marker-color": "#818181"}}, {"type": "Feature", "geometry": {"type": "Point", "coordinates": [2.256213, 48.923164]}, "properties": {"numparc": 8945, "etat de la localisation": "autre", "ID BDGEO": "141", "horodatage": "2022-11-01 18:12:24", "distance (en metres)": 400.08, "station": "EGLISE DE COLOMBES", "marker-color": "#818181"}}, {"type": "Feature", "geometry": {"type": "Point", "coordinates": [2.190795, 48.902752]}, "properties": {"numparc": 8943, "etat de la localisation": "autre", "ID BDGEO": "238", "horodatage": "2022-11-01 18:14:22", "distance (en metres)": 147.36, "station": "CENTRE BUS NANTERRE SORTIE", "marker-color": "#818181"}}, {"type": "Feature", "geometry": {"type": "Point", "coordinates": [2.255952, 48.923409]}, "properties": {"numparc": 8945, "etat de la localisation": "autre", "ID BDGEO": "141", "horodatage": "2022-11-01 18:14:28", "distance (en metres)": 382.38, "station": "EGLISE DE COLOMBES", "marker-color": "#818181"}}, {"type": "Feature", "geometry": {"type": "Point", "coordinates": [2.247457, 48.927452]}, "properties": {"numparc": 8945, "etat de la localisation": "autre", "ID BDGEO": "143", "horodatage": "2022-11-01 18:18:40", "distance (en metres)": 80.46, "station": "AUDRA", "marker-color": "#818181"}}, {"type": "Feature", "geometry": {"type": "Point", "coordinates": [2.238529, 48.924534]}, "properties": {"numparc": 8945, "etat de la localisation": "autre", "ID BDGEO": "145", "horodatage": "2022-11-01 18:21:07", "distance (en metres)": 72.6, "station": "EUROPE", "marker-color": "#818181"}}, {"type": "Feature", "geometry": {"type": "Point", "coordinates": [2.226232, 48.916195]}, "properties": {"numparc": 8945, "etat de la localisation": "autre", "ID BDGEO": "149", "horodatage": "2022-11-01 18:29:17", "distance (en metres)": 259.26, "station": "PARC LAGRAVERE", "marker-color": "#818181"}}, {"type": "Feature", "geometry": {"type": "Point", "coordinates": [2.225308, 48.913189]}, "properties": {"numparc": 8945, "etat de la localisation": "autre", "ID BDGEO": "150", "horodatage": "2022-11-01 18:30:28", "distance (en metres)": 252.93, "station": "VICTOR BASCH", "marker-color": "#818181"}}, {"type": "Feature", "geometry": {"type": "Point", "coordinates": [2.222089, 48.911514]}, "properties": {"numparc": 8945, "etat de la localisation": "Delocalise", "ID BDGEO": "151", "horodatage": "2022-11-01 18:31:26", "distance (en metres)": 42.7, "station": "HOPITAL DE NANTERRE", "marker-color": "#FF565E"}}, {"type": "Feature", "geometry": {"type": "Point", "coordinates": [2.221625, 48.91143]}, "properties": {"numparc": 8945, "etat de la localisation": "Delocalise", "ID BDGEO": "151", "horodatage": "2022-11-01 18:32:19", "distance (en metres)": 76.86, "station": "HOPITAL DE NANTERRE", "marker-color": "#FF565E"}}, {"type": "Feature", "geometry": {"type": "Point", "coordinates": [2.212115, 48.893955]}, "properties": {"numparc": 8945, "etat de la localisation": "Delocalise", "ID BDGEO": "4", "horodatage": "2022-11-01 18:40:39", "distance (en metres)": 1952.42, "station": "CENTRE BUS NANTERRE ENTREE", "marker-color": "#FF565E"}}, {"type": "Feature", "geometry": {"type": "Point", "coordinates": [2.189789, 48.902229]}, "properties": {"numparc": 8952, "etat de la localisation": "autre", "ID BDGEO": "238", "horodatage": "2022-11-01 18:40:54", "distance (en metres)": 67.15, "station": "CENTRE BUS NANTERRE SORTIE", "marker-color": "#818181"}}, {"type": "Feature", "geometry": {"type": "Point", "coordinates": [2.212028, 48.893917]}, "properties": {"numparc": 8945, "etat de la localisation": "Delocalise", "ID BDGEO": "4", "horodatage": "2022-11-01 18:41:38", "distance (en metres)": 1949.08, "station": "CENTRE BUS NANTERRE ENTREE", "marker-color": "#FF565E"}}, {"type": "Feature", "geometry": {"type": "Point", "coordinates": [2.189858, 48.90218]}, "properties": {"numparc": 8944, "etat de la localisation": "autre", "ID BDGEO": "238", "horodatage": "2022-11-01 18:41:52", "distance (en metres)": 62.2, "station": "CENTRE BUS NANTERRE SORTIE", "marker-color": "#818181"}}, {"type": "Feature", "geometry": {"type": "Point", "coordinates": [2.189541, 48.90271]}, "properties": {"numparc": 8949, "etat de la localisation": "autre", "ID BDGEO": "238", "horodatage": "2022-11-01 18:45:05", "distance (en metres)": 121.24, "station": "CENTRE BUS NANTERRE SORTIE", "marker-color": "#818181"}}, {"type": "Feature", "geometry": {"type": "Point", "coordinates": [2.189429, 48.902836]}, "properties": {"numparc": 8942, "etat de la localisation": "autre", "ID BDGEO": "238", "horodatage": "2022-11-01 18:46:25", "distance (en metres)": 136.24, "station": "CENTRE BUS NANTERRE SORTIE", "marker-color": "#818181"}}, {"type": "Feature", "geometry": {"type": "Point", "coordinates": [2.190743, 48.902828]}, "properties": {"numparc": 8942, "etat de la localisation": "autre", "ID BDGEO": "238", "horodatage": "2022-11-01 18:56:25", "distance (en metres)": 152.76, "station": "CENTRE BUS NANTERRE SORTIE", "marker-color": "#818181"}}, {"type": "Feature", "geometry": {"type": "Point", "coordinates": [2.189657, 48.902504]}, "properties": {"numparc": 8956, "etat de la localisation": "Delocalise", "ID BDGEO": "238", "horodatage": "2022-11-01 19:15:25", "distance (en metres)": 97.7, "station": "CENTRE BUS NANTERRE SORTIE", "marker-color": "#FF565E"}}, {"type": "Feature", "geometry": {"type": "Point", "coordinates": [2.189844, 48.90218]}, "properties": {"numparc": 8951, "etat de la localisation": "autre", "ID BDGEO": "238", "horodatage": "2022-11-01 19:24:45", "distance (en metres)": 62.06, "station": "CENTRE BUS NANTERRE SORTIE", "marker-color": "#818181"}}, {"type": "Feature", "geometry": {"type": "Point", "coordinates": [2.190685, 48.902832]}, "properties": {"numparc": 8956, "etat de la localisation": "Delocalise", "ID BDGEO": "238", "horodatage": "2022-11-01 19:27:36", "distance (en metres)": 151.12, "station": "CENTRE BUS NANTERRE SORTIE", "marker-color": "#FF565E"}}, {"type": "Feature", "geometry": {"type": "Point", "coordinates": [2.189016, 48.902603]}, "properties": {"numparc": 8951, "etat de la localisation": "autre", "ID BDGEO": "238", "horodatage": "2022-11-01 19:28:55", "distance (en metres)": 120.46, "station": "CENTRE BUS NANTERRE SORTIE", "marker-color": "#818181"}}, {"type": "Feature", "geometry": {"type": "Point", "coordinates": [2.190685, 48.902832]}, "properties": {"numparc": 8956, "etat de la localisation": "Delocalise", "ID BDGEO": "238", "horodatage": "2022-11-01 19:29:45", "distance (en metres)": 151.12, "station": "CENTRE BUS NANTERRE SORTIE", "marker-color": "#FF565E"}}, {"type": "Feature", "geometry": {"type": "Point", "coordinates": [2.189767, 48.902203]}, "properties": {"numparc": 8948, "etat de la localisation": "autre", "ID BDGEO": "238", "horodatage": "2022-11-01 19:33:12", "distance (en metres)": 64.1, "station": "CENTRE BUS NANTERRE SORTIE", "marker-color": "#818181"}}, {"type": "Feature", "geometry": {"type": "Point", "coordinates": [2.189242, 48.902481]}, "properties": {"numparc": 8948, "etat de la localisation": "autre", "ID BDGEO": "238", "horodatage": "2022-11-01 19:35:34", "distance (en metres)": 101.48, "station": "CENTRE BUS NANTERRE SORTIE", "marker-color": "#818181"}}, {"type": "Feature", "geometry": {"type": "Point", "coordinates": [2.1898, 48.902237]}, "properties": {"numparc": 8937, "etat de la localisation": "autre", "ID BDGEO": "238", "horodatage": "2022-11-01 20:37:05", "distance (en metres)": 68.05, "station": "CENTRE BUS NANTERRE SORTIE", "marker-color": "#818181"}}, {"type": "Feature", "geometry": {"type": "Point", "coordinates": [2.189229, 48.902466]}, "properties": {"numparc": 8937, "etat de la localisation": "autre", "ID BDGEO": "238", "horodatage": "2022-11-01 20:42:04", "distance (en metres)": 100.23, "station": "CENTRE BUS NANTERRE SORTIE", "marker-color": "#818181"}}, {"type": "Feature", "geometry": {"type": "Point", "coordinates": [2.22311, 48.919189]}, "properties": {"numparc": 8955, "etat de la localisation": "autre", "ID BDGEO": "238", "horodatage": "2022-11-01 22:11:37", "distance (en metres)": 3124.87, "station": "CENTRE BUS NANTERRE SORTIE", "marker-color": "#818181"}}, {"type": "Feature", "geometry": {"type": "Point", "coordinates": [2.189748, 48.902203]}, "properties": {"numparc": 8955, "etat de la localisation": "autre", "ID BDGEO": "238", "horodatage": "2022-11-01 22:18:04", "distance (en metres)": 64.06, "station": "CENTRE BUS NANTERRE SORTIE", "marker-color": "#818181"}}, {"type": "Feature", "geometry": {"type": "Point", "coordinates": [2.189676, 48.902531]}, "properties": {"numparc": 8955, "etat de la localisation": "autre", "ID BDGEO": "238", "horodatage": "2022-11-01 22:21:06", "distance (en metres)": 100.6, "station": "CENTRE BUS NANTERRE SORTIE", "marker-color": "#818181"}}, {"type": "Feature", "geometry": {"type": "Point", "coordinates": [2.189825, 48.902241]}, "properties": {"numparc": 8936, "etat de la localisation": "autre", "ID BDGEO": "238", "horodatage": "2022-11-01 23:49:09", "distance (en metres)": 68.64, "station": "CENTRE BUS NANTERRE SORTIE", "marker-color": "#818181"}}, {"type": "Feature", "geometry": {"type": "Point", "coordinates": [2.189644, 48.902531]}, "properties": {"numparc": 8936, "etat de la localisation": "autre", "ID BDGEO": "238", "horodatage": "2022-11-01 23:52:49", "distance (en metres)": 100.72, "station": "CENTRE BUS NANTERRE SORTIE", "marker-color": "#818181"}}, {"type": "Feature", "geometry": {"type": "Point", "coordinates": [2.200989, 48.8876]}, "properties": {"numparc": 8943, "etat de la localisation": "autre", "ID BDGEO": "4", "horodatage": "2022-11-02 00:31:23", "distance (en metres)": 1902.7, "station": "CENTRE BUS NANTERRE ENTREE", "marker-color": "#818181"}}, {"type": "Feature", "geometry": {"type": "Point", "coordinates": [2.189812, 48.902248]}, "properties": {"numparc": 8943, "etat de la localisation": "autre", "ID BDGEO": "4", "horodatage": "2022-11-02 00:41:22", "distance (en metres)": 83.36, "station": "CENTRE BUS NANTERRE ENTREE", "marker-color": "#818181"}}, {"type": "Feature", "geometry": {"type": "Point", "coordinates": [2.189498, 48.902657]}, "properties": {"numparc": 8943, "etat de la localisation": "autre", "ID BDGEO": "238", "horodatage": "2022-11-02 00:43:50", "distance (en metres)": 115.77, "station": "CENTRE BUS NANTERRE SORTIE", "marker-color": "#818181"}}, {"type": "Feature", "geometry": {"type": "Point", "coordinates": [2.189859, 48.902195]}, "properties": {"numparc": 8933, "etat de la localisation": "autre", "ID BDGEO": "238", "horodatage": "2022-11-02 01:07:37", "distance (en metres)": 63.9, "station": "CENTRE BUS NANTERRE SORTIE", "marker-color": "#818181"}}, {"type": "Feature", "geometry": {"type": "Point", "coordinates": [2.189523, 48.902687]}, "properties": {"numparc": 8933, "etat de la localisation": "autre", "ID BDGEO": "238", "horodatage": "2022-11-02 01:11:33", "distance (en metres)": 118.87, "station": "CENTRE BUS NANTERRE SORTIE", "marker-color": "#818181"}}, {"type": "Feature", "geometry": {"type": "Point", "coordinates": [2.194413, 48.888241]}, "properties": {"numparc": 8942, "etat de la localisation": "autre", "ID BDGEO": "245", "horodatage": "2022-11-02 01:29:01", "distance (en metres)": 464.4, "station": "NANTERRE-PCE DE LA BOULE#", "marker-color": "#818181"}}, {"type": "Feature", "geometry": {"type": "Point", "coordinates": [2.189799, 48.90221]}, "properties": {"numparc": 8942, "etat de la localisation": "autre", "ID BDGEO": "238", "horodatage": "2022-11-02 01:39:49", "distance (en metres)": 65.09, "station": "CENTRE BUS NANTERRE SORTIE", "marker-color": "#818181"}}, {"type": "Feature", "geometry": {"type": "Point", "coordinates": [2.189771, 48.902546]}, "properties": {"numparc": 8942, "etat de la localisation": "autre", "ID BDGEO": "238", "horodatage": "2022-11-02 01:43:40", "distance (en metres)": 102.26, "station": "CENTRE BUS NANTERRE SORTIE", "marker-color": "#818181"}}, {"type": "Feature", "geometry": {"type": "Point", "coordinates": [2.189789, 48.902218]}, "properties": {"numparc": 8956, "etat de la localisation": "autre", "ID BDGEO": "238", "horodatage": "2022-11-02 02:00:21", "distance (en metres)": 65.88, "station": "CENTRE BUS NANTERRE SORTIE", "marker-color": "#818181"}}, {"type": "Feature", "geometry": {"type": "Point", "coordinates": [2.18973, 48.901627]}, "properties": {"station": "CENTRE BUS NANTERRE SORTIE", "ID BDGEO": "238", "marker-color": "#56B3FF"}}, {"type": "Feature", "geometry": {"type": "Point", "coordinates": [2.212743, 48.900682]}, "properties": {"station": "NANTERRE-UNIVERSITE RER", "ID BDGEO": "157", "marker-color": "#56B3FF"}}, {"type": "Feature", "geometry": {"type": "Point", "coordinates": [2.206508, 48.902779]}, "properties": {"station": "JEAN BAILLET", "ID BDGEO": "1333", "marker-color": "#56B3FF"}}, {"type": "Feature", "geometry": {"type": "Point", "coordinates": [2.215453, 48.896156]}, "properties": {"station": "PREFECTURE HAUTS-DE-SEINE", "ID BDGEO": "80", "marker-color": "#56B3FF"}}, {"type": "Feature", "geometry": {"type": "Point", "coordinates": [2.212661, 48.900763]}, "properties": {"station": "NANTERRE-UNIVERSITE RER", "ID BDGEO": "82", "marker-color": "#56B3FF"}}, {"type": "Feature", "geometry": {"type": "Point", "coordinates": [2.209447, 48.905154]}, "properties": {"station": "UNIVERSITE PARIS X", "ID BDGEO": "598", "marker-color": "#56B3FF"}}, {"type": "Feature", "geometry": {"type": "Point", "coordinates": [2.235382, 48.923153]}, "properties": {"station": "HOPITAL LOUIS MOURIER", "ID BDGEO": "93", "marker-color": "#56B3FF"}}, {"type": "Feature", "geometry": {"type": "Point", "coordinates": [2.24709, 48.926973]}, "properties": {"station": "AUDRA", "ID BDGEO": "96", "marker-color": "#56B3FF"}}, {"type": "Feature", "geometry": {"type": "Point", "coordinates": [2.25397, 48.92306]}, "properties": {"station": "MAIRIE DE COLOMBES", "ID BDGEO": "99", "marker-color": "#56B3FF"}}, {"type": "Feature", "geometry": {"type": "Point", "coordinates": [2.250738, 48.923112]}, "properties": {"station": "EGLISE DE COLOMBES", "ID BDGEO": "141", "marker-color": "#56B3FF"}}, {"type": "Feature", "geometry": {"type": "Point", "coordinates": [2.246421, 48.927206]}, "properties": {"station": "AUDRA", "ID BDGEO": "143", "marker-color": "#56B3FF"}}, {"type": "Feature", "geometry": {"type": "Point", "coordinates": [2.239429, 48.92481]}, "properties": {"station": "EUROPE", "ID BDGEO": "145", "marker-color": "#56B3FF"}}, {"type": "Feature", "geometry": {"type": "Point", "coordinates": [2.216103, 48.909385]}, "properties": {"station": "LES SAULES", "ID BDGEO": "153", "marker-color": "#56B3FF"}}, {"type": "Feature", "geometry": {"type": "Point", "coordinates": [2.208369, 48.905198]}, "properties": {"station": "UNIVERSITE PARIS X", "ID BDGEO": "595", "marker-color": "#56B3FF"}}, {"type": "Feature", "geometry": {"type": "Point", "coordinates": [2.212214, 48.893914]}, "properties": {"station": "JOLIOT-CURIE-COURBEVOIE", "ID BDGEO": "160", "marker-color": "#56B3FF"}}, {"type": "Feature", "geometry": {"type": "Point", "coordinates": [2.206715, 48.890763]}, "properties": {"station": "MAIRIE DE NANTERRE", "ID BDGEO": "162", "marker-color": "#56B3FF"}}, {"type": "Feature", "geometry": {"type": "Point", "coordinates": [2.224962, 48.917356]}, "properties": {"station": "PARC LAGRAVERE", "ID BDGEO": "90", "marker-color": "#56B3FF"}}, {"type": "Feature", "geometry": {"type": "Point", "coordinates": [2.251747, 48.922978]}, "properties": {"station": "EGLISE DE COLOMBES", "ID BDGEO": "98", "marker-color": "#56B3FF"}}, {"type": "Feature", "geometry": {"type": "Point", "coordinates": [2.213675, 48.898419]}, "properties": {"station": "SOUFFLOT", "ID BDGEO": "158", "marker-color": "#56B3FF"}}, {"type": "Feature", "geometry": {"type": "Point", "coordinates": [2.224796, 48.918327]}, "properties": {"station": "PARC LAGRAVERE", "ID BDGEO": "149", "marker-color": "#56B3FF"}}, {"type": "Feature", "geometry": {"type": "Point", "coordinates": [2.228404, 48.914205]}, "properties": {"station": "VICTOR BASCH", "ID BDGEO": "150", "marker-color": "#56B3FF"}}, {"type": "Feature", "geometry": {"type": "Point", "coordinates": [2.222574, 48.911728]}, "properties": {"station": "HOPITAL DE NANTERRE", "ID BDGEO": "151", "marker-color": "#56B3FF"}}, {"type": "Feature", "geometry": {"type": "Point", "coordinates": [2.189045, 48.902803]}, "properties": {"station": "CENTRE BUS NANTERRE ENTREE", "ID BDGEO": "4", "marker-color": "#56B3FF"}}, {"type": "Feature", "geometry": {"type": "Point", "coordinates": [2.200618, 48.88735]}, "properties": {"station": "NANTERRE-PCE DE LA BOULE#", "ID BDGEO": "245", "marker-color": "#56B3FF"}}]}