{"type": "FeatureCollection", "features": [{"type": "Feature", "geometry": {"type": "Point", "coordinates": [2.395374, 48.839832]}, "properties": {"alarme": "VEHICULE DELOCALISE", "numparc": 617, "type": "EXPLOITATION", "duree": "00:00:28", "horodatage": "2022-01-16 12:39:43", "statut": "start", "marker-color": "#ff0000"}}, {"type": "Feature", "geometry": {"type": "Point", "coordinates": [2.38047, 48.845097]}, "properties": {"alarme": "VEHICULE DELOCALISE", "numparc": 598, "type": "EXPLOITATION", "duree": "00:01:33", "horodatage": "2022-01-16 15:57:33", "statut": "start", "marker-color": "#ff0000"}}, {"type": "Feature", "geometry": {"type": "Point", "coordinates": [2.396135, 48.843521]}, "properties": {"alarme": "VEHICULE DELOCALISE", "numparc": 617, "type": "EXPLOITATION", "duree": "00:03:03", "horodatage": "2022-01-16 16:05:09", "statut": "start", "marker-color": "#ff0000"}}, {"type": "Feature", "geometry": {"type": "Point", "coordinates": [2.395678, 48.839828]}, "properties": {"alarme": "VEHICULE DELOCALISE", "numparc": 607, "type": "EXPLOITATION", "duree": "00:25:15", "horodatage": "2022-01-16 17:21:00", "statut": "start", "marker-color": "#ff0000"}}, {"type": "Feature", "geometry": {"type": "Point", "coordinates": [2.331539, 48.87067]}, "properties": {"alarme": "VEHICULE DELOCALISE", "numparc": 678, "type": "EXPLOITATION", "duree": "00:00:58", "horodatage": "2022-01-16 18:05:05", "statut": "start", "marker-color": "#ff0000"}}, {"type": "Feature", "geometry": {"type": "Point", "coordinates": [2.349248, 48.863461]}, "properties": {"alarme": "VEHICULE DELOCALISE", "numparc": 678, "type": "EXPLOITATION", "duree": "00:01:10", "horodatage": "2022-01-16 18:13:47", "statut": "start", "marker-color": "#ff0000"}}, {"type": "Feature", "geometry": {"type": "Point", "coordinates": [2.395442, 48.839951]}, "properties": {"alarme": "VEHICULE DELOCALISE", "numparc": 598, "type": "EXPLOITATION", "duree": "00:01:06", "horodatage": "2022-01-16 18:30:18", "statut": "start", "marker-color": "#ff0000"}}, {"type": "Feature", "geometry": {"type": "Point", "coordinates": [2.411031, 48.845955]}, "properties": {"alarme": "VEHICULE DELOCALISE", "numparc": 598, "type": "EXPLOITATION", "duree": "00:10:15", "horodatage": "2022-01-16 22:01:42", "statut": "start", "marker-color": "#ff0000"}}, {"type": "Feature", "geometry": {"type": "Point", "coordinates": [2.410976, 48.845844]}, "properties": {"alarme": "VEHICULE DELOCALISE", "numparc": 607, "type": "EXPLOITATION", "duree": "00:00:45", "horodatage": "2022-01-16 22:48:20", "statut": "start", "marker-color": "#ff0000"}}, {"type": "Feature", "geometry": {"type": "Point", "coordinates": [2.394258, 48.839977]}, "properties": {"alarme": "VEHICULE DELOCALISE", "numparc": 617, "type": "EXPLOITATION", "duree": "00:00:28", "horodatage": "2022-01-16 12:40:11", "statut": "end", "marker-color": "#2fe184"}}, {"type": "Feature", "geometry": {"type": "Point", "coordinates": [2.37712, 48.846729]}, "properties": {"alarme": "VEHICULE DELOCALISE", "numparc": 598, "type": "EXPLOITATION", "duree": "00:01:33", "horodatage": "2022-01-16 15:59:06", "statut": "end", "marker-color": "#2fe184"}}, {"type": "Feature", "geometry": {"type": "Point", "coordinates": [2.402738, 48.844791]}, "properties": {"alarme": "VEHICULE DELOCALISE", "numparc": 617, "type": "EXPLOITATION", "duree": "00:03:03", "horodatage": "2022-01-16 16:08:12", "statut": "end", "marker-color": "#2fe184"}}, {"type": "Feature", "geometry": {"type": "Point", "coordinates": [2.328057, 48.873722]}, "properties": {"alarme": "VEHICULE DELOCALISE", "numparc": 607, "type": "EXPLOITATION", "duree": "00:25:15", "horodatage": "2022-01-16 17:46:15", "statut": "end", "marker-color": "#2fe184"}}, {"type": "Feature", "geometry": {"type": "Point", "coordinates": [2.332929, 48.87009]}, "properties": {"alarme": "VEHICULE DELOCALISE", "numparc": 678, "type": "EXPLOITATION", "duree": "00:00:58", "horodatage": "2022-01-16 18:06:03", "statut": "end", "marker-color": "#2fe184"}}, {"type": "Feature", "geometry": {"type": "Point", "coordinates": [2.352978, 48.862656]}, "properties": {"alarme": "VEHICULE DELOCALISE", "numparc": 678, "type": "EXPLOITATION", "duree": "00:01:10", "horodatage": "2022-01-16 18:14:57", "statut": "end", "marker-color": "#2fe184"}}, {"type": "Feature", "geometry": {"type": "Point", "coordinates": [2.390989, 48.840626]}, "properties": {"alarme": "VEHICULE DELOCALISE", "numparc": 598, "type": "EXPLOITATION", "duree": "00:01:06", "horodatage": "2022-01-16 18:31:24", "statut": "end", "marker-color": "#2fe184"}}, {"type": "Feature", "geometry": {"type": "Point", "coordinates": [2.40654, 48.849819]}, "properties": {"alarme": "VEHICULE DELOCALISE", "numparc": 598, "type": "EXPLOITATION", "duree": "00:10:15", "horodatage": "2022-01-16 22:11:57", "statut": "end", "marker-color": "#2fe184"}}, {"type": "Feature", "geometry": {"type": "Point", "coordinates": [2.409714, 48.847309]}, "properties": {"alarme": "VEHICULE DELOCALISE", "numparc": 607, "type": "EXPLOITATION", "duree": "00:00:45", "horodatage": "2022-01-16 22:49:05", "statut": "end", "marker-color": "#2fe184"}}]}