{"type": "FeatureCollection", "features": [{"type": "Feature", "geometry": {"type": "Point", "coordinates": [2.328903, 48.823112]}, "properties": {"alarme": "DEFAUT LIAISON DATA SAEIV / AIGLE", "numparc": 1439, "type": "TECHNIQUE", "duree": "00:06:17", "horodatage": "2021-07-27 06:36:32", "statut": "start", "marker-color": "#ff0000"}}, {"type": "Feature", "geometry": {"type": "Point", "coordinates": [2.32729, 48.8241]}, "properties": {"alarme": "DEFAUT LIAISON DATA SAEIV / AIGLE", "numparc": 1439, "type": "TECHNIQUE", "duree": "00:06:17", "horodatage": "2021-07-27 06:42:49", "statut": "end", "marker-color": "#2fe184"}}]}