{"type": "FeatureCollection", "features": [{"type": "Feature", "geometry": {"type": "Point", "coordinates": [2.323768, 48.875828]}, "properties": {"numparc": 620, "etat de la localisation": "Delocalise", "ID BDGEO": "21939", "horodatage": "2021-11-02 02:26:42", "distance (en metres)": 181.91, "station": "GARE SAINT-LAZARE", "marker-color": "#FF565E"}}, {"type": "Feature", "geometry": {"type": "Point", "coordinates": [2.326112, 48.875423]}, "properties": {"numparc": 620, "etat de la localisation": "Delocalise", "ID BDGEO": "21939", "horodatage": "2021-11-02 02:28:11", "distance (en metres)": 122.45, "station": "GARE SAINT-LAZARE", "marker-color": "#FF565E"}}, {"type": "Feature", "geometry": {"type": "Point", "coordinates": [2.333245, 48.870155]}, "properties": {"numparc": 620, "etat de la localisation": "Delocalise", "ID BDGEO": "20497", "horodatage": "2021-11-02 02:30:52", "distance (en metres)": 76.11, "station": "OPERA", "marker-color": "#FF565E"}}, {"type": "Feature", "geometry": {"type": "Point", "coordinates": [2.340769, 48.868755]}, "properties": {"numparc": 620, "etat de la localisation": "Delocalise", "ID BDGEO": "20500", "horodatage": "2021-11-02 02:32:23", "distance (en metres)": 193.63, "station": "REAUMUR-MONTMARTRE", "marker-color": "#FF565E"}}, {"type": "Feature", "geometry": {"type": "Point", "coordinates": [2.277877, 48.898384]}, "properties": {"numparc": 648, "etat de la localisation": "Delocalise", "ID BDGEO": "20486", "horodatage": "2021-11-02 02:33:44", "distance (en metres)": 272.95, "station": "PONT DE LEVALLOIS-METRO", "marker-color": "#FF565E"}}, {"type": "Feature", "geometry": {"type": "Point", "coordinates": [2.362203, 48.85482]}, "properties": {"numparc": 620, "etat de la localisation": "autre", "ID BDGEO": "20316", "horodatage": "2021-11-02 02:45:49", "distance (en metres)": 63.78, "station": "SAINT-PAUL", "marker-color": "#818181"}}, {"type": "Feature", "geometry": {"type": "Point", "coordinates": [2.369831, 48.851555]}, "properties": {"numparc": 620, "etat de la localisation": "autre", "ID BDGEO": "20483", "horodatage": "2021-11-02 02:50:48", "distance (en metres)": 146.16, "station": "BASTILLE", "marker-color": "#818181"}}, {"type": "Feature", "geometry": {"type": "Point", "coordinates": [2.324523, 48.875164]}, "properties": {"numparc": 648, "etat de la localisation": "autre", "ID BDGEO": "21874", "horodatage": "2021-11-02 02:52:09", "distance (en metres)": 48.93, "station": "GARE SAINT-LAZARE", "marker-color": "#818181"}}, {"type": "Feature", "geometry": {"type": "Point", "coordinates": [2.326072, 48.87542]}, "properties": {"numparc": 648, "etat de la localisation": "autre", "ID BDGEO": "21874", "horodatage": "2021-11-02 02:53:05", "distance (en metres)": 68.73, "station": "GARE SAINT-LAZARE", "marker-color": "#818181"}}, {"type": "Feature", "geometry": {"type": "Point", "coordinates": [2.341861, 48.863178]}, "properties": {"numparc": 648, "etat de la localisation": "autre", "ID BDGEO": "20517", "horodatage": "2021-11-02 03:01:50", "distance (en metres)": 85.52, "station": "BOURSE DE COMMERCE", "marker-color": "#818181"}}, {"type": "Feature", "geometry": {"type": "Point", "coordinates": [2.369779, 48.85154]}, "properties": {"numparc": 648, "etat de la localisation": "Delocalise", "ID BDGEO": "20483", "horodatage": "2021-11-02 03:13:03", "distance (en metres)": 145.9, "station": "BASTILLE", "marker-color": "#FF565E"}}, {"type": "Feature", "geometry": {"type": "Point", "coordinates": [2.442212, 48.862568]}, "properties": {"numparc": 620, "etat de la localisation": "autre", "ID BDGEO": "20485", "horodatage": "2021-11-02 03:14:35", "distance (en metres)": 145.07, "station": "MAIRIE DE MONTREUIL-ROUGET DE LISLE", "marker-color": "#818181"}}, {"type": "Feature", "geometry": {"type": "Point", "coordinates": [2.438882, 48.859962]}, "properties": {"numparc": 620, "etat de la localisation": "autre", "ID BDGEO": "20505", "horodatage": "2021-11-02 03:26:35", "distance (en metres)": 107.45, "station": "VICTOR HUGO", "marker-color": "#818181"}}, {"type": "Feature", "geometry": {"type": "Point", "coordinates": [2.442068, 48.862637]}, "properties": {"numparc": 648, "etat de la localisation": "autre", "ID BDGEO": "20485", "horodatage": "2021-11-02 03:36:46", "distance (en metres)": 144.44, "station": "MAIRIE DE MONTREUIL-ROUGET DE LISLE", "marker-color": "#818181"}}, {"type": "Feature", "geometry": {"type": "Point", "coordinates": [2.409221, 48.864655]}, "properties": {"numparc": 620, "etat de la localisation": "autre", "ID BDGEO": "22090", "horodatage": "2021-11-02 03:36:58", "distance (en metres)": 40.84, "station": "PORTE DE BAGNOLET", "marker-color": "#818181"}}, {"type": "Feature", "geometry": {"type": "Point", "coordinates": [2.386508, 48.859852]}, "properties": {"numparc": 620, "etat de la localisation": "autre", "ID BDGEO": "20509", "horodatage": "2021-11-02 03:42:48", "distance (en metres)": 55.0, "station": "ROQUETTE-PERE LACHAISE", "marker-color": "#818181"}}, {"type": "Feature", "geometry": {"type": "Point", "coordinates": [2.439076, 48.860081]}, "properties": {"numparc": 648, "etat de la localisation": "autre", "ID BDGEO": "20505", "horodatage": "2021-11-02 03:50:51", "distance (en metres)": 88.31, "station": "VICTOR HUGO", "marker-color": "#818181"}}, {"type": "Feature", "geometry": {"type": "Point", "coordinates": [2.416176, 48.862625]}, "properties": {"numparc": 648, "etat de la localisation": "Deviation programmee", "ID BDGEO": "20283", "horodatage": "2021-11-02 03:56:43", "distance (en metres)": 53.23, "station": "GENERAL DE GAULLE", "marker-color": "#56FF93"}}, {"type": "Feature", "geometry": {"type": "Point", "coordinates": [2.324587, 48.875198]}, "properties": {"numparc": 620, "etat de la localisation": "autre", "ID BDGEO": "21939", "horodatage": "2021-11-02 04:11:23", "distance (en metres)": 90.48, "station": "GARE SAINT-LAZARE", "marker-color": "#818181"}}, {"type": "Feature", "geometry": {"type": "Point", "coordinates": [2.324587, 48.875198]}, "properties": {"numparc": 620, "etat de la localisation": "autre", "ID BDGEO": "21939", "horodatage": "2021-11-02 04:11:42", "distance (en metres)": 90.48, "station": "GARE SAINT-LAZARE", "marker-color": "#818181"}}, {"type": "Feature", "geometry": {"type": "Point", "coordinates": [2.293936, 48.885784]}, "properties": {"numparc": 620, "etat de la localisation": "Deviation programmee", "ID BDGEO": "20488", "horodatage": "2021-11-02 04:21:15", "distance (en metres)": 92.21, "station": "PORTE DE CHAMPERRET", "marker-color": "#56FF93"}}, {"type": "Feature", "geometry": {"type": "Point", "coordinates": [2.278519, 48.89904]}, "properties": {"numparc": 620, "etat de la localisation": "autre", "ID BDGEO": "20486", "horodatage": "2021-11-02 04:28:00", "distance (en metres)": 297.38, "station": "PONT DE LEVALLOIS-METRO", "marker-color": "#818181"}}, {"type": "Feature", "geometry": {"type": "Point", "coordinates": [2.280046, 48.897438]}, "properties": {"numparc": 620, "etat de la localisation": "autre", "ID BDGEO": "20486", "horodatage": "2021-11-02 04:29:10", "distance (en metres)": 87.2, "station": "PONT DE LEVALLOIS-METRO", "marker-color": "#818181"}}, {"type": "Feature", "geometry": {"type": "Point", "coordinates": [2.280046, 48.897438]}, "properties": {"numparc": 620, "etat de la localisation": "autre", "ID BDGEO": "20486", "horodatage": "2021-11-02 04:30:54", "distance (en metres)": 87.2, "station": "PONT DE LEVALLOIS-METRO", "marker-color": "#818181"}}, {"type": "Feature", "geometry": {"type": "Point", "coordinates": [2.324504, 48.875202]}, "properties": {"numparc": 648, "etat de la localisation": "autre", "ID BDGEO": "21939", "horodatage": "2021-11-02 04:44:29", "distance (en metres)": 94.06, "station": "GARE SAINT-LAZARE", "marker-color": "#818181"}}, {"type": "Feature", "geometry": {"type": "Point", "coordinates": [2.293886, 48.885838]}, "properties": {"numparc": 648, "etat de la localisation": "Deviation programmee", "ID BDGEO": "20488", "horodatage": "2021-11-02 04:52:18", "distance (en metres)": 87.78, "station": "PORTE DE CHAMPERRET", "marker-color": "#56FF93"}}, {"type": "Feature", "geometry": {"type": "Point", "coordinates": [2.294047, 48.888477]}, "properties": {"numparc": 648, "etat de la localisation": "autre", "ID BDGEO": "20522", "horodatage": "2021-11-02 04:53:56", "distance (en metres)": 87.1, "station": "PORTE DE COURCELLES", "marker-color": "#818181"}}, {"type": "Feature", "geometry": {"type": "Point", "coordinates": [2.293622, 48.88575]}, "properties": {"numparc": 620, "etat de la localisation": "autre", "ID BDGEO": "21871", "horodatage": "2021-11-02 04:54:42", "distance (en metres)": 73.59, "station": "PORTE DE CHAMPERRET", "marker-color": "#818181"}}, {"type": "Feature", "geometry": {"type": "Point", "coordinates": [2.280165, 48.899532]}, "properties": {"numparc": 648, "etat de la localisation": "autre", "ID BDGEO": "20486", "horodatage": "2021-11-02 05:00:24", "distance (en metres)": 307.69, "station": "PONT DE LEVALLOIS-METRO", "marker-color": "#818181"}}, {"type": "Feature", "geometry": {"type": "Point", "coordinates": [2.279054, 48.897823]}, "properties": {"numparc": 648, "etat de la localisation": "autre", "ID BDGEO": "20486", "horodatage": "2021-11-02 05:01:44", "distance (en metres)": 167.24, "station": "PONT DE LEVALLOIS-METRO", "marker-color": "#818181"}}, {"type": "Feature", "geometry": {"type": "Point", "coordinates": [2.326128, 48.875465]}, "properties": {"numparc": 620, "etat de la localisation": "autre", "ID BDGEO": "21874", "horodatage": "2021-11-02 05:04:10", "distance (en metres)": 73.63, "station": "GARE SAINT-LAZARE", "marker-color": "#818181"}}, {"type": "Feature", "geometry": {"type": "Point", "coordinates": [2.326128, 48.875465]}, "properties": {"numparc": 620, "etat de la localisation": "autre", "ID BDGEO": "21874", "horodatage": "2021-11-02 05:04:15", "distance (en metres)": 73.63, "station": "GARE SAINT-LAZARE", "marker-color": "#818181"}}, {"type": "Feature", "geometry": {"type": "Point", "coordinates": [2.27779, 48.898415]}, "properties": {"numparc": 648, "etat de la localisation": "Delocalise", "ID BDGEO": "20486", "horodatage": "2021-11-02 05:05:14", "distance (en metres)": 280.03, "station": "PONT DE LEVALLOIS-METRO", "marker-color": "#FF565E"}}, {"type": "Feature", "geometry": {"type": "Point", "coordinates": [2.341995, 48.863255]}, "properties": {"numparc": 620, "etat de la localisation": "autre", "ID BDGEO": "20517", "horodatage": "2021-11-02 05:11:47", "distance (en metres)": 73.76, "station": "BOURSE DE COMMERCE", "marker-color": "#818181"}}, {"type": "Feature", "geometry": {"type": "Point", "coordinates": [2.362179, 48.854836]}, "properties": {"numparc": 620, "etat de la localisation": "autre", "ID BDGEO": "20316", "horodatage": "2021-11-02 05:21:27", "distance (en metres)": 61.56, "station": "SAINT-PAUL", "marker-color": "#818181"}}, {"type": "Feature", "geometry": {"type": "Point", "coordinates": [2.369833, 48.851429]}, "properties": {"numparc": 620, "etat de la localisation": "Delocalise", "ID BDGEO": "20483", "horodatage": "2021-11-02 05:24:53", "distance (en metres)": 158.73, "station": "BASTILLE", "marker-color": "#FF565E"}}, {"type": "Feature", "geometry": {"type": "Point", "coordinates": [2.326029, 48.875393]}, "properties": {"numparc": 648, "etat de la localisation": "autre", "ID BDGEO": "21874", "horodatage": "2021-11-02 05:25:04", "distance (en metres)": 65.24, "station": "GARE SAINT-LAZARE", "marker-color": "#818181"}}, {"type": "Feature", "geometry": {"type": "Point", "coordinates": [2.362122, 48.854736]}, "properties": {"numparc": 648, "etat de la localisation": "autre", "ID BDGEO": "20316", "horodatage": "2021-11-02 05:41:30", "distance (en metres)": 62.01, "station": "SAINT-PAUL", "marker-color": "#818181"}}, {"type": "Feature", "geometry": {"type": "Point", "coordinates": [2.407555, 48.849155]}, "properties": {"numparc": 620, "etat de la localisation": "autre", "ID BDGEO": "1374", "horodatage": "2021-11-02 06:02:35", "distance (en metres)": 99.24, "station": "LAGNY SORTIE", "marker-color": "#818181"}}, {"type": "Feature", "geometry": {"type": "Point", "coordinates": [2.407407, 48.849522]}, "properties": {"numparc": 620, "etat de la localisation": "autre", "ID BDGEO": "1374", "horodatage": "2021-11-02 06:03:02", "distance (en metres)": 60.55, "station": "LAGNY SORTIE", "marker-color": "#818181"}}, {"type": "Feature", "geometry": {"type": "Point", "coordinates": [2.436532, 48.85767]}, "properties": {"numparc": 648, "etat de la localisation": "autre", "ID BDGEO": "21904", "horodatage": "2021-11-02 06:07:52", "distance (en metres)": 593.53, "station": "MAIRIE DE MONTREUIL#", "marker-color": "#818181"}}, {"type": "Feature", "geometry": {"type": "Point", "coordinates": [2.407769, 48.849773]}, "properties": {"numparc": 620, "etat de la localisation": "autre", "ID BDGEO": "1374", "horodatage": "2021-11-02 06:07:59", "distance (en metres)": 71.15, "station": "LAGNY SORTIE", "marker-color": "#818181"}}, {"type": "Feature", "geometry": {"type": "Point", "coordinates": [2.434992, 48.857635]}, "properties": {"numparc": 648, "etat de la localisation": "Delocalise", "ID BDGEO": "21904", "horodatage": "2021-11-02 06:10:11", "distance (en metres)": 669.58, "station": "MAIRIE DE MONTREUIL#", "marker-color": "#FF565E"}}, {"type": "Feature", "geometry": {"type": "Point", "coordinates": [2.407335, 48.849461]}, "properties": {"numparc": 648, "etat de la localisation": "autre", "ID BDGEO": "1374", "horodatage": "2021-11-02 06:20:22", "distance (en metres)": 62.14, "station": "LAGNY SORTIE", "marker-color": "#818181"}}, {"type": "Feature", "geometry": {"type": "Point", "coordinates": [2.407433, 48.849682]}, "properties": {"numparc": 648, "etat de la localisation": "autre", "ID BDGEO": "1374", "horodatage": "2021-11-02 06:26:41", "distance (en metres)": 51.37, "station": "LAGNY SORTIE", "marker-color": "#818181"}}, {"type": "Feature", "geometry": {"type": "Point", "coordinates": [2.408259, 48.850067]}, "properties": {"numparc": 620, "etat de la localisation": "autre", "ID BDGEO": "1374", "horodatage": "2021-11-02 06:57:17", "distance (en metres)": 107.05, "station": "LAGNY SORTIE", "marker-color": "#818181"}}, {"type": "Feature", "geometry": {"type": "Point", "coordinates": [2.408061, 48.849274]}, "properties": {"numparc": 648, "etat de la localisation": "autre", "ID BDGEO": "1374", "horodatage": "2021-11-02 11:07:17", "distance (en metres)": 114.84, "station": "LAGNY SORTIE", "marker-color": "#818181"}}, {"type": "Feature", "geometry": {"type": "Point", "coordinates": [2.408061, 48.849274]}, "properties": {"numparc": 648, "etat de la localisation": "autre", "ID BDGEO": "1374", "horodatage": "2021-11-02 11:14:52", "distance (en metres)": 114.84, "station": "LAGNY SORTIE", "marker-color": "#818181"}}, {"type": "Feature", "geometry": {"type": "Point", "coordinates": [2.408062, 48.849274]}, "properties": {"numparc": 648, "etat de la localisation": "autre", "ID BDGEO": "1374", "horodatage": "2021-11-02 15:22:50", "distance (en metres)": 114.9, "station": "LAGNY SORTIE", "marker-color": "#818181"}}, {"type": "Feature", "geometry": {"type": "Point", "coordinates": [2.32521, 48.874495]}, "properties": {"station": "GARE SAINT-LAZARE", "ID BDGEO": "21939", "marker-color": "#56B3FF"}}, {"type": "Feature", "geometry": {"type": "Point", "coordinates": [2.333317, 48.870838]}, "properties": {"station": "OPERA", "ID BDGEO": "20497", "marker-color": "#56B3FF"}}, {"type": "Feature", "geometry": {"type": "Point", "coordinates": [2.343399, 48.868555]}, "properties": {"station": "REAUMUR-MONTMARTRE", "ID BDGEO": "20500", "marker-color": "#56B3FF"}}, {"type": "Feature", "geometry": {"type": "Point", "coordinates": [2.280715, 48.896789]}, "properties": {"station": "PONT DE LEVALLOIS-METRO", "ID BDGEO": "20486", "marker-color": "#56B3FF"}}, {"type": "Feature", "geometry": {"type": "Point", "coordinates": [2.361375, 48.855]}, "properties": {"station": "SAINT-PAUL", "ID BDGEO": "20316", "marker-color": "#56B3FF"}}, {"type": "Feature", "geometry": {"type": "Point", "coordinates": [2.368892, 48.852715]}, "properties": {"station": "BASTILLE", "ID BDGEO": "20483", "marker-color": "#56B3FF"}}, {"type": "Feature", "geometry": {"type": "Point", "coordinates": [2.325142, 48.875331]}, "properties": {"station": "GARE SAINT-LAZARE", "ID BDGEO": "21874", "marker-color": "#56B3FF"}}, {"type": "Feature", "geometry": {"type": "Point", "coordinates": [2.342363, 48.863873]}, "properties": {"station": "BOURSE DE COMMERCE", "ID BDGEO": "20517", "marker-color": "#56B3FF"}}, {"type": "Feature", "geometry": {"type": "Point", "coordinates": [2.4409, 48.86159]}, "properties": {"station": "MAIRIE DE MONTREUIL-ROUGET DE LISLE", "ID BDGEO": "20485", "marker-color": "#56B3FF"}}, {"type": "Feature", "geometry": {"type": "Point", "coordinates": [2.439795, 48.860719]}, "properties": {"station": "VICTOR HUGO", "ID BDGEO": "20505", "marker-color": "#56B3FF"}}, {"type": "Feature", "geometry": {"type": "Point", "coordinates": [2.409779, 48.86465]}, "properties": {"station": "PORTE DE BAGNOLET", "ID BDGEO": "22090", "marker-color": "#56B3FF"}}, {"type": "Feature", "geometry": {"type": "Point", "coordinates": [2.386318, 48.860331]}, "properties": {"station": "ROQUETTE-PERE LACHAISE", "ID BDGEO": "20509", "marker-color": "#56B3FF"}}, {"type": "Feature", "geometry": {"type": "Point", "coordinates": [2.416328, 48.862157]}, "properties": {"station": "GENERAL DE GAULLE", "ID BDGEO": "20283", "marker-color": "#56B3FF"}}, {"type": "Feature", "geometry": {"type": "Point", "coordinates": [2.292692, 48.885919]}, "properties": {"station": "PORTE DE CHAMPERRET", "ID BDGEO": "20488", "marker-color": "#56B3FF"}}, {"type": "Feature", "geometry": {"type": "Point", "coordinates": [2.294503, 48.887753]}, "properties": {"station": "PORTE DE COURCELLES", "ID BDGEO": "20522", "marker-color": "#56B3FF"}}, {"type": "Feature", "geometry": {"type": "Point", "coordinates": [2.292692, 48.885497]}, "properties": {"station": "PORTE DE CHAMPERRET", "ID BDGEO": "21871", "marker-color": "#56B3FF"}}, {"type": "Feature", "geometry": {"type": "Point", "coordinates": [2.406817, 48.849904]}, "properties": {"station": "LAGNY SORTIE", "ID BDGEO": "1374", "marker-color": "#56B3FF"}}, {"type": "Feature", "geometry": {"type": "Point", "coordinates": [2.441364, 48.861958]}, "properties": {"station": "MAIRIE DE MONTREUIL#", "ID BDGEO": "21904", "marker-color": "#56B3FF"}}]}