{"type": "FeatureCollection", "features": [{"type": "Feature", "geometry": {"type": "Point", "coordinates": [2.340953, 48.916523]}, "properties": {"etat de la localisation": "Delocalise", "numparc": 1605, "duree": "00:20:19", "horodatage": "2022-08-28 06:29:38", "marker-color": "#FF565E"}}, {"type": "Feature", "geometry": {"type": "Point", "coordinates": [2.238862, 48.89196]}, "properties": {"etat de la localisation": "Mission suivante non connue", "numparc": 1605, "duree": "", "horodatage": "2022-08-28 07:22:01", "marker-color": "#7156FF"}}, {"type": "Feature", "geometry": {"type": "Point", "coordinates": [2.239704, 48.891697]}, "properties": {"etat de la localisation": "Mission suivante non connue", "numparc": 1605, "duree": "", "horodatage": "2022-08-28 07:22:53", "marker-color": "#7156FF"}}, {"type": "Feature", "geometry": {"type": "Point", "coordinates": [2.239526, 48.890728]}, "properties": {"etat de la localisation": "Delocalise", "numparc": 1605, "duree": "00:00:16", "horodatage": "2022-08-28 07:34:09", "marker-color": "#FF565E"}}, {"type": "Feature", "geometry": {"type": "Point", "coordinates": [2.239025, 48.891968]}, "properties": {"etat de la localisation": "Mission suivante non connue", "numparc": 1605, "duree": "", "horodatage": "2022-08-28 08:48:18", "marker-color": "#7156FF"}}, {"type": "Feature", "geometry": {"type": "Point", "coordinates": [2.240203, 48.890858]}, "properties": {"etat de la localisation": "Hors service", "numparc": 1605, "duree": "", "horodatage": "2022-08-28 09:06:58", "marker-color": "#707070"}}, {"type": "Feature", "geometry": {"type": "Point", "coordinates": [2.320122, 48.931446]}, "properties": {"etat de la localisation": "Delocalise", "numparc": 1605, "duree": "00:03:08", "horodatage": "2022-08-28 09:59:46", "marker-color": "#FF565E"}}, {"type": "Feature", "geometry": {"type": "Point", "coordinates": [2.23898, 48.89209]}, "properties": {"etat de la localisation": "Mission suivante non connue", "numparc": 1605, "duree": "", "horodatage": "2022-08-28 10:33:30", "marker-color": "#7156FF"}}, {"type": "Feature", "geometry": {"type": "Point", "coordinates": [2.320084, 48.93148]}, "properties": {"etat de la localisation": "Delocalise", "numparc": 1605, "duree": "00:01:57", "horodatage": "2022-08-28 11:44:15", "marker-color": "#FF565E"}}, {"type": "Feature", "geometry": {"type": "Point", "coordinates": [2.320074, 48.93148]}, "properties": {"etat de la localisation": "Delocalise", "numparc": 1605, "duree": "00:01:34", "horodatage": "2022-08-28 13:28:02", "marker-color": "#FF565E"}}, {"type": "Feature", "geometry": {"type": "Point", "coordinates": [2.240531, 48.890297]}, "properties": {"etat de la localisation": "Hors service", "numparc": 1605, "duree": "", "horodatage": "2022-08-28 15:56:06", "marker-color": "#707070"}}, {"type": "Feature", "geometry": {"type": "Point", "coordinates": [2.320119, 48.931461]}, "properties": {"etat de la localisation": "Delocalise", "numparc": 1605, "duree": "00:01:44", "horodatage": "2022-08-28 16:51:19", "marker-color": "#FF565E"}}, {"type": "Feature", "geometry": {"type": "Point", "coordinates": [2.239881, 48.89003]}, "properties": {"etat de la localisation": "Hors service", "numparc": 1605, "duree": "", "horodatage": "2022-08-28 17:44:43", "marker-color": "#707070"}}, {"type": "Feature", "geometry": {"type": "Point", "coordinates": [2.319971, 48.931488]}, "properties": {"etat de la localisation": "Delocalise", "numparc": 1605, "duree": "00:01:22", "horodatage": "2022-08-28 18:41:10", "marker-color": "#FF565E"}}, {"type": "Feature", "geometry": {"type": "Point", "coordinates": [2.340878, 48.916481]}, "properties": {"etat de la localisation": "Mission inconnue", "numparc": 1602, "duree": "", "horodatage": "2022-08-28 18:43:43", "marker-color": "#FF9F56"}}, {"type": "Feature", "geometry": {"type": "Point", "coordinates": [2.30678, 48.933575]}, "properties": {"etat de la localisation": "Hors service", "numparc": 1602, "duree": "", "horodatage": "2022-08-28 19:13:45", "marker-color": "#707070"}}, {"type": "Feature", "geometry": {"type": "Point", "coordinates": [2.306337, 48.933468]}, "properties": {"etat de la localisation": "Mission inconnue", "numparc": 1602, "duree": "", "horodatage": "2022-08-28 19:16:19", "marker-color": "#FF9F56"}}, {"type": "Feature", "geometry": {"type": "Point", "coordinates": [2.308268, 48.933407]}, "properties": {"etat de la localisation": "Delocalise", "numparc": 1602, "duree": "00:14:53", "horodatage": "2022-08-28 19:20:28", "marker-color": "#FF565E"}}, {"type": "Feature", "geometry": {"type": "Point", "coordinates": [2.321609, 48.93161]}, "properties": {"etat de la localisation": "Hors service", "numparc": 1602, "duree": "", "horodatage": "2022-08-28 19:35:21", "marker-color": "#707070"}}, {"type": "Feature", "geometry": {"type": "Point", "coordinates": [2.240358, 48.890053]}, "properties": {"etat de la localisation": "Hors service", "numparc": 1605, "duree": "", "horodatage": "2022-08-28 19:38:46", "marker-color": "#707070"}}, {"type": "Feature", "geometry": {"type": "Point", "coordinates": [2.320309, 48.934021]}, "properties": {"etat de la localisation": "Delocalise", "numparc": 1605, "duree": "00:10:41", "horodatage": "2022-08-28 20:17:14", "marker-color": "#FF565E"}}, {"type": "Feature", "geometry": {"type": "Point", "coordinates": [2.340866, 48.915829]}, "properties": {"etat de la localisation": "Hors service", "numparc": 1605, "duree": "", "horodatage": "2022-08-28 20:27:55", "marker-color": "#707070"}}, {"type": "Feature", "geometry": {"type": "Point", "coordinates": [2.240822, 48.894882]}, "properties": {"etat de la localisation": "Deviation programmee", "numparc": 1602, "duree": "", "horodatage": "2022-08-28 21:17:57", "marker-color": "#56FF93"}}, {"type": "Feature", "geometry": {"type": "Point", "coordinates": [2.24016, 48.890999]}, "properties": {"etat de la localisation": "Hors service", "numparc": 1602, "duree": "", "horodatage": "2022-08-28 21:32:20", "marker-color": "#707070"}}, {"type": "Feature", "geometry": {"type": "Point", "coordinates": [2.240727, 48.897087]}, "properties": {"etat de la localisation": "Delocalise", "numparc": 1602, "duree": "00:01:05", "horodatage": "2022-08-28 21:46:53", "marker-color": "#FF565E"}}, {"type": "Feature", "geometry": {"type": "Point", "coordinates": [2.24099, 48.895031]}, "properties": {"etat de la localisation": "Deviation programmee", "numparc": 1602, "duree": "", "horodatage": "2022-08-28 22:57:37", "marker-color": "#56FF93"}}, {"type": "Feature", "geometry": {"type": "Point", "coordinates": [2.238941, 48.892132]}, "properties": {"etat de la localisation": "Hors service", "numparc": 1602, "duree": "", "horodatage": "2022-08-28 22:59:15", "marker-color": "#707070"}}, {"type": "Feature", "geometry": {"type": "Point", "coordinates": [2.239227, 48.892017]}, "properties": {"etat de la localisation": "Mission suivante non connue", "numparc": 1602, "duree": "", "horodatage": "2022-08-28 22:59:23", "marker-color": "#7156FF"}}, {"type": "Feature", "geometry": {"type": "Point", "coordinates": [2.240166, 48.890842]}, "properties": {"etat de la localisation": "Hors service", "numparc": 1602, "duree": "", "horodatage": "2022-08-28 23:12:06", "marker-color": "#707070"}}, {"type": "Feature", "geometry": {"type": "Point", "coordinates": [2.240776, 48.894909]}, "properties": {"etat de la localisation": "Deviation programmee", "numparc": 1602, "duree": "", "horodatage": "2022-08-29 00:39:25", "marker-color": "#56FF93"}}, {"type": "Feature", "geometry": {"type": "Point", "coordinates": [2.238928, 48.892048]}, "properties": {"etat de la localisation": "Hors service", "numparc": 1602, "duree": "", "horodatage": "2022-08-29 00:41:13", "marker-color": "#707070"}}, {"type": "Feature", "geometry": {"type": "Point", "coordinates": [2.239052, 48.891998]}, "properties": {"etat de la localisation": "Mission suivante non connue", "numparc": 1602, "duree": "", "horodatage": "2022-08-29 00:41:21", "marker-color": "#7156FF"}}, {"type": "Feature", "geometry": {"type": "Point", "coordinates": [2.340991, 48.916389]}, "properties": {"etat de la localisation": "Hors service", "numparc": 1602, "duree": "", "horodatage": "2022-08-29 01:20:34", "marker-color": "#707070"}}]}