{"type": "FeatureCollection", "features": [{"type": "Feature", "geometry": {"type": "Point", "coordinates": [2.329746, 48.822983]}, "properties": {"alarme": "DEFAUT LIAISON DATA SAEIV / AIGLE", "numparc": 1416, "type": "TECHNIQUE", "duree": "03:35:12", "horodatage": "2021-12-31 02:55:38", "statut": "start", "marker-color": "#ff0000"}}, {"type": "Feature", "geometry": {"type": "Point", "coordinates": [2.328844, 48.823338]}, "properties": {"alarme": "VEHICULE DELOCALISE", "numparc": 1418, "type": "EXPLOITATION", "duree": "00:01:44", "horodatage": "2021-12-31 05:11:38", "statut": "start", "marker-color": "#ff0000"}}, {"type": "Feature", "geometry": {"type": "Point", "coordinates": [2.300724, 48.797432]}, "properties": {"alarme": "VEHICULE DELOCALISE", "numparc": 1415, "type": "EXPLOITATION", "duree": "00:03:32", "horodatage": "2021-12-31 06:15:11", "statut": "start", "marker-color": "#ff0000"}}, {"type": "Feature", "geometry": {"type": "Point", "coordinates": [2.302713, 48.786003]}, "properties": {"alarme": "VEHICULE DELOCALISE", "numparc": 1415, "type": "EXPLOITATION", "duree": "00:00:40", "horodatage": "2021-12-31 06:18:58", "statut": "start", "marker-color": "#ff0000"}}, {"type": "Feature", "geometry": {"type": "Point", "coordinates": [2.312579, 48.787449]}, "properties": {"alarme": "VEHICULE DELOCALISE", "numparc": 1415, "type": "EXPLOITATION", "duree": "00:01:15", "horodatage": "2021-12-31 06:21:02", "statut": "start", "marker-color": "#ff0000"}}, {"type": "Feature", "geometry": {"type": "Point", "coordinates": [2.329746, 48.822983]}, "properties": {"alarme": "DEFAUT LIAISON DATA SAEIV / AIGLE", "numparc": 1416, "type": "TECHNIQUE", "duree": "00:02:54", "horodatage": "2021-12-31 06:32:06", "statut": "start", "marker-color": "#ff0000"}}, {"type": "Feature", "geometry": {"type": "Point", "coordinates": [2.300694, 48.797424]}, "properties": {"alarme": "VEHICULE DELOCALISE", "numparc": 1415, "type": "EXPLOITATION", "duree": "00:03:14", "horodatage": "2021-12-31 07:26:21", "statut": "start", "marker-color": "#ff0000"}}, {"type": "Feature", "geometry": {"type": "Point", "coordinates": [2.300653, 48.797405]}, "properties": {"alarme": "VEHICULE DELOCALISE", "numparc": 1415, "type": "EXPLOITATION", "duree": "00:02:19", "horodatage": "2021-12-31 09:47:34", "statut": "start", "marker-color": "#ff0000"}}, {"type": "Feature", "geometry": {"type": "Point", "coordinates": [2.300687, 48.79744]}, "properties": {"alarme": "VEHICULE DELOCALISE", "numparc": 1415, "type": "EXPLOITATION", "duree": "00:00:13", "horodatage": "2021-12-31 11:05:20", "statut": "start", "marker-color": "#ff0000"}}, {"type": "Feature", "geometry": {"type": "Point", "coordinates": [2.314513, 48.790298]}, "properties": {"alarme": "DEFAUT LIAISON DATA SAEIV / AIGLE", "numparc": 1418, "type": "TECHNIQUE", "duree": "00:00:07", "horodatage": "2021-12-31 14:37:04", "statut": "start", "marker-color": "#ff0000"}}, {"type": "Feature", "geometry": {"type": "Point", "coordinates": [2.299824, 48.796406]}, "properties": {"alarme": "VEHICULE DELOCALISE", "numparc": 1418, "type": "EXPLOITATION", "duree": "00:00:21", "horodatage": "2021-12-31 15:42:28", "statut": "start", "marker-color": "#ff0000"}}, {"type": "Feature", "geometry": {"type": "Point", "coordinates": [2.299337, 48.79504]}, "properties": {"alarme": "VEHICULE DELOCALISE", "numparc": 1418, "type": "EXPLOITATION", "duree": "00:01:26", "horodatage": "2021-12-31 15:43:46", "statut": "start", "marker-color": "#ff0000"}}, {"type": "Feature", "geometry": {"type": "Point", "coordinates": [2.299068, 48.796917]}, "properties": {"alarme": "VEHICULE DELOCALISE", "numparc": 1417, "type": "EXPLOITATION", "duree": "00:01:40", "horodatage": "2021-12-31 17:25:58", "statut": "start", "marker-color": "#ff0000"}}, {"type": "Feature", "geometry": {"type": "Point", "coordinates": [2.299824, 48.796375]}, "properties": {"alarme": "VEHICULE DELOCALISE", "numparc": 1410, "type": "EXPLOITATION", "duree": "00:03:21", "horodatage": "2021-12-31 20:19:16", "statut": "start", "marker-color": "#ff0000"}}, {"type": "Feature", "geometry": {"type": "Point", "coordinates": [2.32653, 48.821724]}, "properties": {"alarme": "VEHICULE DELOCALISE", "numparc": 1415, "type": "EXPLOITATION", "duree": "00:06:16", "horodatage": "2021-12-31 22:20:43", "statut": "start", "marker-color": "#ff0000"}}, {"type": "Feature", "geometry": {"type": "Point", "coordinates": [2.329746, 48.822983]}, "properties": {"alarme": "DEFAUT LIAISON DATA SAEIV / AIGLE", "numparc": 1416, "type": "TECHNIQUE", "duree": "03:35:12", "horodatage": "2021-12-31 06:30:50", "statut": "end", "marker-color": "#2fe184"}}, {"type": "Feature", "geometry": {"type": "Point", "coordinates": [2.324748, 48.822071]}, "properties": {"alarme": "VEHICULE DELOCALISE", "numparc": 1418, "type": "EXPLOITATION", "duree": "00:01:44", "horodatage": "2021-12-31 05:13:22", "statut": "end", "marker-color": "#2fe184"}}, {"type": "Feature", "geometry": {"type": "Point", "coordinates": [2.302713, 48.786003]}, "properties": {"alarme": "VEHICULE DELOCALISE", "numparc": 1415, "type": "EXPLOITATION", "duree": "00:03:32", "horodatage": "2021-12-31 06:18:43", "statut": "end", "marker-color": "#2fe184"}}, {"type": "Feature", "geometry": {"type": "Point", "coordinates": [2.302884, 48.785744]}, "properties": {"alarme": "VEHICULE DELOCALISE", "numparc": 1415, "type": "EXPLOITATION", "duree": "00:00:40", "horodatage": "2021-12-31 06:19:38", "statut": "end", "marker-color": "#2fe184"}}, {"type": "Feature", "geometry": {"type": "Point", "coordinates": [2.314385, 48.790012]}, "properties": {"alarme": "VEHICULE DELOCALISE", "numparc": 1415, "type": "EXPLOITATION", "duree": "00:01:15", "horodatage": "2021-12-31 06:22:17", "statut": "end", "marker-color": "#2fe184"}}, {"type": "Feature", "geometry": {"type": "Point", "coordinates": [2.328529, 48.823544]}, "properties": {"alarme": "DEFAUT LIAISON DATA SAEIV / AIGLE", "numparc": 1416, "type": "TECHNIQUE", "duree": "00:02:54", "horodatage": "2021-12-31 06:35:00", "statut": "end", "marker-color": "#2fe184"}}, {"type": "Feature", "geometry": {"type": "Point", "coordinates": [2.298611, 48.7925]}, "properties": {"alarme": "VEHICULE DELOCALISE", "numparc": 1415, "type": "EXPLOITATION", "duree": "00:03:14", "horodatage": "2021-12-31 07:29:35", "statut": "end", "marker-color": "#2fe184"}}, {"type": "Feature", "geometry": {"type": "Point", "coordinates": [2.300271, 48.795238]}, "properties": {"alarme": "VEHICULE DELOCALISE", "numparc": 1415, "type": "EXPLOITATION", "duree": "00:02:19", "horodatage": "2021-12-31 09:49:53", "statut": "end", "marker-color": "#2fe184"}}, {"type": "Feature", "geometry": {"type": "Point", "coordinates": [2.300516, 48.797375]}, "properties": {"alarme": "VEHICULE DELOCALISE", "numparc": 1415, "type": "EXPLOITATION", "duree": "00:00:13", "horodatage": "2021-12-31 11:05:33", "statut": "end", "marker-color": "#2fe184"}}, {"type": "Feature", "geometry": {"type": "Point", "coordinates": [2.314803, 48.790863]}, "properties": {"alarme": "DEFAUT LIAISON DATA SAEIV / AIGLE", "numparc": 1418, "type": "TECHNIQUE", "duree": "00:00:07", "horodatage": "2021-12-31 14:37:11", "statut": "end", "marker-color": "#2fe184"}}, {"type": "Feature", "geometry": {"type": "Point", "coordinates": [2.300688, 48.795567]}, "properties": {"alarme": "VEHICULE DELOCALISE", "numparc": 1418, "type": "EXPLOITATION", "duree": "00:00:21", "horodatage": "2021-12-31 15:42:49", "statut": "end", "marker-color": "#2fe184"}}, {"type": "Feature", "geometry": {"type": "Point", "coordinates": [2.298876, 48.792072]}, "properties": {"alarme": "VEHICULE DELOCALISE", "numparc": 1418, "type": "EXPLOITATION", "duree": "00:01:26", "horodatage": "2021-12-31 15:45:12", "statut": "end", "marker-color": "#2fe184"}}, {"type": "Feature", "geometry": {"type": "Point", "coordinates": [2.300495, 48.795273]}, "properties": {"alarme": "VEHICULE DELOCALISE", "numparc": 1417, "type": "EXPLOITATION", "duree": "00:01:40", "horodatage": "2021-12-31 17:27:38", "statut": "end", "marker-color": "#2fe184"}}, {"type": "Feature", "geometry": {"type": "Point", "coordinates": [2.301002, 48.788704]}, "properties": {"alarme": "VEHICULE DELOCALISE", "numparc": 1410, "type": "EXPLOITATION", "duree": "00:03:21", "horodatage": "2021-12-31 20:22:37", "statut": "end", "marker-color": "#2fe184"}}, {"type": "Feature", "geometry": {"type": "Point", "coordinates": [2.329324, 48.82349]}, "properties": {"alarme": "VEHICULE DELOCALISE", "numparc": 1415, "type": "EXPLOITATION", "duree": "00:06:16", "horodatage": "2021-12-31 22:26:59", "statut": "end", "marker-color": "#2fe184"}}]}