{"type": "FeatureCollection", "features": [{"type": "Feature", "geometry": {"type": "Point", "coordinates": [2.352279, 48.896591]}, "properties": {"numparc": 4450, "etat de la localisation": "autre", "ID BDGEO": "80", "horodatage": "2023-06-25 06:25:28", "distance (en metres)": 204.74, "station": "BELLIARD DEPART", "marker-color": "#818181"}}, {"type": "Feature", "geometry": {"type": "Point", "coordinates": [2.345225, 48.892891]}, "properties": {"numparc": 4391, "etat de la localisation": "autre", "ID BDGEO": "84", "horodatage": "2023-06-25 12:31:25", "distance (en metres)": 1567.89, "station": "GARE DU NORD.", "marker-color": "#818181"}}, {"type": "Feature", "geometry": {"type": "Point", "coordinates": [2.348531, 48.897182]}, "properties": {"numparc": 4418, "etat de la localisation": "autre", "ID BDGEO": "86", "horodatage": "2023-06-25 21:23:45", "distance (en metres)": 1946.35, "station": "GARE DU NORD", "marker-color": "#818181"}}, {"type": "Feature", "geometry": {"type": "Point", "coordinates": [2.350886, 48.897446]}, "properties": {"numparc": 4418, "etat de la localisation": "autre", "ID BDGEO": "86", "horodatage": "2023-06-25 21:27:49", "distance (en metres)": 1924.33, "station": "GARE DU NORD", "marker-color": "#818181"}}, {"type": "Feature", "geometry": {"type": "Point", "coordinates": [2.349536, 48.896963]}, "properties": {"station": "BELLIARD DEPART", "ID BDGEO": "80", "marker-color": "#56B3FF"}}, {"type": "Feature", "geometry": {"type": "Point", "coordinates": [2.357149, 48.881172]}, "properties": {"station": "GARE DU NORD.", "ID BDGEO": "84", "marker-color": "#56B3FF"}}, {"type": "Feature", "geometry": {"type": "Point", "coordinates": [2.357395, 48.880677]}, "properties": {"station": "GARE DU NORD", "ID BDGEO": "86", "marker-color": "#56B3FF"}}]}