{"type": "FeatureCollection", "features": [{"type": "Feature", "geometry": {"type": "Point", "coordinates": [2.442593, 48.773132]}, "properties": {"etat de la localisation": "Delocalise", "numparc": 4830, "duree": "00:01:19", "horodatage": "2023-05-31 12:42:50", "marker-color": "#FF565E"}}, {"type": "Feature", "geometry": {"type": "Point", "coordinates": [2.442593, 48.773132]}, "properties": {"etat de la localisation": "Mission inconnue", "numparc": 4830, "duree": "", "horodatage": "2023-05-31 12:44:09", "marker-color": "#FF9F56"}}, {"type": "Feature", "geometry": {"type": "Point", "coordinates": [2.442914, 48.771538]}, "properties": {"etat de la localisation": "Hors service", "numparc": 4830, "duree": "", "horodatage": "2023-05-31 19:44:08", "marker-color": "#707070"}}]}