{"type": "FeatureCollection", "features": [{"type": "Feature", "geometry": {"type": "Point", "coordinates": [2.370684, 48.837574]}, "properties": {"alarme": "VEHICULE DELOCALISE", "numparc": 681, "type": "EXPLOITATION", "duree": "00:05:01", "horodatage": "2022-03-13 17:07:43", "statut": "start", "marker-color": "#ff0000"}}, {"type": "Feature", "geometry": {"type": "Point", "coordinates": [2.370769, 48.837555]}, "properties": {"alarme": "VEHICULE DELOCALISE", "numparc": 732, "type": "EXPLOITATION", "duree": "00:05:01", "horodatage": "2022-03-13 17:29:54", "statut": "start", "marker-color": "#ff0000"}}, {"type": "Feature", "geometry": {"type": "Point", "coordinates": [2.370704, 48.837563]}, "properties": {"alarme": "VEHICULE DELOCALISE", "numparc": 681, "type": "EXPLOITATION", "duree": "00:05:42", "horodatage": "2022-03-13 18:47:54", "statut": "start", "marker-color": "#ff0000"}}, {"type": "Feature", "geometry": {"type": "Point", "coordinates": [2.427967, 48.846802]}, "properties": {"alarme": "VEHICULE DELOCALISE", "numparc": 732, "type": "EXPLOITATION", "duree": "00:04:58", "horodatage": "2022-03-13 20:17:03", "statut": "start", "marker-color": "#ff0000"}}, {"type": "Feature", "geometry": {"type": "Point", "coordinates": [2.371247, 48.836147]}, "properties": {"alarme": "VEHICULE DELOCALISE", "numparc": 730, "type": "EXPLOITATION", "duree": "00:03:01", "horodatage": "2022-03-13 22:14:26", "statut": "start", "marker-color": "#ff0000"}}, {"type": "Feature", "geometry": {"type": "Point", "coordinates": [2.387855, 48.840714]}, "properties": {"alarme": "VEHICULE DELOCALISE", "numparc": 730, "type": "EXPLOITATION", "duree": "00:01:16", "horodatage": "2022-03-13 22:18:57", "statut": "start", "marker-color": "#ff0000"}}, {"type": "Feature", "geometry": {"type": "Point", "coordinates": [2.40178, 48.847748]}, "properties": {"alarme": "VEHICULE DELOCALISE", "numparc": 730, "type": "EXPLOITATION", "duree": "00:00:52", "horodatage": "2022-03-14 00:39:36", "statut": "start", "marker-color": "#ff0000"}}, {"type": "Feature", "geometry": {"type": "Point", "coordinates": [2.376215, 48.838257]}, "properties": {"alarme": "VEHICULE DELOCALISE", "numparc": 730, "type": "EXPLOITATION", "duree": "00:00:52", "horodatage": "2022-03-14 00:50:26", "statut": "start", "marker-color": "#ff0000"}}, {"type": "Feature", "geometry": {"type": "Point", "coordinates": [2.364093, 48.844173]}, "properties": {"alarme": "VEHICULE DELOCALISE", "numparc": 681, "type": "EXPLOITATION", "duree": "00:05:01", "horodatage": "2022-03-13 17:12:44", "statut": "end", "marker-color": "#2fe184"}}, {"type": "Feature", "geometry": {"type": "Point", "coordinates": [2.364188, 48.844093]}, "properties": {"alarme": "VEHICULE DELOCALISE", "numparc": 732, "type": "EXPLOITATION", "duree": "00:05:01", "horodatage": "2022-03-13 17:34:55", "statut": "end", "marker-color": "#2fe184"}}, {"type": "Feature", "geometry": {"type": "Point", "coordinates": [2.365033, 48.84441]}, "properties": {"alarme": "VEHICULE DELOCALISE", "numparc": 681, "type": "EXPLOITATION", "duree": "00:05:42", "horodatage": "2022-03-13 18:53:36", "statut": "end", "marker-color": "#2fe184"}}, {"type": "Feature", "geometry": {"type": "Point", "coordinates": [2.410926, 48.847172]}, "properties": {"alarme": "VEHICULE DELOCALISE", "numparc": 732, "type": "EXPLOITATION", "duree": "00:04:58", "horodatage": "2022-03-13 20:22:01", "statut": "end", "marker-color": "#2fe184"}}, {"type": "Feature", "geometry": {"type": "Point", "coordinates": [2.381902, 48.840057]}, "properties": {"alarme": "VEHICULE DELOCALISE", "numparc": 730, "type": "EXPLOITATION", "duree": "00:03:01", "horodatage": "2022-03-13 22:17:27", "statut": "end", "marker-color": "#2fe184"}}, {"type": "Feature", "geometry": {"type": "Point", "coordinates": [2.383733, 48.843246]}, "properties": {"alarme": "VEHICULE DELOCALISE", "numparc": 730, "type": "EXPLOITATION", "duree": "00:01:16", "horodatage": "2022-03-13 22:20:13", "statut": "end", "marker-color": "#2fe184"}}, {"type": "Feature", "geometry": {"type": "Point", "coordinates": [2.399522, 48.847851]}, "properties": {"alarme": "VEHICULE DELOCALISE", "numparc": 730, "type": "EXPLOITATION", "duree": "00:00:52", "horodatage": "2022-03-14 00:40:28", "statut": "end", "marker-color": "#2fe184"}}, {"type": "Feature", "geometry": {"type": "Point", "coordinates": [2.371613, 48.836563]}, "properties": {"alarme": "VEHICULE DELOCALISE", "numparc": 730, "type": "EXPLOITATION", "duree": "00:00:52", "horodatage": "2022-03-14 00:51:18", "statut": "end", "marker-color": "#2fe184"}}, {"type": "Feature", "geometry": {"type": "Point", "coordinates": [2.431847, 48.84866]}, "properties": {"alarme": "VEHICULE DELOCALISE", "numparc": 681, "type": "EXPLOITATION", "duree": "24:00:00", "horodatage": "2022-03-13 20:06:36", "statut": "start", "marker-color": "#000000"}}]}