{"type": "FeatureCollection", "features": [{"type": "Feature", "geometry": {"type": "Point", "coordinates": [2.239804, 48.890789]}, "properties": {"alarme": "VEHICULE DELOCALISE", "numparc": 1988, "type": "EXPLOITATION", "duree": "00:00:14", "horodatage": "2021-09-26 09:48:30", "statut": "start", "marker-color": "#ff0000"}}, {"type": "Feature", "geometry": {"type": "Point", "coordinates": [2.320269, 48.931458]}, "properties": {"alarme": "VEHICULE DELOCALISE", "numparc": 1988, "type": "EXPLOITATION", "duree": "00:00:09", "horodatage": "2021-09-26 10:32:01", "statut": "start", "marker-color": "#ff0000"}}, {"type": "Feature", "geometry": {"type": "Point", "coordinates": [2.239938, 48.890919]}, "properties": {"alarme": "VEHICULE DELOCALISE", "numparc": 1988, "type": "EXPLOITATION", "duree": "00:00:14", "horodatage": "2021-09-26 09:48:44", "statut": "end", "marker-color": "#2fe184"}}, {"type": "Feature", "geometry": {"type": "Point", "coordinates": [2.320263, 48.931465]}, "properties": {"alarme": "VEHICULE DELOCALISE", "numparc": 1988, "type": "EXPLOITATION", "duree": "00:00:09", "horodatage": "2021-09-26 10:32:10", "statut": "end", "marker-color": "#2fe184"}}]}