{"type": "FeatureCollection", "features": [{"type": "Feature", "geometry": {"type": "Point", "coordinates": [2.329474, 48.822937]}, "properties": {"alarme": "DEFAUT LIAISON DATA SAEIV / AIGLE", "numparc": 1368, "type": "TECHNIQUE", "duree": "00:00:51", "horodatage": "2021-10-22 05:56:46", "statut": "start", "marker-color": "#ff0000"}}, {"type": "Feature", "geometry": {"type": "Point", "coordinates": [2.329373, 48.822487]}, "properties": {"alarme": "DEFAUT LIAISON DATA SAEIV / AIGLE", "numparc": 1364, "type": "TECHNIQUE", "duree": "00:00:48", "horodatage": "2021-10-22 06:21:55", "statut": "start", "marker-color": "#ff0000"}}, {"type": "Feature", "geometry": {"type": "Point", "coordinates": [2.345469, 48.821636]}, "properties": {"alarme": "VEHICULE DELOCALISE", "numparc": 1369, "type": "EXPLOITATION", "duree": "00:01:16", "horodatage": "2021-10-22 07:22:00", "statut": "start", "marker-color": "#ff0000"}}, {"type": "Feature", "geometry": {"type": "Point", "coordinates": [2.35119, 48.857304]}, "properties": {"alarme": "VEHICULE DELOCALISE", "numparc": 1363, "type": "EXPLOITATION", "duree": "00:00:58", "horodatage": "2021-10-22 07:35:47", "statut": "start", "marker-color": "#ff0000"}}, {"type": "Feature", "geometry": {"type": "Point", "coordinates": [2.356184, 48.855827]}, "properties": {"alarme": "DEFAUT LIAISON DATA SAEIV / AIGLE", "numparc": 1361, "type": "TECHNIQUE", "duree": "00:00:07", "horodatage": "2021-10-22 07:37:24", "statut": "start", "marker-color": "#ff0000"}}, {"type": "Feature", "geometry": {"type": "Point", "coordinates": [2.348185, 48.823414]}, "properties": {"alarme": "VEHICULE DELOCALISE", "numparc": 1365, "type": "EXPLOITATION", "duree": "00:01:41", "horodatage": "2021-10-22 08:55:28", "statut": "start", "marker-color": "#ff0000"}}, {"type": "Feature", "geometry": {"type": "Point", "coordinates": [2.335139, 48.862888]}, "properties": {"alarme": "VEHICULE DELOCALISE", "numparc": 1364, "type": "EXPLOITATION", "duree": "00:11:16", "horodatage": "2021-10-22 12:54:40", "statut": "start", "marker-color": "#ff0000"}}, {"type": "Feature", "geometry": {"type": "Point", "coordinates": [2.345456, 48.822006]}, "properties": {"alarme": "VEHICULE DELOCALISE", "numparc": 1363, "type": "EXPLOITATION", "duree": "00:00:53", "horodatage": "2021-10-22 16:14:24", "statut": "start", "marker-color": "#ff0000"}}, {"type": "Feature", "geometry": {"type": "Point", "coordinates": [2.353602, 48.847641]}, "properties": {"alarme": "VEHICULE DELOCALISE", "numparc": 1363, "type": "EXPLOITATION", "duree": "00:01:06", "horodatage": "2021-10-22 19:06:39", "statut": "start", "marker-color": "#ff0000"}}, {"type": "Feature", "geometry": {"type": "Point", "coordinates": [2.360459, 48.838123]}, "properties": {"alarme": "VEHICULE DELOCALISE", "numparc": 1373, "type": "EXPLOITATION", "duree": "00:04:16", "horodatage": "2021-10-22 19:09:00", "statut": "start", "marker-color": "#ff0000"}}, {"type": "Feature", "geometry": {"type": "Point", "coordinates": [2.35526, 48.837872]}, "properties": {"alarme": "VEHICULE DELOCALISE", "numparc": 1373, "type": "EXPLOITATION", "duree": "00:02:37", "horodatage": "2021-10-22 19:16:13", "statut": "start", "marker-color": "#ff0000"}}, {"type": "Feature", "geometry": {"type": "Point", "coordinates": [2.33506, 48.862888]}, "properties": {"alarme": "VEHICULE DELOCALISE", "numparc": 1455, "type": "EXPLOITATION", "duree": "00:02:48", "horodatage": "2021-10-22 20:56:28", "statut": "start", "marker-color": "#ff0000"}}, {"type": "Feature", "geometry": {"type": "Point", "coordinates": [2.353245, 48.847538]}, "properties": {"alarme": "VEHICULE DELOCALISE", "numparc": 1372, "type": "EXPLOITATION", "duree": "00:00:48", "horodatage": "2021-10-22 21:17:11", "statut": "start", "marker-color": "#ff0000"}}, {"type": "Feature", "geometry": {"type": "Point", "coordinates": [2.353291, 48.8475]}, "properties": {"alarme": "VEHICULE DELOCALISE", "numparc": 1367, "type": "EXPLOITATION", "duree": "00:00:44", "horodatage": "2021-10-22 21:35:33", "statut": "start", "marker-color": "#ff0000"}}, {"type": "Feature", "geometry": {"type": "Point", "coordinates": [2.353137, 48.847549]}, "properties": {"alarme": "VEHICULE DELOCALISE", "numparc": 1364, "type": "EXPLOITATION", "duree": "00:00:38", "horodatage": "2021-10-22 21:57:45", "statut": "start", "marker-color": "#ff0000"}}, {"type": "Feature", "geometry": {"type": "Point", "coordinates": [2.354066, 48.853561]}, "properties": {"alarme": "VEHICULE DELOCALISE", "numparc": 1372, "type": "EXPLOITATION", "duree": "00:07:05", "horodatage": "2021-10-22 22:40:28", "statut": "start", "marker-color": "#ff0000"}}, {"type": "Feature", "geometry": {"type": "Point", "coordinates": [2.335146, 48.862705]}, "properties": {"alarme": "VEHICULE DELOCALISE", "numparc": 1367, "type": "EXPLOITATION", "duree": "00:04:44", "horodatage": "2021-10-22 22:44:00", "statut": "start", "marker-color": "#ff0000"}}, {"type": "Feature", "geometry": {"type": "Point", "coordinates": [2.340261, 48.860035]}, "properties": {"alarme": "VEHICULE DELOCALISE", "numparc": 1363, "type": "EXPLOITATION", "duree": "00:24:29", "horodatage": "2021-10-23 00:45:43", "statut": "start", "marker-color": "#ff0000"}}, {"type": "Feature", "geometry": {"type": "Point", "coordinates": [2.329474, 48.822937]}, "properties": {"alarme": "DEFAUT LIAISON DATA SAEIV / AIGLE", "numparc": 1368, "type": "TECHNIQUE", "duree": "00:00:51", "horodatage": "2021-10-22 05:57:37", "statut": "end", "marker-color": "#2fe184"}}, {"type": "Feature", "geometry": {"type": "Point", "coordinates": [2.329373, 48.822487]}, "properties": {"alarme": "DEFAUT LIAISON DATA SAEIV / AIGLE", "numparc": 1364, "type": "TECHNIQUE", "duree": "00:00:48", "horodatage": "2021-10-22 06:22:43", "statut": "end", "marker-color": "#2fe184"}}, {"type": "Feature", "geometry": {"type": "Point", "coordinates": [2.347358, 48.822495]}, "properties": {"alarme": "VEHICULE DELOCALISE", "numparc": 1369, "type": "EXPLOITATION", "duree": "00:01:16", "horodatage": "2021-10-22 07:23:16", "statut": "end", "marker-color": "#2fe184"}}, {"type": "Feature", "geometry": {"type": "Point", "coordinates": [2.348417, 48.858334]}, "properties": {"alarme": "VEHICULE DELOCALISE", "numparc": 1363, "type": "EXPLOITATION", "duree": "00:00:58", "horodatage": "2021-10-22 07:36:45", "statut": "end", "marker-color": "#2fe184"}}, {"type": "Feature", "geometry": {"type": "Point", "coordinates": [2.356184, 48.855827]}, "properties": {"alarme": "DEFAUT LIAISON DATA SAEIV / AIGLE", "numparc": 1361, "type": "TECHNIQUE", "duree": "00:00:07", "horodatage": "2021-10-22 07:37:31", "statut": "end", "marker-color": "#2fe184"}}, {"type": "Feature", "geometry": {"type": "Point", "coordinates": [2.350161, 48.825932]}, "properties": {"alarme": "VEHICULE DELOCALISE", "numparc": 1365, "type": "EXPLOITATION", "duree": "00:01:41", "horodatage": "2021-10-22 08:57:09", "statut": "end", "marker-color": "#2fe184"}}, {"type": "Feature", "geometry": {"type": "Point", "coordinates": [2.340367, 48.860115]}, "properties": {"alarme": "VEHICULE DELOCALISE", "numparc": 1364, "type": "EXPLOITATION", "duree": "00:11:16", "horodatage": "2021-10-22 13:05:56", "statut": "end", "marker-color": "#2fe184"}}, {"type": "Feature", "geometry": {"type": "Point", "coordinates": [2.345971, 48.822094]}, "properties": {"alarme": "VEHICULE DELOCALISE", "numparc": 1363, "type": "EXPLOITATION", "duree": "00:00:53", "horodatage": "2021-10-22 16:15:17", "statut": "end", "marker-color": "#2fe184"}}, {"type": "Feature", "geometry": {"type": "Point", "coordinates": [2.354405, 48.84639]}, "properties": {"alarme": "VEHICULE DELOCALISE", "numparc": 1363, "type": "EXPLOITATION", "duree": "00:01:06", "horodatage": "2021-10-22 19:07:45", "statut": "end", "marker-color": "#2fe184"}}, {"type": "Feature", "geometry": {"type": "Point", "coordinates": [2.357379, 48.838566]}, "properties": {"alarme": "VEHICULE DELOCALISE", "numparc": 1373, "type": "EXPLOITATION", "duree": "00:04:16", "horodatage": "2021-10-22 19:13:16", "statut": "end", "marker-color": "#2fe184"}}, {"type": "Feature", "geometry": {"type": "Point", "coordinates": [2.356925, 48.838791]}, "properties": {"alarme": "VEHICULE DELOCALISE", "numparc": 1373, "type": "EXPLOITATION", "duree": "00:02:37", "horodatage": "2021-10-22 19:18:50", "statut": "end", "marker-color": "#2fe184"}}, {"type": "Feature", "geometry": {"type": "Point", "coordinates": [2.337929, 48.862545]}, "properties": {"alarme": "VEHICULE DELOCALISE", "numparc": 1455, "type": "EXPLOITATION", "duree": "00:02:48", "horodatage": "2021-10-22 20:59:16", "statut": "end", "marker-color": "#2fe184"}}, {"type": "Feature", "geometry": {"type": "Point", "coordinates": [2.354451, 48.846401]}, "properties": {"alarme": "VEHICULE DELOCALISE", "numparc": 1372, "type": "EXPLOITATION", "duree": "00:00:48", "horodatage": "2021-10-22 21:17:59", "statut": "end", "marker-color": "#2fe184"}}, {"type": "Feature", "geometry": {"type": "Point", "coordinates": [2.354831, 48.8465]}, "properties": {"alarme": "VEHICULE DELOCALISE", "numparc": 1367, "type": "EXPLOITATION", "duree": "00:00:44", "horodatage": "2021-10-22 21:36:17", "statut": "end", "marker-color": "#2fe184"}}, {"type": "Feature", "geometry": {"type": "Point", "coordinates": [2.354403, 48.846447]}, "properties": {"alarme": "VEHICULE DELOCALISE", "numparc": 1364, "type": "EXPLOITATION", "duree": "00:00:38", "horodatage": "2021-10-22 21:58:23", "statut": "end", "marker-color": "#2fe184"}}, {"type": "Feature", "geometry": {"type": "Point", "coordinates": [2.355654, 48.849297]}, "properties": {"alarme": "VEHICULE DELOCALISE", "numparc": 1372, "type": "EXPLOITATION", "duree": "00:07:05", "horodatage": "2021-10-22 22:47:33", "statut": "end", "marker-color": "#2fe184"}}, {"type": "Feature", "geometry": {"type": "Point", "coordinates": [2.335462, 48.853172]}, "properties": {"alarme": "VEHICULE DELOCALISE", "numparc": 1367, "type": "EXPLOITATION", "duree": "00:04:44", "horodatage": "2021-10-22 22:48:44", "statut": "end", "marker-color": "#2fe184"}}, {"type": "Feature", "geometry": {"type": "Point", "coordinates": [2.32857, 48.82362]}, "properties": {"alarme": "VEHICULE DELOCALISE", "numparc": 1363, "type": "EXPLOITATION", "duree": "00:24:29", "horodatage": "2021-10-23 01:10:12", "statut": "end", "marker-color": "#2fe184"}}, {"type": "Feature", "geometry": {"type": "Point", "coordinates": [2.329118, 48.823452]}, "properties": {"alarme": "DEFAUT LIAISON DATA SAEIV / AIGLE", "numparc": 1365, "type": "TECHNIQUE", "duree": "24:00:00", "horodatage": "2021-10-22 17:50:20", "statut": "start", "marker-color": "#000000"}}]}