{"type": "FeatureCollection", "features": [{"type": "Feature", "geometry": {"type": "Point", "coordinates": [2.424905, 48.873074]}, "properties": {"etat de la localisation": "Deviation programmee", "numparc": 4944, "duree": "", "horodatage": "2021-07-26 08:28:02", "marker-color": "#56FF93"}}, {"type": "Feature", "geometry": {"type": "Point", "coordinates": [2.424902, 48.873024]}, "properties": {"etat de la localisation": "Deviation programmee", "numparc": 4936, "duree": "", "horodatage": "2021-07-26 08:38:03", "marker-color": "#56FF93"}}, {"type": "Feature", "geometry": {"type": "Point", "coordinates": [2.408505, 48.877182]}, "properties": {"etat de la localisation": "Mission suivante non connue", "numparc": 4944, "duree": "", "horodatage": "2021-07-26 08:42:34", "marker-color": "#7156FF"}}, {"type": "Feature", "geometry": {"type": "Point", "coordinates": [2.408527, 48.877117]}, "properties": {"etat de la localisation": "Mission suivante non connue", "numparc": 4936, "duree": "", "horodatage": "2021-07-26 08:49:15", "marker-color": "#7156FF"}}, {"type": "Feature", "geometry": {"type": "Point", "coordinates": [2.424836, 48.873032]}, "properties": {"etat de la localisation": "Deviation programmee", "numparc": 4944, "duree": "", "horodatage": "2021-07-26 09:57:56", "marker-color": "#56FF93"}}, {"type": "Feature", "geometry": {"type": "Point", "coordinates": [2.424881, 48.873032]}, "properties": {"etat de la localisation": "Deviation programmee", "numparc": 4936, "duree": "", "horodatage": "2021-07-26 10:16:33", "marker-color": "#56FF93"}}, {"type": "Feature", "geometry": {"type": "Point", "coordinates": [2.424889, 48.873013]}, "properties": {"etat de la localisation": "Deviation programmee", "numparc": 4944, "duree": "", "horodatage": "2021-07-26 11:30:51", "marker-color": "#56FF93"}}, {"type": "Feature", "geometry": {"type": "Point", "coordinates": [2.40825, 48.87746]}, "properties": {"etat de la localisation": "Mission suivante non connue", "numparc": 4944, "duree": "", "horodatage": "2021-07-26 11:42:50", "marker-color": "#7156FF"}}, {"type": "Feature", "geometry": {"type": "Point", "coordinates": [2.424892, 48.87302]}, "properties": {"etat de la localisation": "Deviation programmee", "numparc": 4936, "duree": "", "horodatage": "2021-07-26 11:50:04", "marker-color": "#56FF93"}}, {"type": "Feature", "geometry": {"type": "Point", "coordinates": [2.408436, 48.877186]}, "properties": {"etat de la localisation": "Mission suivante non connue", "numparc": 4936, "duree": "", "horodatage": "2021-07-26 12:01:12", "marker-color": "#7156FF"}}, {"type": "Feature", "geometry": {"type": "Point", "coordinates": [2.424862, 48.873032]}, "properties": {"etat de la localisation": "Deviation programmee", "numparc": 4944, "duree": "", "horodatage": "2021-07-26 12:55:33", "marker-color": "#56FF93"}}, {"type": "Feature", "geometry": {"type": "Point", "coordinates": [2.408597, 48.877167]}, "properties": {"etat de la localisation": "Mission suivante non connue", "numparc": 4944, "duree": "", "horodatage": "2021-07-26 13:05:11", "marker-color": "#7156FF"}}, {"type": "Feature", "geometry": {"type": "Point", "coordinates": [2.424916, 48.873024]}, "properties": {"etat de la localisation": "Deviation programmee", "numparc": 4936, "duree": "", "horodatage": "2021-07-26 13:21:30", "marker-color": "#56FF93"}}, {"type": "Feature", "geometry": {"type": "Point", "coordinates": [2.424987, 48.873047]}, "properties": {"etat de la localisation": "Deviation programmee", "numparc": 4944, "duree": "", "horodatage": "2021-07-26 14:20:50", "marker-color": "#56FF93"}}, {"type": "Feature", "geometry": {"type": "Point", "coordinates": [2.42491, 48.873032]}, "properties": {"etat de la localisation": "Deviation programmee", "numparc": 4936, "duree": "", "horodatage": "2021-07-26 15:07:01", "marker-color": "#56FF93"}}, {"type": "Feature", "geometry": {"type": "Point", "coordinates": [2.427385, 48.878792]}, "properties": {"etat de la localisation": "Hors service", "numparc": 4944, "duree": "", "horodatage": "2021-07-26 21:05:41", "marker-color": "#707070"}}, {"type": "Feature", "geometry": {"type": "Point", "coordinates": [2.427302, 48.878796]}, "properties": {"etat de la localisation": "Hors service", "numparc": 4936, "duree": "", "horodatage": "2021-07-26 21:40:50", "marker-color": "#707070"}}]}