{"type": "FeatureCollection", "features": [{"type": "Feature", "geometry": {"type": "Point", "coordinates": [2.329596, 48.823086]}, "properties": {"etat de la localisation": "Delocalise", "numparc": 1454, "duree": "00:00:24", "horodatage": "2022-04-09 05:55:29", "marker-color": "#FF565E"}}, {"type": "Feature", "geometry": {"type": "Point", "coordinates": [2.330166, 48.822723]}, "properties": {"etat de la localisation": "Delocalise", "numparc": 1473, "duree": "00:02:11", "horodatage": "2022-04-09 05:57:33", "marker-color": "#FF565E"}}, {"type": "Feature", "geometry": {"type": "Point", "coordinates": [2.329786, 48.82288]}, "properties": {"etat de la localisation": "Delocalise", "numparc": 1453, "duree": "00:06:10", "horodatage": "2022-04-09 06:35:01", "marker-color": "#FF565E"}}, {"type": "Feature", "geometry": {"type": "Point", "coordinates": [2.345953, 48.84568]}, "properties": {"etat de la localisation": "Delocalise", "numparc": 1454, "duree": "00:17:42", "horodatage": "2022-04-09 07:30:58", "marker-color": "#FF565E"}}, {"type": "Feature", "geometry": {"type": "Point", "coordinates": [2.320499, 48.874069]}, "properties": {"etat de la localisation": "Delocalise", "numparc": 1464, "duree": "00:00:17", "horodatage": "2022-04-09 07:33:42", "marker-color": "#FF565E"}}, {"type": "Feature", "geometry": {"type": "Point", "coordinates": [2.345059, 48.845886]}, "properties": {"etat de la localisation": "Delocalise", "numparc": 1473, "duree": "00:10:59", "horodatage": "2022-04-09 07:49:40", "marker-color": "#FF565E"}}, {"type": "Feature", "geometry": {"type": "Point", "coordinates": [2.32818, 48.82251]}, "properties": {"etat de la localisation": "Delocalise", "numparc": 1458, "duree": "00:00:00", "horodatage": "2022-04-09 08:08:02", "marker-color": "#FF565E"}}, {"type": "Feature", "geometry": {"type": "Point", "coordinates": [2.346101, 48.845722]}, "properties": {"etat de la localisation": "Delocalise", "numparc": 1453, "duree": "00:01:35", "horodatage": "2022-04-09 08:14:07", "marker-color": "#FF565E"}}, {"type": "Feature", "geometry": {"type": "Point", "coordinates": [2.346116, 48.845608]}, "properties": {"etat de la localisation": "Delocalise", "numparc": 1464, "duree": "00:01:19", "horodatage": "2022-04-09 08:38:01", "marker-color": "#FF565E"}}, {"type": "Feature", "geometry": {"type": "Point", "coordinates": [2.345232, 48.84581]}, "properties": {"etat de la localisation": "Delocalise", "numparc": 1454, "duree": "00:01:41", "horodatage": "2022-04-09 09:14:50", "marker-color": "#FF565E"}}, {"type": "Feature", "geometry": {"type": "Point", "coordinates": [2.345119, 48.845848]}, "properties": {"etat de la localisation": "Delocalise", "numparc": 1473, "duree": "00:11:53", "horodatage": "2022-04-09 09:21:41", "marker-color": "#FF565E"}}, {"type": "Feature", "geometry": {"type": "Point", "coordinates": [2.34528, 48.845825]}, "properties": {"etat de la localisation": "Delocalise", "numparc": 1453, "duree": "00:02:23", "horodatage": "2022-04-09 09:43:55", "marker-color": "#FF565E"}}, {"type": "Feature", "geometry": {"type": "Point", "coordinates": [2.345279, 48.845772]}, "properties": {"etat de la localisation": "Delocalise", "numparc": 1458, "duree": "00:01:41", "horodatage": "2022-04-09 09:56:56", "marker-color": "#FF565E"}}, {"type": "Feature", "geometry": {"type": "Point", "coordinates": [2.328811, 48.823734]}, "properties": {"etat de la localisation": "Delocalise", "numparc": 1445, "duree": "00:14:39", "horodatage": "2022-04-09 10:02:18", "marker-color": "#FF565E"}}, {"type": "Feature", "geometry": {"type": "Point", "coordinates": [2.345109, 48.845833]}, "properties": {"etat de la localisation": "Delocalise", "numparc": 1464, "duree": "00:02:07", "horodatage": "2022-04-09 10:08:34", "marker-color": "#FF565E"}}, {"type": "Feature", "geometry": {"type": "Point", "coordinates": [2.345117, 48.845913]}, "properties": {"etat de la localisation": "Delocalise", "numparc": 1454, "duree": "00:16:55", "horodatage": "2022-04-09 10:46:54", "marker-color": "#FF565E"}}, {"type": "Feature", "geometry": {"type": "Point", "coordinates": [2.345016, 48.845791]}, "properties": {"etat de la localisation": "Delocalise", "numparc": 1473, "duree": "00:12:13", "horodatage": "2022-04-09 10:59:42", "marker-color": "#FF565E"}}, {"type": "Feature", "geometry": {"type": "Point", "coordinates": [2.346831, 48.845673]}, "properties": {"etat de la localisation": "Hors service", "numparc": 1473, "duree": "", "horodatage": "2022-04-09 11:11:55", "marker-color": "#707070"}}, {"type": "Feature", "geometry": {"type": "Point", "coordinates": [2.345163, 48.845818]}, "properties": {"etat de la localisation": "Delocalise", "numparc": 1453, "duree": "00:08:23", "horodatage": "2022-04-09 11:25:30", "marker-color": "#FF565E"}}, {"type": "Feature", "geometry": {"type": "Point", "coordinates": [2.345291, 48.845932]}, "properties": {"etat de la localisation": "Delocalise", "numparc": 1458, "duree": "00:15:33", "horodatage": "2022-04-09 11:34:54", "marker-color": "#FF565E"}}, {"type": "Feature", "geometry": {"type": "Point", "coordinates": [2.345151, 48.845772]}, "properties": {"etat de la localisation": "Delocalise", "numparc": 1464, "duree": "00:02:23", "horodatage": "2022-04-09 11:48:31", "marker-color": "#FF565E"}}, {"type": "Feature", "geometry": {"type": "Point", "coordinates": [2.345153, 48.845802]}, "properties": {"etat de la localisation": "Delocalise", "numparc": 1445, "duree": "00:09:11", "horodatage": "2022-04-09 12:08:31", "marker-color": "#FF565E"}}, {"type": "Feature", "geometry": {"type": "Point", "coordinates": [2.329066, 48.822689]}, "properties": {"etat de la localisation": "Delocalise", "numparc": 1399, "duree": "00:02:45", "horodatage": "2022-04-09 12:23:27", "marker-color": "#FF565E"}}, {"type": "Feature", "geometry": {"type": "Point", "coordinates": [2.328333, 48.823288]}, "properties": {"etat de la localisation": "Hors service", "numparc": 1399, "duree": "", "horodatage": "2022-04-09 12:26:12", "marker-color": "#707070"}}, {"type": "Feature", "geometry": {"type": "Point", "coordinates": [2.345427, 48.84581]}, "properties": {"etat de la localisation": "Delocalise", "numparc": 1454, "duree": "00:02:51", "horodatage": "2022-04-09 12:34:19", "marker-color": "#FF565E"}}, {"type": "Feature", "geometry": {"type": "Point", "coordinates": [2.346939, 48.845936]}, "properties": {"etat de la localisation": "Hors service", "numparc": 1454, "duree": "", "horodatage": "2022-04-09 12:37:10", "marker-color": "#707070"}}, {"type": "Feature", "geometry": {"type": "Point", "coordinates": [2.345275, 48.84581]}, "properties": {"etat de la localisation": "Delocalise", "numparc": 1473, "duree": "00:13:03", "horodatage": "2022-04-09 12:50:41", "marker-color": "#FF565E"}}, {"type": "Feature", "geometry": {"type": "Point", "coordinates": [2.34687, 48.845673]}, "properties": {"etat de la localisation": "Hors service", "numparc": 1473, "duree": "", "horodatage": "2022-04-09 13:03:44", "marker-color": "#707070"}}, {"type": "Feature", "geometry": {"type": "Point", "coordinates": [2.346939, 48.845936]}, "properties": {"etat de la localisation": "Hors service", "numparc": 1454, "duree": "", "horodatage": "2022-04-09 13:05:19", "marker-color": "#707070"}}, {"type": "Feature", "geometry": {"type": "Point", "coordinates": [2.347113, 48.845608]}, "properties": {"etat de la localisation": "Hors service", "numparc": 1473, "duree": "", "horodatage": "2022-04-09 13:07:21", "marker-color": "#707070"}}, {"type": "Feature", "geometry": {"type": "Point", "coordinates": [2.345185, 48.84584]}, "properties": {"etat de la localisation": "Delocalise", "numparc": 1453, "duree": "00:16:19", "horodatage": "2022-04-09 13:11:55", "marker-color": "#FF565E"}}, {"type": "Feature", "geometry": {"type": "Point", "coordinates": [2.329578, 48.822834]}, "properties": {"etat de la localisation": "Delocalise", "numparc": 1468, "duree": "00:01:36", "horodatage": "2022-04-09 13:23:45", "marker-color": "#FF565E"}}, {"type": "Feature", "geometry": {"type": "Point", "coordinates": [2.345205, 48.845818]}, "properties": {"etat de la localisation": "Delocalise", "numparc": 1458, "duree": "00:09:41", "horodatage": "2022-04-09 13:28:05", "marker-color": "#FF565E"}}, {"type": "Feature", "geometry": {"type": "Point", "coordinates": [2.345134, 48.845783]}, "properties": {"etat de la localisation": "Delocalise", "numparc": 1464, "duree": "00:07:23", "horodatage": "2022-04-09 13:33:56", "marker-color": "#FF565E"}}, {"type": "Feature", "geometry": {"type": "Point", "coordinates": [2.345209, 48.84584]}, "properties": {"etat de la localisation": "Delocalise", "numparc": 1445, "duree": "00:23:06", "horodatage": "2022-04-09 13:54:45", "marker-color": "#FF565E"}}, {"type": "Feature", "geometry": {"type": "Point", "coordinates": [2.346994, 48.845936]}, "properties": {"etat de la localisation": "Mission inconnue", "numparc": 1445, "duree": "", "horodatage": "2022-04-09 14:17:51", "marker-color": "#FF9F56"}}, {"type": "Feature", "geometry": {"type": "Point", "coordinates": [2.343294, 48.846848]}, "properties": {"etat de la localisation": "Delocalise", "numparc": 1445, "duree": "00:02:43", "horodatage": "2022-04-09 14:20:29", "marker-color": "#FF565E"}}, {"type": "Feature", "geometry": {"type": "Point", "coordinates": [2.345318, 48.84581]}, "properties": {"etat de la localisation": "Delocalise", "numparc": 1399, "duree": "00:02:36", "horodatage": "2022-04-09 14:31:18", "marker-color": "#FF565E"}}, {"type": "Feature", "geometry": {"type": "Point", "coordinates": [2.306017, 48.875011]}, "properties": {"etat de la localisation": "Delocalise", "numparc": 1445, "duree": "00:04:30", "horodatage": "2022-04-09 14:56:01", "marker-color": "#FF565E"}}, {"type": "Feature", "geometry": {"type": "Point", "coordinates": [2.345191, 48.845802]}, "properties": {"etat de la localisation": "Delocalise", "numparc": 1473, "duree": "00:09:59", "horodatage": "2022-04-09 15:17:45", "marker-color": "#FF565E"}}, {"type": "Feature", "geometry": {"type": "Point", "coordinates": [2.345053, 48.845894]}, "properties": {"etat de la localisation": "Delocalise", "numparc": 1453, "duree": "00:11:14", "horodatage": "2022-04-09 15:17:47", "marker-color": "#FF565E"}}, {"type": "Feature", "geometry": {"type": "Point", "coordinates": [2.345153, 48.845837]}, "properties": {"etat de la localisation": "Delocalise", "numparc": 1458, "duree": "00:12:43", "horodatage": "2022-04-09 15:28:07", "marker-color": "#FF565E"}}, {"type": "Feature", "geometry": {"type": "Point", "coordinates": [2.343724, 48.846653]}, "properties": {"etat de la localisation": "Mission suivante non connue", "numparc": 1468, "duree": "", "horodatage": "2022-04-09 15:39:55", "marker-color": "#7156FF"}}, {"type": "Feature", "geometry": {"type": "Point", "coordinates": [2.344329, 48.846546]}, "properties": {"etat de la localisation": "Mission suivante non connue", "numparc": 1468, "duree": "", "horodatage": "2022-04-09 15:40:33", "marker-color": "#7156FF"}}, {"type": "Feature", "geometry": {"type": "Point", "coordinates": [2.345086, 48.845768]}, "properties": {"etat de la localisation": "Delocalise", "numparc": 1464, "duree": "00:01:34", "horodatage": "2022-04-09 15:46:40", "marker-color": "#FF565E"}}, {"type": "Feature", "geometry": {"type": "Point", "coordinates": [2.345105, 48.845764]}, "properties": {"etat de la localisation": "Delocalise", "numparc": 1445, "duree": "00:17:54", "horodatage": "2022-04-09 16:01:08", "marker-color": "#FF565E"}}, {"type": "Feature", "geometry": {"type": "Point", "coordinates": [2.345078, 48.845837]}, "properties": {"etat de la localisation": "Delocalise", "numparc": 1399, "duree": "00:04:44", "horodatage": "2022-04-09 16:25:27", "marker-color": "#FF565E"}}, {"type": "Feature", "geometry": {"type": "Point", "coordinates": [2.345031, 48.845886]}, "properties": {"etat de la localisation": "Delocalise", "numparc": 1454, "duree": "00:27:40", "horodatage": "2022-04-09 16:51:03", "marker-color": "#FF565E"}}, {"type": "Feature", "geometry": {"type": "Point", "coordinates": [2.329453, 48.823471]}, "properties": {"etat de la localisation": "Hors service", "numparc": 1453, "duree": "", "horodatage": "2022-04-09 17:22:18", "marker-color": "#707070"}}, {"type": "Feature", "geometry": {"type": "Point", "coordinates": [2.345278, 48.845829]}, "properties": {"etat de la localisation": "Delocalise", "numparc": 1473, "duree": "00:09:44", "horodatage": "2022-04-09 17:29:51", "marker-color": "#FF565E"}}, {"type": "Feature", "geometry": {"type": "Point", "coordinates": [2.344959, 48.845844]}, "properties": {"etat de la localisation": "Delocalise", "numparc": 1458, "duree": "00:15:55", "horodatage": "2022-04-09 17:30:01", "marker-color": "#FF565E"}}, {"type": "Feature", "geometry": {"type": "Point", "coordinates": [2.345296, 48.845837]}, "properties": {"etat de la localisation": "Delocalise", "numparc": 1468, "duree": "00:14:26", "horodatage": "2022-04-09 17:34:34", "marker-color": "#FF565E"}}, {"type": "Feature", "geometry": {"type": "Point", "coordinates": [2.345239, 48.845768]}, "properties": {"etat de la localisation": "Delocalise", "numparc": 1464, "duree": "00:21:08", "horodatage": "2022-04-09 17:47:23", "marker-color": "#FF565E"}}, {"type": "Feature", "geometry": {"type": "Point", "coordinates": [2.345099, 48.845821]}, "properties": {"etat de la localisation": "Delocalise", "numparc": 1445, "duree": "00:17:46", "horodatage": "2022-04-09 18:09:02", "marker-color": "#FF565E"}}, {"type": "Feature", "geometry": {"type": "Point", "coordinates": [2.345208, 48.845795]}, "properties": {"etat de la localisation": "Delocalise", "numparc": 1399, "duree": "00:06:54", "horodatage": "2022-04-09 18:24:36", "marker-color": "#FF565E"}}, {"type": "Feature", "geometry": {"type": "Point", "coordinates": [2.340033, 48.847656]}, "properties": {"etat de la localisation": "Mission suivante non connue", "numparc": 1473, "duree": "", "horodatage": "2022-04-09 19:10:53", "marker-color": "#7156FF"}}, {"type": "Feature", "geometry": {"type": "Point", "coordinates": [2.345337, 48.845802]}, "properties": {"etat de la localisation": "Delocalise", "numparc": 1454, "duree": "00:11:13", "horodatage": "2022-04-09 19:15:25", "marker-color": "#FF565E"}}, {"type": "Feature", "geometry": {"type": "Point", "coordinates": [2.345285, 48.845867]}, "properties": {"etat de la localisation": "Delocalise", "numparc": 1468, "duree": "00:09:19", "horodatage": "2022-04-09 19:20:54", "marker-color": "#FF565E"}}, {"type": "Feature", "geometry": {"type": "Point", "coordinates": [2.293847, 48.892574]}, "properties": {"etat de la localisation": "Delocalise", "numparc": 1445, "duree": "00:12:22", "horodatage": "2022-04-09 19:21:10", "marker-color": "#FF565E"}}, {"type": "Feature", "geometry": {"type": "Point", "coordinates": [2.32879, 48.823147]}, "properties": {"etat de la localisation": "Hors service", "numparc": 1473, "duree": "", "horodatage": "2022-04-09 19:32:11", "marker-color": "#707070"}}, {"type": "Feature", "geometry": {"type": "Point", "coordinates": [2.308596, 48.875603]}, "properties": {"etat de la localisation": "Delocalise", "numparc": 1445, "duree": "00:12:09", "horodatage": "2022-04-09 19:50:00", "marker-color": "#FF565E"}}, {"type": "Feature", "geometry": {"type": "Point", "coordinates": [2.328498, 48.823322]}, "properties": {"etat de la localisation": "Hors service", "numparc": 1458, "duree": "", "horodatage": "2022-04-09 20:09:05", "marker-color": "#707070"}}, {"type": "Feature", "geometry": {"type": "Point", "coordinates": [2.328641, 48.823849]}, "properties": {"etat de la localisation": "Hors service", "numparc": 1464, "duree": "", "horodatage": "2022-04-09 20:11:05", "marker-color": "#707070"}}, {"type": "Feature", "geometry": {"type": "Point", "coordinates": [2.345118, 48.845802]}, "properties": {"etat de la localisation": "Delocalise", "numparc": 1399, "duree": "00:06:22", "horodatage": "2022-04-09 20:29:22", "marker-color": "#FF565E"}}, {"type": "Feature", "geometry": {"type": "Point", "coordinates": [2.329662, 48.822533]}, "properties": {"etat de la localisation": "Hors service", "numparc": 1445, "duree": "", "horodatage": "2022-04-09 20:37:30", "marker-color": "#707070"}}, {"type": "Feature", "geometry": {"type": "Point", "coordinates": [2.345178, 48.845707]}, "properties": {"etat de la localisation": "Delocalise", "numparc": 1468, "duree": "00:13:55", "horodatage": "2022-04-09 21:15:51", "marker-color": "#FF565E"}}, {"type": "Feature", "geometry": {"type": "Point", "coordinates": [2.328783, 48.823025]}, "properties": {"etat de la localisation": "Hors service", "numparc": 1454, "duree": "", "horodatage": "2022-04-09 21:19:12", "marker-color": "#707070"}}, {"type": "Feature", "geometry": {"type": "Point", "coordinates": [2.345405, 48.845768]}, "properties": {"etat de la localisation": "Delocalise", "numparc": 1399, "duree": "00:05:18", "horodatage": "2022-04-09 22:18:39", "marker-color": "#FF565E"}}, {"type": "Feature", "geometry": {"type": "Point", "coordinates": [2.345973, 48.845592]}, "properties": {"etat de la localisation": "Delocalise", "numparc": 1468, "duree": "00:12:04", "horodatage": "2022-04-09 22:58:22", "marker-color": "#FF565E"}}, {"type": "Feature", "geometry": {"type": "Point", "coordinates": [2.345237, 48.845802]}, "properties": {"etat de la localisation": "Delocalise", "numparc": 1399, "duree": "00:14:48", "horodatage": "2022-04-09 23:53:20", "marker-color": "#FF565E"}}, {"type": "Feature", "geometry": {"type": "Point", "coordinates": [2.329628, 48.82275]}, "properties": {"etat de la localisation": "Hors service", "numparc": 1468, "duree": "", "horodatage": "2022-04-10 00:50:50", "marker-color": "#707070"}}, {"type": "Feature", "geometry": {"type": "Point", "coordinates": [2.328677, 48.823444]}, "properties": {"etat de la localisation": "Hors service", "numparc": 1399, "duree": "", "horodatage": "2022-04-10 01:15:30", "marker-color": "#707070"}}]}