{"type": "FeatureCollection", "features": [{"type": "Feature", "geometry": {"type": "Point", "coordinates": [2.404006, 48.886078]}, "properties": {"etat de la localisation": "Deviation programmee", "numparc": 5678, "duree": "", "horodatage": "2022-03-08 05:50:21", "marker-color": "#56FF93"}}, {"type": "Feature", "geometry": {"type": "Point", "coordinates": [2.403927, 48.886086]}, "properties": {"etat de la localisation": "Deviation programmee", "numparc": 5641, "duree": "", "horodatage": "2022-03-08 06:26:18", "marker-color": "#56FF93"}}, {"type": "Feature", "geometry": {"type": "Point", "coordinates": [2.369781, 48.910927]}, "properties": {"etat de la localisation": "Delocalise", "numparc": 5652, "duree": "00:15:02", "horodatage": "2022-03-08 06:34:12", "marker-color": "#FF565E"}}, {"type": "Feature", "geometry": {"type": "Point", "coordinates": [2.369781, 48.910927]}, "properties": {"etat de la localisation": "Hors service", "numparc": 5652, "duree": "", "horodatage": "2022-03-08 06:49:14", "marker-color": "#707070"}}, {"type": "Feature", "geometry": {"type": "Point", "coordinates": [2.369781, 48.910927]}, "properties": {"etat de la localisation": "Delocalise", "numparc": 5652, "duree": "00:02:04", "horodatage": "2022-03-08 06:51:08", "marker-color": "#FF565E"}}, {"type": "Feature", "geometry": {"type": "Point", "coordinates": [2.366409, 48.926373]}, "properties": {"etat de la localisation": "Delocalise", "numparc": 5641, "duree": "00:00:42", "horodatage": "2022-03-08 07:28:55", "marker-color": "#FF565E"}}, {"type": "Feature", "geometry": {"type": "Point", "coordinates": [2.354239, 48.92865]}, "properties": {"etat de la localisation": "Mission inconnue", "numparc": 5641, "duree": "", "horodatage": "2022-03-08 07:36:31", "marker-color": "#FF9F56"}}, {"type": "Feature", "geometry": {"type": "Point", "coordinates": [2.353108, 48.928043]}, "properties": {"etat de la localisation": "Delocalise", "numparc": 5641, "duree": "00:01:38", "horodatage": "2022-03-08 07:37:53", "marker-color": "#FF565E"}}, {"type": "Feature", "geometry": {"type": "Point", "coordinates": [2.347039, 48.934925]}, "properties": {"etat de la localisation": "Mission suivante non connue", "numparc": 5641, "duree": "", "horodatage": "2022-03-08 07:39:31", "marker-color": "#7156FF"}}, {"type": "Feature", "geometry": {"type": "Point", "coordinates": [2.403968, 48.886066]}, "properties": {"etat de la localisation": "Deviation programmee", "numparc": 5678, "duree": "", "horodatage": "2022-03-08 07:57:07", "marker-color": "#56FF93"}}, {"type": "Feature", "geometry": {"type": "Point", "coordinates": [2.403963, 48.886032]}, "properties": {"etat de la localisation": "Deviation programmee", "numparc": 5652, "duree": "", "horodatage": "2022-03-08 08:04:03", "marker-color": "#56FF93"}}, {"type": "Feature", "geometry": {"type": "Point", "coordinates": [2.403948, 48.886093]}, "properties": {"etat de la localisation": "Deviation programmee", "numparc": 5641, "duree": "", "horodatage": "2022-03-08 08:44:00", "marker-color": "#56FF93"}}, {"type": "Feature", "geometry": {"type": "Point", "coordinates": [2.399749, 48.890499]}, "properties": {"etat de la localisation": "Delocalise", "numparc": 5652, "duree": "00:03:21", "horodatage": "2022-03-08 09:08:18", "marker-color": "#FF565E"}}, {"type": "Feature", "geometry": {"type": "Point", "coordinates": [2.408565, 48.877155]}, "properties": {"etat de la localisation": "Mission suivante non connue", "numparc": 5641, "duree": "", "horodatage": "2022-03-08 09:08:46", "marker-color": "#7156FF"}}, {"type": "Feature", "geometry": {"type": "Point", "coordinates": [2.381641, 48.914429]}, "properties": {"etat de la localisation": "Mission suivante non connue", "numparc": 5652, "duree": "", "horodatage": "2022-03-08 09:30:58", "marker-color": "#7156FF"}}, {"type": "Feature", "geometry": {"type": "Point", "coordinates": [2.377509, 48.920357]}, "properties": {"etat de la localisation": "Mission inconnue", "numparc": 5652, "duree": "", "horodatage": "2022-03-08 09:35:30", "marker-color": "#FF9F56"}}, {"type": "Feature", "geometry": {"type": "Point", "coordinates": [2.40396, 48.886093]}, "properties": {"etat de la localisation": "Deviation programmee", "numparc": 5652, "duree": "", "horodatage": "2022-03-08 10:19:58", "marker-color": "#56FF93"}}, {"type": "Feature", "geometry": {"type": "Point", "coordinates": [2.346864, 48.934959]}, "properties": {"etat de la localisation": "Mission suivante non connue", "numparc": 5641, "duree": "", "horodatage": "2022-03-08 10:29:00", "marker-color": "#7156FF"}}, {"type": "Feature", "geometry": {"type": "Point", "coordinates": [2.349774, 48.93116]}, "properties": {"etat de la localisation": "Delocalise", "numparc": 5641, "duree": "00:01:38", "horodatage": "2022-03-08 10:34:03", "marker-color": "#FF565E"}}, {"type": "Feature", "geometry": {"type": "Point", "coordinates": [2.369291, 48.923683]}, "properties": {"etat de la localisation": "Mission inconnue", "numparc": 5641, "duree": "", "horodatage": "2022-03-08 10:44:41", "marker-color": "#FF9F56"}}, {"type": "Feature", "geometry": {"type": "Point", "coordinates": [2.401409, 48.890953]}, "properties": {"etat de la localisation": "Delocalise", "numparc": 5678, "duree": "00:03:34", "horodatage": "2022-03-08 10:45:35", "marker-color": "#FF565E"}}, {"type": "Feature", "geometry": {"type": "Point", "coordinates": [2.40224, 48.885574]}, "properties": {"etat de la localisation": "Delocalise", "numparc": 5641, "duree": "00:05:01", "horodatage": "2022-03-08 11:27:44", "marker-color": "#FF565E"}}, {"type": "Feature", "geometry": {"type": "Point", "coordinates": [2.408452, 48.877163]}, "properties": {"etat de la localisation": "Mission suivante non connue", "numparc": 5641, "duree": "", "horodatage": "2022-03-08 11:39:20", "marker-color": "#7156FF"}}, {"type": "Feature", "geometry": {"type": "Point", "coordinates": [2.403923, 48.886055]}, "properties": {"etat de la localisation": "Deviation programmee", "numparc": 5678, "duree": "", "horodatage": "2022-03-08 12:44:51", "marker-color": "#56FF93"}}, {"type": "Feature", "geometry": {"type": "Point", "coordinates": [2.347019, 48.934933]}, "properties": {"etat de la localisation": "Mission suivante non connue", "numparc": 5641, "duree": "", "horodatage": "2022-03-08 12:54:02", "marker-color": "#7156FF"}}, {"type": "Feature", "geometry": {"type": "Point", "coordinates": [2.403968, 48.886063]}, "properties": {"etat de la localisation": "Deviation programmee", "numparc": 5652, "duree": "", "horodatage": "2022-03-08 13:04:04", "marker-color": "#56FF93"}}, {"type": "Feature", "geometry": {"type": "Point", "coordinates": [2.402182, 48.885601]}, "properties": {"etat de la localisation": "Delocalise", "numparc": 5641, "duree": "00:03:30", "horodatage": "2022-03-08 13:44:53", "marker-color": "#FF565E"}}, {"type": "Feature", "geometry": {"type": "Point", "coordinates": [2.408314, 48.877453]}, "properties": {"etat de la localisation": "Mission suivante non connue", "numparc": 5641, "duree": "", "horodatage": "2022-03-08 13:55:31", "marker-color": "#7156FF"}}, {"type": "Feature", "geometry": {"type": "Point", "coordinates": [2.34759, 48.933933]}, "properties": {"etat de la localisation": "Hors service", "numparc": 5652, "duree": "", "horodatage": "2022-03-08 14:32:04", "marker-color": "#707070"}}, {"type": "Feature", "geometry": {"type": "Point", "coordinates": [2.403957, 48.886047]}, "properties": {"etat de la localisation": "Deviation programmee", "numparc": 5678, "duree": "", "horodatage": "2022-03-08 15:04:00", "marker-color": "#56FF93"}}, {"type": "Feature", "geometry": {"type": "Point", "coordinates": [2.347009, 48.934937]}, "properties": {"etat de la localisation": "Mission suivante non connue", "numparc": 5641, "duree": "", "horodatage": "2022-03-08 15:08:11", "marker-color": "#7156FF"}}, {"type": "Feature", "geometry": {"type": "Point", "coordinates": [2.403986, 48.886086]}, "properties": {"etat de la localisation": "Deviation programmee", "numparc": 5652, "duree": "", "horodatage": "2022-03-08 15:23:36", "marker-color": "#56FF93"}}, {"type": "Feature", "geometry": {"type": "Point", "coordinates": [2.384766, 48.911049]}, "properties": {"etat de la localisation": "Mission inconnue", "numparc": 5641, "duree": "", "horodatage": "2022-03-08 15:45:51", "marker-color": "#FF9F56"}}, {"type": "Feature", "geometry": {"type": "Point", "coordinates": [2.402218, 48.885544]}, "properties": {"etat de la localisation": "Delocalise", "numparc": 5641, "duree": "00:03:30", "horodatage": "2022-03-08 16:08:28", "marker-color": "#FF565E"}}, {"type": "Feature", "geometry": {"type": "Point", "coordinates": [2.408523, 48.87719]}, "properties": {"etat de la localisation": "Mission suivante non connue", "numparc": 5641, "duree": "", "horodatage": "2022-03-08 16:20:38", "marker-color": "#7156FF"}}, {"type": "Feature", "geometry": {"type": "Point", "coordinates": [2.347297, 48.934216]}, "properties": {"etat de la localisation": "Hors service", "numparc": 5652, "duree": "", "horodatage": "2022-03-08 17:03:05", "marker-color": "#707070"}}, {"type": "Feature", "geometry": {"type": "Point", "coordinates": [2.347031, 48.93494]}, "properties": {"etat de la localisation": "Mission suivante non connue", "numparc": 5641, "duree": "", "horodatage": "2022-03-08 17:39:55", "marker-color": "#7156FF"}}, {"type": "Feature", "geometry": {"type": "Point", "coordinates": [2.403943, 48.886097]}, "properties": {"etat de la localisation": "Deviation programmee", "numparc": 5678, "duree": "", "horodatage": "2022-03-08 17:43:40", "marker-color": "#56FF93"}}, {"type": "Feature", "geometry": {"type": "Point", "coordinates": [2.408683, 48.877926]}, "properties": {"etat de la localisation": "Delocalise", "numparc": 5678, "duree": "00:23:13", "horodatage": "2022-03-08 17:54:20", "marker-color": "#FF565E"}}, {"type": "Feature", "geometry": {"type": "Point", "coordinates": [2.403899, 48.886093]}, "properties": {"etat de la localisation": "Deviation programmee", "numparc": 5652, "duree": "", "horodatage": "2022-03-08 18:04:24", "marker-color": "#56FF93"}}, {"type": "Feature", "geometry": {"type": "Point", "coordinates": [2.37165, 48.910484]}, "properties": {"etat de la localisation": "Hors service", "numparc": 5678, "duree": "", "horodatage": "2022-03-08 18:17:33", "marker-color": "#707070"}}, {"type": "Feature", "geometry": {"type": "Point", "coordinates": [2.402144, 48.885643]}, "properties": {"etat de la localisation": "Delocalise", "numparc": 5641, "duree": "00:03:24", "horodatage": "2022-03-08 18:56:24", "marker-color": "#FF565E"}}, {"type": "Feature", "geometry": {"type": "Point", "coordinates": [2.408543, 48.87714]}, "properties": {"etat de la localisation": "Mission suivante non connue", "numparc": 5641, "duree": "", "horodatage": "2022-03-08 19:07:15", "marker-color": "#7156FF"}}, {"type": "Feature", "geometry": {"type": "Point", "coordinates": [2.34704, 48.934917]}, "properties": {"etat de la localisation": "Mission suivante non connue", "numparc": 5641, "duree": "", "horodatage": "2022-03-08 20:09:01", "marker-color": "#7156FF"}}, {"type": "Feature", "geometry": {"type": "Point", "coordinates": [2.403952, 48.886044]}, "properties": {"etat de la localisation": "Deviation programmee", "numparc": 5652, "duree": "", "horodatage": "2022-03-08 20:31:55", "marker-color": "#56FF93"}}, {"type": "Feature", "geometry": {"type": "Point", "coordinates": [2.402224, 48.885727]}, "properties": {"etat de la localisation": "Delocalise", "numparc": 5641, "duree": "00:02:55", "horodatage": "2022-03-08 21:08:02", "marker-color": "#FF565E"}}, {"type": "Feature", "geometry": {"type": "Point", "coordinates": [2.408568, 48.877159]}, "properties": {"etat de la localisation": "Mission suivante non connue", "numparc": 5641, "duree": "", "horodatage": "2022-03-08 21:15:14", "marker-color": "#7156FF"}}, {"type": "Feature", "geometry": {"type": "Point", "coordinates": [2.368659, 48.910938]}, "properties": {"etat de la localisation": "Hors service", "numparc": 5652, "duree": "", "horodatage": "2022-03-08 21:56:41", "marker-color": "#707070"}}, {"type": "Feature", "geometry": {"type": "Point", "coordinates": [2.347039, 48.934929]}, "properties": {"etat de la localisation": "Mission suivante non connue", "numparc": 5641, "duree": "", "horodatage": "2022-03-08 22:03:07", "marker-color": "#7156FF"}}, {"type": "Feature", "geometry": {"type": "Point", "coordinates": [2.369174, 48.911301]}, "properties": {"etat de la localisation": "Hors service", "numparc": 5641, "duree": "", "horodatage": "2022-03-08 22:20:11", "marker-color": "#707070"}}]}