{"type": "FeatureCollection", "features": [{"type": "Feature", "geometry": {"type": "Point", "coordinates": [2.357953, 48.87598]}, "properties": {"etat de la localisation": "Mission suivante non connue", "numparc": 621, "duree": "", "horodatage": "2022-02-22 02:48:55", "marker-color": "#7156FF"}}, {"type": "Feature", "geometry": {"type": "Point", "coordinates": [2.357901, 48.875916]}, "properties": {"etat de la localisation": "Mission suivante non connue", "numparc": 625, "duree": "", "horodatage": "2022-02-22 03:05:01", "marker-color": "#7156FF"}}, {"type": "Feature", "geometry": {"type": "Point", "coordinates": [2.369537, 48.852062]}, "properties": {"etat de la localisation": "Delocalise", "numparc": 621, "duree": "00:01:14", "horodatage": "2022-02-22 03:23:09", "marker-color": "#FF565E"}}, {"type": "Feature", "geometry": {"type": "Point", "coordinates": [2.36956, 48.85207]}, "properties": {"etat de la localisation": "Delocalise", "numparc": 625, "duree": "00:00:57", "horodatage": "2022-02-22 03:32:30", "marker-color": "#FF565E"}}, {"type": "Feature", "geometry": {"type": "Point", "coordinates": [2.358176, 48.876083]}, "properties": {"etat de la localisation": "Mission suivante non connue", "numparc": 621, "duree": "", "horodatage": "2022-02-22 04:13:56", "marker-color": "#7156FF"}}, {"type": "Feature", "geometry": {"type": "Point", "coordinates": [2.358175, 48.876087]}, "properties": {"etat de la localisation": "Mission suivante non connue", "numparc": 621, "duree": "", "horodatage": "2022-02-22 04:14:04", "marker-color": "#7156FF"}}, {"type": "Feature", "geometry": {"type": "Point", "coordinates": [2.359452, 48.875923]}, "properties": {"etat de la localisation": "Delocalise", "numparc": 621, "duree": "00:01:23", "horodatage": "2022-02-22 04:16:09", "marker-color": "#FF565E"}}, {"type": "Feature", "geometry": {"type": "Point", "coordinates": [2.357869, 48.875847]}, "properties": {"etat de la localisation": "Mission suivante non connue", "numparc": 625, "duree": "", "horodatage": "2022-02-22 04:23:03", "marker-color": "#7156FF"}}, {"type": "Feature", "geometry": {"type": "Point", "coordinates": [2.358132, 48.873917]}, "properties": {"etat de la localisation": "Delocalise", "numparc": 621, "duree": "00:27:53", "horodatage": "2022-02-22 04:31:53", "marker-color": "#FF565E"}}, {"type": "Feature", "geometry": {"type": "Point", "coordinates": [2.369491, 48.85207]}, "properties": {"etat de la localisation": "Delocalise", "numparc": 625, "duree": "00:01:43", "horodatage": "2022-02-22 04:57:41", "marker-color": "#FF565E"}}, {"type": "Feature", "geometry": {"type": "Point", "coordinates": [2.32028, 48.841904]}, "properties": {"etat de la localisation": "Mission suivante non connue", "numparc": 621, "duree": "", "horodatage": "2022-02-22 05:00:57", "marker-color": "#7156FF"}}, {"type": "Feature", "geometry": {"type": "Point", "coordinates": [2.321135, 48.842396]}, "properties": {"etat de la localisation": "Delocalise", "numparc": 621, "duree": "00:00:32", "horodatage": "2022-02-22 05:02:28", "marker-color": "#FF565E"}}, {"type": "Feature", "geometry": {"type": "Point", "coordinates": [2.324371, 48.843716]}, "properties": {"etat de la localisation": "Delocalise", "numparc": 621, "duree": "00:01:29", "horodatage": "2022-02-22 05:04:16", "marker-color": "#FF565E"}}, {"type": "Feature", "geometry": {"type": "Point", "coordinates": [2.330072, 48.850407]}, "properties": {"etat de la localisation": "Delocalise", "numparc": 621, "duree": "00:00:55", "horodatage": "2022-02-22 05:06:26", "marker-color": "#FF565E"}}, {"type": "Feature", "geometry": {"type": "Point", "coordinates": [2.333698, 48.854786]}, "properties": {"etat de la localisation": "Delocalise", "numparc": 621, "duree": "00:21:26", "horodatage": "2022-02-22 05:08:12", "marker-color": "#FF565E"}}, {"type": "Feature", "geometry": {"type": "Point", "coordinates": [2.347871, 48.883415]}, "properties": {"etat de la localisation": "Delocalise", "numparc": 621, "duree": "00:01:43", "horodatage": "2022-02-22 05:31:06", "marker-color": "#FF565E"}}, {"type": "Feature", "geometry": {"type": "Point", "coordinates": [2.352948, 48.87973]}, "properties": {"etat de la localisation": "Delocalise", "numparc": 621, "duree": "00:03:48", "horodatage": "2022-02-22 05:33:40", "marker-color": "#FF565E"}}, {"type": "Feature", "geometry": {"type": "Point", "coordinates": [2.358713, 48.874931]}, "properties": {"etat de la localisation": "Delocalise", "numparc": 621, "duree": "00:01:16", "horodatage": "2022-02-22 05:39:12", "marker-color": "#FF565E"}}, {"type": "Feature", "geometry": {"type": "Point", "coordinates": [2.407327, 48.849937]}, "properties": {"etat de la localisation": "Hors service", "numparc": 621, "duree": "", "horodatage": "2022-02-22 05:59:20", "marker-color": "#707070"}}, {"type": "Feature", "geometry": {"type": "Point", "coordinates": [2.407096, 48.850361]}, "properties": {"etat de la localisation": "Hors service", "numparc": 625, "duree": "", "horodatage": "2022-02-22 06:10:32", "marker-color": "#707070"}}, {"type": "Feature", "geometry": {"type": "Point", "coordinates": [2.407626, 48.849522]}, "properties": {"etat de la localisation": "Delocalise", "numparc": 634, "duree": "00:02:46", "horodatage": "2022-02-23 00:02:17", "marker-color": "#FF565E"}}, {"type": "Feature", "geometry": {"type": "Point", "coordinates": [2.40808, 48.84967]}, "properties": {"etat de la localisation": "Delocalise", "numparc": 648, "duree": "00:20:30", "horodatage": "2022-02-23 00:26:46", "marker-color": "#FF565E"}}, {"type": "Feature", "geometry": {"type": "Point", "coordinates": [2.357426, 48.876251]}, "properties": {"etat de la localisation": "Mission suivante non connue", "numparc": 634, "duree": "", "horodatage": "2022-02-23 01:27:09", "marker-color": "#7156FF"}}, {"type": "Feature", "geometry": {"type": "Point", "coordinates": [2.357823, 48.875813]}, "properties": {"etat de la localisation": "Mission suivante non connue", "numparc": 634, "duree": "", "horodatage": "2022-02-23 01:27:43", "marker-color": "#7156FF"}}, {"type": "Feature", "geometry": {"type": "Point", "coordinates": [2.369576, 48.852047]}, "properties": {"etat de la localisation": "Delocalise", "numparc": 634, "duree": "00:02:01", "horodatage": "2022-02-23 02:00:26", "marker-color": "#FF565E"}}, {"type": "Feature", "geometry": {"type": "Point", "coordinates": [2.369455, 48.852009]}, "properties": {"etat de la localisation": "Delocalise", "numparc": 648, "duree": "00:01:37", "horodatage": "2022-02-23 02:10:56", "marker-color": "#FF565E"}}]}