{"type": "FeatureCollection", "features": [{"type": "Feature", "geometry": {"type": "Point", "coordinates": [2.370987, 48.81535]}, "properties": {"numparc": 5696, "etat de la localisation": "autre", "ID BDGEO": "11", "horodatage": "2022-05-31 02:30:19", "distance (en metres)": 3356.44, "station": "GARE DE LYON-DIDEROT", "marker-color": "#818181"}}, {"type": "Feature", "geometry": {"type": "Point", "coordinates": [2.352757, 48.836964]}, "properties": {"numparc": 5697, "etat de la localisation": "autre", "ID BDGEO": "16", "horodatage": "2022-05-31 06:02:18", "distance (en metres)": 45.19, "station": "LES GOBELINS", "marker-color": "#818181"}}, {"type": "Feature", "geometry": {"type": "Point", "coordinates": [2.367082, 48.862026]}, "properties": {"numparc": 5697, "etat de la localisation": "autre", "ID BDGEO": "3", "horodatage": "2022-05-31 06:17:45", "distance (en metres)": 1102.76, "station": "BASTILLE", "marker-color": "#818181"}}, {"type": "Feature", "geometry": {"type": "Point", "coordinates": [2.360864, 48.871044]}, "properties": {"numparc": 5697, "etat de la localisation": "autre", "ID BDGEO": "3", "horodatage": "2022-05-31 06:23:35", "distance (en metres)": 2181.0, "station": "BASTILLE", "marker-color": "#818181"}}, {"type": "Feature", "geometry": {"type": "Point", "coordinates": [2.317349, 48.838444]}, "properties": {"numparc": 5697, "etat de la localisation": "autre", "ID BDGEO": "24", "horodatage": "2022-05-31 07:41:46", "distance (en metres)": 469.39, "station": "GARE MONTPARNASSE", "marker-color": "#818181"}}, {"type": "Feature", "geometry": {"type": "Point", "coordinates": [2.317007, 48.838776]}, "properties": {"numparc": 5697, "etat de la localisation": "autre", "ID BDGEO": "24", "horodatage": "2022-05-31 07:47:41", "distance (en metres)": 462.91, "station": "GARE MONTPARNASSE", "marker-color": "#818181"}}, {"type": "Feature", "geometry": {"type": "Point", "coordinates": [2.315717, 48.840652]}, "properties": {"numparc": 5697, "etat de la localisation": "autre", "ID BDGEO": "24", "horodatage": "2022-05-31 07:54:18", "distance (en metres)": 458.6, "station": "GARE MONTPARNASSE", "marker-color": "#818181"}}, {"type": "Feature", "geometry": {"type": "Point", "coordinates": [2.319721, 48.841785]}, "properties": {"numparc": 5697, "etat de la localisation": "autre", "ID BDGEO": "24", "horodatage": "2022-05-31 07:55:23", "distance (en metres)": 161.81, "station": "GARE MONTPARNASSE", "marker-color": "#818181"}}, {"type": "Feature", "geometry": {"type": "Point", "coordinates": [2.319734, 48.841782]}, "properties": {"numparc": 5697, "etat de la localisation": "autre", "ID BDGEO": "24", "horodatage": "2022-05-31 07:56:04", "distance (en metres)": 160.77, "station": "GARE MONTPARNASSE", "marker-color": "#818181"}}, {"type": "Feature", "geometry": {"type": "Point", "coordinates": [2.323786, 48.843555]}, "properties": {"numparc": 5697, "etat de la localisation": "autre", "ID BDGEO": "23", "horodatage": "2022-05-31 07:58:09", "distance (en metres)": 70.42, "station": "MONTPARNASSE-RUE DU DEPART", "marker-color": "#818181"}}, {"type": "Feature", "geometry": {"type": "Point", "coordinates": [2.334313, 48.840435]}, "properties": {"numparc": 5697, "etat de la localisation": "autre", "ID BDGEO": "20", "horodatage": "2022-05-31 08:01:39", "distance (en metres)": 93.11, "station": "CAMPAGNE PREMIERE", "marker-color": "#818181"}}, {"type": "Feature", "geometry": {"type": "Point", "coordinates": [2.340157, 48.838692]}, "properties": {"numparc": 5697, "etat de la localisation": "autre", "ID BDGEO": "18", "horodatage": "2022-05-31 08:05:28", "distance (en metres)": 89.34, "station": "PORT ROYAL-SAINT JACQUES", "marker-color": "#818181"}}, {"type": "Feature", "geometry": {"type": "Point", "coordinates": [2.34551, 48.837296]}, "properties": {"numparc": 5697, "etat de la localisation": "Deviation programmee", "ID BDGEO": "17", "horodatage": "2022-05-31 08:07:40", "distance (en metres)": 63.59, "station": "PORT ROYAL-BERTHOLLET", "marker-color": "#56FF93"}}, {"type": "Feature", "geometry": {"type": "Point", "coordinates": [2.352757, 48.836967]}, "properties": {"numparc": 5697, "etat de la localisation": "autre", "ID BDGEO": "16", "horodatage": "2022-05-31 08:12:25", "distance (en metres)": 45.27, "station": "LES GOBELINS", "marker-color": "#818181"}}, {"type": "Feature", "geometry": {"type": "Point", "coordinates": [2.352757, 48.836967]}, "properties": {"numparc": 5697, "etat de la localisation": "autre", "ID BDGEO": "16", "horodatage": "2022-05-31 08:12:55", "distance (en metres)": 45.27, "station": "LES GOBELINS", "marker-color": "#818181"}}, {"type": "Feature", "geometry": {"type": "Point", "coordinates": [2.363939, 48.842621]}, "properties": {"numparc": 5697, "etat de la localisation": "autre", "ID BDGEO": "13", "horodatage": "2022-05-31 08:18:58", "distance (en metres)": 100.18, "station": "GARE D'AUSTERLITZ", "marker-color": "#818181"}}, {"type": "Feature", "geometry": {"type": "Point", "coordinates": [2.369623, 48.845436]}, "properties": {"numparc": 5697, "etat de la localisation": "autre", "ID BDGEO": "12", "horodatage": "2022-05-31 08:21:51", "distance (en metres)": 71.65, "station": "QUAI DE LA RAPEE", "marker-color": "#818181"}}, {"type": "Feature", "geometry": {"type": "Point", "coordinates": [2.373417, 48.845764]}, "properties": {"numparc": 5697, "etat de la localisation": "autre", "ID BDGEO": "11", "horodatage": "2022-05-31 08:23:14", "distance (en metres)": 148.34, "station": "GARE DE LYON-DIDEROT", "marker-color": "#818181"}}, {"type": "Feature", "geometry": {"type": "Point", "coordinates": [2.364277, 48.843063]}, "properties": {"numparc": 5697, "etat de la localisation": "autre", "ID BDGEO": "13", "horodatage": "2022-05-31 08:41:40", "distance (en metres)": 48.01, "station": "GARE D'AUSTERLITZ", "marker-color": "#818181"}}, {"type": "Feature", "geometry": {"type": "Point", "coordinates": [2.333166, 48.840813]}, "properties": {"numparc": 5697, "etat de la localisation": "autre", "ID BDGEO": "19", "horodatage": "2022-05-31 09:02:12", "distance (en metres)": 306.69, "station": "OBSERVATOIRE-PORT ROYAL", "marker-color": "#818181"}}, {"type": "Feature", "geometry": {"type": "Point", "coordinates": [2.328911, 48.842236]}, "properties": {"numparc": 5697, "etat de la localisation": "autre", "ID BDGEO": "19", "horodatage": "2022-05-31 09:03:35", "distance (en metres)": 655.94, "station": "OBSERVATOIRE-PORT ROYAL", "marker-color": "#818181"}}, {"type": "Feature", "geometry": {"type": "Point", "coordinates": [2.324575, 48.843662]}, "properties": {"numparc": 5697, "etat de la localisation": "autre", "ID BDGEO": "19", "horodatage": "2022-05-31 09:05:13", "distance (en metres)": 1010.7, "station": "OBSERVATOIRE-PORT ROYAL", "marker-color": "#818181"}}, {"type": "Feature", "geometry": {"type": "Point", "coordinates": [2.323554, 48.842941]}, "properties": {"numparc": 5697, "etat de la localisation": "autre", "ID BDGEO": "19", "horodatage": "2022-05-31 09:08:09", "distance (en metres)": 1046.98, "station": "OBSERVATOIRE-PORT ROYAL", "marker-color": "#818181"}}, {"type": "Feature", "geometry": {"type": "Point", "coordinates": [2.321509, 48.84119]}, "properties": {"numparc": 5697, "etat de la localisation": "autre", "ID BDGEO": "19", "horodatage": "2022-05-31 09:09:05", "distance (en metres)": 1142.24, "station": "OBSERVATOIRE-PORT ROYAL", "marker-color": "#818181"}}, {"type": "Feature", "geometry": {"type": "Point", "coordinates": [2.319061, 48.837818]}, "properties": {"numparc": 5697, "etat de la localisation": "autre", "ID BDGEO": "19", "horodatage": "2022-05-31 09:11:07", "distance (en metres)": 1322.5, "station": "OBSERVATOIRE-PORT ROYAL", "marker-color": "#818181"}}, {"type": "Feature", "geometry": {"type": "Point", "coordinates": [2.371394, 48.815289]}, "properties": {"numparc": 5696, "etat de la localisation": "autre", "ID BDGEO": "11", "horodatage": "2022-05-31 14:17:37", "distance (en metres)": 3363.08, "station": "GARE DE LYON-DIDEROT", "marker-color": "#818181"}}, {"type": "Feature", "geometry": {"type": "Point", "coordinates": [2.371729, 48.815346]}, "properties": {"numparc": 5696, "etat de la localisation": "autre", "ID BDGEO": "11", "horodatage": "2022-05-31 14:24:59", "distance (en metres)": 3356.79, "station": "GARE DE LYON-DIDEROT", "marker-color": "#818181"}}, {"type": "Feature", "geometry": {"type": "Point", "coordinates": [2.371314, 48.815315]}, "properties": {"numparc": 5696, "etat de la localisation": "autre", "ID BDGEO": "11", "horodatage": "2022-05-31 17:33:54", "distance (en metres)": 3360.12, "station": "GARE DE LYON-DIDEROT", "marker-color": "#818181"}}, {"type": "Feature", "geometry": {"type": "Point", "coordinates": [2.371314, 48.815315]}, "properties": {"numparc": 5696, "etat de la localisation": "autre", "ID BDGEO": "11", "horodatage": "2022-05-31 17:37:02", "distance (en metres)": 3360.12, "station": "GARE DE LYON-DIDEROT", "marker-color": "#818181"}}, {"type": "Feature", "geometry": {"type": "Point", "coordinates": [2.371342, 48.815144]}, "properties": {"numparc": 5696, "etat de la localisation": "autre", "ID BDGEO": "11", "horodatage": "2022-05-31 17:44:06", "distance (en metres)": 3379.2, "station": "GARE DE LYON-DIDEROT", "marker-color": "#818181"}}, {"type": "Feature", "geometry": {"type": "Point", "coordinates": [2.344983, 48.837723]}, "properties": {"numparc": 5696, "etat de la localisation": "autre", "ID BDGEO": "6", "horodatage": "2022-05-31 18:32:15", "distance (en metres)": 545.18, "station": "LES GOBELINS#", "marker-color": "#818181"}}, {"type": "Feature", "geometry": {"type": "Point", "coordinates": [2.339097, 48.838997]}, "properties": {"numparc": 5696, "etat de la localisation": "autre", "ID BDGEO": "6", "horodatage": "2022-05-31 18:34:29", "distance (en metres)": 995.48, "station": "LES GOBELINS#", "marker-color": "#818181"}}, {"type": "Feature", "geometry": {"type": "Point", "coordinates": [2.339097, 48.838997]}, "properties": {"numparc": 5696, "etat de la localisation": "autre", "ID BDGEO": "6", "horodatage": "2022-05-31 18:34:39", "distance (en metres)": 995.48, "station": "LES GOBELINS#", "marker-color": "#818181"}}, {"type": "Feature", "geometry": {"type": "Point", "coordinates": [2.337017, 48.839523]}, "properties": {"numparc": 5696, "etat de la localisation": "autre", "ID BDGEO": "6", "horodatage": "2022-05-31 18:36:01", "distance (en metres)": 1157.26, "station": "LES GOBELINS#", "marker-color": "#818181"}}, {"type": "Feature", "geometry": {"type": "Point", "coordinates": [2.337017, 48.839523]}, "properties": {"numparc": 5696, "etat de la localisation": "autre", "ID BDGEO": "6", "horodatage": "2022-05-31 18:36:12", "distance (en metres)": 1157.26, "station": "LES GOBELINS#", "marker-color": "#818181"}}, {"type": "Feature", "geometry": {"type": "Point", "coordinates": [2.354224, 48.879009]}, "properties": {"numparc": 5697, "etat de la localisation": "autre", "ID BDGEO": "51", "horodatage": "2022-05-31 18:36:40", "distance (en metres)": 5234.57, "station": "MONTPARNASSE 2-GARE TGV#", "marker-color": "#818181"}}, {"type": "Feature", "geometry": {"type": "Point", "coordinates": [2.333198, 48.840816]}, "properties": {"numparc": 5696, "etat de la localisation": "autre", "ID BDGEO": "6", "horodatage": "2022-05-31 18:38:45", "distance (en metres)": 1465.28, "station": "LES GOBELINS#", "marker-color": "#818181"}}, {"type": "Feature", "geometry": {"type": "Point", "coordinates": [2.328921, 48.842239]}, "properties": {"numparc": 5696, "etat de la localisation": "autre", "ID BDGEO": "6", "horodatage": "2022-05-31 18:41:11", "distance (en metres)": 1811.88, "station": "LES GOBELINS#", "marker-color": "#818181"}}, {"type": "Feature", "geometry": {"type": "Point", "coordinates": [2.324551, 48.843674]}, "properties": {"numparc": 5696, "etat de la localisation": "autre", "ID BDGEO": "6", "horodatage": "2022-05-31 18:42:58", "distance (en metres)": 2166.62, "station": "LES GOBELINS#", "marker-color": "#818181"}}, {"type": "Feature", "geometry": {"type": "Point", "coordinates": [2.323583, 48.842976]}, "properties": {"numparc": 5696, "etat de la localisation": "autre", "ID BDGEO": "6", "horodatage": "2022-05-31 18:44:43", "distance (en metres)": 2208.52, "station": "LES GOBELINS#", "marker-color": "#818181"}}, {"type": "Feature", "geometry": {"type": "Point", "coordinates": [2.321526, 48.841286]}, "properties": {"numparc": 5696, "etat de la localisation": "autre", "ID BDGEO": "6", "horodatage": "2022-05-31 18:45:37", "distance (en metres)": 2306.01, "station": "LES GOBELINS#", "marker-color": "#818181"}}, {"type": "Feature", "geometry": {"type": "Point", "coordinates": [2.31903, 48.837837]}, "properties": {"numparc": 5696, "etat de la localisation": "autre", "ID BDGEO": "6", "horodatage": "2022-05-31 18:47:39", "distance (en metres)": 2439.88, "station": "LES GOBELINS#", "marker-color": "#818181"}}, {"type": "Feature", "geometry": {"type": "Point", "coordinates": [2.371882, 48.814152]}, "properties": {"numparc": 5697, "etat de la localisation": "autre", "ID BDGEO": "15", "horodatage": "2022-05-31 19:58:31", "distance (en metres)": 2906.48, "station": "SAINT-MARCEL-JEANNE D'ARC", "marker-color": "#818181"}}, {"type": "Feature", "geometry": {"type": "Point", "coordinates": [2.370785, 48.815296]}, "properties": {"numparc": 5697, "etat de la localisation": "autre", "ID BDGEO": "15", "horodatage": "2022-05-31 20:48:20", "distance (en metres)": 2757.95, "station": "SAINT-MARCEL-JEANNE D'ARC", "marker-color": "#818181"}}, {"type": "Feature", "geometry": {"type": "Point", "coordinates": [2.316955, 48.838795]}, "properties": {"numparc": 5702, "etat de la localisation": "autre", "ID BDGEO": "8", "horodatage": "2022-05-31 21:59:38", "distance (en metres)": 4101.03, "station": "BASTILLE#", "marker-color": "#818181"}}, {"type": "Feature", "geometry": {"type": "Point", "coordinates": [2.316951, 48.838749]}, "properties": {"numparc": 5696, "etat de la localisation": "autre", "ID BDGEO": "46", "horodatage": "2022-05-31 23:24:51", "distance (en metres)": 41.89, "station": "MONTPARNASSE 2-GARE TGV#", "marker-color": "#818181"}}, {"type": "Feature", "geometry": {"type": "Point", "coordinates": [2.316951, 48.838749]}, "properties": {"numparc": 5696, "etat de la localisation": "autre", "ID BDGEO": "46", "horodatage": "2022-05-31 23:28:48", "distance (en metres)": 41.89, "station": "MONTPARNASSE 2-GARE TGV#", "marker-color": "#818181"}}, {"type": "Feature", "geometry": {"type": "Point", "coordinates": [2.37201, 48.814213]}, "properties": {"numparc": 5696, "etat de la localisation": "autre", "ID BDGEO": "44", "horodatage": "2022-05-31 23:56:59", "distance (en metres)": 2915.84, "station": "LES GOBELINS.", "marker-color": "#818181"}}, {"type": "Feature", "geometry": {"type": "Point", "coordinates": [2.37142, 48.845533]}, "properties": {"station": "GARE DE LYON-DIDEROT", "ID BDGEO": "11", "marker-color": "#56B3FF"}}, {"type": "Feature", "geometry": {"type": "Point", "coordinates": [2.352149, 48.836891]}, "properties": {"station": "LES GOBELINS", "ID BDGEO": "16", "marker-color": "#56B3FF"}}, {"type": "Feature", "geometry": {"type": "Point", "coordinates": [2.36915, 48.852203]}, "properties": {"station": "BASTILLE", "ID BDGEO": "3", "marker-color": "#56B3FF"}}, {"type": "Feature", "geometry": {"type": "Point", "coordinates": [2.321868, 48.841439]}, "properties": {"station": "GARE MONTPARNASSE", "ID BDGEO": "24", "marker-color": "#56B3FF"}}, {"type": "Feature", "geometry": {"type": "Point", "coordinates": [2.323625, 48.842931]}, "properties": {"station": "MONTPARNASSE-RUE DU DEPART", "ID BDGEO": "23", "marker-color": "#56B3FF"}}, {"type": "Feature", "geometry": {"type": "Point", "coordinates": [2.333156, 48.840784]}, "properties": {"station": "CAMPAGNE PREMIERE", "ID BDGEO": "20", "marker-color": "#56B3FF"}}, {"type": "Feature", "geometry": {"type": "Point", "coordinates": [2.339038, 48.839013]}, "properties": {"station": "PORT ROYAL-SAINT JACQUES", "ID BDGEO": "18", "marker-color": "#56B3FF"}}, {"type": "Feature", "geometry": {"type": "Point", "coordinates": [2.344974, 48.837746]}, "properties": {"station": "PORT ROYAL-BERTHOLLET", "ID BDGEO": "17", "marker-color": "#56B3FF"}}, {"type": "Feature", "geometry": {"type": "Point", "coordinates": [2.36427, 48.843495]}, "properties": {"station": "GARE D'AUSTERLITZ", "ID BDGEO": "13", "marker-color": "#56B3FF"}}, {"type": "Feature", "geometry": {"type": "Point", "coordinates": [2.368683, 48.845256]}, "properties": {"station": "QUAI DE LA RAPEE", "ID BDGEO": "12", "marker-color": "#56B3FF"}}, {"type": "Feature", "geometry": {"type": "Point", "coordinates": [2.336928, 48.839598]}, "properties": {"station": "OBSERVATOIRE-PORT ROYAL", "ID BDGEO": "19", "marker-color": "#56B3FF"}}, {"type": "Feature", "geometry": {"type": "Point", "coordinates": [2.35234, 48.836954]}, "properties": {"station": "LES GOBELINS#", "ID BDGEO": "6", "marker-color": "#56B3FF"}}, {"type": "Feature", "geometry": {"type": "Point", "coordinates": [2.316845, 48.838868]}, "properties": {"station": "MONTPARNASSE 2-GARE TGV#", "ID BDGEO": "51", "marker-color": "#56B3FF"}}, {"type": "Feature", "geometry": {"type": "Point", "coordinates": [2.356207, 48.838167]}, "properties": {"station": "SAINT-MARCEL-JEANNE D'ARC", "ID BDGEO": "15", "marker-color": "#56B3FF"}}, {"type": "Feature", "geometry": {"type": "Point", "coordinates": [2.369137, 48.852248]}, "properties": {"station": "BASTILLE#", "ID BDGEO": "8", "marker-color": "#56B3FF"}}, {"type": "Feature", "geometry": {"type": "Point", "coordinates": [2.317199, 48.838409]}, "properties": {"station": "MONTPARNASSE 2-GARE TGV#", "ID BDGEO": "46", "marker-color": "#56B3FF"}}, {"type": "Feature", "geometry": {"type": "Point", "coordinates": [2.351482, 48.836685]}, "properties": {"station": "LES GOBELINS.", "ID BDGEO": "44", "marker-color": "#56B3FF"}}]}