{"type": "FeatureCollection", "features": [{"type": "Feature", "geometry": {"type": "Point", "coordinates": [2.511454, 48.884525]}, "properties": {"alarme": "VEHICULE DELOCALISE", "numparc": 1512, "type": "EXPLOITATION", "duree": "00:00:26", "horodatage": "2022-10-02 06:26:03", "statut": "start", "marker-color": "#ff0000"}}, {"type": "Feature", "geometry": {"type": "Point", "coordinates": [2.511097, 48.88401]}, "properties": {"alarme": "VEHICULE DELOCALISE", "numparc": 1512, "type": "EXPLOITATION", "duree": "00:00:26", "horodatage": "2022-10-02 06:26:29", "statut": "end", "marker-color": "#2fe184"}}, {"type": "Feature", "geometry": {"type": "Point", "coordinates": [2.427838, 48.879238]}, "properties": {"alarme": "DEFAUT LIAISON DATA SAEIV / AIGLE", "numparc": 1512, "type": "TECHNIQUE", "duree": "24:00:00", "horodatage": "2022-10-02 14:20:48", "statut": "start", "marker-color": "#000000"}}]}