{"type": "FeatureCollection", "features": [{"type": "Feature", "geometry": {"type": "Point", "coordinates": [2.298768, 48.722733]}, "properties": {"etat de la localisation": "Delocalise", "numparc": 4874, "duree": "00:07:33", "horodatage": "2022-09-01 04:47:15", "marker-color": "#FF565E"}}, {"type": "Feature", "geometry": {"type": "Point", "coordinates": [2.296932, 48.721886]}, "properties": {"etat de la localisation": "Hors service", "numparc": 4874, "duree": "", "horodatage": "2022-09-01 04:54:48", "marker-color": "#707070"}}, {"type": "Feature", "geometry": {"type": "Point", "coordinates": [2.296668, 48.721741]}, "properties": {"etat de la localisation": "Delocalise", "numparc": 4875, "duree": "00:02:41", "horodatage": "2022-09-01 05:19:35", "marker-color": "#FF565E"}}, {"type": "Feature", "geometry": {"type": "Point", "coordinates": [2.29685, 48.721607]}, "properties": {"etat de la localisation": "Hors service", "numparc": 4875, "duree": "", "horodatage": "2022-09-01 05:22:16", "marker-color": "#707070"}}, {"type": "Feature", "geometry": {"type": "Point", "coordinates": [2.296931, 48.721813]}, "properties": {"etat de la localisation": "Hors service", "numparc": 4877, "duree": "", "horodatage": "2022-09-01 06:27:42", "marker-color": "#707070"}}, {"type": "Feature", "geometry": {"type": "Point", "coordinates": [2.259467, 48.733891]}, "properties": {"etat de la localisation": "Delocalise", "numparc": 4881, "duree": "00:13:45", "horodatage": "2022-09-01 06:43:24", "marker-color": "#FF565E"}}, {"type": "Feature", "geometry": {"type": "Point", "coordinates": [2.296979, 48.721947]}, "properties": {"etat de la localisation": "Mission inconnue", "numparc": 4880, "duree": "", "horodatage": "2022-09-01 06:44:23", "marker-color": "#FF9F56"}}, {"type": "Feature", "geometry": {"type": "Point", "coordinates": [2.270731, 48.734497]}, "properties": {"etat de la localisation": "Mission inconnue", "numparc": 4881, "duree": "", "horodatage": "2022-09-01 06:57:09", "marker-color": "#FF9F56"}}, {"type": "Feature", "geometry": {"type": "Point", "coordinates": [2.270731, 48.734497]}, "properties": {"etat de la localisation": "Hors service", "numparc": 4881, "duree": "", "horodatage": "2022-09-01 06:58:26", "marker-color": "#707070"}}, {"type": "Feature", "geometry": {"type": "Point", "coordinates": [2.270731, 48.734497]}, "properties": {"etat de la localisation": "Delocalise", "numparc": 4881, "duree": "00:15:01", "horodatage": "2022-09-01 07:01:12", "marker-color": "#FF565E"}}, {"type": "Feature", "geometry": {"type": "Point", "coordinates": [2.276999, 48.757721]}, "properties": {"etat de la localisation": "Hors service", "numparc": 4881, "duree": "", "horodatage": "2022-09-01 07:16:13", "marker-color": "#707070"}}, {"type": "Feature", "geometry": {"type": "Point", "coordinates": [2.276999, 48.757721]}, "properties": {"etat de la localisation": "Mission inconnue", "numparc": 4881, "duree": "", "horodatage": "2022-09-01 07:17:44", "marker-color": "#FF9F56"}}, {"type": "Feature", "geometry": {"type": "Point", "coordinates": [2.276999, 48.757721]}, "properties": {"etat de la localisation": "Hors service", "numparc": 4881, "duree": "", "horodatage": "2022-09-01 07:23:23", "marker-color": "#707070"}}, {"type": "Feature", "geometry": {"type": "Point", "coordinates": [2.258858, 48.727936]}, "properties": {"etat de la localisation": "Delocalise", "numparc": 4875, "duree": "00:10:51", "horodatage": "2022-09-01 07:32:33", "marker-color": "#FF565E"}}, {"type": "Feature", "geometry": {"type": "Point", "coordinates": [2.301198, 48.755737]}, "properties": {"etat de la localisation": "Delocalise", "numparc": 4881, "duree": "00:00:11", "horodatage": "2022-09-01 07:39:24", "marker-color": "#FF565E"}}, {"type": "Feature", "geometry": {"type": "Point", "coordinates": [2.301198, 48.755737]}, "properties": {"etat de la localisation": "Hors service", "numparc": 4881, "duree": "", "horodatage": "2022-09-01 07:40:44", "marker-color": "#707070"}}, {"type": "Feature", "geometry": {"type": "Point", "coordinates": [2.301198, 48.755737]}, "properties": {"etat de la localisation": "Delocalise", "numparc": 4881, "duree": "00:00:33", "horodatage": "2022-09-01 07:44:18", "marker-color": "#FF565E"}}, {"type": "Feature", "geometry": {"type": "Point", "coordinates": [2.301198, 48.755737]}, "properties": {"etat de la localisation": "Mission suivante non connue", "numparc": 4881, "duree": "", "horodatage": "2022-09-01 07:44:51", "marker-color": "#7156FF"}}, {"type": "Feature", "geometry": {"type": "Point", "coordinates": [2.298411, 48.722561]}, "properties": {"etat de la localisation": "Hors service", "numparc": 4875, "duree": "", "horodatage": "2022-09-01 07:46:03", "marker-color": "#707070"}}, {"type": "Feature", "geometry": {"type": "Point", "coordinates": [2.301198, 48.755737]}, "properties": {"etat de la localisation": "Hors service", "numparc": 4881, "duree": "", "horodatage": "2022-09-01 07:59:20", "marker-color": "#707070"}}, {"type": "Feature", "geometry": {"type": "Point", "coordinates": [2.301198, 48.755737]}, "properties": {"etat de la localisation": "Mission inconnue", "numparc": 4881, "duree": "", "horodatage": "2022-09-01 08:31:46", "marker-color": "#FF9F56"}}, {"type": "Feature", "geometry": {"type": "Point", "coordinates": [2.298275, 48.721527]}, "properties": {"etat de la localisation": "Hors service", "numparc": 4880, "duree": "", "horodatage": "2022-09-01 08:38:42", "marker-color": "#707070"}}, {"type": "Feature", "geometry": {"type": "Point", "coordinates": [2.301198, 48.755737]}, "properties": {"etat de la localisation": "Delocalise", "numparc": 4881, "duree": "00:00:08", "horodatage": "2022-09-01 08:41:07", "marker-color": "#FF565E"}}, {"type": "Feature", "geometry": {"type": "Point", "coordinates": [2.301198, 48.755737]}, "properties": {"etat de la localisation": "Hors service", "numparc": 4881, "duree": "", "horodatage": "2022-09-01 08:46:52", "marker-color": "#707070"}}, {"type": "Feature", "geometry": {"type": "Point", "coordinates": [2.301198, 48.755737]}, "properties": {"etat de la localisation": "Mission inconnue", "numparc": 4881, "duree": "", "horodatage": "2022-09-01 08:49:20", "marker-color": "#FF9F56"}}, {"type": "Feature", "geometry": {"type": "Point", "coordinates": [2.301198, 48.755737]}, "properties": {"etat de la localisation": "Hors service", "numparc": 4881, "duree": "", "horodatage": "2022-09-01 09:04:26", "marker-color": "#707070"}}, {"type": "Feature", "geometry": {"type": "Point", "coordinates": [2.301198, 48.755737]}, "properties": {"etat de la localisation": "Delocalise", "numparc": 4881, "duree": "00:15:02", "horodatage": "2022-09-01 09:17:41", "marker-color": "#FF565E"}}, {"type": "Feature", "geometry": {"type": "Point", "coordinates": [2.301198, 48.755737]}, "properties": {"etat de la localisation": "Hors service", "numparc": 4881, "duree": "", "horodatage": "2022-09-01 09:32:43", "marker-color": "#707070"}}, {"type": "Feature", "geometry": {"type": "Point", "coordinates": [2.300866, 48.754402]}, "properties": {"etat de la localisation": "Delocalise", "numparc": 4877, "duree": "00:02:59", "horodatage": "2022-09-01 09:36:34", "marker-color": "#FF565E"}}, {"type": "Feature", "geometry": {"type": "Point", "coordinates": [2.301064, 48.755466]}, "properties": {"etat de la localisation": "Mission inconnue", "numparc": 4881, "duree": "", "horodatage": "2022-09-01 09:43:57", "marker-color": "#FF9F56"}}, {"type": "Feature", "geometry": {"type": "Point", "coordinates": [2.298146, 48.721527]}, "properties": {"etat de la localisation": "Hors service", "numparc": 4868, "duree": "", "horodatage": "2022-09-01 09:57:38", "marker-color": "#707070"}}, {"type": "Feature", "geometry": {"type": "Point", "coordinates": [2.301064, 48.755466]}, "properties": {"etat de la localisation": "Hors service", "numparc": 4881, "duree": "", "horodatage": "2022-09-01 09:59:03", "marker-color": "#707070"}}, {"type": "Feature", "geometry": {"type": "Point", "coordinates": [2.301064, 48.755466]}, "properties": {"etat de la localisation": "Mission inconnue", "numparc": 4881, "duree": "", "horodatage": "2022-09-01 10:00:59", "marker-color": "#FF9F56"}}, {"type": "Feature", "geometry": {"type": "Point", "coordinates": [2.301064, 48.755466]}, "properties": {"etat de la localisation": "Hors service", "numparc": 4881, "duree": "", "horodatage": "2022-09-01 10:16:05", "marker-color": "#707070"}}, {"type": "Feature", "geometry": {"type": "Point", "coordinates": [2.301064, 48.755466]}, "properties": {"etat de la localisation": "Mission inconnue", "numparc": 4881, "duree": "", "horodatage": "2022-09-01 10:17:44", "marker-color": "#FF9F56"}}, {"type": "Feature", "geometry": {"type": "Point", "coordinates": [2.263181, 48.7346]}, "properties": {"etat de la localisation": "Hors service", "numparc": 4881, "duree": "", "horodatage": "2022-09-01 10:32:04", "marker-color": "#707070"}}, {"type": "Feature", "geometry": {"type": "Point", "coordinates": [2.257226, 48.726173]}, "properties": {"etat de la localisation": "Mission inconnue", "numparc": 4881, "duree": "", "horodatage": "2022-09-01 10:35:45", "marker-color": "#FF9F56"}}, {"type": "Feature", "geometry": {"type": "Point", "coordinates": [2.298268, 48.722523]}, "properties": {"etat de la localisation": "Delocalise", "numparc": 4886, "duree": "00:08:08", "horodatage": "2022-09-01 10:47:04", "marker-color": "#FF565E"}}, {"type": "Feature", "geometry": {"type": "Point", "coordinates": [2.257226, 48.726173]}, "properties": {"etat de la localisation": "Hors service", "numparc": 4881, "duree": "", "horodatage": "2022-09-01 10:50:51", "marker-color": "#707070"}}, {"type": "Feature", "geometry": {"type": "Point", "coordinates": [2.257226, 48.726173]}, "properties": {"etat de la localisation": "Mission inconnue", "numparc": 4881, "duree": "", "horodatage": "2022-09-01 10:51:44", "marker-color": "#FF9F56"}}, {"type": "Feature", "geometry": {"type": "Point", "coordinates": [2.296804, 48.721733]}, "properties": {"etat de la localisation": "Hors service", "numparc": 4886, "duree": "", "horodatage": "2022-09-01 10:55:12", "marker-color": "#707070"}}, {"type": "Feature", "geometry": {"type": "Point", "coordinates": [2.257226, 48.726173]}, "properties": {"etat de la localisation": "Delocalise", "numparc": 4881, "duree": "00:00:08", "horodatage": "2022-09-01 11:03:13", "marker-color": "#FF565E"}}, {"type": "Feature", "geometry": {"type": "Point", "coordinates": [2.257226, 48.726173]}, "properties": {"etat de la localisation": "Hors service", "numparc": 4881, "duree": "", "horodatage": "2022-09-01 11:06:49", "marker-color": "#707070"}}, {"type": "Feature", "geometry": {"type": "Point", "coordinates": [2.298421, 48.722336]}, "properties": {"etat de la localisation": "Hors service", "numparc": 4874, "duree": "", "horodatage": "2022-09-01 11:09:32", "marker-color": "#707070"}}, {"type": "Feature", "geometry": {"type": "Point", "coordinates": [2.286152, 48.755627]}, "properties": {"etat de la localisation": "Mission inconnue", "numparc": 4881, "duree": "", "horodatage": "2022-09-01 11:09:42", "marker-color": "#FF9F56"}}, {"type": "Feature", "geometry": {"type": "Point", "coordinates": [2.286152, 48.755627]}, "properties": {"etat de la localisation": "Hors service", "numparc": 4881, "duree": "", "horodatage": "2022-09-01 11:24:48", "marker-color": "#707070"}}, {"type": "Feature", "geometry": {"type": "Point", "coordinates": [2.286152, 48.755627]}, "properties": {"etat de la localisation": "Mission inconnue", "numparc": 4881, "duree": "", "horodatage": "2022-09-01 11:25:25", "marker-color": "#FF9F56"}}, {"type": "Feature", "geometry": {"type": "Point", "coordinates": [2.298203, 48.721504]}, "properties": {"etat de la localisation": "Hors service", "numparc": 4877, "duree": "", "horodatage": "2022-09-01 11:39:08", "marker-color": "#707070"}}, {"type": "Feature", "geometry": {"type": "Point", "coordinates": [2.297162, 48.721657]}, "properties": {"etat de la localisation": "Mission inconnue", "numparc": 4887, "duree": "", "horodatage": "2022-09-01 11:39:47", "marker-color": "#FF9F56"}}, {"type": "Feature", "geometry": {"type": "Point", "coordinates": [2.269656, 48.746334]}, "properties": {"etat de la localisation": "Hors service", "numparc": 4881, "duree": "", "horodatage": "2022-09-01 11:40:31", "marker-color": "#707070"}}, {"type": "Feature", "geometry": {"type": "Point", "coordinates": [2.269656, 48.746334]}, "properties": {"etat de la localisation": "Mission inconnue", "numparc": 4881, "duree": "", "horodatage": "2022-09-01 11:42:04", "marker-color": "#FF9F56"}}, {"type": "Feature", "geometry": {"type": "Point", "coordinates": [2.297915, 48.720955]}, "properties": {"etat de la localisation": "Mission inconnue", "numparc": 4887, "duree": "", "horodatage": "2022-09-01 11:43:24", "marker-color": "#FF9F56"}}, {"type": "Feature", "geometry": {"type": "Point", "coordinates": [2.269656, 48.746334]}, "properties": {"etat de la localisation": "Hors service", "numparc": 4881, "duree": "", "horodatage": "2022-09-01 11:57:09", "marker-color": "#707070"}}, {"type": "Feature", "geometry": {"type": "Point", "coordinates": [2.269656, 48.746334]}, "properties": {"etat de la localisation": "Mission inconnue", "numparc": 4881, "duree": "", "horodatage": "2022-09-01 12:02:29", "marker-color": "#FF9F56"}}, {"type": "Feature", "geometry": {"type": "Point", "coordinates": [2.256609, 48.734447]}, "properties": {"etat de la localisation": "Hors service", "numparc": 4881, "duree": "", "horodatage": "2022-09-01 12:17:34", "marker-color": "#707070"}}, {"type": "Feature", "geometry": {"type": "Point", "coordinates": [2.256609, 48.734447]}, "properties": {"etat de la localisation": "Mission inconnue", "numparc": 4881, "duree": "", "horodatage": "2022-09-01 12:30:45", "marker-color": "#FF9F56"}}, {"type": "Feature", "geometry": {"type": "Point", "coordinates": [2.256609, 48.734447]}, "properties": {"etat de la localisation": "Delocalise", "numparc": 4881, "duree": "00:00:23", "horodatage": "2022-09-01 12:30:49", "marker-color": "#FF565E"}}, {"type": "Feature", "geometry": {"type": "Point", "coordinates": [2.297186, 48.721516]}, "properties": {"etat de la localisation": "Mission inconnue", "numparc": 4888, "duree": "", "horodatage": "2022-09-01 12:33:03", "marker-color": "#FF9F56"}}, {"type": "Feature", "geometry": {"type": "Point", "coordinates": [2.256609, 48.734447]}, "properties": {"etat de la localisation": "Delocalise", "numparc": 4881, "duree": "00:00:31", "horodatage": "2022-09-01 12:33:16", "marker-color": "#FF565E"}}, {"type": "Feature", "geometry": {"type": "Point", "coordinates": [2.298126, 48.721569]}, "properties": {"etat de la localisation": "Hors service", "numparc": 4876, "duree": "", "horodatage": "2022-09-01 12:36:06", "marker-color": "#707070"}}, {"type": "Feature", "geometry": {"type": "Point", "coordinates": [2.256609, 48.734447]}, "properties": {"etat de la localisation": "Delocalise", "numparc": 4881, "duree": "00:00:31", "horodatage": "2022-09-01 12:37:55", "marker-color": "#FF565E"}}, {"type": "Feature", "geometry": {"type": "Point", "coordinates": [2.297434, 48.72179]}, "properties": {"etat de la localisation": "Hors service", "numparc": 4876, "duree": "", "horodatage": "2022-09-01 12:39:14", "marker-color": "#707070"}}, {"type": "Feature", "geometry": {"type": "Point", "coordinates": [2.256609, 48.734447]}, "properties": {"etat de la localisation": "Delocalise", "numparc": 4881, "duree": "00:00:31", "horodatage": "2022-09-01 12:43:05", "marker-color": "#FF565E"}}, {"type": "Feature", "geometry": {"type": "Point", "coordinates": [2.256609, 48.734447]}, "properties": {"etat de la localisation": "Delocalise", "numparc": 4881, "duree": "00:00:10", "horodatage": "2022-09-01 12:45:40", "marker-color": "#FF565E"}}, {"type": "Feature", "geometry": {"type": "Point", "coordinates": [2.256609, 48.734447]}, "properties": {"etat de la localisation": "Hors service", "numparc": 4881, "duree": "", "horodatage": "2022-09-01 12:45:50", "marker-color": "#707070"}}, {"type": "Feature", "geometry": {"type": "Point", "coordinates": [2.257054, 48.725983]}, "properties": {"etat de la localisation": "Mission suivante non connue", "numparc": 4879, "duree": "", "horodatage": "2022-09-01 12:46:05", "marker-color": "#7156FF"}}, {"type": "Feature", "geometry": {"type": "Point", "coordinates": [2.257159, 48.726116]}, "properties": {"etat de la localisation": "Mission inconnue", "numparc": 4879, "duree": "", "horodatage": "2022-09-01 12:46:28", "marker-color": "#FF9F56"}}, {"type": "Feature", "geometry": {"type": "Point", "coordinates": [2.297186, 48.721516]}, "properties": {"etat de la localisation": "Hors service", "numparc": 4888, "duree": "", "horodatage": "2022-09-01 12:48:08", "marker-color": "#707070"}}, {"type": "Feature", "geometry": {"type": "Point", "coordinates": [2.297186, 48.721516]}, "properties": {"etat de la localisation": "Mission inconnue", "numparc": 4888, "duree": "", "horodatage": "2022-09-01 12:50:37", "marker-color": "#FF9F56"}}, {"type": "Feature", "geometry": {"type": "Point", "coordinates": [2.256609, 48.734447]}, "properties": {"etat de la localisation": "Mission inconnue", "numparc": 4881, "duree": "", "horodatage": "2022-09-01 12:50:59", "marker-color": "#FF9F56"}}, {"type": "Feature", "geometry": {"type": "Point", "coordinates": [2.257855, 48.729809]}, "properties": {"etat de la localisation": "Mission inconnue", "numparc": 4879, "duree": "", "horodatage": "2022-09-01 12:58:00", "marker-color": "#FF9F56"}}, {"type": "Feature", "geometry": {"type": "Point", "coordinates": [2.274551, 48.754776]}, "properties": {"etat de la localisation": "Hors service", "numparc": 4881, "duree": "", "horodatage": "2022-09-01 13:06:04", "marker-color": "#707070"}}, {"type": "Feature", "geometry": {"type": "Point", "coordinates": [2.257096, 48.726078]}, "properties": {"etat de la localisation": "Mission inconnue", "numparc": 4888, "duree": "", "horodatage": "2022-09-01 13:08:56", "marker-color": "#FF9F56"}}, {"type": "Feature", "geometry": {"type": "Point", "coordinates": [2.298265, 48.722176]}, "properties": {"etat de la localisation": "Hors service", "numparc": 4879, "duree": "", "horodatage": "2022-09-01 13:20:43", "marker-color": "#707070"}}, {"type": "Feature", "geometry": {"type": "Point", "coordinates": [2.297278, 48.721676]}, "properties": {"etat de la localisation": "Hors service", "numparc": 4877, "duree": "", "horodatage": "2022-09-01 15:30:31", "marker-color": "#707070"}}, {"type": "Feature", "geometry": {"type": "Point", "coordinates": [2.298496, 48.72261]}, "properties": {"etat de la localisation": "Mission inconnue", "numparc": 4884, "duree": "", "horodatage": "2022-09-01 15:32:14", "marker-color": "#FF9F56"}}, {"type": "Feature", "geometry": {"type": "Point", "coordinates": [2.298785, 48.721226]}, "properties": {"etat de la localisation": "Delocalise", "numparc": 4881, "duree": "00:15:03", "horodatage": "2022-09-01 15:32:22", "marker-color": "#FF565E"}}, {"type": "Feature", "geometry": {"type": "Point", "coordinates": [2.296848, 48.721912]}, "properties": {"etat de la localisation": "Hors service", "numparc": 4884, "duree": "", "horodatage": "2022-09-01 15:38:17", "marker-color": "#707070"}}, {"type": "Feature", "geometry": {"type": "Point", "coordinates": [2.298785, 48.721226]}, "properties": {"etat de la localisation": "Hors service", "numparc": 4881, "duree": "", "horodatage": "2022-09-01 15:47:25", "marker-color": "#707070"}}, {"type": "Feature", "geometry": {"type": "Point", "coordinates": [2.298255, 48.722473]}, "properties": {"etat de la localisation": "Delocalise", "numparc": 4874, "duree": "00:00:49", "horodatage": "2022-09-01 15:47:46", "marker-color": "#FF565E"}}, {"type": "Feature", "geometry": {"type": "Point", "coordinates": [2.297072, 48.721867]}, "properties": {"etat de la localisation": "Hors service", "numparc": 4874, "duree": "", "horodatage": "2022-09-01 15:48:35", "marker-color": "#707070"}}, {"type": "Feature", "geometry": {"type": "Point", "coordinates": [2.298785, 48.721226]}, "properties": {"etat de la localisation": "Delocalise", "numparc": 4881, "duree": "00:13:30", "horodatage": "2022-09-01 15:50:19", "marker-color": "#FF565E"}}, {"type": "Feature", "geometry": {"type": "Point", "coordinates": [2.300991, 48.755302]}, "properties": {"etat de la localisation": "Mission suivante non connue", "numparc": 4886, "duree": "", "horodatage": "2022-09-01 15:50:26", "marker-color": "#7156FF"}}, {"type": "Feature", "geometry": {"type": "Point", "coordinates": [2.298436, 48.722595]}, "properties": {"etat de la localisation": "Hors service", "numparc": 4886, "duree": "", "horodatage": "2022-09-01 16:02:39", "marker-color": "#707070"}}, {"type": "Feature", "geometry": {"type": "Point", "coordinates": [2.316905, 48.770206]}, "properties": {"etat de la localisation": "Hors service", "numparc": 4881, "duree": "", "horodatage": "2022-09-01 16:05:22", "marker-color": "#707070"}}, {"type": "Feature", "geometry": {"type": "Point", "coordinates": [2.316905, 48.770206]}, "properties": {"etat de la localisation": "Mission inconnue", "numparc": 4881, "duree": "", "horodatage": "2022-09-01 16:22:04", "marker-color": "#FF9F56"}}, {"type": "Feature", "geometry": {"type": "Point", "coordinates": [2.316905, 48.770206]}, "properties": {"etat de la localisation": "Hors service", "numparc": 4881, "duree": "", "horodatage": "2022-09-01 16:37:09", "marker-color": "#707070"}}, {"type": "Feature", "geometry": {"type": "Point", "coordinates": [2.316905, 48.770206]}, "properties": {"etat de la localisation": "Delocalise", "numparc": 4881, "duree": "00:15:02", "horodatage": "2022-09-01 16:47:02", "marker-color": "#FF565E"}}, {"type": "Feature", "geometry": {"type": "Point", "coordinates": [2.316905, 48.770206]}, "properties": {"etat de la localisation": "Hors service", "numparc": 4881, "duree": "", "horodatage": "2022-09-01 17:02:04", "marker-color": "#707070"}}, {"type": "Feature", "geometry": {"type": "Point", "coordinates": [2.316905, 48.770206]}, "properties": {"etat de la localisation": "Delocalise", "numparc": 4881, "duree": "00:03:38", "horodatage": "2022-09-01 17:07:56", "marker-color": "#FF565E"}}, {"type": "Feature", "geometry": {"type": "Point", "coordinates": [2.297615, 48.72179]}, "properties": {"etat de la localisation": "Hors service", "numparc": 4868, "duree": "", "horodatage": "2022-09-01 17:13:26", "marker-color": "#707070"}}, {"type": "Feature", "geometry": {"type": "Point", "coordinates": [2.305057, 48.753212]}, "properties": {"etat de la localisation": "Hors service", "numparc": 4881, "duree": "", "horodatage": "2022-09-01 17:22:58", "marker-color": "#707070"}}, {"type": "Feature", "geometry": {"type": "Point", "coordinates": [2.305057, 48.753212]}, "properties": {"etat de la localisation": "Mission inconnue", "numparc": 4881, "duree": "", "horodatage": "2022-09-01 17:24:23", "marker-color": "#FF9F56"}}, {"type": "Feature", "geometry": {"type": "Point", "coordinates": [2.296729, 48.72171]}, "properties": {"etat de la localisation": "Hors service", "numparc": 4876, "duree": "", "horodatage": "2022-09-01 17:28:25", "marker-color": "#707070"}}, {"type": "Feature", "geometry": {"type": "Point", "coordinates": [2.300955, 48.754608]}, "properties": {"etat de la localisation": "Delocalise", "numparc": 4875, "duree": "00:01:19", "horodatage": "2022-09-01 17:36:25", "marker-color": "#FF565E"}}, {"type": "Feature", "geometry": {"type": "Point", "coordinates": [2.298129, 48.754704]}, "properties": {"etat de la localisation": "Hors service", "numparc": 4881, "duree": "", "horodatage": "2022-09-01 17:39:28", "marker-color": "#707070"}}, {"type": "Feature", "geometry": {"type": "Point", "coordinates": [2.298129, 48.754704]}, "properties": {"etat de la localisation": "Mission inconnue", "numparc": 4881, "duree": "", "horodatage": "2022-09-01 17:41:38", "marker-color": "#FF9F56"}}, {"type": "Feature", "geometry": {"type": "Point", "coordinates": [2.298657, 48.720924]}, "properties": {"etat de la localisation": "Delocalise", "numparc": 4879, "duree": "00:23:49", "horodatage": "2022-09-01 17:43:29", "marker-color": "#FF565E"}}, {"type": "Feature", "geometry": {"type": "Point", "coordinates": [2.255481, 48.725719]}, "properties": {"etat de la localisation": "Hors service", "numparc": 4881, "duree": "", "horodatage": "2022-09-01 17:56:44", "marker-color": "#707070"}}, {"type": "Feature", "geometry": {"type": "Point", "coordinates": [2.255481, 48.725719]}, "properties": {"etat de la localisation": "Mission inconnue", "numparc": 4881, "duree": "", "horodatage": "2022-09-01 17:58:03", "marker-color": "#FF9F56"}}, {"type": "Feature", "geometry": {"type": "Point", "coordinates": [2.255481, 48.725719]}, "properties": {"etat de la localisation": "Mission inconnue", "numparc": 4881, "duree": "", "horodatage": "2022-09-01 18:11:38", "marker-color": "#FF9F56"}}, {"type": "Feature", "geometry": {"type": "Point", "coordinates": [2.255481, 48.725719]}, "properties": {"etat de la localisation": "Hors service", "numparc": 4881, "duree": "", "horodatage": "2022-09-01 18:13:08", "marker-color": "#707070"}}, {"type": "Feature", "geometry": {"type": "Point", "coordinates": [2.297497, 48.721542]}, "properties": {"etat de la localisation": "Hors service", "numparc": 4887, "duree": "", "horodatage": "2022-09-01 18:17:19", "marker-color": "#707070"}}, {"type": "Feature", "geometry": {"type": "Point", "coordinates": [2.257149, 48.726112]}, "properties": {"etat de la localisation": "Mission suivante non connue", "numparc": 4876, "duree": "", "horodatage": "2022-09-01 18:33:09", "marker-color": "#7156FF"}}, {"type": "Feature", "geometry": {"type": "Point", "coordinates": [2.257149, 48.726112]}, "properties": {"etat de la localisation": "Mission inconnue", "numparc": 4876, "duree": "", "horodatage": "2022-09-01 18:33:31", "marker-color": "#FF9F56"}}, {"type": "Feature", "geometry": {"type": "Point", "coordinates": [2.257011, 48.725971]}, "properties": {"etat de la localisation": "Mission suivante non connue", "numparc": 4874, "duree": "", "horodatage": "2022-09-01 18:54:44", "marker-color": "#7156FF"}}, {"type": "Feature", "geometry": {"type": "Point", "coordinates": [2.257011, 48.725971]}, "properties": {"etat de la localisation": "Mission inconnue", "numparc": 4874, "duree": "", "horodatage": "2022-09-01 18:55:11", "marker-color": "#FF9F56"}}, {"type": "Feature", "geometry": {"type": "Point", "coordinates": [2.263331, 48.742489]}, "properties": {"etat de la localisation": "Delocalise", "numparc": 4876, "duree": "00:00:25", "horodatage": "2022-09-01 19:02:52", "marker-color": "#FF565E"}}, {"type": "Feature", "geometry": {"type": "Point", "coordinates": [2.265094, 48.743382]}, "properties": {"etat de la localisation": "Delocalise", "numparc": 4876, "duree": "00:18:42", "horodatage": "2022-09-01 19:04:29", "marker-color": "#FF565E"}}, {"type": "Feature", "geometry": {"type": "Point", "coordinates": [2.255481, 48.725719]}, "properties": {"etat de la localisation": "Delocalise", "numparc": 4881, "duree": "00:10:57", "horodatage": "2022-09-01 19:19:30", "marker-color": "#FF565E"}}, {"type": "Feature", "geometry": {"type": "Point", "coordinates": [2.263286, 48.742489]}, "properties": {"etat de la localisation": "Mission suivante non connue", "numparc": 4874, "duree": "", "horodatage": "2022-09-01 19:29:26", "marker-color": "#7156FF"}}, {"type": "Feature", "geometry": {"type": "Point", "coordinates": [2.255481, 48.725719]}, "properties": {"etat de la localisation": "Hors service", "numparc": 4881, "duree": "", "horodatage": "2022-09-01 19:34:32", "marker-color": "#707070"}}, {"type": "Feature", "geometry": {"type": "Point", "coordinates": [2.297457, 48.721497]}, "properties": {"etat de la localisation": "Hors service", "numparc": 4888, "duree": "", "horodatage": "2022-09-01 19:35:37", "marker-color": "#707070"}}, {"type": "Feature", "geometry": {"type": "Point", "coordinates": [2.255481, 48.725719]}, "properties": {"etat de la localisation": "Mission inconnue", "numparc": 4881, "duree": "", "horodatage": "2022-09-01 20:01:48", "marker-color": "#FF9F56"}}, {"type": "Feature", "geometry": {"type": "Point", "coordinates": [2.299108, 48.721581]}, "properties": {"etat de la localisation": "Hors service", "numparc": 4881, "duree": "", "horodatage": "2022-09-01 20:16:54", "marker-color": "#707070"}}, {"type": "Feature", "geometry": {"type": "Point", "coordinates": [2.299108, 48.721581]}, "properties": {"etat de la localisation": "Mission inconnue", "numparc": 4881, "duree": "", "horodatage": "2022-09-01 20:26:46", "marker-color": "#FF9F56"}}, {"type": "Feature", "geometry": {"type": "Point", "coordinates": [2.299108, 48.721581]}, "properties": {"etat de la localisation": "Hors service", "numparc": 4881, "duree": "", "horodatage": "2022-09-01 20:41:51", "marker-color": "#707070"}}, {"type": "Feature", "geometry": {"type": "Point", "coordinates": [2.258672, 48.733948]}, "properties": {"etat de la localisation": "Delocalise", "numparc": 4884, "duree": "00:00:49", "horodatage": "2022-09-01 20:47:41", "marker-color": "#FF565E"}}, {"type": "Feature", "geometry": {"type": "Point", "coordinates": [2.299108, 48.721581]}, "properties": {"etat de la localisation": "Delocalise", "numparc": 4881, "duree": "00:15:02", "horodatage": "2022-09-01 20:48:53", "marker-color": "#FF565E"}}, {"type": "Feature", "geometry": {"type": "Point", "coordinates": [2.274566, 48.75478]}, "properties": {"etat de la localisation": "Hors service", "numparc": 4881, "duree": "", "horodatage": "2022-09-01 21:03:55", "marker-color": "#707070"}}, {"type": "Feature", "geometry": {"type": "Point", "coordinates": [2.267684, 48.737904]}, "properties": {"etat de la localisation": "Delocalise", "numparc": 4881, "duree": "00:00:09", "horodatage": "2022-09-01 21:07:07", "marker-color": "#FF565E"}}, {"type": "Feature", "geometry": {"type": "Point", "coordinates": [2.266609, 48.738922]}, "properties": {"etat de la localisation": "Hors service", "numparc": 4881, "duree": "", "horodatage": "2022-09-01 21:19:43", "marker-color": "#707070"}}, {"type": "Feature", "geometry": {"type": "Point", "coordinates": [2.266609, 48.738922]}, "properties": {"etat de la localisation": "Mission inconnue", "numparc": 4881, "duree": "", "horodatage": "2022-09-01 21:22:24", "marker-color": "#FF9F56"}}, {"type": "Feature", "geometry": {"type": "Point", "coordinates": [2.266609, 48.738922]}, "properties": {"etat de la localisation": "Hors service", "numparc": 4881, "duree": "", "horodatage": "2022-09-01 21:24:53", "marker-color": "#707070"}}, {"type": "Feature", "geometry": {"type": "Point", "coordinates": [2.2975, 48.72192]}, "properties": {"etat de la localisation": "Hors service", "numparc": 4874, "duree": "", "horodatage": "2022-09-01 22:37:32", "marker-color": "#707070"}}, {"type": "Feature", "geometry": {"type": "Point", "coordinates": [2.297506, 48.721733]}, "properties": {"etat de la localisation": "Hors service", "numparc": 4875, "duree": "", "horodatage": "2022-09-01 22:45:57", "marker-color": "#707070"}}, {"type": "Feature", "geometry": {"type": "Point", "coordinates": [2.297268, 48.721817]}, "properties": {"etat de la localisation": "Hors service", "numparc": 4884, "duree": "", "horodatage": "2022-09-01 23:02:18", "marker-color": "#707070"}}, {"type": "Feature", "geometry": {"type": "Point", "coordinates": [2.300731, 48.753704]}, "properties": {"etat de la localisation": "Delocalise", "numparc": 4876, "duree": "00:10:36", "horodatage": "2022-09-02 00:50:32", "marker-color": "#FF565E"}}, {"type": "Feature", "geometry": {"type": "Point", "coordinates": [2.257388, 48.726971]}, "properties": {"etat de la localisation": "Delocalise", "numparc": 4879, "duree": "00:14:41", "horodatage": "2022-09-02 00:58:29", "marker-color": "#FF565E"}}, {"type": "Feature", "geometry": {"type": "Point", "coordinates": [2.296976, 48.721962]}, "properties": {"etat de la localisation": "Hors service", "numparc": 4876, "duree": "", "horodatage": "2022-09-02 01:01:08", "marker-color": "#707070"}}, {"type": "Feature", "geometry": {"type": "Point", "coordinates": [2.297204, 48.722179]}, "properties": {"etat de la localisation": "Hors service", "numparc": 4879, "duree": "", "horodatage": "2022-09-02 01:13:10", "marker-color": "#707070"}}]}