{"type": "FeatureCollection", "features": [{"type": "Feature", "geometry": {"type": "Point", "coordinates": [2.378364, 48.831406]}, "properties": {"alarme": "VEHICULE DELOCALISE", "numparc": 2864, "type": "EXPLOITATION", "duree": "00:01:50", "horodatage": "2022-07-07 07:23:09", "statut": "start", "marker-color": "#ff0000"}}, {"type": "Feature", "geometry": {"type": "Point", "coordinates": [2.377819, 48.829617]}, "properties": {"alarme": "VEHICULE DELOCALISE", "numparc": 2862, "type": "EXPLOITATION", "duree": "00:13:32", "horodatage": "2022-07-07 08:06:09", "statut": "start", "marker-color": "#ff0000"}}, {"type": "Feature", "geometry": {"type": "Point", "coordinates": [2.377667, 48.831062]}, "properties": {"alarme": "VEHICULE DELOCALISE", "numparc": 2867, "type": "EXPLOITATION", "duree": "00:00:30", "horodatage": "2022-07-07 09:44:23", "statut": "start", "marker-color": "#ff0000"}}, {"type": "Feature", "geometry": {"type": "Point", "coordinates": [2.395534, 48.820229]}, "properties": {"alarme": "DEFAUT LIAISON DATA SAEIV / AIGLE", "numparc": 2859, "type": "TECHNIQUE", "duree": "00:00:06", "horodatage": "2022-07-07 14:29:05", "statut": "start", "marker-color": "#ff0000"}}, {"type": "Feature", "geometry": {"type": "Point", "coordinates": [2.404341, 48.807674]}, "properties": {"alarme": "VEHICULE DELOCALISE", "numparc": 2864, "type": "EXPLOITATION", "duree": "00:01:35", "horodatage": "2022-07-07 16:24:49", "statut": "start", "marker-color": "#ff0000"}}, {"type": "Feature", "geometry": {"type": "Point", "coordinates": [2.378032, 48.829365]}, "properties": {"alarme": "VEHICULE DELOCALISE", "numparc": 2867, "type": "EXPLOITATION", "duree": "00:00:29", "horodatage": "2022-07-07 17:04:41", "statut": "start", "marker-color": "#ff0000"}}, {"type": "Feature", "geometry": {"type": "Point", "coordinates": [2.385659, 48.827477]}, "properties": {"alarme": "VEHICULE DELOCALISE", "numparc": 2862, "type": "EXPLOITATION", "duree": "00:02:08", "horodatage": "2022-07-07 17:07:13", "statut": "start", "marker-color": "#ff0000"}}, {"type": "Feature", "geometry": {"type": "Point", "coordinates": [2.385608, 48.827457]}, "properties": {"alarme": "VEHICULE DELOCALISE", "numparc": 2867, "type": "EXPLOITATION", "duree": "00:02:13", "horodatage": "2022-07-07 17:16:26", "statut": "start", "marker-color": "#ff0000"}}, {"type": "Feature", "geometry": {"type": "Point", "coordinates": [2.378251, 48.829483]}, "properties": {"alarme": "VEHICULE DELOCALISE", "numparc": 2864, "type": "EXPLOITATION", "duree": "00:04:55", "horodatage": "2022-07-07 17:40:19", "statut": "start", "marker-color": "#ff0000"}}, {"type": "Feature", "geometry": {"type": "Point", "coordinates": [2.398416, 48.81778]}, "properties": {"alarme": "VEHICULE DELOCALISE", "numparc": 2866, "type": "EXPLOITATION", "duree": "00:03:17", "horodatage": "2022-07-07 17:45:42", "statut": "start", "marker-color": "#ff0000"}}, {"type": "Feature", "geometry": {"type": "Point", "coordinates": [2.396745, 48.819256]}, "properties": {"alarme": "VEHICULE DELOCALISE", "numparc": 2867, "type": "EXPLOITATION", "duree": "00:00:05", "horodatage": "2022-07-07 17:48:43", "statut": "start", "marker-color": "#ff0000"}}, {"type": "Feature", "geometry": {"type": "Point", "coordinates": [2.37801, 48.829414]}, "properties": {"alarme": "VEHICULE DELOCALISE", "numparc": 2866, "type": "EXPLOITATION", "duree": "00:11:24", "horodatage": "2022-07-07 18:26:59", "statut": "start", "marker-color": "#ff0000"}}, {"type": "Feature", "geometry": {"type": "Point", "coordinates": [2.378471, 48.828575]}, "properties": {"alarme": "VEHICULE DELOCALISE", "numparc": 2867, "type": "EXPLOITATION", "duree": "00:08:58", "horodatage": "2022-07-07 19:00:09", "statut": "start", "marker-color": "#ff0000"}}, {"type": "Feature", "geometry": {"type": "Point", "coordinates": [2.377299, 48.830814]}, "properties": {"alarme": "VEHICULE DELOCALISE", "numparc": 2864, "type": "EXPLOITATION", "duree": "00:01:50", "horodatage": "2022-07-07 19:18:02", "statut": "start", "marker-color": "#ff0000"}}, {"type": "Feature", "geometry": {"type": "Point", "coordinates": [2.37736, 48.829979]}, "properties": {"alarme": "VEHICULE DELOCALISE", "numparc": 2864, "type": "EXPLOITATION", "duree": "00:00:21", "horodatage": "2022-07-07 20:18:12", "statut": "start", "marker-color": "#ff0000"}}, {"type": "Feature", "geometry": {"type": "Point", "coordinates": [2.3844, 48.828522]}, "properties": {"alarme": "VEHICULE DELOCALISE", "numparc": 2864, "type": "EXPLOITATION", "duree": "00:01:50", "horodatage": "2022-07-07 07:24:59", "statut": "end", "marker-color": "#2fe184"}}, {"type": "Feature", "geometry": {"type": "Point", "coordinates": [2.384183, 48.828644]}, "properties": {"alarme": "VEHICULE DELOCALISE", "numparc": 2862, "type": "EXPLOITATION", "duree": "00:13:32", "horodatage": "2022-07-07 08:19:41", "statut": "end", "marker-color": "#2fe184"}}, {"type": "Feature", "geometry": {"type": "Point", "coordinates": [2.379333, 48.83194]}, "properties": {"alarme": "VEHICULE DELOCALISE", "numparc": 2867, "type": "EXPLOITATION", "duree": "00:00:30", "horodatage": "2022-07-07 09:44:53", "statut": "end", "marker-color": "#2fe184"}}, {"type": "Feature", "geometry": {"type": "Point", "coordinates": [2.395477, 48.820274]}, "properties": {"alarme": "DEFAUT LIAISON DATA SAEIV / AIGLE", "numparc": 2859, "type": "TECHNIQUE", "duree": "00:00:06", "horodatage": "2022-07-07 14:29:11", "statut": "end", "marker-color": "#2fe184"}}, {"type": "Feature", "geometry": {"type": "Point", "coordinates": [2.407798, 48.805023]}, "properties": {"alarme": "VEHICULE DELOCALISE", "numparc": 2864, "type": "EXPLOITATION", "duree": "00:01:35", "horodatage": "2022-07-07 16:26:24", "statut": "end", "marker-color": "#2fe184"}}, {"type": "Feature", "geometry": {"type": "Point", "coordinates": [2.377069, 48.830326]}, "properties": {"alarme": "VEHICULE DELOCALISE", "numparc": 2867, "type": "EXPLOITATION", "duree": "00:00:29", "horodatage": "2022-07-07 17:05:10", "statut": "end", "marker-color": "#2fe184"}}, {"type": "Feature", "geometry": {"type": "Point", "coordinates": [2.388663, 48.825264]}, "properties": {"alarme": "VEHICULE DELOCALISE", "numparc": 2862, "type": "EXPLOITATION", "duree": "00:02:08", "horodatage": "2022-07-07 17:09:21", "statut": "end", "marker-color": "#2fe184"}}, {"type": "Feature", "geometry": {"type": "Point", "coordinates": [2.388661, 48.825264]}, "properties": {"alarme": "VEHICULE DELOCALISE", "numparc": 2867, "type": "EXPLOITATION", "duree": "00:02:13", "horodatage": "2022-07-07 17:18:39", "statut": "end", "marker-color": "#2fe184"}}, {"type": "Feature", "geometry": {"type": "Point", "coordinates": [2.379441, 48.831985]}, "properties": {"alarme": "VEHICULE DELOCALISE", "numparc": 2864, "type": "EXPLOITATION", "duree": "00:04:55", "horodatage": "2022-07-07 17:45:14", "statut": "end", "marker-color": "#2fe184"}}, {"type": "Feature", "geometry": {"type": "Point", "coordinates": [2.402273, 48.814148]}, "properties": {"alarme": "VEHICULE DELOCALISE", "numparc": 2866, "type": "EXPLOITATION", "duree": "00:03:17", "horodatage": "2022-07-07 17:48:59", "statut": "end", "marker-color": "#2fe184"}}, {"type": "Feature", "geometry": {"type": "Point", "coordinates": [2.396745, 48.819256]}, "properties": {"alarme": "VEHICULE DELOCALISE", "numparc": 2867, "type": "EXPLOITATION", "duree": "00:00:05", "horodatage": "2022-07-07 17:48:48", "statut": "end", "marker-color": "#2fe184"}}, {"type": "Feature", "geometry": {"type": "Point", "coordinates": [2.379602, 48.832012]}, "properties": {"alarme": "VEHICULE DELOCALISE", "numparc": 2866, "type": "EXPLOITATION", "duree": "00:11:24", "horodatage": "2022-07-07 18:38:23", "statut": "end", "marker-color": "#2fe184"}}, {"type": "Feature", "geometry": {"type": "Point", "coordinates": [2.379337, 48.831917]}, "properties": {"alarme": "VEHICULE DELOCALISE", "numparc": 2867, "type": "EXPLOITATION", "duree": "00:08:58", "horodatage": "2022-07-07 19:09:07", "statut": "end", "marker-color": "#2fe184"}}, {"type": "Feature", "geometry": {"type": "Point", "coordinates": [2.379368, 48.831978]}, "properties": {"alarme": "VEHICULE DELOCALISE", "numparc": 2864, "type": "EXPLOITATION", "duree": "00:01:50", "horodatage": "2022-07-07 19:19:52", "statut": "end", "marker-color": "#2fe184"}}, {"type": "Feature", "geometry": {"type": "Point", "coordinates": [2.376904, 48.830418]}, "properties": {"alarme": "VEHICULE DELOCALISE", "numparc": 2864, "type": "EXPLOITATION", "duree": "00:00:21", "horodatage": "2022-07-07 20:18:33", "statut": "end", "marker-color": "#2fe184"}}]}