{"type": "FeatureCollection", "features": [{"type": "Feature", "geometry": {"type": "Point", "coordinates": [2.386965, 48.754543]}, "properties": {"etat de la localisation": "Delocalise", "numparc": 1308, "duree": "00:08:15", "horodatage": "2022-07-25 05:33:24", "marker-color": "#FF565E"}}, {"type": "Feature", "geometry": {"type": "Point", "coordinates": [2.386886, 48.755737]}, "properties": {"etat de la localisation": "Hors service", "numparc": 1308, "duree": "", "horodatage": "2022-07-25 05:41:39", "marker-color": "#707070"}}, {"type": "Feature", "geometry": {"type": "Point", "coordinates": [2.372853, 48.748241]}, "properties": {"etat de la localisation": "Hors service", "numparc": 1308, "duree": "", "horodatage": "2022-07-25 06:14:20", "marker-color": "#707070"}}, {"type": "Feature", "geometry": {"type": "Point", "coordinates": [2.399144, 48.77401]}, "properties": {"etat de la localisation": "Delocalise", "numparc": 1308, "duree": "00:05:02", "horodatage": "2022-07-25 06:47:07", "marker-color": "#FF565E"}}, {"type": "Feature", "geometry": {"type": "Point", "coordinates": [2.397902, 48.772377]}, "properties": {"etat de la localisation": "Delocalise", "numparc": 1308, "duree": "00:04:55", "horodatage": "2022-07-25 07:49:46", "marker-color": "#FF565E"}}, {"type": "Feature", "geometry": {"type": "Point", "coordinates": [2.387309, 48.754414]}, "properties": {"etat de la localisation": "Delocalise", "numparc": 1306, "duree": "00:08:12", "horodatage": "2022-07-25 08:01:48", "marker-color": "#FF565E"}}, {"type": "Feature", "geometry": {"type": "Point", "coordinates": [2.399134, 48.773945]}, "properties": {"etat de la localisation": "Delocalise", "numparc": 1308, "duree": "00:01:02", "horodatage": "2022-07-25 08:07:51", "marker-color": "#FF565E"}}, {"type": "Feature", "geometry": {"type": "Point", "coordinates": [2.372851, 48.748241]}, "properties": {"etat de la localisation": "Hors service", "numparc": 1306, "duree": "", "horodatage": "2022-07-25 08:10:11", "marker-color": "#707070"}}, {"type": "Feature", "geometry": {"type": "Point", "coordinates": [2.38243, 48.766445]}, "properties": {"etat de la localisation": "Delocalise", "numparc": 1308, "duree": "00:03:50", "horodatage": "2022-07-25 09:02:44", "marker-color": "#FF565E"}}, {"type": "Feature", "geometry": {"type": "Point", "coordinates": [2.399146, 48.774006]}, "properties": {"etat de la localisation": "Delocalise", "numparc": 1306, "duree": "00:00:55", "horodatage": "2022-07-25 09:05:43", "marker-color": "#FF565E"}}, {"type": "Feature", "geometry": {"type": "Point", "coordinates": [2.399122, 48.773972]}, "properties": {"etat de la localisation": "Delocalise", "numparc": 1308, "duree": "00:02:11", "horodatage": "2022-07-25 09:27:35", "marker-color": "#FF565E"}}, {"type": "Feature", "geometry": {"type": "Point", "coordinates": [2.397837, 48.772411]}, "properties": {"etat de la localisation": "Delocalise", "numparc": 1306, "duree": "00:15:51", "horodatage": "2022-07-25 10:04:11", "marker-color": "#FF565E"}}, {"type": "Feature", "geometry": {"type": "Point", "coordinates": [2.399143, 48.773869]}, "properties": {"etat de la localisation": "Delocalise", "numparc": 1308, "duree": "00:02:05", "horodatage": "2022-07-25 10:48:27", "marker-color": "#FF565E"}}, {"type": "Feature", "geometry": {"type": "Point", "coordinates": [2.390058, 48.757473]}, "properties": {"etat de la localisation": "Delocalise", "numparc": 1306, "duree": "00:08:08", "horodatage": "2022-07-25 11:10:30", "marker-color": "#FF565E"}}, {"type": "Feature", "geometry": {"type": "Point", "coordinates": [2.397866, 48.772404]}, "properties": {"etat de la localisation": "Delocalise", "numparc": 1306, "duree": "00:18:27", "horodatage": "2022-07-25 11:28:03", "marker-color": "#FF565E"}}, {"type": "Feature", "geometry": {"type": "Point", "coordinates": [2.387023, 48.755005]}, "properties": {"etat de la localisation": "Mission inconnue", "numparc": 1305, "duree": "", "horodatage": "2022-07-25 11:30:06", "marker-color": "#FF9F56"}}, {"type": "Feature", "geometry": {"type": "Point", "coordinates": [2.387023, 48.755005]}, "properties": {"etat de la localisation": "Mission inconnue", "numparc": 1305, "duree": "", "horodatage": "2022-07-25 11:38:16", "marker-color": "#FF9F56"}}, {"type": "Feature", "geometry": {"type": "Point", "coordinates": [2.387321, 48.754028]}, "properties": {"etat de la localisation": "Hors service", "numparc": 1308, "duree": "", "horodatage": "2022-07-25 12:08:32", "marker-color": "#707070"}}, {"type": "Feature", "geometry": {"type": "Point", "coordinates": [2.397893, 48.772297]}, "properties": {"etat de la localisation": "Delocalise", "numparc": 1305, "duree": "00:12:26", "horodatage": "2022-07-25 12:11:00", "marker-color": "#FF565E"}}, {"type": "Feature", "geometry": {"type": "Point", "coordinates": [2.396204, 48.770222]}, "properties": {"etat de la localisation": "Delocalise", "numparc": 1305, "duree": "00:01:40", "horodatage": "2022-07-25 12:24:08", "marker-color": "#FF565E"}}, {"type": "Feature", "geometry": {"type": "Point", "coordinates": [2.39786, 48.772305]}, "properties": {"etat de la localisation": "Delocalise", "numparc": 1305, "duree": "00:06:04", "horodatage": "2022-07-25 13:27:53", "marker-color": "#FF565E"}}, {"type": "Feature", "geometry": {"type": "Point", "coordinates": [2.399073, 48.774063]}, "properties": {"etat de la localisation": "Delocalise", "numparc": 1305, "duree": "00:05:26", "horodatage": "2022-07-25 13:37:32", "marker-color": "#FF565E"}}, {"type": "Feature", "geometry": {"type": "Point", "coordinates": [2.397252, 48.771664]}, "properties": {"etat de la localisation": "Delocalise", "numparc": 1306, "duree": "00:00:55", "horodatage": "2022-07-25 14:25:52", "marker-color": "#FF565E"}}, {"type": "Feature", "geometry": {"type": "Point", "coordinates": [2.397942, 48.772385]}, "properties": {"etat de la localisation": "Delocalise", "numparc": 1305, "duree": "00:00:27", "horodatage": "2022-07-25 14:53:40", "marker-color": "#FF565E"}}, {"type": "Feature", "geometry": {"type": "Point", "coordinates": [2.397893, 48.772079]}, "properties": {"etat de la localisation": "Delocalise", "numparc": 1305, "duree": "00:03:17", "horodatage": "2022-07-25 14:54:38", "marker-color": "#FF565E"}}, {"type": "Feature", "geometry": {"type": "Point", "coordinates": [2.399143, 48.773849]}, "properties": {"etat de la localisation": "Delocalise", "numparc": 1305, "duree": "00:04:35", "horodatage": "2022-07-25 15:01:00", "marker-color": "#FF565E"}}, {"type": "Feature", "geometry": {"type": "Point", "coordinates": [2.397854, 48.772285]}, "properties": {"etat de la localisation": "Delocalise", "numparc": 1305, "duree": "00:03:09", "horodatage": "2022-07-25 16:12:19", "marker-color": "#FF565E"}}, {"type": "Feature", "geometry": {"type": "Point", "coordinates": [2.399069, 48.774109]}, "properties": {"etat de la localisation": "Delocalise", "numparc": 1305, "duree": "00:05:34", "horodatage": "2022-07-25 16:18:25", "marker-color": "#FF565E"}}, {"type": "Feature", "geometry": {"type": "Point", "coordinates": [2.398682, 48.773518]}, "properties": {"etat de la localisation": "Delocalise", "numparc": 1310, "duree": "00:01:58", "horodatage": "2022-07-25 16:42:00", "marker-color": "#FF565E"}}, {"type": "Feature", "geometry": {"type": "Point", "coordinates": [2.397912, 48.7724]}, "properties": {"etat de la localisation": "Delocalise", "numparc": 1306, "duree": "00:03:26", "horodatage": "2022-07-25 16:42:31", "marker-color": "#FF565E"}}, {"type": "Feature", "geometry": {"type": "Point", "coordinates": [2.398864, 48.773746]}, "properties": {"etat de la localisation": "Delocalise", "numparc": 1306, "duree": "00:00:39", "horodatage": "2022-07-25 17:02:20", "marker-color": "#FF565E"}}, {"type": "Feature", "geometry": {"type": "Point", "coordinates": [2.397907, 48.77235]}, "properties": {"etat de la localisation": "Delocalise", "numparc": 1305, "duree": "00:04:56", "horodatage": "2022-07-25 17:33:12", "marker-color": "#FF565E"}}, {"type": "Feature", "geometry": {"type": "Point", "coordinates": [2.399127, 48.773998]}, "properties": {"etat de la localisation": "Delocalise", "numparc": 1305, "duree": "00:02:45", "horodatage": "2022-07-25 17:41:58", "marker-color": "#FF565E"}}, {"type": "Feature", "geometry": {"type": "Point", "coordinates": [2.388455, 48.754658]}, "properties": {"etat de la localisation": "Mission inconnue", "numparc": 1307, "duree": "", "horodatage": "2022-07-25 17:50:53", "marker-color": "#FF9F56"}}, {"type": "Feature", "geometry": {"type": "Point", "coordinates": [2.384226, 48.75465]}, "properties": {"etat de la localisation": "Mission inconnue", "numparc": 1307, "duree": "", "horodatage": "2022-07-25 17:53:45", "marker-color": "#FF9F56"}}, {"type": "Feature", "geometry": {"type": "Point", "coordinates": [2.397883, 48.772427]}, "properties": {"etat de la localisation": "Delocalise", "numparc": 1306, "duree": "00:16:27", "horodatage": "2022-07-25 18:04:49", "marker-color": "#FF565E"}}, {"type": "Feature", "geometry": {"type": "Point", "coordinates": [2.397197, 48.771576]}, "properties": {"etat de la localisation": "Delocalise", "numparc": 1310, "duree": "00:00:46", "horodatage": "2022-07-25 18:06:22", "marker-color": "#FF565E"}}, {"type": "Feature", "geometry": {"type": "Point", "coordinates": [2.372561, 48.748096]}, "properties": {"etat de la localisation": "Mission suivante non connue", "numparc": 1306, "duree": "", "horodatage": "2022-07-25 18:45:10", "marker-color": "#7156FF"}}, {"type": "Feature", "geometry": {"type": "Point", "coordinates": [2.398952, 48.7738]}, "properties": {"etat de la localisation": "Delocalise", "numparc": 1307, "duree": "00:01:58", "horodatage": "2022-07-25 18:48:29", "marker-color": "#FF565E"}}, {"type": "Feature", "geometry": {"type": "Point", "coordinates": [2.39875, 48.77359]}, "properties": {"etat de la localisation": "Delocalise", "numparc": 1305, "duree": "00:03:52", "horodatage": "2022-07-25 19:05:01", "marker-color": "#FF565E"}}, {"type": "Feature", "geometry": {"type": "Point", "coordinates": [2.397955, 48.772503]}, "properties": {"etat de la localisation": "Delocalise", "numparc": 1310, "duree": "00:16:02", "horodatage": "2022-07-25 19:09:22", "marker-color": "#FF565E"}}, {"type": "Feature", "geometry": {"type": "Point", "coordinates": [2.397923, 48.772419]}, "properties": {"etat de la localisation": "Delocalise", "numparc": 1306, "duree": "00:03:09", "horodatage": "2022-07-25 19:22:27", "marker-color": "#FF565E"}}, {"type": "Feature", "geometry": {"type": "Point", "coordinates": [2.397137, 48.777596]}, "properties": {"etat de la localisation": "Mission suivante non connue", "numparc": 1306, "duree": "", "horodatage": "2022-07-25 19:25:40", "marker-color": "#7156FF"}}, {"type": "Feature", "geometry": {"type": "Point", "coordinates": [2.398077, 48.772743]}, "properties": {"etat de la localisation": "Delocalise", "numparc": 1310, "duree": "00:01:08", "horodatage": "2022-07-25 19:26:13", "marker-color": "#FF565E"}}, {"type": "Feature", "geometry": {"type": "Point", "coordinates": [2.395925, 48.769779]}, "properties": {"etat de la localisation": "Delocalise", "numparc": 1310, "duree": "00:01:12", "horodatage": "2022-07-25 19:28:29", "marker-color": "#FF565E"}}, {"type": "Feature", "geometry": {"type": "Point", "coordinates": [2.391208, 48.765926]}, "properties": {"etat de la localisation": "Delocalise", "numparc": 1310, "duree": "00:02:04", "horodatage": "2022-07-25 19:30:49", "marker-color": "#FF565E"}}, {"type": "Feature", "geometry": {"type": "Point", "coordinates": [2.383694, 48.764664]}, "properties": {"etat de la localisation": "Delocalise", "numparc": 1310, "duree": "00:02:31", "horodatage": "2022-07-25 19:33:10", "marker-color": "#FF565E"}}, {"type": "Feature", "geometry": {"type": "Point", "coordinates": [2.386515, 48.755791]}, "properties": {"etat de la localisation": "Delocalise", "numparc": 1310, "duree": "00:03:01", "horodatage": "2022-07-25 19:36:19", "marker-color": "#FF565E"}}, {"type": "Feature", "geometry": {"type": "Point", "coordinates": [2.37044, 48.752342]}, "properties": {"etat de la localisation": "Delocalise", "numparc": 1310, "duree": "00:01:24", "horodatage": "2022-07-25 19:39:49", "marker-color": "#FF565E"}}, {"type": "Feature", "geometry": {"type": "Point", "coordinates": [2.397872, 48.772346]}, "properties": {"etat de la localisation": "Delocalise", "numparc": 1307, "duree": "00:00:14", "horodatage": "2022-07-25 19:45:41", "marker-color": "#FF565E"}}, {"type": "Feature", "geometry": {"type": "Point", "coordinates": [2.397616, 48.772125]}, "properties": {"etat de la localisation": "Delocalise", "numparc": 1307, "duree": "00:02:15", "horodatage": "2022-07-25 19:46:36", "marker-color": "#FF565E"}}, {"type": "Feature", "geometry": {"type": "Point", "coordinates": [2.399164, 48.773903]}, "properties": {"etat de la localisation": "Delocalise", "numparc": 1305, "duree": "00:03:42", "horodatage": "2022-07-25 20:25:10", "marker-color": "#FF565E"}}, {"type": "Feature", "geometry": {"type": "Point", "coordinates": [2.399124, 48.773945]}, "properties": {"etat de la localisation": "Delocalise", "numparc": 1310, "duree": "00:02:40", "horodatage": "2022-07-25 20:47:03", "marker-color": "#FF565E"}}, {"type": "Feature", "geometry": {"type": "Point", "coordinates": [2.397991, 48.772438]}, "properties": {"etat de la localisation": "Delocalise", "numparc": 1307, "duree": "00:03:49", "horodatage": "2022-07-25 21:05:36", "marker-color": "#FF565E"}}, {"type": "Feature", "geometry": {"type": "Point", "coordinates": [2.398987, 48.773811]}, "properties": {"etat de la localisation": "Delocalise", "numparc": 1305, "duree": "00:01:54", "horodatage": "2022-07-25 21:47:48", "marker-color": "#FF565E"}}, {"type": "Feature", "geometry": {"type": "Point", "coordinates": [2.397892, 48.772366]}, "properties": {"etat de la localisation": "Delocalise", "numparc": 1307, "duree": "00:21:42", "horodatage": "2022-07-25 22:24:36", "marker-color": "#FF565E"}}, {"type": "Feature", "geometry": {"type": "Point", "coordinates": [2.397902, 48.772392]}, "properties": {"etat de la localisation": "Delocalise", "numparc": 1305, "duree": "00:23:07", "horodatage": "2022-07-25 22:50:43", "marker-color": "#FF565E"}}, {"type": "Feature", "geometry": {"type": "Point", "coordinates": [2.391245, 48.76593]}, "properties": {"etat de la localisation": "Delocalise", "numparc": 1305, "duree": "00:06:24", "horodatage": "2022-07-25 23:14:52", "marker-color": "#FF565E"}}, {"type": "Feature", "geometry": {"type": "Point", "coordinates": [2.386611, 48.75584]}, "properties": {"etat de la localisation": "Delocalise", "numparc": 1305, "duree": "00:06:37", "horodatage": "2022-07-25 23:22:36", "marker-color": "#FF565E"}}, {"type": "Feature", "geometry": {"type": "Point", "coordinates": [2.397268, 48.771648]}, "properties": {"etat de la localisation": "Delocalise", "numparc": 1310, "duree": "00:01:12", "horodatage": "2022-07-25 23:25:41", "marker-color": "#FF565E"}}, {"type": "Feature", "geometry": {"type": "Point", "coordinates": [2.372969, 48.746204]}, "properties": {"etat de la localisation": "Delocalise", "numparc": 1310, "duree": "00:04:47", "horodatage": "2022-07-25 23:36:57", "marker-color": "#FF565E"}}, {"type": "Feature", "geometry": {"type": "Point", "coordinates": [2.387566, 48.753956]}, "properties": {"etat de la localisation": "Hors service", "numparc": 1310, "duree": "", "horodatage": "2022-07-25 23:41:44", "marker-color": "#707070"}}, {"type": "Feature", "geometry": {"type": "Point", "coordinates": [2.397871, 48.7724]}, "properties": {"etat de la localisation": "Delocalise", "numparc": 1307, "duree": "00:04:24", "horodatage": "2022-07-25 23:44:32", "marker-color": "#FF565E"}}, {"type": "Feature", "geometry": {"type": "Point", "coordinates": [2.387743, 48.754025]}, "properties": {"etat de la localisation": "Hors service", "numparc": 1310, "duree": "", "horodatage": "2022-07-25 23:51:11", "marker-color": "#707070"}}, {"type": "Feature", "geometry": {"type": "Point", "coordinates": [2.387234, 48.755062]}, "properties": {"etat de la localisation": "Hors service", "numparc": 1307, "duree": "", "horodatage": "2022-07-25 23:58:29", "marker-color": "#707070"}}, {"type": "Feature", "geometry": {"type": "Point", "coordinates": [2.386953, 48.754616]}, "properties": {"etat de la localisation": "Hors service", "numparc": 1307, "duree": "", "horodatage": "2022-07-25 23:59:58", "marker-color": "#707070"}}, {"type": "Feature", "geometry": {"type": "Point", "coordinates": [2.388463, 48.7547]}, "properties": {"etat de la localisation": "Hors service", "numparc": 1306, "duree": "", "horodatage": "2022-07-26 00:10:32", "marker-color": "#707070"}}, {"type": "Feature", "geometry": {"type": "Point", "coordinates": [2.387774, 48.754223]}, "properties": {"etat de la localisation": "Hors service", "numparc": 1305, "duree": "", "horodatage": "2022-07-26 00:10:55", "marker-color": "#707070"}}]}