{"type": "FeatureCollection", "features": [{"type": "Feature", "geometry": {"type": "Point", "coordinates": [2.456304, 48.860439]}, "properties": {"alarme": "VEHICULE DELOCALISE", "numparc": 4930, "type": "EXPLOITATION", "duree": "00:03:25", "horodatage": "2023-03-14 13:05:58", "statut": "start", "marker-color": "#ff0000"}}, {"type": "Feature", "geometry": {"type": "Point", "coordinates": [2.463705, 48.863102]}, "properties": {"alarme": "VEHICULE DELOCALISE", "numparc": 4930, "type": "EXPLOITATION", "duree": "00:03:25", "horodatage": "2023-03-14 13:09:23", "statut": "end", "marker-color": "#2fe184"}}]}