{"type": "FeatureCollection", "features": [{"type": "Feature", "geometry": {"type": "Point", "coordinates": [2.547705, 48.803852]}, "properties": {"alarme": "VEHICULE DELOCALISE", "numparc": 9541, "type": "EXPLOITATION", "duree": "00:00:35", "horodatage": "2022-08-23 19:38:52", "statut": "start", "marker-color": "#ff0000"}}, {"type": "Feature", "geometry": {"type": "Point", "coordinates": [2.510225, 48.807278]}, "properties": {"alarme": "VEHICULE DELOCALISE", "numparc": 9541, "type": "EXPLOITATION", "duree": "00:00:04", "horodatage": "2022-08-23 19:54:38", "statut": "start", "marker-color": "#ff0000"}}, {"type": "Feature", "geometry": {"type": "Point", "coordinates": [2.550021, 48.803379]}, "properties": {"alarme": "VEHICULE DELOCALISE", "numparc": 9541, "type": "EXPLOITATION", "duree": "00:00:35", "horodatage": "2022-08-23 19:39:27", "statut": "end", "marker-color": "#2fe184"}}, {"type": "Feature", "geometry": {"type": "Point", "coordinates": [2.510225, 48.807278]}, "properties": {"alarme": "VEHICULE DELOCALISE", "numparc": 9541, "type": "EXPLOITATION", "duree": "00:00:04", "horodatage": "2022-08-23 19:54:42", "statut": "end", "marker-color": "#2fe184"}}]}