{"type": "FeatureCollection", "features": [{"type": "Feature", "geometry": {"type": "Point", "coordinates": [2.442287, 48.772076]}, "properties": {"etat de la localisation": "Delocalise", "numparc": 9538, "duree": "00:12:44", "horodatage": "2022-03-29 04:34:40", "marker-color": "#FF565E"}}, {"type": "Feature", "geometry": {"type": "Point", "coordinates": [2.443009, 48.772026]}, "properties": {"etat de la localisation": "Hors service", "numparc": 9548, "duree": "", "horodatage": "2022-03-29 05:07:24", "marker-color": "#707070"}}, {"type": "Feature", "geometry": {"type": "Point", "coordinates": [2.389052, 48.75729]}, "properties": {"etat de la localisation": "Mission suivante non connue", "numparc": 9539, "duree": "", "horodatage": "2022-03-29 06:23:51", "marker-color": "#7156FF"}}, {"type": "Feature", "geometry": {"type": "Point", "coordinates": [2.388337, 48.757042]}, "properties": {"etat de la localisation": "Delocalise", "numparc": 9539, "duree": "00:00:21", "horodatage": "2022-03-29 06:26:17", "marker-color": "#FF565E"}}, {"type": "Feature", "geometry": {"type": "Point", "coordinates": [2.442223, 48.772469]}, "properties": {"etat de la localisation": "Mission inconnue", "numparc": 9537, "duree": "", "horodatage": "2022-03-29 06:41:53", "marker-color": "#FF9F56"}}, {"type": "Feature", "geometry": {"type": "Point", "coordinates": [2.506544, 48.771835]}, "properties": {"etat de la localisation": "Mission suivante non connue", "numparc": 9532, "duree": "", "horodatage": "2022-03-29 06:46:36", "marker-color": "#7156FF"}}, {"type": "Feature", "geometry": {"type": "Point", "coordinates": [2.442652, 48.773495]}, "properties": {"etat de la localisation": "Delocalise", "numparc": 9524, "duree": "00:00:52", "horodatage": "2022-03-29 06:47:18", "marker-color": "#FF565E"}}, {"type": "Feature", "geometry": {"type": "Point", "coordinates": [2.38906, 48.75729]}, "properties": {"etat de la localisation": "Mission suivante non connue", "numparc": 9538, "duree": "", "horodatage": "2022-03-29 06:55:09", "marker-color": "#7156FF"}}, {"type": "Feature", "geometry": {"type": "Point", "coordinates": [2.388362, 48.757065]}, "properties": {"etat de la localisation": "Delocalise", "numparc": 9538, "duree": "00:00:18", "horodatage": "2022-03-29 07:00:39", "marker-color": "#FF565E"}}, {"type": "Feature", "geometry": {"type": "Point", "coordinates": [2.441987, 48.772697]}, "properties": {"etat de la localisation": "Delocalise", "numparc": 9531, "duree": "00:02:41", "horodatage": "2022-03-29 07:02:05", "marker-color": "#FF565E"}}, {"type": "Feature", "geometry": {"type": "Point", "coordinates": [2.389052, 48.757282]}, "properties": {"etat de la localisation": "Mission suivante non connue", "numparc": 9533, "duree": "", "horodatage": "2022-03-29 07:07:16", "marker-color": "#7156FF"}}, {"type": "Feature", "geometry": {"type": "Point", "coordinates": [2.388352, 48.75708]}, "properties": {"etat de la localisation": "Delocalise", "numparc": 9533, "duree": "00:00:17", "horodatage": "2022-03-29 07:15:39", "marker-color": "#FF565E"}}, {"type": "Feature", "geometry": {"type": "Point", "coordinates": [2.442368, 48.773689]}, "properties": {"etat de la localisation": "Mission inconnue", "numparc": 9534, "duree": "", "horodatage": "2022-03-29 08:10:58", "marker-color": "#FF9F56"}}, {"type": "Feature", "geometry": {"type": "Point", "coordinates": [2.442833, 48.773598]}, "properties": {"etat de la localisation": "Delocalise", "numparc": 9534, "duree": "00:06:33", "horodatage": "2022-03-29 08:11:02", "marker-color": "#FF565E"}}, {"type": "Feature", "geometry": {"type": "Point", "coordinates": [2.388956, 48.757244]}, "properties": {"etat de la localisation": "Delocalise", "numparc": 9538, "duree": "00:00:52", "horodatage": "2022-03-29 08:20:21", "marker-color": "#FF565E"}}, {"type": "Feature", "geometry": {"type": "Point", "coordinates": [2.442274, 48.772156]}, "properties": {"etat de la localisation": "Hors service", "numparc": 9537, "duree": "", "horodatage": "2022-03-29 08:28:06", "marker-color": "#707070"}}, {"type": "Feature", "geometry": {"type": "Point", "coordinates": [2.402809, 48.76347]}, "properties": {"etat de la localisation": "Delocalise", "numparc": 9534, "duree": "00:05:07", "horodatage": "2022-03-29 08:30:01", "marker-color": "#FF565E"}}, {"type": "Feature", "geometry": {"type": "Point", "coordinates": [2.38933, 48.757317]}, "properties": {"etat de la localisation": "Mission suivante non connue", "numparc": 9531, "duree": "", "horodatage": "2022-03-29 08:32:25", "marker-color": "#7156FF"}}, {"type": "Feature", "geometry": {"type": "Point", "coordinates": [2.388263, 48.756866]}, "properties": {"etat de la localisation": "Delocalise", "numparc": 9531, "duree": "00:00:23", "horodatage": "2022-03-29 08:38:04", "marker-color": "#FF565E"}}, {"type": "Feature", "geometry": {"type": "Point", "coordinates": [2.38932, 48.757355]}, "properties": {"etat de la localisation": "Mission suivante non connue", "numparc": 9532, "duree": "", "horodatage": "2022-03-29 08:41:08", "marker-color": "#7156FF"}}, {"type": "Feature", "geometry": {"type": "Point", "coordinates": [2.389403, 48.757362]}, "properties": {"etat de la localisation": "Mission suivante non connue", "numparc": 9523, "duree": "", "horodatage": "2022-03-29 09:11:10", "marker-color": "#7156FF"}}, {"type": "Feature", "geometry": {"type": "Point", "coordinates": [2.388764, 48.757168]}, "properties": {"etat de la localisation": "Mission suivante non connue", "numparc": 9523, "duree": "", "horodatage": "2022-03-29 09:11:39", "marker-color": "#7156FF"}}, {"type": "Feature", "geometry": {"type": "Point", "coordinates": [2.38883, 48.757275]}, "properties": {"etat de la localisation": "Delocalise", "numparc": 9523, "duree": "00:00:10", "horodatage": "2022-03-29 09:13:30", "marker-color": "#FF565E"}}, {"type": "Feature", "geometry": {"type": "Point", "coordinates": [2.443109, 48.771988]}, "properties": {"etat de la localisation": "Hors service", "numparc": 9523, "duree": "", "horodatage": "2022-03-29 09:25:58", "marker-color": "#707070"}}, {"type": "Feature", "geometry": {"type": "Point", "coordinates": [2.389065, 48.757286]}, "properties": {"etat de la localisation": "Mission suivante non connue", "numparc": 9534, "duree": "", "horodatage": "2022-03-29 09:32:05", "marker-color": "#7156FF"}}, {"type": "Feature", "geometry": {"type": "Point", "coordinates": [2.506553, 48.771832]}, "properties": {"etat de la localisation": "Hors service", "numparc": 9539, "duree": "", "horodatage": "2022-03-29 09:32:25", "marker-color": "#707070"}}, {"type": "Feature", "geometry": {"type": "Point", "coordinates": [2.388313, 48.757034]}, "properties": {"etat de la localisation": "Delocalise", "numparc": 9534, "duree": "00:00:21", "horodatage": "2022-03-29 09:39:47", "marker-color": "#FF565E"}}, {"type": "Feature", "geometry": {"type": "Point", "coordinates": [2.441702, 48.77298]}, "properties": {"etat de la localisation": "Hors service", "numparc": 9538, "duree": "", "horodatage": "2022-03-29 09:44:18", "marker-color": "#707070"}}, {"type": "Feature", "geometry": {"type": "Point", "coordinates": [2.389095, 48.75729]}, "properties": {"etat de la localisation": "Mission suivante non connue", "numparc": 9524, "duree": "", "horodatage": "2022-03-29 10:09:25", "marker-color": "#7156FF"}}, {"type": "Feature", "geometry": {"type": "Point", "coordinates": [2.389096, 48.757298]}, "properties": {"etat de la localisation": "Mission suivante non connue", "numparc": 9548, "duree": "", "horodatage": "2022-03-29 10:18:57", "marker-color": "#7156FF"}}, {"type": "Feature", "geometry": {"type": "Point", "coordinates": [2.388343, 48.757042]}, "properties": {"etat de la localisation": "Delocalise", "numparc": 9524, "duree": "00:00:19", "horodatage": "2022-03-29 10:19:07", "marker-color": "#FF565E"}}, {"type": "Feature", "geometry": {"type": "Point", "coordinates": [2.388214, 48.75703]}, "properties": {"etat de la localisation": "Delocalise", "numparc": 9548, "duree": "00:00:20", "horodatage": "2022-03-29 10:29:44", "marker-color": "#FF565E"}}, {"type": "Feature", "geometry": {"type": "Point", "coordinates": [2.44174, 48.772987]}, "properties": {"etat de la localisation": "Hors service", "numparc": 9530, "duree": "", "horodatage": "2022-03-29 11:02:54", "marker-color": "#707070"}}, {"type": "Feature", "geometry": {"type": "Point", "coordinates": [2.443132, 48.771988]}, "properties": {"etat de la localisation": "Mission inconnue", "numparc": 9546, "duree": "", "horodatage": "2022-03-29 11:30:59", "marker-color": "#FF9F56"}}, {"type": "Feature", "geometry": {"type": "Point", "coordinates": [2.443132, 48.771988]}, "properties": {"etat de la localisation": "Mission inconnue", "numparc": 9546, "duree": "", "horodatage": "2022-03-29 11:31:34", "marker-color": "#FF9F56"}}, {"type": "Feature", "geometry": {"type": "Point", "coordinates": [2.389111, 48.757298]}, "properties": {"etat de la localisation": "Mission suivante non connue", "numparc": 9532, "duree": "", "horodatage": "2022-03-29 11:50:24", "marker-color": "#7156FF"}}, {"type": "Feature", "geometry": {"type": "Point", "coordinates": [2.388314, 48.75703]}, "properties": {"etat de la localisation": "Delocalise", "numparc": 9532, "duree": "00:00:20", "horodatage": "2022-03-29 11:53:56", "marker-color": "#FF565E"}}, {"type": "Feature", "geometry": {"type": "Point", "coordinates": [2.506628, 48.772198]}, "properties": {"etat de la localisation": "Mission suivante non connue", "numparc": 9524, "duree": "", "horodatage": "2022-03-29 12:06:34", "marker-color": "#7156FF"}}, {"type": "Feature", "geometry": {"type": "Point", "coordinates": [2.389033, 48.75729]}, "properties": {"etat de la localisation": "Mission suivante non connue", "numparc": 9534, "duree": "", "horodatage": "2022-03-29 12:14:04", "marker-color": "#7156FF"}}, {"type": "Feature", "geometry": {"type": "Point", "coordinates": [2.389033, 48.75729]}, "properties": {"etat de la localisation": "Mission suivante non connue", "numparc": 9534, "duree": "", "horodatage": "2022-03-29 12:15:14", "marker-color": "#7156FF"}}, {"type": "Feature", "geometry": {"type": "Point", "coordinates": [2.388279, 48.757019]}, "properties": {"etat de la localisation": "Delocalise", "numparc": 9534, "duree": "00:00:21", "horodatage": "2022-03-29 12:19:41", "marker-color": "#FF565E"}}, {"type": "Feature", "geometry": {"type": "Point", "coordinates": [2.447335, 48.768757]}, "properties": {"etat de la localisation": "Delocalise", "numparc": 9524, "duree": "00:01:32", "horodatage": "2022-03-29 13:12:25", "marker-color": "#FF565E"}}, {"type": "Feature", "geometry": {"type": "Point", "coordinates": [2.506545, 48.771828]}, "properties": {"etat de la localisation": "Mission suivante non connue", "numparc": 9524, "duree": "", "horodatage": "2022-03-29 13:25:32", "marker-color": "#7156FF"}}, {"type": "Feature", "geometry": {"type": "Point", "coordinates": [2.506681, 48.771637]}, "properties": {"etat de la localisation": "Hors service", "numparc": 9524, "duree": "", "horodatage": "2022-03-29 13:30:04", "marker-color": "#707070"}}, {"type": "Feature", "geometry": {"type": "Point", "coordinates": [2.389069, 48.757286]}, "properties": {"etat de la localisation": "Mission suivante non connue", "numparc": 9524, "duree": "", "horodatage": "2022-03-29 14:07:58", "marker-color": "#7156FF"}}, {"type": "Feature", "geometry": {"type": "Point", "coordinates": [2.388384, 48.75708]}, "properties": {"etat de la localisation": "Delocalise", "numparc": 9524, "duree": "00:00:16", "horodatage": "2022-03-29 14:12:31", "marker-color": "#FF565E"}}, {"type": "Feature", "geometry": {"type": "Point", "coordinates": [2.506541, 48.771824]}, "properties": {"etat de la localisation": "Mission suivante non connue", "numparc": 9524, "duree": "", "horodatage": "2022-03-29 14:43:24", "marker-color": "#7156FF"}}, {"type": "Feature", "geometry": {"type": "Point", "coordinates": [2.463465, 48.768776]}, "properties": {"etat de la localisation": "Mission inconnue", "numparc": 9524, "duree": "", "horodatage": "2022-03-29 15:11:09", "marker-color": "#FF9F56"}}, {"type": "Feature", "geometry": {"type": "Point", "coordinates": [2.487026, 48.767986]}, "properties": {"etat de la localisation": "Mission inconnue", "numparc": 9537, "duree": "", "horodatage": "2022-03-29 15:13:40", "marker-color": "#FF9F56"}}, {"type": "Feature", "geometry": {"type": "Point", "coordinates": [2.44721, 48.769295]}, "properties": {"etat de la localisation": "Mission inconnue", "numparc": 9524, "duree": "", "horodatage": "2022-03-29 15:13:55", "marker-color": "#FF9F56"}}, {"type": "Feature", "geometry": {"type": "Point", "coordinates": [2.389108, 48.757298]}, "properties": {"etat de la localisation": "Mission suivante non connue", "numparc": 9524, "duree": "", "horodatage": "2022-03-29 15:29:35", "marker-color": "#7156FF"}}, {"type": "Feature", "geometry": {"type": "Point", "coordinates": [2.388298, 48.757034]}, "properties": {"etat de la localisation": "Delocalise", "numparc": 9524, "duree": "00:00:20", "horodatage": "2022-03-29 15:31:43", "marker-color": "#FF565E"}}, {"type": "Feature", "geometry": {"type": "Point", "coordinates": [2.389032, 48.75729]}, "properties": {"etat de la localisation": "Mission suivante non connue", "numparc": 9532, "duree": "", "horodatage": "2022-03-29 15:46:57", "marker-color": "#7156FF"}}, {"type": "Feature", "geometry": {"type": "Point", "coordinates": [2.388293, 48.757038]}, "properties": {"etat de la localisation": "Delocalise", "numparc": 9532, "duree": "00:00:23", "horodatage": "2022-03-29 15:53:45", "marker-color": "#FF565E"}}, {"type": "Feature", "geometry": {"type": "Point", "coordinates": [2.50655, 48.77182]}, "properties": {"etat de la localisation": "Mission suivante non connue", "numparc": 9524, "duree": "", "horodatage": "2022-03-29 16:05:12", "marker-color": "#7156FF"}}, {"type": "Feature", "geometry": {"type": "Point", "coordinates": [2.443253, 48.771839]}, "properties": {"etat de la localisation": "Delocalise", "numparc": 9529, "duree": "00:04:16", "horodatage": "2022-03-29 16:21:20", "marker-color": "#FF565E"}}, {"type": "Feature", "geometry": {"type": "Point", "coordinates": [2.389348, 48.757362]}, "properties": {"etat de la localisation": "Mission suivante non connue", "numparc": 9524, "duree": "", "horodatage": "2022-03-29 16:50:27", "marker-color": "#7156FF"}}, {"type": "Feature", "geometry": {"type": "Point", "coordinates": [2.399599, 48.760796]}, "properties": {"etat de la localisation": "Mission inconnue", "numparc": 9524, "duree": "", "horodatage": "2022-03-29 16:58:24", "marker-color": "#FF9F56"}}, {"type": "Feature", "geometry": {"type": "Point", "coordinates": [2.389095, 48.75732]}, "properties": {"etat de la localisation": "Hors service", "numparc": 9533, "duree": "", "horodatage": "2022-03-29 17:03:23", "marker-color": "#707070"}}, {"type": "Feature", "geometry": {"type": "Point", "coordinates": [2.408868, 48.76543]}, "properties": {"etat de la localisation": "Mission inconnue", "numparc": 9524, "duree": "", "horodatage": "2022-03-29 17:03:36", "marker-color": "#FF9F56"}}, {"type": "Feature", "geometry": {"type": "Point", "coordinates": [2.389386, 48.757385]}, "properties": {"etat de la localisation": "Mission suivante non connue", "numparc": 9532, "duree": "", "horodatage": "2022-03-29 17:10:22", "marker-color": "#7156FF"}}, {"type": "Feature", "geometry": {"type": "Point", "coordinates": [2.389384, 48.757385]}, "properties": {"etat de la localisation": "Mission suivante non connue", "numparc": 9532, "duree": "", "horodatage": "2022-03-29 17:10:47", "marker-color": "#7156FF"}}, {"type": "Feature", "geometry": {"type": "Point", "coordinates": [2.391548, 48.758007]}, "properties": {"etat de la localisation": "Delocalise", "numparc": 9533, "duree": "00:00:25", "horodatage": "2022-03-29 17:14:08", "marker-color": "#FF565E"}}, {"type": "Feature", "geometry": {"type": "Point", "coordinates": [2.441821, 48.772697]}, "properties": {"etat de la localisation": "Delocalise", "numparc": 9538, "duree": "00:02:01", "horodatage": "2022-03-29 17:15:46", "marker-color": "#FF565E"}}, {"type": "Feature", "geometry": {"type": "Point", "coordinates": [2.388204, 48.756832]}, "properties": {"etat de la localisation": "Delocalise", "numparc": 9532, "duree": "00:01:21", "horodatage": "2022-03-29 17:21:04", "marker-color": "#FF565E"}}, {"type": "Feature", "geometry": {"type": "Point", "coordinates": [2.389072, 48.757259]}, "properties": {"etat de la localisation": "Mission suivante non connue", "numparc": 9537, "duree": "", "horodatage": "2022-03-29 17:21:52", "marker-color": "#7156FF"}}, {"type": "Feature", "geometry": {"type": "Point", "coordinates": [2.388298, 48.756981]}, "properties": {"etat de la localisation": "Delocalise", "numparc": 9537, "duree": "00:00:24", "horodatage": "2022-03-29 17:23:31", "marker-color": "#FF565E"}}, {"type": "Feature", "geometry": {"type": "Point", "coordinates": [2.506543, 48.771797]}, "properties": {"etat de la localisation": "Mission suivante non connue", "numparc": 9524, "duree": "", "horodatage": "2022-03-29 17:24:36", "marker-color": "#7156FF"}}, {"type": "Feature", "geometry": {"type": "Point", "coordinates": [2.389356, 48.757355]}, "properties": {"etat de la localisation": "Mission suivante non connue", "numparc": 9534, "duree": "", "horodatage": "2022-03-29 17:32:14", "marker-color": "#7156FF"}}, {"type": "Feature", "geometry": {"type": "Point", "coordinates": [2.389356, 48.757355]}, "properties": {"etat de la localisation": "Mission suivante non connue", "numparc": 9534, "duree": "", "horodatage": "2022-03-29 17:34:33", "marker-color": "#7156FF"}}, {"type": "Feature", "geometry": {"type": "Point", "coordinates": [2.388205, 48.756905]}, "properties": {"etat de la localisation": "Delocalise", "numparc": 9534, "duree": "00:01:02", "horodatage": "2022-03-29 17:40:23", "marker-color": "#FF565E"}}, {"type": "Feature", "geometry": {"type": "Point", "coordinates": [2.389005, 48.757275]}, "properties": {"etat de la localisation": "Mission suivante non connue", "numparc": 9530, "duree": "", "horodatage": "2022-03-29 17:56:27", "marker-color": "#7156FF"}}, {"type": "Feature", "geometry": {"type": "Point", "coordinates": [2.389161, 48.757355]}, "properties": {"etat de la localisation": "Mission suivante non connue", "numparc": 9529, "duree": "", "horodatage": "2022-03-29 17:58:16", "marker-color": "#7156FF"}}, {"type": "Feature", "geometry": {"type": "Point", "coordinates": [2.388285, 48.757046]}, "properties": {"etat de la localisation": "Delocalise", "numparc": 9530, "duree": "00:00:18", "horodatage": "2022-03-29 17:58:23", "marker-color": "#FF565E"}}, {"type": "Feature", "geometry": {"type": "Point", "coordinates": [2.388312, 48.757034]}, "properties": {"etat de la localisation": "Delocalise", "numparc": 9529, "duree": "00:00:24", "horodatage": "2022-03-29 18:07:13", "marker-color": "#FF565E"}}, {"type": "Feature", "geometry": {"type": "Point", "coordinates": [2.389012, 48.757275]}, "properties": {"etat de la localisation": "Mission suivante non connue", "numparc": 9524, "duree": "", "horodatage": "2022-03-29 18:10:01", "marker-color": "#7156FF"}}, {"type": "Feature", "geometry": {"type": "Point", "coordinates": [2.388245, 48.757023]}, "properties": {"etat de la localisation": "Delocalise", "numparc": 9524, "duree": "00:00:19", "horodatage": "2022-03-29 18:16:38", "marker-color": "#FF565E"}}, {"type": "Feature", "geometry": {"type": "Point", "coordinates": [2.389085, 48.757305]}, "properties": {"etat de la localisation": "Mission suivante non connue", "numparc": 9533, "duree": "", "horodatage": "2022-03-29 18:30:41", "marker-color": "#7156FF"}}, {"type": "Feature", "geometry": {"type": "Point", "coordinates": [2.388345, 48.757034]}, "properties": {"etat de la localisation": "Delocalise", "numparc": 9533, "duree": "00:00:19", "horodatage": "2022-03-29 18:33:37", "marker-color": "#FF565E"}}, {"type": "Feature", "geometry": {"type": "Point", "coordinates": [2.506676, 48.772198]}, "properties": {"etat de la localisation": "Mission suivante non connue", "numparc": 9524, "duree": "", "horodatage": "2022-03-29 18:43:32", "marker-color": "#7156FF"}}, {"type": "Feature", "geometry": {"type": "Point", "coordinates": [2.389138, 48.757324]}, "properties": {"etat de la localisation": "Mission suivante non connue", "numparc": 9534, "duree": "", "horodatage": "2022-03-29 18:55:03", "marker-color": "#7156FF"}}, {"type": "Feature", "geometry": {"type": "Point", "coordinates": [2.387778, 48.756821]}, "properties": {"etat de la localisation": "Delocalise", "numparc": 9534, "duree": "00:02:13", "horodatage": "2022-03-29 18:56:25", "marker-color": "#FF565E"}}, {"type": "Feature", "geometry": {"type": "Point", "coordinates": [2.4002, 48.761593]}, "properties": {"etat de la localisation": "Delocalise", "numparc": 9534, "duree": "00:02:45", "horodatage": "2022-03-29 18:59:40", "marker-color": "#FF565E"}}, {"type": "Feature", "geometry": {"type": "Point", "coordinates": [2.410339, 48.76585]}, "properties": {"etat de la localisation": "Delocalise", "numparc": 9534, "duree": "00:03:08", "horodatage": "2022-03-29 19:03:51", "marker-color": "#FF565E"}}, {"type": "Feature", "geometry": {"type": "Point", "coordinates": [2.424602, 48.769951]}, "properties": {"etat de la localisation": "Delocalise", "numparc": 9534, "duree": "00:00:18", "horodatage": "2022-03-29 19:07:31", "marker-color": "#FF565E"}}, {"type": "Feature", "geometry": {"type": "Point", "coordinates": [2.441731, 48.77235]}, "properties": {"etat de la localisation": "Hors service", "numparc": 9534, "duree": "", "horodatage": "2022-03-29 19:13:05", "marker-color": "#707070"}}, {"type": "Feature", "geometry": {"type": "Point", "coordinates": [2.389038, 48.757263]}, "properties": {"etat de la localisation": "Mission suivante non connue", "numparc": 9524, "duree": "", "horodatage": "2022-03-29 19:27:35", "marker-color": "#7156FF"}}, {"type": "Feature", "geometry": {"type": "Point", "coordinates": [2.441737, 48.772358]}, "properties": {"etat de la localisation": "Hors service", "numparc": 9533, "duree": "", "horodatage": "2022-03-29 19:27:52", "marker-color": "#707070"}}, {"type": "Feature", "geometry": {"type": "Point", "coordinates": [2.441758, 48.772354]}, "properties": {"etat de la localisation": "Hors service", "numparc": 9530, "duree": "", "horodatage": "2022-03-29 19:28:37", "marker-color": "#707070"}}, {"type": "Feature", "geometry": {"type": "Point", "coordinates": [2.443273, 48.771767]}, "properties": {"etat de la localisation": "Mission inconnue", "numparc": 9533, "duree": "", "horodatage": "2022-03-29 19:30:47", "marker-color": "#FF9F56"}}, {"type": "Feature", "geometry": {"type": "Point", "coordinates": [2.388405, 48.757069]}, "properties": {"etat de la localisation": "Delocalise", "numparc": 9524, "duree": "00:00:17", "horodatage": "2022-03-29 19:34:22", "marker-color": "#FF565E"}}, {"type": "Feature", "geometry": {"type": "Point", "coordinates": [2.441639, 48.772743]}, "properties": {"etat de la localisation": "Hors service", "numparc": 9538, "duree": "", "horodatage": "2022-03-29 19:38:02", "marker-color": "#707070"}}, {"type": "Feature", "geometry": {"type": "Point", "coordinates": [2.442457, 48.771877]}, "properties": {"etat de la localisation": "Hors service", "numparc": 9533, "duree": "", "horodatage": "2022-03-29 19:42:28", "marker-color": "#707070"}}, {"type": "Feature", "geometry": {"type": "Point", "coordinates": [2.506569, 48.77182]}, "properties": {"etat de la localisation": "Mission suivante non connue", "numparc": 9524, "duree": "", "horodatage": "2022-03-29 20:01:30", "marker-color": "#7156FF"}}, {"type": "Feature", "geometry": {"type": "Point", "coordinates": [2.389192, 48.757332]}, "properties": {"etat de la localisation": "Mission suivante non connue", "numparc": 9523, "duree": "", "horodatage": "2022-03-29 20:04:06", "marker-color": "#7156FF"}}, {"type": "Feature", "geometry": {"type": "Point", "coordinates": [2.442456, 48.771877]}, "properties": {"etat de la localisation": "Mission inconnue", "numparc": 9533, "duree": "", "horodatage": "2022-03-29 20:07:46", "marker-color": "#FF9F56"}}, {"type": "Feature", "geometry": {"type": "Point", "coordinates": [2.442454, 48.771877]}, "properties": {"etat de la localisation": "Hors service", "numparc": 9533, "duree": "", "horodatage": "2022-03-29 20:10:45", "marker-color": "#707070"}}, {"type": "Feature", "geometry": {"type": "Point", "coordinates": [2.44246, 48.772011]}, "properties": {"etat de la localisation": "Mission inconnue", "numparc": 9530, "duree": "", "horodatage": "2022-03-29 20:13:37", "marker-color": "#FF9F56"}}, {"type": "Feature", "geometry": {"type": "Point", "coordinates": [2.388286, 48.756962]}, "properties": {"etat de la localisation": "Delocalise", "numparc": 9523, "duree": "00:00:24", "horodatage": "2022-03-29 20:14:24", "marker-color": "#FF565E"}}, {"type": "Feature", "geometry": {"type": "Point", "coordinates": [2.442456, 48.772011]}, "properties": {"etat de la localisation": "Hors service", "numparc": 9530, "duree": "", "horodatage": "2022-03-29 20:17:13", "marker-color": "#707070"}}, {"type": "Feature", "geometry": {"type": "Point", "coordinates": [2.442454, 48.772007]}, "properties": {"etat de la localisation": "Mission inconnue", "numparc": 9530, "duree": "", "horodatage": "2022-03-29 20:32:59", "marker-color": "#FF9F56"}}, {"type": "Feature", "geometry": {"type": "Point", "coordinates": [2.442451, 48.772007]}, "properties": {"etat de la localisation": "Hors service", "numparc": 9530, "duree": "", "horodatage": "2022-03-29 20:35:57", "marker-color": "#707070"}}, {"type": "Feature", "geometry": {"type": "Point", "coordinates": [2.506746, 48.771915]}, "properties": {"etat de la localisation": "Mission suivante non connue", "numparc": 9532, "duree": "", "horodatage": "2022-03-29 20:37:40", "marker-color": "#7156FF"}}, {"type": "Feature", "geometry": {"type": "Point", "coordinates": [2.506761, 48.772308]}, "properties": {"etat de la localisation": "Mission inconnue", "numparc": 9532, "duree": "", "horodatage": "2022-03-29 20:38:01", "marker-color": "#FF9F56"}}, {"type": "Feature", "geometry": {"type": "Point", "coordinates": [2.442449, 48.771877]}, "properties": {"etat de la localisation": "Mission inconnue", "numparc": 9533, "duree": "", "horodatage": "2022-03-29 20:38:06", "marker-color": "#FF9F56"}}, {"type": "Feature", "geometry": {"type": "Point", "coordinates": [2.442445, 48.771877]}, "properties": {"etat de la localisation": "Hors service", "numparc": 9533, "duree": "", "horodatage": "2022-03-29 20:40:59", "marker-color": "#707070"}}, {"type": "Feature", "geometry": {"type": "Point", "coordinates": [2.38938, 48.757362]}, "properties": {"etat de la localisation": "Mission suivante non connue", "numparc": 9524, "duree": "", "horodatage": "2022-03-29 20:41:40", "marker-color": "#7156FF"}}, {"type": "Feature", "geometry": {"type": "Point", "coordinates": [2.435035, 48.773098]}, "properties": {"etat de la localisation": "Mission suivante non connue", "numparc": 9524, "duree": "", "horodatage": "2022-03-29 20:59:32", "marker-color": "#7156FF"}}, {"type": "Feature", "geometry": {"type": "Point", "coordinates": [2.442245, 48.772289]}, "properties": {"etat de la localisation": "Mission inconnue", "numparc": 9538, "duree": "", "horodatage": "2022-03-29 21:00:44", "marker-color": "#FF9F56"}}, {"type": "Feature", "geometry": {"type": "Point", "coordinates": [2.442241, 48.772289]}, "properties": {"etat de la localisation": "Hors service", "numparc": 9538, "duree": "", "horodatage": "2022-03-29 21:02:51", "marker-color": "#707070"}}, {"type": "Feature", "geometry": {"type": "Point", "coordinates": [2.443295, 48.772423]}, "properties": {"etat de la localisation": "Hors service", "numparc": 9524, "duree": "", "horodatage": "2022-03-29 21:09:12", "marker-color": "#707070"}}, {"type": "Feature", "geometry": {"type": "Point", "coordinates": [2.408749, 48.765343]}, "properties": {"etat de la localisation": "Mission inconnue", "numparc": 9532, "duree": "", "horodatage": "2022-03-29 21:10:48", "marker-color": "#FF9F56"}}, {"type": "Feature", "geometry": {"type": "Point", "coordinates": [2.443087, 48.772404]}, "properties": {"etat de la localisation": "Mission inconnue", "numparc": 9524, "duree": "", "horodatage": "2022-03-29 21:26:16", "marker-color": "#FF9F56"}}, {"type": "Feature", "geometry": {"type": "Point", "coordinates": [2.443088, 48.772404]}, "properties": {"etat de la localisation": "Hors service", "numparc": 9524, "duree": "", "horodatage": "2022-03-29 21:28:12", "marker-color": "#707070"}}, {"type": "Feature", "geometry": {"type": "Point", "coordinates": [2.441717, 48.772419]}, "properties": {"etat de la localisation": "Hors service", "numparc": 9529, "duree": "", "horodatage": "2022-03-29 21:32:24", "marker-color": "#707070"}}, {"type": "Feature", "geometry": {"type": "Point", "coordinates": [2.441699, 48.772579]}, "properties": {"etat de la localisation": "Hors service", "numparc": 9523, "duree": "", "horodatage": "2022-03-29 21:35:24", "marker-color": "#707070"}}, {"type": "Feature", "geometry": {"type": "Point", "coordinates": [2.443088, 48.772404]}, "properties": {"etat de la localisation": "Mission inconnue", "numparc": 9524, "duree": "", "horodatage": "2022-03-29 21:42:08", "marker-color": "#FF9F56"}}, {"type": "Feature", "geometry": {"type": "Point", "coordinates": [2.443089, 48.772404]}, "properties": {"etat de la localisation": "Hors service", "numparc": 9524, "duree": "", "horodatage": "2022-03-29 21:43:56", "marker-color": "#707070"}}, {"type": "Feature", "geometry": {"type": "Point", "coordinates": [2.389375, 48.757305]}, "properties": {"etat de la localisation": "Delocalise", "numparc": 9548, "duree": "00:01:54", "horodatage": "2022-03-29 22:04:15", "marker-color": "#FF565E"}}, {"type": "Feature", "geometry": {"type": "Point", "coordinates": [2.442461, 48.772137]}, "properties": {"etat de la localisation": "Mission inconnue", "numparc": 9529, "duree": "", "horodatage": "2022-03-29 22:20:16", "marker-color": "#FF9F56"}}, {"type": "Feature", "geometry": {"type": "Point", "coordinates": [2.442457, 48.772137]}, "properties": {"etat de la localisation": "Hors service", "numparc": 9529, "duree": "", "horodatage": "2022-03-29 22:21:43", "marker-color": "#707070"}}, {"type": "Feature", "geometry": {"type": "Point", "coordinates": [2.4426, 48.771851]}, "properties": {"etat de la localisation": "Mission inconnue", "numparc": 9523, "duree": "", "horodatage": "2022-03-29 22:47:55", "marker-color": "#FF9F56"}}, {"type": "Feature", "geometry": {"type": "Point", "coordinates": [2.442593, 48.771851]}, "properties": {"etat de la localisation": "Hors service", "numparc": 9523, "duree": "", "horodatage": "2022-03-29 22:49:04", "marker-color": "#707070"}}, {"type": "Feature", "geometry": {"type": "Point", "coordinates": [2.442458, 48.772141]}, "properties": {"etat de la localisation": "Mission inconnue", "numparc": 9529, "duree": "", "horodatage": "2022-03-29 23:00:38", "marker-color": "#FF9F56"}}, {"type": "Feature", "geometry": {"type": "Point", "coordinates": [2.44246, 48.772137]}, "properties": {"etat de la localisation": "Hors service", "numparc": 9529, "duree": "", "horodatage": "2022-03-29 23:04:58", "marker-color": "#707070"}}, {"type": "Feature", "geometry": {"type": "Point", "coordinates": [2.443089, 48.772404]}, "properties": {"etat de la localisation": "Mission inconnue", "numparc": 9524, "duree": "", "horodatage": "2022-03-29 23:39:18", "marker-color": "#FF9F56"}}, {"type": "Feature", "geometry": {"type": "Point", "coordinates": [2.443089, 48.772404]}, "properties": {"etat de la localisation": "Hors service", "numparc": 9524, "duree": "", "horodatage": "2022-03-29 23:40:08", "marker-color": "#707070"}}, {"type": "Feature", "geometry": {"type": "Point", "coordinates": [2.442592, 48.771851]}, "properties": {"etat de la localisation": "Mission inconnue", "numparc": 9523, "duree": "", "horodatage": "2022-03-30 00:11:15", "marker-color": "#FF9F56"}}, {"type": "Feature", "geometry": {"type": "Point", "coordinates": [2.44259, 48.771851]}, "properties": {"etat de la localisation": "Hors service", "numparc": 9523, "duree": "", "horodatage": "2022-03-30 00:15:36", "marker-color": "#707070"}}, {"type": "Feature", "geometry": {"type": "Point", "coordinates": [2.443092, 48.772129]}, "properties": {"etat de la localisation": "Hors service", "numparc": 9532, "duree": "", "horodatage": "2022-03-30 00:55:59", "marker-color": "#707070"}}, {"type": "Feature", "geometry": {"type": "Point", "coordinates": [2.443072, 48.772087]}, "properties": {"etat de la localisation": "Hors service", "numparc": 9537, "duree": "", "horodatage": "2022-03-30 01:05:44", "marker-color": "#707070"}}, {"type": "Feature", "geometry": {"type": "Point", "coordinates": [2.441756, 48.772331]}, "properties": {"etat de la localisation": "Hors service", "numparc": 9531, "duree": "", "horodatage": "2022-03-30 01:15:29", "marker-color": "#707070"}}, {"type": "Feature", "geometry": {"type": "Point", "coordinates": [2.441736, 48.772366]}, "properties": {"etat de la localisation": "Hors service", "numparc": 9548, "duree": "", "horodatage": "2022-03-30 01:31:59", "marker-color": "#707070"}}, {"type": "Feature", "geometry": {"type": "Point", "coordinates": [2.443142, 48.772049]}, "properties": {"etat de la localisation": "Mission inconnue", "numparc": 9531, "duree": "", "horodatage": "2022-03-30 01:35:58", "marker-color": "#FF9F56"}}, {"type": "Feature", "geometry": {"type": "Point", "coordinates": [2.443144, 48.772049]}, "properties": {"etat de la localisation": "Hors service", "numparc": 9531, "duree": "", "horodatage": "2022-03-30 01:39:29", "marker-color": "#707070"}}]}