{"type": "FeatureCollection", "features": [{"type": "Feature", "geometry": {"type": "Point", "coordinates": [2.323902, 48.84354]}, "properties": {"alarme": "VEHICULE DELOCALISE", "numparc": 1378, "type": "EXPLOITATION", "duree": "00:24:36", "horodatage": "2021-10-13 06:03:13", "statut": "start", "marker-color": "#ff0000"}}, {"type": "Feature", "geometry": {"type": "Point", "coordinates": [2.314438, 48.88913]}, "properties": {"alarme": "VEHICULE DELOCALISE", "numparc": 1398, "type": "EXPLOITATION", "duree": "00:01:02", "horodatage": "2021-10-13 06:41:32", "statut": "start", "marker-color": "#ff0000"}}, {"type": "Feature", "geometry": {"type": "Point", "coordinates": [2.312343, 48.890205]}, "properties": {"alarme": "VEHICULE DELOCALISE", "numparc": 1462, "type": "EXPLOITATION", "duree": "00:00:48", "horodatage": "2021-10-13 06:47:44", "statut": "start", "marker-color": "#ff0000"}}, {"type": "Feature", "geometry": {"type": "Point", "coordinates": [2.310154, 48.894085]}, "properties": {"alarme": "VEHICULE DELOCALISE", "numparc": 1378, "type": "EXPLOITATION", "duree": "00:36:40", "horodatage": "2021-10-13 07:03:42", "statut": "start", "marker-color": "#ff0000"}}, {"type": "Feature", "geometry": {"type": "Point", "coordinates": [2.314345, 48.889088]}, "properties": {"alarme": "VEHICULE DELOCALISE", "numparc": 1408, "type": "EXPLOITATION", "duree": "00:01:36", "horodatage": "2021-10-13 07:16:10", "statut": "start", "marker-color": "#ff0000"}}, {"type": "Feature", "geometry": {"type": "Point", "coordinates": [2.320459, 48.84182]}, "properties": {"alarme": "VEHICULE DELOCALISE", "numparc": 1379, "type": "EXPLOITATION", "duree": "00:00:16", "horodatage": "2021-10-13 07:22:25", "statut": "start", "marker-color": "#ff0000"}}, {"type": "Feature", "geometry": {"type": "Point", "coordinates": [2.314384, 48.889042]}, "properties": {"alarme": "VEHICULE DELOCALISE", "numparc": 1386, "type": "EXPLOITATION", "duree": "00:01:22", "horodatage": "2021-10-13 07:32:31", "statut": "start", "marker-color": "#ff0000"}}, {"type": "Feature", "geometry": {"type": "Point", "coordinates": [2.314371, 48.889156]}, "properties": {"alarme": "VEHICULE DELOCALISE", "numparc": 1387, "type": "EXPLOITATION", "duree": "00:01:54", "horodatage": "2021-10-13 07:42:39", "statut": "start", "marker-color": "#ff0000"}}, {"type": "Feature", "geometry": {"type": "Point", "coordinates": [2.310063, 48.857658]}, "properties": {"alarme": "VEHICULE DELOCALISE", "numparc": 1379, "type": "EXPLOITATION", "duree": "00:02:36", "horodatage": "2021-10-13 07:42:47", "statut": "start", "marker-color": "#ff0000"}}, {"type": "Feature", "geometry": {"type": "Point", "coordinates": [2.254849, 48.84404]}, "properties": {"alarme": "DEFAUT LIAISON DATA SAEIV / AIGLE", "numparc": 1381, "type": "TECHNIQUE", "duree": "00:00:40", "horodatage": "2021-10-13 07:45:15", "statut": "start", "marker-color": "#ff0000"}}, {"type": "Feature", "geometry": {"type": "Point", "coordinates": [2.321157, 48.842445]}, "properties": {"alarme": "VEHICULE DELOCALISE", "numparc": 1378, "type": "EXPLOITATION", "duree": "00:44:53", "horodatage": "2021-10-13 07:50:27", "statut": "start", "marker-color": "#ff0000"}}, {"type": "Feature", "geometry": {"type": "Point", "coordinates": [2.308575, 48.892986]}, "properties": {"alarme": "VEHICULE DELOCALISE", "numparc": 1398, "type": "EXPLOITATION", "duree": "00:01:19", "horodatage": "2021-10-13 07:57:11", "statut": "start", "marker-color": "#ff0000"}}, {"type": "Feature", "geometry": {"type": "Point", "coordinates": [2.314463, 48.889202]}, "properties": {"alarme": "VEHICULE DELOCALISE", "numparc": 1382, "type": "EXPLOITATION", "duree": "00:02:44", "horodatage": "2021-10-13 07:59:14", "statut": "start", "marker-color": "#ff0000"}}, {"type": "Feature", "geometry": {"type": "Point", "coordinates": [2.314296, 48.88913]}, "properties": {"alarme": "VEHICULE DELOCALISE", "numparc": 1381, "type": "EXPLOITATION", "duree": "00:02:48", "horodatage": "2021-10-13 08:13:22", "statut": "start", "marker-color": "#ff0000"}}, {"type": "Feature", "geometry": {"type": "Point", "coordinates": [2.312373, 48.890205]}, "properties": {"alarme": "VEHICULE DELOCALISE", "numparc": 1462, "type": "EXPLOITATION", "duree": "00:01:16", "horodatage": "2021-10-13 08:21:23", "statut": "start", "marker-color": "#ff0000"}}, {"type": "Feature", "geometry": {"type": "Point", "coordinates": [2.312406, 48.890186]}, "properties": {"alarme": "VEHICULE DELOCALISE", "numparc": 1408, "type": "EXPLOITATION", "duree": "00:00:45", "horodatage": "2021-10-13 08:53:23", "statut": "start", "marker-color": "#ff0000"}}, {"type": "Feature", "geometry": {"type": "Point", "coordinates": [2.314316, 48.887424]}, "properties": {"alarme": "VEHICULE DELOCALISE", "numparc": 1378, "type": "EXPLOITATION", "duree": "00:41:24", "horodatage": "2021-10-13 08:58:11", "statut": "start", "marker-color": "#ff0000"}}, {"type": "Feature", "geometry": {"type": "Point", "coordinates": [2.312682, 48.845661]}, "properties": {"alarme": "VEHICULE DELOCALISE", "numparc": 1382, "type": "EXPLOITATION", "duree": "00:05:34", "horodatage": "2021-10-13 09:06:42", "statut": "start", "marker-color": "#ff0000"}}, {"type": "Feature", "geometry": {"type": "Point", "coordinates": [2.324172, 48.843536]}, "properties": {"alarme": "VEHICULE DELOCALISE", "numparc": 1378, "type": "EXPLOITATION", "duree": "00:18:53", "horodatage": "2021-10-13 09:53:05", "statut": "start", "marker-color": "#ff0000"}}, {"type": "Feature", "geometry": {"type": "Point", "coordinates": [2.328571, 48.822956]}, "properties": {"alarme": "DEFAUT LIAISON DATA SAEIV / AIGLE", "numparc": 1465, "type": "TECHNIQUE", "duree": "01:17:12", "horodatage": "2021-10-13 09:53:53", "statut": "start", "marker-color": "#ff0000"}}, {"type": "Feature", "geometry": {"type": "Point", "coordinates": [2.310466, 48.862221]}, "properties": {"alarme": "VEHICULE DELOCALISE", "numparc": 1378, "type": "EXPLOITATION", "duree": "00:00:10", "horodatage": "2021-10-13 10:13:29", "statut": "start", "marker-color": "#ff0000"}}, {"type": "Feature", "geometry": {"type": "Point", "coordinates": [2.310212, 48.867058]}, "properties": {"alarme": "VEHICULE DELOCALISE", "numparc": 1378, "type": "EXPLOITATION", "duree": "00:01:00", "horodatage": "2021-10-13 10:15:25", "statut": "start", "marker-color": "#ff0000"}}, {"type": "Feature", "geometry": {"type": "Point", "coordinates": [2.31364, 48.871162]}, "properties": {"alarme": "VEHICULE DELOCALISE", "numparc": 1378, "type": "EXPLOITATION", "duree": "00:22:41", "horodatage": "2021-10-13 10:18:35", "statut": "start", "marker-color": "#ff0000"}}, {"type": "Feature", "geometry": {"type": "Point", "coordinates": [2.311623, 48.890564]}, "properties": {"alarme": "VEHICULE DELOCALISE", "numparc": 1378, "type": "EXPLOITATION", "duree": "00:12:10", "horodatage": "2021-10-13 10:55:07", "statut": "start", "marker-color": "#ff0000"}}, {"type": "Feature", "geometry": {"type": "Point", "coordinates": [2.322979, 48.877426]}, "properties": {"alarme": "VEHICULE DELOCALISE", "numparc": 1378, "type": "EXPLOITATION", "duree": "00:09:07", "horodatage": "2021-10-13 11:11:55", "statut": "start", "marker-color": "#ff0000"}}, {"type": "Feature", "geometry": {"type": "Point", "coordinates": [2.311342, 48.873116]}, "properties": {"alarme": "VEHICULE DELOCALISE", "numparc": 1378, "type": "EXPLOITATION", "duree": "00:00:18", "horodatage": "2021-10-13 11:22:35", "statut": "start", "marker-color": "#ff0000"}}, {"type": "Feature", "geometry": {"type": "Point", "coordinates": [2.310131, 48.868187]}, "properties": {"alarme": "VEHICULE DELOCALISE", "numparc": 1378, "type": "EXPLOITATION", "duree": "00:01:39", "horodatage": "2021-10-13 11:27:02", "statut": "start", "marker-color": "#ff0000"}}, {"type": "Feature", "geometry": {"type": "Point", "coordinates": [2.321115, 48.842403]}, "properties": {"alarme": "VEHICULE DELOCALISE", "numparc": 1462, "type": "EXPLOITATION", "duree": "00:00:56", "horodatage": "2021-10-13 11:29:41", "statut": "start", "marker-color": "#ff0000"}}, {"type": "Feature", "geometry": {"type": "Point", "coordinates": [2.310292, 48.861713]}, "properties": {"alarme": "VEHICULE DELOCALISE", "numparc": 1378, "type": "EXPLOITATION", "duree": "00:04:14", "horodatage": "2021-10-13 11:30:28", "statut": "start", "marker-color": "#ff0000"}}, {"type": "Feature", "geometry": {"type": "Point", "coordinates": [2.309477, 48.852123]}, "properties": {"alarme": "VEHICULE DELOCALISE", "numparc": 1378, "type": "EXPLOITATION", "duree": "00:15:54", "horodatage": "2021-10-13 11:38:00", "statut": "start", "marker-color": "#ff0000"}}, {"type": "Feature", "geometry": {"type": "Point", "coordinates": [2.321936, 48.844582]}, "properties": {"alarme": "VEHICULE DELOCALISE", "numparc": 1378, "type": "EXPLOITATION", "duree": "00:43:32", "horodatage": "2021-10-13 11:57:34", "statut": "start", "marker-color": "#ff0000"}}, {"type": "Feature", "geometry": {"type": "Point", "coordinates": [2.329646, 48.822906]}, "properties": {"alarme": "DEFAUT LIAISON DATA SAEIV / AIGLE", "numparc": 1465, "type": "TECHNIQUE", "duree": "00:27:54", "horodatage": "2021-10-13 12:00:27", "statut": "start", "marker-color": "#ff0000"}}, {"type": "Feature", "geometry": {"type": "Point", "coordinates": [2.31432, 48.88913]}, "properties": {"alarme": "VEHICULE DELOCALISE", "numparc": 1387, "type": "EXPLOITATION", "duree": "00:02:39", "horodatage": "2021-10-13 12:11:33", "statut": "start", "marker-color": "#ff0000"}}, {"type": "Feature", "geometry": {"type": "Point", "coordinates": [2.312535, 48.84557]}, "properties": {"alarme": "VEHICULE DELOCALISE", "numparc": 1408, "type": "EXPLOITATION", "duree": "00:01:45", "horodatage": "2021-10-13 12:25:10", "statut": "start", "marker-color": "#ff0000"}}, {"type": "Feature", "geometry": {"type": "Point", "coordinates": [2.329643, 48.822906]}, "properties": {"alarme": "DEFAUT LIAISON DATA SAEIV / AIGLE", "numparc": 1465, "type": "TECHNIQUE", "duree": "00:00:12", "horodatage": "2021-10-13 12:32:22", "statut": "start", "marker-color": "#ff0000"}}, {"type": "Feature", "geometry": {"type": "Point", "coordinates": [2.314453, 48.889126]}, "properties": {"alarme": "VEHICULE DELOCALISE", "numparc": 1381, "type": "EXPLOITATION", "duree": "00:00:58", "horodatage": "2021-10-13 12:35:17", "statut": "start", "marker-color": "#ff0000"}}, {"type": "Feature", "geometry": {"type": "Point", "coordinates": [2.329643, 48.822906]}, "properties": {"alarme": "DEFAUT LIAISON DATA SAEIV / AIGLE", "numparc": 1465, "type": "TECHNIQUE", "duree": "00:00:33", "horodatage": "2021-10-13 12:41:51", "statut": "start", "marker-color": "#ff0000"}}, {"type": "Feature", "geometry": {"type": "Point", "coordinates": [2.312585, 48.845562]}, "properties": {"alarme": "VEHICULE DELOCALISE", "numparc": 1386, "type": "EXPLOITATION", "duree": "00:05:45", "horodatage": "2021-10-13 12:46:55", "statut": "start", "marker-color": "#ff0000"}}, {"type": "Feature", "geometry": {"type": "Point", "coordinates": [2.329643, 48.822906]}, "properties": {"alarme": "DEFAUT LIAISON DATA SAEIV / AIGLE", "numparc": 1465, "type": "TECHNIQUE", "duree": "00:00:24", "horodatage": "2021-10-13 12:47:27", "statut": "start", "marker-color": "#ff0000"}}, {"type": "Feature", "geometry": {"type": "Point", "coordinates": [2.329643, 48.822906]}, "properties": {"alarme": "DEFAUT LIAISON DATA SAEIV / AIGLE", "numparc": 1465, "type": "TECHNIQUE", "duree": "00:13:37", "horodatage": "2021-10-13 12:51:18", "statut": "start", "marker-color": "#ff0000"}}, {"type": "Feature", "geometry": {"type": "Point", "coordinates": [2.311388, 48.894291]}, "properties": {"alarme": "VEHICULE DELOCALISE", "numparc": 1378, "type": "EXPLOITATION", "duree": "00:10:47", "horodatage": "2021-10-13 12:51:48", "statut": "start", "marker-color": "#ff0000"}}, {"type": "Feature", "geometry": {"type": "Point", "coordinates": [2.329651, 48.822205]}, "properties": {"alarme": "DEFAUT LIAISON DATA SAEIV / AIGLE", "numparc": 1377, "type": "TECHNIQUE", "duree": "00:00:42", "horodatage": "2021-10-13 12:55:55", "statut": "start", "marker-color": "#ff0000"}}, {"type": "Feature", "geometry": {"type": "Point", "coordinates": [2.321207, 48.880653]}, "properties": {"alarme": "VEHICULE DELOCALISE", "numparc": 1378, "type": "EXPLOITATION", "duree": "00:14:20", "horodatage": "2021-10-13 13:03:23", "statut": "start", "marker-color": "#ff0000"}}, {"type": "Feature", "geometry": {"type": "Point", "coordinates": [2.312329, 48.890202]}, "properties": {"alarme": "VEHICULE DELOCALISE", "numparc": 1408, "type": "EXPLOITATION", "duree": "00:00:56", "horodatage": "2021-10-13 13:03:58", "statut": "start", "marker-color": "#ff0000"}}, {"type": "Feature", "geometry": {"type": "Point", "coordinates": [2.329643, 48.822906]}, "properties": {"alarme": "DEFAUT LIAISON DATA SAEIV / AIGLE", "numparc": 1465, "type": "TECHNIQUE", "duree": "00:00:53", "horodatage": "2021-10-13 13:06:52", "statut": "start", "marker-color": "#ff0000"}}, {"type": "Feature", "geometry": {"type": "Point", "coordinates": [2.329643, 48.822906]}, "properties": {"alarme": "DEFAUT LIAISON DATA SAEIV / AIGLE", "numparc": 1465, "type": "TECHNIQUE", "duree": "00:01:05", "horodatage": "2021-10-13 13:09:55", "statut": "start", "marker-color": "#ff0000"}}, {"type": "Feature", "geometry": {"type": "Point", "coordinates": [2.329643, 48.822906]}, "properties": {"alarme": "DEFAUT LIAISON DATA SAEIV / AIGLE", "numparc": 1465, "type": "TECHNIQUE", "duree": "00:02:26", "horodatage": "2021-10-13 13:14:20", "statut": "start", "marker-color": "#ff0000"}}, {"type": "Feature", "geometry": {"type": "Point", "coordinates": [2.30997, 48.858311]}, "properties": {"alarme": "VEHICULE DELOCALISE", "numparc": 1378, "type": "EXPLOITATION", "duree": "00:17:54", "horodatage": "2021-10-13 13:21:51", "statut": "start", "marker-color": "#ff0000"}}, {"type": "Feature", "geometry": {"type": "Point", "coordinates": [2.32875, 48.82272]}, "properties": {"alarme": "DEFAUT LIAISON DATA SAEIV / AIGLE", "numparc": 1465, "type": "TECHNIQUE", "duree": "07:23:02", "horodatage": "2021-10-13 13:30:43", "statut": "start", "marker-color": "#ff0000"}}, {"type": "Feature", "geometry": {"type": "Point", "coordinates": [2.321124, 48.84227]}, "properties": {"alarme": "VEHICULE DELOCALISE", "numparc": 1378, "type": "EXPLOITATION", "duree": "00:13:33", "horodatage": "2021-10-13 13:51:25", "statut": "start", "marker-color": "#ff0000"}}, {"type": "Feature", "geometry": {"type": "Point", "coordinates": [2.314465, 48.889194]}, "properties": {"alarme": "VEHICULE DELOCALISE", "numparc": 1387, "type": "EXPLOITATION", "duree": "00:03:14", "horodatage": "2021-10-13 14:02:50", "statut": "start", "marker-color": "#ff0000"}}, {"type": "Feature", "geometry": {"type": "Point", "coordinates": [2.308295, 48.852909]}, "properties": {"alarme": "VEHICULE DELOCALISE", "numparc": 1378, "type": "EXPLOITATION", "duree": "00:00:13", "horodatage": "2021-10-13 14:05:26", "statut": "start", "marker-color": "#ff0000"}}, {"type": "Feature", "geometry": {"type": "Point", "coordinates": [2.309691, 48.857056]}, "properties": {"alarme": "VEHICULE DELOCALISE", "numparc": 1378, "type": "EXPLOITATION", "duree": "00:27:32", "horodatage": "2021-10-13 14:09:20", "statut": "start", "marker-color": "#ff0000"}}, {"type": "Feature", "geometry": {"type": "Point", "coordinates": [2.314252, 48.889061]}, "properties": {"alarme": "VEHICULE DELOCALISE", "numparc": 1382, "type": "EXPLOITATION", "duree": "00:00:53", "horodatage": "2021-10-13 14:18:01", "statut": "start", "marker-color": "#ff0000"}}, {"type": "Feature", "geometry": {"type": "Point", "coordinates": [2.314315, 48.88913]}, "properties": {"alarme": "VEHICULE DELOCALISE", "numparc": 1381, "type": "EXPLOITATION", "duree": "00:01:32", "horodatage": "2021-10-13 14:28:49", "statut": "start", "marker-color": "#ff0000"}}, {"type": "Feature", "geometry": {"type": "Point", "coordinates": [2.31135, 48.894291]}, "properties": {"alarme": "VEHICULE DELOCALISE", "numparc": 1378, "type": "EXPLOITATION", "duree": "00:13:15", "horodatage": "2021-10-13 14:50:21", "statut": "start", "marker-color": "#ff0000"}}, {"type": "Feature", "geometry": {"type": "Point", "coordinates": [2.323902, 48.87466]}, "properties": {"alarme": "VEHICULE DELOCALISE", "numparc": 1378, "type": "EXPLOITATION", "duree": "00:09:47", "horodatage": "2021-10-13 15:06:31", "statut": "start", "marker-color": "#ff0000"}}, {"type": "Feature", "geometry": {"type": "Point", "coordinates": [2.314498, 48.889175]}, "properties": {"alarme": "VEHICULE DELOCALISE", "numparc": 1408, "type": "EXPLOITATION", "duree": "00:00:51", "horodatage": "2021-10-13 15:18:42", "statut": "start", "marker-color": "#ff0000"}}, {"type": "Feature", "geometry": {"type": "Point", "coordinates": [2.310198, 48.865047]}, "properties": {"alarme": "VEHICULE DELOCALISE", "numparc": 1378, "type": "EXPLOITATION", "duree": "00:19:33", "horodatage": "2021-10-13 15:19:33", "statut": "start", "marker-color": "#ff0000"}}, {"type": "Feature", "geometry": {"type": "Point", "coordinates": [2.324076, 48.843506]}, "properties": {"alarme": "VEHICULE DELOCALISE", "numparc": 1378, "type": "EXPLOITATION", "duree": "00:40:33", "horodatage": "2021-10-13 16:01:19", "statut": "start", "marker-color": "#ff0000"}}, {"type": "Feature", "geometry": {"type": "Point", "coordinates": [2.314416, 48.88913]}, "properties": {"alarme": "VEHICULE DELOCALISE", "numparc": 1387, "type": "EXPLOITATION", "duree": "00:01:12", "horodatage": "2021-10-13 16:07:17", "statut": "start", "marker-color": "#ff0000"}}, {"type": "Feature", "geometry": {"type": "Point", "coordinates": [2.320286, 48.882317]}, "properties": {"alarme": "VEHICULE DELOCALISE", "numparc": 1378, "type": "EXPLOITATION", "duree": "00:18:33", "horodatage": "2021-10-13 16:43:46", "statut": "start", "marker-color": "#ff0000"}}, {"type": "Feature", "geometry": {"type": "Point", "coordinates": [2.314375, 48.889126]}, "properties": {"alarme": "VEHICULE DELOCALISE", "numparc": 1379, "type": "EXPLOITATION", "duree": "00:01:42", "horodatage": "2021-10-13 16:52:13", "statut": "start", "marker-color": "#ff0000"}}, {"type": "Feature", "geometry": {"type": "Point", "coordinates": [2.311386, 48.873108]}, "properties": {"alarme": "VEHICULE DELOCALISE", "numparc": 1378, "type": "EXPLOITATION", "duree": "00:20:13", "horodatage": "2021-10-13 17:26:16", "statut": "start", "marker-color": "#ff0000"}}, {"type": "Feature", "geometry": {"type": "Point", "coordinates": [2.311386, 48.84903]}, "properties": {"alarme": "VEHICULE DELOCALISE", "numparc": 1378, "type": "EXPLOITATION", "duree": "00:46:51", "horodatage": "2021-10-13 17:47:15", "statut": "start", "marker-color": "#ff0000"}}, {"type": "Feature", "geometry": {"type": "Point", "coordinates": [2.310476, 48.869125]}, "properties": {"alarme": "VEHICULE DELOCALISE", "numparc": 1378, "type": "EXPLOITATION", "duree": "00:26:38", "horodatage": "2021-10-13 18:35:02", "statut": "start", "marker-color": "#ff0000"}}, {"type": "Feature", "geometry": {"type": "Point", "coordinates": [2.321808, 48.879284]}, "properties": {"alarme": "VEHICULE DELOCALISE", "numparc": 1378, "type": "EXPLOITATION", "duree": "00:11:06", "horodatage": "2021-10-13 19:03:14", "statut": "start", "marker-color": "#ff0000"}}, {"type": "Feature", "geometry": {"type": "Point", "coordinates": [2.313532, 48.887527]}, "properties": {"alarme": "VEHICULE DELOCALISE", "numparc": 1378, "type": "EXPLOITATION", "duree": "00:06:34", "horodatage": "2021-10-13 19:15:25", "statut": "start", "marker-color": "#ff0000"}}, {"type": "Feature", "geometry": {"type": "Point", "coordinates": [2.31767, 48.846272]}, "properties": {"alarme": "VEHICULE DELOCALISE", "numparc": 1382, "type": "EXPLOITATION", "duree": "00:07:20", "horodatage": "2021-10-13 19:21:15", "statut": "start", "marker-color": "#ff0000"}}, {"type": "Feature", "geometry": {"type": "Point", "coordinates": [2.311517, 48.894104]}, "properties": {"alarme": "VEHICULE DELOCALISE", "numparc": 1378, "type": "EXPLOITATION", "duree": "00:09:55", "horodatage": "2021-10-13 19:29:55", "statut": "start", "marker-color": "#ff0000"}}, {"type": "Feature", "geometry": {"type": "Point", "coordinates": [2.322294, 48.878849]}, "properties": {"alarme": "VEHICULE DELOCALISE", "numparc": 1378, "type": "EXPLOITATION", "duree": "00:03:34", "horodatage": "2021-10-13 19:44:16", "statut": "start", "marker-color": "#ff0000"}}, {"type": "Feature", "geometry": {"type": "Point", "coordinates": [2.323768, 48.874199]}, "properties": {"alarme": "VEHICULE DELOCALISE", "numparc": 1378, "type": "EXPLOITATION", "duree": "00:10:21", "horodatage": "2021-10-13 19:49:17", "statut": "start", "marker-color": "#ff0000"}}, {"type": "Feature", "geometry": {"type": "Point", "coordinates": [2.314201, 48.889072]}, "properties": {"alarme": "VEHICULE DELOCALISE", "numparc": 1386, "type": "EXPLOITATION", "duree": "00:02:02", "horodatage": "2021-10-13 19:51:33", "statut": "start", "marker-color": "#ff0000"}}, {"type": "Feature", "geometry": {"type": "Point", "coordinates": [2.314401, 48.889179]}, "properties": {"alarme": "VEHICULE DELOCALISE", "numparc": 1399, "type": "EXPLOITATION", "duree": "00:02:02", "horodatage": "2021-10-13 19:57:37", "statut": "start", "marker-color": "#ff0000"}}, {"type": "Feature", "geometry": {"type": "Point", "coordinates": [2.310188, 48.867306]}, "properties": {"alarme": "VEHICULE DELOCALISE", "numparc": 1378, "type": "EXPLOITATION", "duree": "00:44:24", "horodatage": "2021-10-13 20:00:48", "statut": "start", "marker-color": "#ff0000"}}, {"type": "Feature", "geometry": {"type": "Point", "coordinates": [2.321188, 48.842346]}, "properties": {"alarme": "VEHICULE DELOCALISE", "numparc": 1408, "type": "EXPLOITATION", "duree": "00:00:14", "horodatage": "2021-10-13 20:13:10", "statut": "start", "marker-color": "#ff0000"}}, {"type": "Feature", "geometry": {"type": "Point", "coordinates": [2.314298, 48.88913]}, "properties": {"alarme": "VEHICULE DELOCALISE", "numparc": 1387, "type": "EXPLOITATION", "duree": "00:02:18", "horodatage": "2021-10-13 20:32:14", "statut": "start", "marker-color": "#ff0000"}}, {"type": "Feature", "geometry": {"type": "Point", "coordinates": [2.316148, 48.889034]}, "properties": {"alarme": "VEHICULE DELOCALISE", "numparc": 1379, "type": "EXPLOITATION", "duree": "00:05:23", "horodatage": "2021-10-13 20:51:25", "statut": "start", "marker-color": "#ff0000"}}, {"type": "Feature", "geometry": {"type": "Point", "coordinates": [2.31687, 48.892418]}, "properties": {"alarme": "VEHICULE DELOCALISE", "numparc": 1379, "type": "EXPLOITATION", "duree": "00:02:43", "horodatage": "2021-10-13 21:02:00", "statut": "start", "marker-color": "#ff0000"}}, {"type": "Feature", "geometry": {"type": "Point", "coordinates": [2.314413, 48.88913]}, "properties": {"alarme": "VEHICULE DELOCALISE", "numparc": 1381, "type": "EXPLOITATION", "duree": "00:01:42", "horodatage": "2021-10-13 21:05:58", "statut": "start", "marker-color": "#ff0000"}}, {"type": "Feature", "geometry": {"type": "Point", "coordinates": [2.32379, 48.843723]}, "properties": {"alarme": "VEHICULE DELOCALISE", "numparc": 1387, "type": "EXPLOITATION", "duree": "00:00:36", "horodatage": "2021-10-13 21:11:38", "statut": "start", "marker-color": "#ff0000"}}, {"type": "Feature", "geometry": {"type": "Point", "coordinates": [2.323714, 48.843716]}, "properties": {"alarme": "VEHICULE DELOCALISE", "numparc": 1381, "type": "EXPLOITATION", "duree": "00:01:09", "horodatage": "2021-10-13 21:35:28", "statut": "start", "marker-color": "#ff0000"}}, {"type": "Feature", "geometry": {"type": "Point", "coordinates": [2.308578, 48.892864]}, "properties": {"alarme": "VEHICULE DELOCALISE", "numparc": 1379, "type": "EXPLOITATION", "duree": "00:01:09", "horodatage": "2021-10-13 22:21:16", "statut": "start", "marker-color": "#ff0000"}}, {"type": "Feature", "geometry": {"type": "Point", "coordinates": [2.314059, 48.889008]}, "properties": {"alarme": "VEHICULE DELOCALISE", "numparc": 1379, "type": "EXPLOITATION", "duree": "00:01:38", "horodatage": "2021-10-13 22:42:49", "statut": "start", "marker-color": "#ff0000"}}, {"type": "Feature", "geometry": {"type": "Point", "coordinates": [2.314452, 48.88921]}, "properties": {"alarme": "VEHICULE DELOCALISE", "numparc": 1380, "type": "EXPLOITATION", "duree": "00:00:51", "horodatage": "2021-10-13 22:59:43", "statut": "start", "marker-color": "#ff0000"}}, {"type": "Feature", "geometry": {"type": "Point", "coordinates": [2.323872, 48.843498]}, "properties": {"alarme": "VEHICULE DELOCALISE", "numparc": 1399, "type": "EXPLOITATION", "duree": "00:01:34", "horodatage": "2021-10-13 23:51:03", "statut": "start", "marker-color": "#ff0000"}}, {"type": "Feature", "geometry": {"type": "Point", "coordinates": [2.320033, 48.87479]}, "properties": {"alarme": "VEHICULE DELOCALISE", "numparc": 1439, "type": "EXPLOITATION", "duree": "00:00:49", "horodatage": "2021-10-13 23:58:28", "statut": "start", "marker-color": "#ff0000"}}, {"type": "Feature", "geometry": {"type": "Point", "coordinates": [2.311361, 48.894726]}, "properties": {"alarme": "VEHICULE DELOCALISE", "numparc": 1378, "type": "EXPLOITATION", "duree": "00:24:36", "horodatage": "2021-10-13 06:27:49", "statut": "end", "marker-color": "#2fe184"}}, {"type": "Feature", "geometry": {"type": "Point", "coordinates": [2.314517, 48.887623]}, "properties": {"alarme": "VEHICULE DELOCALISE", "numparc": 1398, "type": "EXPLOITATION", "duree": "00:01:02", "horodatage": "2021-10-13 06:42:34", "statut": "end", "marker-color": "#2fe184"}}, {"type": "Feature", "geometry": {"type": "Point", "coordinates": [2.30966, 48.891911]}, "properties": {"alarme": "VEHICULE DELOCALISE", "numparc": 1462, "type": "EXPLOITATION", "duree": "00:00:48", "horodatage": "2021-10-13 06:48:32", "statut": "end", "marker-color": "#2fe184"}}, {"type": "Feature", "geometry": {"type": "Point", "coordinates": [2.321717, 48.84333]}, "properties": {"alarme": "VEHICULE DELOCALISE", "numparc": 1378, "type": "EXPLOITATION", "duree": "00:36:40", "horodatage": "2021-10-13 07:40:22", "statut": "end", "marker-color": "#2fe184"}}, {"type": "Feature", "geometry": {"type": "Point", "coordinates": [2.314481, 48.887619]}, "properties": {"alarme": "VEHICULE DELOCALISE", "numparc": 1408, "type": "EXPLOITATION", "duree": "00:01:36", "horodatage": "2021-10-13 07:17:46", "statut": "end", "marker-color": "#2fe184"}}, {"type": "Feature", "geometry": {"type": "Point", "coordinates": [2.320903, 48.842018]}, "properties": {"alarme": "VEHICULE DELOCALISE", "numparc": 1379, "type": "EXPLOITATION", "duree": "00:00:16", "horodatage": "2021-10-13 07:22:41", "statut": "end", "marker-color": "#2fe184"}}, {"type": "Feature", "geometry": {"type": "Point", "coordinates": [2.314475, 48.887505]}, "properties": {"alarme": "VEHICULE DELOCALISE", "numparc": 1386, "type": "EXPLOITATION", "duree": "00:01:22", "horodatage": "2021-10-13 07:33:53", "statut": "end", "marker-color": "#2fe184"}}, {"type": "Feature", "geometry": {"type": "Point", "coordinates": [2.314594, 48.887535]}, "properties": {"alarme": "VEHICULE DELOCALISE", "numparc": 1387, "type": "EXPLOITATION", "duree": "00:01:54", "horodatage": "2021-10-13 07:44:33", "statut": "end", "marker-color": "#2fe184"}}, {"type": "Feature", "geometry": {"type": "Point", "coordinates": [2.310347, 48.865654]}, "properties": {"alarme": "VEHICULE DELOCALISE", "numparc": 1379, "type": "EXPLOITATION", "duree": "00:02:36", "horodatage": "2021-10-13 07:45:23", "statut": "end", "marker-color": "#2fe184"}}, {"type": "Feature", "geometry": {"type": "Point", "coordinates": [2.25489, 48.846642]}, "properties": {"alarme": "DEFAUT LIAISON DATA SAEIV / AIGLE", "numparc": 1381, "type": "TECHNIQUE", "duree": "00:00:40", "horodatage": "2021-10-13 07:45:55", "statut": "end", "marker-color": "#2fe184"}}, {"type": "Feature", "geometry": {"type": "Point", "coordinates": [2.311515, 48.894466]}, "properties": {"alarme": "VEHICULE DELOCALISE", "numparc": 1378, "type": "EXPLOITATION", "duree": "00:44:53", "horodatage": "2021-10-13 08:35:20", "statut": "end", "marker-color": "#2fe184"}}, {"type": "Feature", "geometry": {"type": "Point", "coordinates": [2.311572, 48.894672]}, "properties": {"alarme": "VEHICULE DELOCALISE", "numparc": 1398, "type": "EXPLOITATION", "duree": "00:01:19", "horodatage": "2021-10-13 07:58:30", "statut": "end", "marker-color": "#2fe184"}}, {"type": "Feature", "geometry": {"type": "Point", "coordinates": [2.31445, 48.887577]}, "properties": {"alarme": "VEHICULE DELOCALISE", "numparc": 1382, "type": "EXPLOITATION", "duree": "00:02:44", "horodatage": "2021-10-13 08:01:58", "statut": "end", "marker-color": "#2fe184"}}, {"type": "Feature", "geometry": {"type": "Point", "coordinates": [2.314466, 48.887585]}, "properties": {"alarme": "VEHICULE DELOCALISE", "numparc": 1381, "type": "EXPLOITATION", "duree": "00:02:48", "horodatage": "2021-10-13 08:16:10", "statut": "end", "marker-color": "#2fe184"}}, {"type": "Feature", "geometry": {"type": "Point", "coordinates": [2.309691, 48.891991]}, "properties": {"alarme": "VEHICULE DELOCALISE", "numparc": 1462, "type": "EXPLOITATION", "duree": "00:01:16", "horodatage": "2021-10-13 08:22:39", "statut": "end", "marker-color": "#2fe184"}}, {"type": "Feature", "geometry": {"type": "Point", "coordinates": [2.309656, 48.891998]}, "properties": {"alarme": "VEHICULE DELOCALISE", "numparc": 1408, "type": "EXPLOITATION", "duree": "00:00:45", "horodatage": "2021-10-13 08:54:08", "statut": "end", "marker-color": "#2fe184"}}, {"type": "Feature", "geometry": {"type": "Point", "coordinates": [2.320252, 48.841866]}, "properties": {"alarme": "VEHICULE DELOCALISE", "numparc": 1378, "type": "EXPLOITATION", "duree": "00:41:24", "horodatage": "2021-10-13 09:39:35", "statut": "end", "marker-color": "#2fe184"}}, {"type": "Feature", "geometry": {"type": "Point", "coordinates": [2.308342, 48.85252]}, "properties": {"alarme": "VEHICULE DELOCALISE", "numparc": 1382, "type": "EXPLOITATION", "duree": "00:05:34", "horodatage": "2021-10-13 09:12:16", "statut": "end", "marker-color": "#2fe184"}}, {"type": "Feature", "geometry": {"type": "Point", "coordinates": [2.31017, 48.860371]}, "properties": {"alarme": "VEHICULE DELOCALISE", "numparc": 1378, "type": "EXPLOITATION", "duree": "00:18:53", "horodatage": "2021-10-13 10:11:58", "statut": "end", "marker-color": "#2fe184"}}, {"type": "Feature", "geometry": {"type": "Point", "coordinates": [2.329648, 48.822906]}, "properties": {"alarme": "DEFAUT LIAISON DATA SAEIV / AIGLE", "numparc": 1465, "type": "TECHNIQUE", "duree": "01:17:12", "horodatage": "2021-10-13 11:11:05", "statut": "end", "marker-color": "#2fe184"}}, {"type": "Feature", "geometry": {"type": "Point", "coordinates": [2.310426, 48.862202]}, "properties": {"alarme": "VEHICULE DELOCALISE", "numparc": 1378, "type": "EXPLOITATION", "duree": "00:00:10", "horodatage": "2021-10-13 10:13:39", "statut": "end", "marker-color": "#2fe184"}}, {"type": "Feature", "geometry": {"type": "Point", "coordinates": [2.310241, 48.867496]}, "properties": {"alarme": "VEHICULE DELOCALISE", "numparc": 1378, "type": "EXPLOITATION", "duree": "00:01:00", "horodatage": "2021-10-13 10:16:25", "statut": "end", "marker-color": "#2fe184"}}, {"type": "Feature", "geometry": {"type": "Point", "coordinates": [2.311304, 48.894737]}, "properties": {"alarme": "VEHICULE DELOCALISE", "numparc": 1378, "type": "EXPLOITATION", "duree": "00:22:41", "horodatage": "2021-10-13 10:41:16", "statut": "end", "marker-color": "#2fe184"}}, {"type": "Feature", "geometry": {"type": "Point", "coordinates": [2.319807, 48.882729]}, "properties": {"alarme": "VEHICULE DELOCALISE", "numparc": 1378, "type": "EXPLOITATION", "duree": "00:12:10", "horodatage": "2021-10-13 11:07:17", "statut": "end", "marker-color": "#2fe184"}}, {"type": "Feature", "geometry": {"type": "Point", "coordinates": [2.316097, 48.87397]}, "properties": {"alarme": "VEHICULE DELOCALISE", "numparc": 1378, "type": "EXPLOITATION", "duree": "00:09:07", "horodatage": "2021-10-13 11:21:02", "statut": "end", "marker-color": "#2fe184"}}, {"type": "Feature", "geometry": {"type": "Point", "coordinates": [2.311393, 48.873089]}, "properties": {"alarme": "VEHICULE DELOCALISE", "numparc": 1378, "type": "EXPLOITATION", "duree": "00:00:18", "horodatage": "2021-10-13 11:22:53", "statut": "end", "marker-color": "#2fe184"}}, {"type": "Feature", "geometry": {"type": "Point", "coordinates": [2.310314, 48.865162]}, "properties": {"alarme": "VEHICULE DELOCALISE", "numparc": 1378, "type": "EXPLOITATION", "duree": "00:01:39", "horodatage": "2021-10-13 11:28:41", "statut": "end", "marker-color": "#2fe184"}}, {"type": "Feature", "geometry": {"type": "Point", "coordinates": [2.324002, 48.843334]}, "properties": {"alarme": "VEHICULE DELOCALISE", "numparc": 1462, "type": "EXPLOITATION", "duree": "00:00:56", "horodatage": "2021-10-13 11:30:37", "statut": "end", "marker-color": "#2fe184"}}, {"type": "Feature", "geometry": {"type": "Point", "coordinates": [2.307359, 48.855583]}, "properties": {"alarme": "VEHICULE DELOCALISE", "numparc": 1378, "type": "EXPLOITATION", "duree": "00:04:14", "horodatage": "2021-10-13 11:34:42", "statut": "end", "marker-color": "#2fe184"}}, {"type": "Feature", "geometry": {"type": "Point", "coordinates": [2.323306, 48.843815]}, "properties": {"alarme": "VEHICULE DELOCALISE", "numparc": 1378, "type": "EXPLOITATION", "duree": "00:15:54", "horodatage": "2021-10-13 11:53:54", "statut": "end", "marker-color": "#2fe184"}}, {"type": "Feature", "geometry": {"type": "Point", "coordinates": [2.311514, 48.894623]}, "properties": {"alarme": "VEHICULE DELOCALISE", "numparc": 1378, "type": "EXPLOITATION", "duree": "00:43:32", "horodatage": "2021-10-13 12:41:06", "statut": "end", "marker-color": "#2fe184"}}, {"type": "Feature", "geometry": {"type": "Point", "coordinates": [2.329643, 48.822906]}, "properties": {"alarme": "DEFAUT LIAISON DATA SAEIV / AIGLE", "numparc": 1465, "type": "TECHNIQUE", "duree": "00:27:54", "horodatage": "2021-10-13 12:28:21", "statut": "end", "marker-color": "#2fe184"}}, {"type": "Feature", "geometry": {"type": "Point", "coordinates": [2.316566, 48.885902]}, "properties": {"alarme": "VEHICULE DELOCALISE", "numparc": 1387, "type": "EXPLOITATION", "duree": "00:02:39", "horodatage": "2021-10-13 12:14:12", "statut": "end", "marker-color": "#2fe184"}}, {"type": "Feature", "geometry": {"type": "Point", "coordinates": [2.312182, 48.8475]}, "properties": {"alarme": "VEHICULE DELOCALISE", "numparc": 1408, "type": "EXPLOITATION", "duree": "00:01:45", "horodatage": "2021-10-13 12:26:55", "statut": "end", "marker-color": "#2fe184"}}, {"type": "Feature", "geometry": {"type": "Point", "coordinates": [2.329643, 48.822906]}, "properties": {"alarme": "DEFAUT LIAISON DATA SAEIV / AIGLE", "numparc": 1465, "type": "TECHNIQUE", "duree": "00:00:12", "horodatage": "2021-10-13 12:32:34", "statut": "end", "marker-color": "#2fe184"}}, {"type": "Feature", "geometry": {"type": "Point", "coordinates": [2.314482, 48.8876]}, "properties": {"alarme": "VEHICULE DELOCALISE", "numparc": 1381, "type": "EXPLOITATION", "duree": "00:00:58", "horodatage": "2021-10-13 12:36:15", "statut": "end", "marker-color": "#2fe184"}}, {"type": "Feature", "geometry": {"type": "Point", "coordinates": [2.329643, 48.822906]}, "properties": {"alarme": "DEFAUT LIAISON DATA SAEIV / AIGLE", "numparc": 1465, "type": "TECHNIQUE", "duree": "00:00:33", "horodatage": "2021-10-13 12:42:24", "statut": "end", "marker-color": "#2fe184"}}, {"type": "Feature", "geometry": {"type": "Point", "coordinates": [2.308836, 48.852642]}, "properties": {"alarme": "VEHICULE DELOCALISE", "numparc": 1386, "type": "EXPLOITATION", "duree": "00:05:45", "horodatage": "2021-10-13 12:52:40", "statut": "end", "marker-color": "#2fe184"}}, {"type": "Feature", "geometry": {"type": "Point", "coordinates": [2.329643, 48.822906]}, "properties": {"alarme": "DEFAUT LIAISON DATA SAEIV / AIGLE", "numparc": 1465, "type": "TECHNIQUE", "duree": "00:00:24", "horodatage": "2021-10-13 12:47:51", "statut": "end", "marker-color": "#2fe184"}}, {"type": "Feature", "geometry": {"type": "Point", "coordinates": [2.329643, 48.822906]}, "properties": {"alarme": "DEFAUT LIAISON DATA SAEIV / AIGLE", "numparc": 1465, "type": "TECHNIQUE", "duree": "00:13:37", "horodatage": "2021-10-13 13:04:55", "statut": "end", "marker-color": "#2fe184"}}, {"type": "Feature", "geometry": {"type": "Point", "coordinates": [2.320025, 48.882473]}, "properties": {"alarme": "VEHICULE DELOCALISE", "numparc": 1378, "type": "EXPLOITATION", "duree": "00:10:47", "horodatage": "2021-10-13 13:02:35", "statut": "end", "marker-color": "#2fe184"}}, {"type": "Feature", "geometry": {"type": "Point", "coordinates": [2.328513, 48.822327]}, "properties": {"alarme": "DEFAUT LIAISON DATA SAEIV / AIGLE", "numparc": 1377, "type": "TECHNIQUE", "duree": "00:00:42", "horodatage": "2021-10-13 12:56:37", "statut": "end", "marker-color": "#2fe184"}}, {"type": "Feature", "geometry": {"type": "Point", "coordinates": [2.310105, 48.8685]}, "properties": {"alarme": "VEHICULE DELOCALISE", "numparc": 1378, "type": "EXPLOITATION", "duree": "00:14:20", "horodatage": "2021-10-13 13:17:43", "statut": "end", "marker-color": "#2fe184"}}, {"type": "Feature", "geometry": {"type": "Point", "coordinates": [2.309634, 48.891979]}, "properties": {"alarme": "VEHICULE DELOCALISE", "numparc": 1408, "type": "EXPLOITATION", "duree": "00:00:56", "horodatage": "2021-10-13 13:04:54", "statut": "end", "marker-color": "#2fe184"}}, {"type": "Feature", "geometry": {"type": "Point", "coordinates": [2.329643, 48.822906]}, "properties": {"alarme": "DEFAUT LIAISON DATA SAEIV / AIGLE", "numparc": 1465, "type": "TECHNIQUE", "duree": "00:00:53", "horodatage": "2021-10-13 13:07:45", "statut": "end", "marker-color": "#2fe184"}}, {"type": "Feature", "geometry": {"type": "Point", "coordinates": [2.329643, 48.822906]}, "properties": {"alarme": "DEFAUT LIAISON DATA SAEIV / AIGLE", "numparc": 1465, "type": "TECHNIQUE", "duree": "00:01:05", "horodatage": "2021-10-13 13:11:00", "statut": "end", "marker-color": "#2fe184"}}, {"type": "Feature", "geometry": {"type": "Point", "coordinates": [2.329643, 48.822906]}, "properties": {"alarme": "DEFAUT LIAISON DATA SAEIV / AIGLE", "numparc": 1465, "type": "TECHNIQUE", "duree": "00:02:26", "horodatage": "2021-10-13 13:16:46", "statut": "end", "marker-color": "#2fe184"}}, {"type": "Feature", "geometry": {"type": "Point", "coordinates": [2.320453, 48.841877]}, "properties": {"alarme": "VEHICULE DELOCALISE", "numparc": 1378, "type": "EXPLOITATION", "duree": "00:17:54", "horodatage": "2021-10-13 13:39:45", "statut": "end", "marker-color": "#2fe184"}}, {"type": "Feature", "geometry": {"type": "Point", "coordinates": [2.400447, 48.839821]}, "properties": {"alarme": "DEFAUT LIAISON DATA SAEIV / AIGLE", "numparc": 1465, "type": "TECHNIQUE", "duree": "07:23:02", "horodatage": "2021-10-13 20:53:45", "statut": "end", "marker-color": "#2fe184"}}, {"type": "Feature", "geometry": {"type": "Point", "coordinates": [2.308812, 48.852612]}, "properties": {"alarme": "VEHICULE DELOCALISE", "numparc": 1378, "type": "EXPLOITATION", "duree": "00:13:33", "horodatage": "2021-10-13 14:04:58", "statut": "end", "marker-color": "#2fe184"}}, {"type": "Feature", "geometry": {"type": "Point", "coordinates": [2.316514, 48.885921]}, "properties": {"alarme": "VEHICULE DELOCALISE", "numparc": 1387, "type": "EXPLOITATION", "duree": "00:03:14", "horodatage": "2021-10-13 14:06:04", "statut": "end", "marker-color": "#2fe184"}}, {"type": "Feature", "geometry": {"type": "Point", "coordinates": [2.30826, 48.852917]}, "properties": {"alarme": "VEHICULE DELOCALISE", "numparc": 1378, "type": "EXPLOITATION", "duree": "00:00:13", "horodatage": "2021-10-13 14:05:39", "statut": "end", "marker-color": "#2fe184"}}, {"type": "Feature", "geometry": {"type": "Point", "coordinates": [2.311413, 48.894737]}, "properties": {"alarme": "VEHICULE DELOCALISE", "numparc": 1378, "type": "EXPLOITATION", "duree": "00:27:32", "horodatage": "2021-10-13 14:36:52", "statut": "end", "marker-color": "#2fe184"}}, {"type": "Feature", "geometry": {"type": "Point", "coordinates": [2.314365, 48.887489]}, "properties": {"alarme": "VEHICULE DELOCALISE", "numparc": 1382, "type": "EXPLOITATION", "duree": "00:00:53", "horodatage": "2021-10-13 14:18:54", "statut": "end", "marker-color": "#2fe184"}}, {"type": "Feature", "geometry": {"type": "Point", "coordinates": [2.314482, 48.88752]}, "properties": {"alarme": "VEHICULE DELOCALISE", "numparc": 1381, "type": "EXPLOITATION", "duree": "00:01:32", "horodatage": "2021-10-13 14:30:21", "statut": "end", "marker-color": "#2fe184"}}, {"type": "Feature", "geometry": {"type": "Point", "coordinates": [2.323646, 48.876129]}, "properties": {"alarme": "VEHICULE DELOCALISE", "numparc": 1378, "type": "EXPLOITATION", "duree": "00:13:15", "horodatage": "2021-10-13 15:03:36", "statut": "end", "marker-color": "#2fe184"}}, {"type": "Feature", "geometry": {"type": "Point", "coordinates": [2.310066, 48.869343]}, "properties": {"alarme": "VEHICULE DELOCALISE", "numparc": 1378, "type": "EXPLOITATION", "duree": "00:09:47", "horodatage": "2021-10-13 15:16:18", "statut": "end", "marker-color": "#2fe184"}}, {"type": "Feature", "geometry": {"type": "Point", "coordinates": [2.314508, 48.88765]}, "properties": {"alarme": "VEHICULE DELOCALISE", "numparc": 1408, "type": "EXPLOITATION", "duree": "00:00:51", "horodatage": "2021-10-13 15:19:33", "statut": "end", "marker-color": "#2fe184"}}, {"type": "Feature", "geometry": {"type": "Point", "coordinates": [2.320262, 48.841866]}, "properties": {"alarme": "VEHICULE DELOCALISE", "numparc": 1378, "type": "EXPLOITATION", "duree": "00:19:33", "horodatage": "2021-10-13 15:39:06", "statut": "end", "marker-color": "#2fe184"}}, {"type": "Feature", "geometry": {"type": "Point", "coordinates": [2.320844, 48.881409]}, "properties": {"alarme": "VEHICULE DELOCALISE", "numparc": 1378, "type": "EXPLOITATION", "duree": "00:40:33", "horodatage": "2021-10-13 16:41:52", "statut": "end", "marker-color": "#2fe184"}}, {"type": "Feature", "geometry": {"type": "Point", "coordinates": [2.314422, 48.887501]}, "properties": {"alarme": "VEHICULE DELOCALISE", "numparc": 1387, "type": "EXPLOITATION", "duree": "00:01:12", "horodatage": "2021-10-13 16:08:29", "statut": "end", "marker-color": "#2fe184"}}, {"type": "Feature", "geometry": {"type": "Point", "coordinates": [2.311949, 48.894936]}, "properties": {"alarme": "VEHICULE DELOCALISE", "numparc": 1378, "type": "EXPLOITATION", "duree": "00:18:33", "horodatage": "2021-10-13 17:02:19", "statut": "end", "marker-color": "#2fe184"}}, {"type": "Feature", "geometry": {"type": "Point", "coordinates": [2.314489, 48.887493]}, "properties": {"alarme": "VEHICULE DELOCALISE", "numparc": 1379, "type": "EXPLOITATION", "duree": "00:01:42", "horodatage": "2021-10-13 16:53:55", "statut": "end", "marker-color": "#2fe184"}}, {"type": "Feature", "geometry": {"type": "Point", "coordinates": [2.311404, 48.850822]}, "properties": {"alarme": "VEHICULE DELOCALISE", "numparc": 1378, "type": "EXPLOITATION", "duree": "00:20:13", "horodatage": "2021-10-13 17:46:29", "statut": "end", "marker-color": "#2fe184"}}, {"type": "Feature", "geometry": {"type": "Point", "coordinates": [2.31022, 48.86805]}, "properties": {"alarme": "VEHICULE DELOCALISE", "numparc": 1378, "type": "EXPLOITATION", "duree": "00:46:51", "horodatage": "2021-10-13 18:34:06", "statut": "end", "marker-color": "#2fe184"}}, {"type": "Feature", "geometry": {"type": "Point", "coordinates": [2.322205, 48.878689]}, "properties": {"alarme": "VEHICULE DELOCALISE", "numparc": 1378, "type": "EXPLOITATION", "duree": "00:26:38", "horodatage": "2021-10-13 19:01:40", "statut": "end", "marker-color": "#2fe184"}}, {"type": "Feature", "geometry": {"type": "Point", "coordinates": [2.314431, 48.887272]}, "properties": {"alarme": "VEHICULE DELOCALISE", "numparc": 1378, "type": "EXPLOITATION", "duree": "00:11:06", "horodatage": "2021-10-13 19:14:20", "statut": "end", "marker-color": "#2fe184"}}, {"type": "Feature", "geometry": {"type": "Point", "coordinates": [2.311398, 48.894634]}, "properties": {"alarme": "VEHICULE DELOCALISE", "numparc": 1378, "type": "EXPLOITATION", "duree": "00:06:34", "horodatage": "2021-10-13 19:21:59", "statut": "end", "marker-color": "#2fe184"}}, {"type": "Feature", "geometry": {"type": "Point", "coordinates": [2.326613, 48.827515]}, "properties": {"alarme": "VEHICULE DELOCALISE", "numparc": 1382, "type": "EXPLOITATION", "duree": "00:07:20", "horodatage": "2021-10-13 19:28:35", "statut": "end", "marker-color": "#2fe184"}}, {"type": "Feature", "geometry": {"type": "Point", "coordinates": [2.320231, 48.882305]}, "properties": {"alarme": "VEHICULE DELOCALISE", "numparc": 1378, "type": "EXPLOITATION", "duree": "00:09:55", "horodatage": "2021-10-13 19:39:50", "statut": "end", "marker-color": "#2fe184"}}, {"type": "Feature", "geometry": {"type": "Point", "coordinates": [2.323932, 48.875576]}, "properties": {"alarme": "VEHICULE DELOCALISE", "numparc": 1378, "type": "EXPLOITATION", "duree": "00:03:34", "horodatage": "2021-10-13 19:47:50", "statut": "end", "marker-color": "#2fe184"}}, {"type": "Feature", "geometry": {"type": "Point", "coordinates": [2.310061, 48.869431]}, "properties": {"alarme": "VEHICULE DELOCALISE", "numparc": 1378, "type": "EXPLOITATION", "duree": "00:10:21", "horodatage": "2021-10-13 19:59:38", "statut": "end", "marker-color": "#2fe184"}}, {"type": "Feature", "geometry": {"type": "Point", "coordinates": [2.314492, 48.887604]}, "properties": {"alarme": "VEHICULE DELOCALISE", "numparc": 1386, "type": "EXPLOITATION", "duree": "00:02:02", "horodatage": "2021-10-13 19:53:35", "statut": "end", "marker-color": "#2fe184"}}, {"type": "Feature", "geometry": {"type": "Point", "coordinates": [2.314542, 48.887589]}, "properties": {"alarme": "VEHICULE DELOCALISE", "numparc": 1399, "type": "EXPLOITATION", "duree": "00:02:02", "horodatage": "2021-10-13 19:59:39", "statut": "end", "marker-color": "#2fe184"}}, {"type": "Feature", "geometry": {"type": "Point", "coordinates": [2.32738, 48.823734]}, "properties": {"alarme": "VEHICULE DELOCALISE", "numparc": 1378, "type": "EXPLOITATION", "duree": "00:44:24", "horodatage": "2021-10-13 20:45:12", "statut": "end", "marker-color": "#2fe184"}}, {"type": "Feature", "geometry": {"type": "Point", "coordinates": [2.322051, 48.843033]}, "properties": {"alarme": "VEHICULE DELOCALISE", "numparc": 1408, "type": "EXPLOITATION", "duree": "00:00:14", "horodatage": "2021-10-13 20:13:24", "statut": "end", "marker-color": "#2fe184"}}, {"type": "Feature", "geometry": {"type": "Point", "coordinates": [2.314438, 48.88752]}, "properties": {"alarme": "VEHICULE DELOCALISE", "numparc": 1387, "type": "EXPLOITATION", "duree": "00:02:18", "horodatage": "2021-10-13 20:34:32", "statut": "end", "marker-color": "#2fe184"}}, {"type": "Feature", "geometry": {"type": "Point", "coordinates": [2.311532, 48.894669]}, "properties": {"alarme": "VEHICULE DELOCALISE", "numparc": 1379, "type": "EXPLOITATION", "duree": "00:05:23", "horodatage": "2021-10-13 20:56:48", "statut": "end", "marker-color": "#2fe184"}}, {"type": "Feature", "geometry": {"type": "Point", "coordinates": [2.314437, 48.887596]}, "properties": {"alarme": "VEHICULE DELOCALISE", "numparc": 1379, "type": "EXPLOITATION", "duree": "00:02:43", "horodatage": "2021-10-13 21:04:43", "statut": "end", "marker-color": "#2fe184"}}, {"type": "Feature", "geometry": {"type": "Point", "coordinates": [2.314443, 48.8876]}, "properties": {"alarme": "VEHICULE DELOCALISE", "numparc": 1381, "type": "EXPLOITATION", "duree": "00:01:42", "horodatage": "2021-10-13 21:07:40", "statut": "end", "marker-color": "#2fe184"}}, {"type": "Feature", "geometry": {"type": "Point", "coordinates": [2.322983, 48.842445]}, "properties": {"alarme": "VEHICULE DELOCALISE", "numparc": 1387, "type": "EXPLOITATION", "duree": "00:00:36", "horodatage": "2021-10-13 21:12:14", "statut": "end", "marker-color": "#2fe184"}}, {"type": "Feature", "geometry": {"type": "Point", "coordinates": [2.322752, 48.842175]}, "properties": {"alarme": "VEHICULE DELOCALISE", "numparc": 1381, "type": "EXPLOITATION", "duree": "00:01:09", "horodatage": "2021-10-13 21:36:37", "statut": "end", "marker-color": "#2fe184"}}, {"type": "Feature", "geometry": {"type": "Point", "coordinates": [2.311557, 48.894749]}, "properties": {"alarme": "VEHICULE DELOCALISE", "numparc": 1379, "type": "EXPLOITATION", "duree": "00:01:09", "horodatage": "2021-10-13 22:22:25", "statut": "end", "marker-color": "#2fe184"}}, {"type": "Feature", "geometry": {"type": "Point", "coordinates": [2.314412, 48.887493]}, "properties": {"alarme": "VEHICULE DELOCALISE", "numparc": 1379, "type": "EXPLOITATION", "duree": "00:01:38", "horodatage": "2021-10-13 22:44:27", "statut": "end", "marker-color": "#2fe184"}}, {"type": "Feature", "geometry": {"type": "Point", "coordinates": [2.314489, 48.887558]}, "properties": {"alarme": "VEHICULE DELOCALISE", "numparc": 1380, "type": "EXPLOITATION", "duree": "00:00:51", "horodatage": "2021-10-13 23:00:34", "statut": "end", "marker-color": "#2fe184"}}, {"type": "Feature", "geometry": {"type": "Point", "coordinates": [2.321434, 48.840847]}, "properties": {"alarme": "VEHICULE DELOCALISE", "numparc": 1399, "type": "EXPLOITATION", "duree": "00:01:34", "horodatage": "2021-10-13 23:52:37", "statut": "end", "marker-color": "#2fe184"}}, {"type": "Feature", "geometry": {"type": "Point", "coordinates": [2.316157, 48.874096]}, "properties": {"alarme": "VEHICULE DELOCALISE", "numparc": 1439, "type": "EXPLOITATION", "duree": "00:00:49", "horodatage": "2021-10-13 23:59:17", "statut": "end", "marker-color": "#2fe184"}}]}