{"type": "FeatureCollection", "features": [{"type": "Feature", "geometry": {"type": "Point", "coordinates": [2.29715, 48.721863]}, "properties": {"etat de la localisation": "Mission inconnue", "numparc": 4863, "duree": "", "horodatage": "2021-07-26 04:22:24", "marker-color": "#FF9F56"}}, {"type": "Feature", "geometry": {"type": "Point", "coordinates": [2.296631, 48.721684]}, "properties": {"etat de la localisation": "Hors service", "numparc": 4856, "duree": "", "horodatage": "2021-07-26 04:28:14", "marker-color": "#707070"}}, {"type": "Feature", "geometry": {"type": "Point", "coordinates": [2.287704, 48.733295]}, "properties": {"etat de la localisation": "Delocalise", "numparc": 4863, "duree": "00:01:59", "horodatage": "2021-07-26 05:45:41", "marker-color": "#FF565E"}}, {"type": "Feature", "geometry": {"type": "Point", "coordinates": [2.298808, 48.722588]}, "properties": {"etat de la localisation": "Delocalise", "numparc": 4870, "duree": "00:01:27", "horodatage": "2021-07-26 05:52:34", "marker-color": "#FF565E"}}, {"type": "Feature", "geometry": {"type": "Point", "coordinates": [2.287742, 48.733261]}, "properties": {"etat de la localisation": "Delocalise", "numparc": 4864, "duree": "00:02:29", "horodatage": "2021-07-26 07:01:05", "marker-color": "#FF565E"}}, {"type": "Feature", "geometry": {"type": "Point", "coordinates": [2.287742, 48.733261]}, "properties": {"etat de la localisation": "Delocalise", "numparc": 4864, "duree": "00:00:00", "horodatage": "2021-07-26 07:01:05", "marker-color": "#FF565E"}}, {"type": "Feature", "geometry": {"type": "Point", "coordinates": [2.287598, 48.730762]}, "properties": {"etat de la localisation": "Delocalise", "numparc": 4855, "duree": "00:04:36", "horodatage": "2021-07-26 08:33:37", "marker-color": "#FF565E"}}, {"type": "Feature", "geometry": {"type": "Point", "coordinates": [2.286325, 48.733036]}, "properties": {"etat de la localisation": "Hors service", "numparc": 4863, "duree": "", "horodatage": "2021-07-26 09:41:08", "marker-color": "#707070"}}, {"type": "Feature", "geometry": {"type": "Point", "coordinates": [2.297871, 48.721146]}, "properties": {"etat de la localisation": "Hors service", "numparc": 4862, "duree": "", "horodatage": "2021-07-26 09:45:42", "marker-color": "#707070"}}, {"type": "Feature", "geometry": {"type": "Point", "coordinates": [2.287744, 48.733265]}, "properties": {"etat de la localisation": "Delocalise", "numparc": 4861, "duree": "00:01:10", "horodatage": "2021-07-26 09:54:52", "marker-color": "#FF565E"}}, {"type": "Feature", "geometry": {"type": "Point", "coordinates": [2.297883, 48.721146]}, "properties": {"etat de la localisation": "Hors service", "numparc": 4856, "duree": "", "horodatage": "2021-07-26 09:59:45", "marker-color": "#707070"}}, {"type": "Feature", "geometry": {"type": "Point", "coordinates": [2.286168, 48.733116]}, "properties": {"etat de la localisation": "Mission inconnue", "numparc": 4863, "duree": "", "horodatage": "2021-07-26 10:24:51", "marker-color": "#FF9F56"}}, {"type": "Feature", "geometry": {"type": "Point", "coordinates": [2.297569, 48.721169]}, "properties": {"etat de la localisation": "Hors service", "numparc": 4855, "duree": "", "horodatage": "2021-07-26 10:35:54", "marker-color": "#707070"}}, {"type": "Feature", "geometry": {"type": "Point", "coordinates": [2.297569, 48.721169]}, "properties": {"etat de la localisation": "Hors service", "numparc": 4855, "duree": "", "horodatage": "2021-07-26 10:44:58", "marker-color": "#707070"}}, {"type": "Feature", "geometry": {"type": "Point", "coordinates": [2.297569, 48.721169]}, "properties": {"etat de la localisation": "Hors service", "numparc": 4855, "duree": "", "horodatage": "2021-07-26 10:45:46", "marker-color": "#707070"}}, {"type": "Feature", "geometry": {"type": "Point", "coordinates": [2.297569, 48.721169]}, "properties": {"etat de la localisation": "Hors service", "numparc": 4855, "duree": "", "horodatage": "2021-07-26 10:47:43", "marker-color": "#707070"}}, {"type": "Feature", "geometry": {"type": "Point", "coordinates": [2.297945, 48.721474]}, "properties": {"etat de la localisation": "Hors service", "numparc": 4860, "duree": "", "horodatage": "2021-07-26 10:53:56", "marker-color": "#707070"}}, {"type": "Feature", "geometry": {"type": "Point", "coordinates": [2.297103, 48.721695]}, "properties": {"etat de la localisation": "Hors service", "numparc": 4861, "duree": "", "horodatage": "2021-07-26 11:46:12", "marker-color": "#707070"}}, {"type": "Feature", "geometry": {"type": "Point", "coordinates": [2.297816, 48.721733]}, "properties": {"etat de la localisation": "Mission inconnue", "numparc": 4871, "duree": "", "horodatage": "2021-07-26 11:52:12", "marker-color": "#FF9F56"}}, {"type": "Feature", "geometry": {"type": "Point", "coordinates": [2.297771, 48.721935]}, "properties": {"etat de la localisation": "Mission inconnue", "numparc": 4860, "duree": "", "horodatage": "2021-07-26 12:04:25", "marker-color": "#FF9F56"}}, {"type": "Feature", "geometry": {"type": "Point", "coordinates": [2.298066, 48.722214]}, "properties": {"etat de la localisation": "Hors service", "numparc": 4870, "duree": "", "horodatage": "2021-07-26 12:04:42", "marker-color": "#707070"}}, {"type": "Feature", "geometry": {"type": "Point", "coordinates": [2.297816, 48.721733]}, "properties": {"etat de la localisation": "Hors service", "numparc": 4871, "duree": "", "horodatage": "2021-07-26 12:07:17", "marker-color": "#707070"}}, {"type": "Feature", "geometry": {"type": "Point", "coordinates": [2.297708, 48.722298]}, "properties": {"etat de la localisation": "Hors service", "numparc": 4860, "duree": "", "horodatage": "2021-07-26 12:08:52", "marker-color": "#707070"}}, {"type": "Feature", "geometry": {"type": "Point", "coordinates": [2.297686, 48.722298]}, "properties": {"etat de la localisation": "Mission inconnue", "numparc": 4860, "duree": "", "horodatage": "2021-07-26 12:38:45", "marker-color": "#FF9F56"}}, {"type": "Feature", "geometry": {"type": "Point", "coordinates": [2.297112, 48.721977]}, "properties": {"etat de la localisation": "Hors service", "numparc": 4866, "duree": "", "horodatage": "2021-07-26 12:48:11", "marker-color": "#707070"}}, {"type": "Feature", "geometry": {"type": "Point", "coordinates": [2.296952, 48.72192]}, "properties": {"etat de la localisation": "Hors service", "numparc": 4855, "duree": "", "horodatage": "2021-07-26 13:06:04", "marker-color": "#707070"}}, {"type": "Feature", "geometry": {"type": "Point", "coordinates": [2.296955, 48.721527]}, "properties": {"etat de la localisation": "Mission inconnue", "numparc": 4861, "duree": "", "horodatage": "2021-07-26 13:28:55", "marker-color": "#FF9F56"}}, {"type": "Feature", "geometry": {"type": "Point", "coordinates": [2.297882, 48.721951]}, "properties": {"etat de la localisation": "Hors service", "numparc": 4869, "duree": "", "horodatage": "2021-07-26 13:32:48", "marker-color": "#707070"}}, {"type": "Feature", "geometry": {"type": "Point", "coordinates": [2.297673, 48.721054]}, "properties": {"etat de la localisation": "Hors service", "numparc": 4864, "duree": "", "horodatage": "2021-07-26 13:49:03", "marker-color": "#707070"}}, {"type": "Feature", "geometry": {"type": "Point", "coordinates": [2.297673, 48.721054]}, "properties": {"etat de la localisation": "Hors service", "numparc": 4864, "duree": "", "horodatage": "2021-07-26 13:49:03", "marker-color": "#707070"}}, {"type": "Feature", "geometry": {"type": "Point", "coordinates": [2.287756, 48.733295]}, "properties": {"etat de la localisation": "Delocalise", "numparc": 4863, "duree": "00:01:21", "horodatage": "2021-07-26 14:43:25", "marker-color": "#FF565E"}}, {"type": "Feature", "geometry": {"type": "Point", "coordinates": [2.299044, 48.719418]}, "properties": {"etat de la localisation": "Mission inconnue", "numparc": 4859, "duree": "", "horodatage": "2021-07-26 15:21:47", "marker-color": "#FF9F56"}}, {"type": "Feature", "geometry": {"type": "Point", "coordinates": [2.299044, 48.719418]}, "properties": {"etat de la localisation": "Mission inconnue", "numparc": 4859, "duree": "", "horodatage": "2021-07-26 15:21:47", "marker-color": "#FF9F56"}}, {"type": "Feature", "geometry": {"type": "Point", "coordinates": [2.298464, 48.72216]}, "properties": {"etat de la localisation": "Hors service", "numparc": 4859, "duree": "", "horodatage": "2021-07-26 16:55:11", "marker-color": "#707070"}}, {"type": "Feature", "geometry": {"type": "Point", "coordinates": [2.298464, 48.72216]}, "properties": {"etat de la localisation": "Hors service", "numparc": 4859, "duree": "", "horodatage": "2021-07-26 16:55:11", "marker-color": "#707070"}}, {"type": "Feature", "geometry": {"type": "Point", "coordinates": [2.287681, 48.733276]}, "properties": {"etat de la localisation": "Delocalise", "numparc": 4858, "duree": "00:01:35", "horodatage": "2021-07-26 17:22:26", "marker-color": "#FF565E"}}, {"type": "Feature", "geometry": {"type": "Point", "coordinates": [2.287593, 48.733349]}, "properties": {"etat de la localisation": "Delocalise", "numparc": 4860, "duree": "00:01:18", "horodatage": "2021-07-26 17:39:58", "marker-color": "#FF565E"}}, {"type": "Feature", "geometry": {"type": "Point", "coordinates": [2.297674, 48.721443]}, "properties": {"etat de la localisation": "Hors service", "numparc": 4870, "duree": "", "horodatage": "2021-07-26 17:46:24", "marker-color": "#707070"}}, {"type": "Feature", "geometry": {"type": "Point", "coordinates": [2.297842, 48.720993]}, "properties": {"etat de la localisation": "Hors service", "numparc": 4856, "duree": "", "horodatage": "2021-07-26 18:22:24", "marker-color": "#707070"}}, {"type": "Feature", "geometry": {"type": "Point", "coordinates": [2.297978, 48.721588]}, "properties": {"etat de la localisation": "Hors service", "numparc": 4863, "duree": "", "horodatage": "2021-07-26 18:52:15", "marker-color": "#707070"}}, {"type": "Feature", "geometry": {"type": "Point", "coordinates": [2.297912, 48.721569]}, "properties": {"etat de la localisation": "Hors service", "numparc": 4862, "duree": "", "horodatage": "2021-07-26 19:10:03", "marker-color": "#707070"}}, {"type": "Feature", "geometry": {"type": "Point", "coordinates": [2.297938, 48.721523]}, "properties": {"etat de la localisation": "Hors service", "numparc": 4860, "duree": "", "horodatage": "2021-07-26 19:32:24", "marker-color": "#707070"}}, {"type": "Feature", "geometry": {"type": "Point", "coordinates": [2.297979, 48.721554]}, "properties": {"etat de la localisation": "Hors service", "numparc": 4867, "duree": "", "horodatage": "2021-07-26 19:40:12", "marker-color": "#707070"}}, {"type": "Feature", "geometry": {"type": "Point", "coordinates": [2.287733, 48.733284]}, "properties": {"etat de la localisation": "Delocalise", "numparc": 4859, "duree": "00:00:00", "horodatage": "2021-07-26 20:01:16", "marker-color": "#FF565E"}}, {"type": "Feature", "geometry": {"type": "Point", "coordinates": [2.287733, 48.733284]}, "properties": {"etat de la localisation": "Delocalise", "numparc": 4859, "duree": "00:01:44", "horodatage": "2021-07-26 20:01:16", "marker-color": "#FF565E"}}, {"type": "Feature", "geometry": {"type": "Point", "coordinates": [2.297861, 48.7211]}, "properties": {"etat de la localisation": "Hors service", "numparc": 4861, "duree": "", "horodatage": "2021-07-26 21:09:51", "marker-color": "#707070"}}, {"type": "Feature", "geometry": {"type": "Point", "coordinates": [2.297962, 48.721298]}, "properties": {"etat de la localisation": "Hors service", "numparc": 4858, "duree": "", "horodatage": "2021-07-26 21:15:21", "marker-color": "#707070"}}, {"type": "Feature", "geometry": {"type": "Point", "coordinates": [2.26726, 48.738712]}, "properties": {"etat de la localisation": "Mission inconnue", "numparc": 4881, "duree": "", "horodatage": "2021-07-26 22:25:56", "marker-color": "#FF9F56"}}, {"type": "Feature", "geometry": {"type": "Point", "coordinates": [2.287862, 48.733295]}, "properties": {"etat de la localisation": "Delocalise", "numparc": 4871, "duree": "00:00:43", "horodatage": "2021-07-26 22:54:41", "marker-color": "#FF565E"}}, {"type": "Feature", "geometry": {"type": "Point", "coordinates": [2.299448, 48.722374]}, "properties": {"etat de la localisation": "Hors service", "numparc": 4859, "duree": "", "horodatage": "2021-07-26 23:01:29", "marker-color": "#707070"}}, {"type": "Feature", "geometry": {"type": "Point", "coordinates": [2.299448, 48.722374]}, "properties": {"etat de la localisation": "Hors service", "numparc": 4859, "duree": "", "horodatage": "2021-07-26 23:01:29", "marker-color": "#707070"}}, {"type": "Feature", "geometry": {"type": "Point", "coordinates": [2.287782, 48.733276]}, "properties": {"etat de la localisation": "Delocalise", "numparc": 4864, "duree": "00:02:00", "horodatage": "2021-07-26 23:21:38", "marker-color": "#FF565E"}}, {"type": "Feature", "geometry": {"type": "Point", "coordinates": [2.287775, 48.733238]}, "properties": {"etat de la localisation": "Delocalise", "numparc": 4871, "duree": "00:02:40", "horodatage": "2021-07-27 00:20:18", "marker-color": "#FF565E"}}, {"type": "Feature", "geometry": {"type": "Point", "coordinates": [2.297935, 48.721298]}, "properties": {"etat de la localisation": "Hors service", "numparc": 4866, "duree": "", "horodatage": "2021-07-27 01:16:17", "marker-color": "#707070"}}, {"type": "Feature", "geometry": {"type": "Point", "coordinates": [2.299459, 48.72234]}, "properties": {"etat de la localisation": "Hors service", "numparc": 4864, "duree": "", "horodatage": "2021-07-27 01:45:15", "marker-color": "#707070"}}, {"type": "Feature", "geometry": {"type": "Point", "coordinates": [2.297876, 48.721153]}, "properties": {"etat de la localisation": "Hors service", "numparc": 4871, "duree": "", "horodatage": "2021-07-27 01:53:23", "marker-color": "#707070"}}]}