{"type": "FeatureCollection", "features": [{"type": "Feature", "geometry": {"type": "Point", "coordinates": [2.359134, 48.761833]}, "properties": {"alarme": "VEHICULE DELOCALISE", "numparc": 9238, "type": "EXPLOITATION", "duree": "00:01:40", "horodatage": "2023-03-01 06:40:41", "statut": "start", "marker-color": "#ff0000"}}, {"type": "Feature", "geometry": {"type": "Point", "coordinates": [2.304933, 48.762871]}, "properties": {"alarme": "DEFAUT LIAISON DATA SAEIV / AIGLE", "numparc": 9243, "type": "TECHNIQUE", "duree": "00:00:43", "horodatage": "2023-03-01 15:17:38", "statut": "start", "marker-color": "#ff0000"}}, {"type": "Feature", "geometry": {"type": "Point", "coordinates": [2.371686, 48.759602]}, "properties": {"alarme": "VEHICULE DELOCALISE", "numparc": 9239, "type": "EXPLOITATION", "duree": "00:01:35", "horodatage": "2023-03-02 01:40:24", "statut": "start", "marker-color": "#ff0000"}}, {"type": "Feature", "geometry": {"type": "Point", "coordinates": [2.365972, 48.759163]}, "properties": {"alarme": "VEHICULE DELOCALISE", "numparc": 9238, "type": "EXPLOITATION", "duree": "00:01:40", "horodatage": "2023-03-01 06:42:21", "statut": "end", "marker-color": "#2fe184"}}, {"type": "Feature", "geometry": {"type": "Point", "coordinates": [2.304933, 48.762871]}, "properties": {"alarme": "DEFAUT LIAISON DATA SAEIV / AIGLE", "numparc": 9243, "type": "TECHNIQUE", "duree": "00:00:43", "horodatage": "2023-03-01 15:18:21", "statut": "end", "marker-color": "#2fe184"}}, {"type": "Feature", "geometry": {"type": "Point", "coordinates": [2.377759, 48.752895]}, "properties": {"alarme": "VEHICULE DELOCALISE", "numparc": 9239, "type": "EXPLOITATION", "duree": "00:01:35", "horodatage": "2023-03-02 01:41:59", "statut": "end", "marker-color": "#2fe184"}}]}