{"type": "FeatureCollection", "features": [{"type": "Feature", "geometry": {"type": "Point", "coordinates": [2.29896, 48.720432]}, "properties": {"etat de la localisation": "Delocalise", "numparc": 5844, "duree": "00:04:08", "horodatage": "2021-07-27 04:36:59", "marker-color": "#FF565E"}}, {"type": "Feature", "geometry": {"type": "Point", "coordinates": [2.262239, 48.724319]}, "properties": {"etat de la localisation": "Delocalise", "numparc": 5844, "duree": "00:00:51", "horodatage": "2021-07-27 04:59:34", "marker-color": "#FF565E"}}, {"type": "Feature", "geometry": {"type": "Point", "coordinates": [2.325248, 48.73172]}, "properties": {"etat de la localisation": "Deviation programmee", "numparc": 5844, "duree": "", "horodatage": "2021-07-27 05:35:19", "marker-color": "#56FF93"}}, {"type": "Feature", "geometry": {"type": "Point", "coordinates": [2.262284, 48.724342]}, "properties": {"etat de la localisation": "Delocalise", "numparc": 5850, "duree": "00:01:40", "horodatage": "2021-07-27 05:56:16", "marker-color": "#FF565E"}}, {"type": "Feature", "geometry": {"type": "Point", "coordinates": [2.297204, 48.737331]}, "properties": {"etat de la localisation": "Delocalise", "numparc": 5828, "duree": "00:01:54", "horodatage": "2021-07-27 05:58:26", "marker-color": "#FF565E"}}, {"type": "Feature", "geometry": {"type": "Point", "coordinates": [2.326334, 48.732689]}, "properties": {"etat de la localisation": "Deviation programmee", "numparc": 5853, "duree": "", "horodatage": "2021-07-27 05:59:31", "marker-color": "#56FF93"}}, {"type": "Feature", "geometry": {"type": "Point", "coordinates": [2.289219, 48.735573]}, "properties": {"etat de la localisation": "Delocalise", "numparc": 5828, "duree": "00:01:50", "horodatage": "2021-07-27 06:04:05", "marker-color": "#FF565E"}}, {"type": "Feature", "geometry": {"type": "Point", "coordinates": [2.282355, 48.727886]}, "properties": {"etat de la localisation": "Delocalise", "numparc": 5828, "duree": "00:00:46", "horodatage": "2021-07-27 06:10:24", "marker-color": "#FF565E"}}, {"type": "Feature", "geometry": {"type": "Point", "coordinates": [2.267467, 48.720028]}, "properties": {"etat de la localisation": "Delocalise", "numparc": 5828, "duree": "00:01:28", "horodatage": "2021-07-27 06:18:18", "marker-color": "#FF565E"}}, {"type": "Feature", "geometry": {"type": "Point", "coordinates": [2.326428, 48.732674]}, "properties": {"etat de la localisation": "Deviation programmee", "numparc": 5858, "duree": "", "horodatage": "2021-07-27 06:20:10", "marker-color": "#56FF93"}}, {"type": "Feature", "geometry": {"type": "Point", "coordinates": [2.262352, 48.724277]}, "properties": {"etat de la localisation": "Delocalise", "numparc": 5828, "duree": "00:09:19", "horodatage": "2021-07-27 06:21:47", "marker-color": "#FF565E"}}, {"type": "Feature", "geometry": {"type": "Point", "coordinates": [2.262336, 48.724239]}, "properties": {"etat de la localisation": "Delocalise", "numparc": 5853, "duree": "00:01:29", "horodatage": "2021-07-27 06:24:58", "marker-color": "#FF565E"}}, {"type": "Feature", "geometry": {"type": "Point", "coordinates": [2.272595, 48.721004]}, "properties": {"etat de la localisation": "Delocalise", "numparc": 5828, "duree": "00:00:06", "horodatage": "2021-07-27 06:32:00", "marker-color": "#FF565E"}}, {"type": "Feature", "geometry": {"type": "Point", "coordinates": [2.32642, 48.732643]}, "properties": {"etat de la localisation": "Deviation programmee", "numparc": 5844, "duree": "", "horodatage": "2021-07-27 06:38:32", "marker-color": "#56FF93"}}, {"type": "Feature", "geometry": {"type": "Point", "coordinates": [2.262144, 48.724316]}, "properties": {"etat de la localisation": "Delocalise", "numparc": 5858, "duree": "00:01:24", "horodatage": "2021-07-27 06:52:00", "marker-color": "#FF565E"}}, {"type": "Feature", "geometry": {"type": "Point", "coordinates": [2.32529, 48.730873]}, "properties": {"etat de la localisation": "Delocalise", "numparc": 5828, "duree": "00:08:27", "horodatage": "2021-07-27 06:55:47", "marker-color": "#FF565E"}}, {"type": "Feature", "geometry": {"type": "Point", "coordinates": [2.325245, 48.731686]}, "properties": {"etat de la localisation": "Deviation programmee", "numparc": 5860, "duree": "", "horodatage": "2021-07-27 06:56:26", "marker-color": "#56FF93"}}, {"type": "Feature", "geometry": {"type": "Point", "coordinates": [2.326347, 48.732658]}, "properties": {"etat de la localisation": "Deviation programmee", "numparc": 5855, "duree": "", "horodatage": "2021-07-27 06:58:22", "marker-color": "#56FF93"}}, {"type": "Feature", "geometry": {"type": "Point", "coordinates": [2.262208, 48.724365]}, "properties": {"etat de la localisation": "Delocalise", "numparc": 5844, "duree": "00:01:29", "horodatage": "2021-07-27 07:04:34", "marker-color": "#FF565E"}}, {"type": "Feature", "geometry": {"type": "Point", "coordinates": [2.35745, 48.74617]}, "properties": {"etat de la localisation": "Delocalise", "numparc": 5828, "duree": "00:03:36", "horodatage": "2021-07-27 07:07:10", "marker-color": "#FF565E"}}, {"type": "Feature", "geometry": {"type": "Point", "coordinates": [2.358244, 48.763268]}, "properties": {"etat de la localisation": "Hors service", "numparc": 5850, "duree": "", "horodatage": "2021-07-27 07:09:57", "marker-color": "#707070"}}, {"type": "Feature", "geometry": {"type": "Point", "coordinates": [2.325141, 48.731659]}, "properties": {"etat de la localisation": "Deviation programmee", "numparc": 5853, "duree": "", "horodatage": "2021-07-27 07:11:55", "marker-color": "#56FF93"}}, {"type": "Feature", "geometry": {"type": "Point", "coordinates": [2.286063, 48.733444]}, "properties": {"etat de la localisation": "Mission suivante non connue", "numparc": 5852, "duree": "", "horodatage": "2021-07-27 07:14:10", "marker-color": "#7156FF"}}, {"type": "Feature", "geometry": {"type": "Point", "coordinates": [2.28647, 48.732803]}, "properties": {"etat de la localisation": "Mission suivante non connue", "numparc": 5852, "duree": "", "horodatage": "2021-07-27 07:15:07", "marker-color": "#7156FF"}}, {"type": "Feature", "geometry": {"type": "Point", "coordinates": [2.285159, 48.732243]}, "properties": {"etat de la localisation": "Delocalise", "numparc": 5852, "duree": "00:00:01", "horodatage": "2021-07-27 07:15:47", "marker-color": "#FF565E"}}, {"type": "Feature", "geometry": {"type": "Point", "coordinates": [2.358353, 48.763199]}, "properties": {"etat de la localisation": "Mission suivante non connue", "numparc": 5828, "duree": "", "horodatage": "2021-07-27 07:20:54", "marker-color": "#7156FF"}}, {"type": "Feature", "geometry": {"type": "Point", "coordinates": [2.297483, 48.721951]}, "properties": {"etat de la localisation": "Mission inconnue", "numparc": 5843, "duree": "", "horodatage": "2021-07-27 07:23:33", "marker-color": "#FF9F56"}}, {"type": "Feature", "geometry": {"type": "Point", "coordinates": [2.263144, 48.719566]}, "properties": {"etat de la localisation": "Delocalise", "numparc": 5852, "duree": "00:04:56", "horodatage": "2021-07-27 07:24:11", "marker-color": "#FF565E"}}, {"type": "Feature", "geometry": {"type": "Point", "coordinates": [2.325202, 48.731678]}, "properties": {"etat de la localisation": "Deviation programmee", "numparc": 5858, "duree": "", "horodatage": "2021-07-27 07:28:07", "marker-color": "#56FF93"}}, {"type": "Feature", "geometry": {"type": "Point", "coordinates": [2.262299, 48.724178]}, "properties": {"etat de la localisation": "Delocalise", "numparc": 5855, "duree": "00:01:51", "horodatage": "2021-07-27 07:28:17", "marker-color": "#FF565E"}}, {"type": "Feature", "geometry": {"type": "Point", "coordinates": [2.369953, 48.750999]}, "properties": {"etat de la localisation": "Delocalise", "numparc": 5828, "duree": "00:01:11", "horodatage": "2021-07-27 07:39:42", "marker-color": "#FF565E"}}, {"type": "Feature", "geometry": {"type": "Point", "coordinates": [2.326394, 48.732632]}, "properties": {"etat de la localisation": "Deviation programmee", "numparc": 5850, "duree": "", "horodatage": "2021-07-27 07:41:20", "marker-color": "#56FF93"}}, {"type": "Feature", "geometry": {"type": "Point", "coordinates": [2.325196, 48.731701]}, "properties": {"etat de la localisation": "Deviation programmee", "numparc": 5840, "duree": "", "horodatage": "2021-07-27 07:43:22", "marker-color": "#56FF93"}}, {"type": "Feature", "geometry": {"type": "Point", "coordinates": [2.262345, 48.724304]}, "properties": {"etat de la localisation": "Delocalise", "numparc": 5854, "duree": "00:00:55", "horodatage": "2021-07-27 07:44:03", "marker-color": "#FF565E"}}, {"type": "Feature", "geometry": {"type": "Point", "coordinates": [2.262144, 48.724361]}, "properties": {"etat de la localisation": "Delocalise", "numparc": 5844, "duree": "00:00:44", "horodatage": "2021-07-27 08:01:14", "marker-color": "#FF565E"}}, {"type": "Feature", "geometry": {"type": "Point", "coordinates": [2.262305, 48.724232]}, "properties": {"etat de la localisation": "Delocalise", "numparc": 5850, "duree": "00:00:51", "horodatage": "2021-07-27 08:09:06", "marker-color": "#FF565E"}}, {"type": "Feature", "geometry": {"type": "Point", "coordinates": [2.326466, 48.732639]}, "properties": {"etat de la localisation": "Deviation programmee", "numparc": 5860, "duree": "", "horodatage": "2021-07-27 08:09:44", "marker-color": "#56FF93"}}, {"type": "Feature", "geometry": {"type": "Point", "coordinates": [2.262317, 48.724297]}, "properties": {"etat de la localisation": "Delocalise", "numparc": 5855, "duree": "00:00:47", "horodatage": "2021-07-27 08:12:31", "marker-color": "#FF565E"}}, {"type": "Feature", "geometry": {"type": "Point", "coordinates": [2.325247, 48.731701]}, "properties": {"etat de la localisation": "Deviation programmee", "numparc": 5852, "duree": "", "horodatage": "2021-07-27 08:15:35", "marker-color": "#56FF93"}}, {"type": "Feature", "geometry": {"type": "Point", "coordinates": [2.326344, 48.732632]}, "properties": {"etat de la localisation": "Deviation programmee", "numparc": 5853, "duree": "", "horodatage": "2021-07-27 08:24:17", "marker-color": "#56FF93"}}, {"type": "Feature", "geometry": {"type": "Point", "coordinates": [2.259774, 48.724705]}, "properties": {"etat de la localisation": "Hors service", "numparc": 5850, "duree": "", "horodatage": "2021-07-27 08:32:10", "marker-color": "#707070"}}, {"type": "Feature", "geometry": {"type": "Point", "coordinates": [2.262379, 48.724258]}, "properties": {"etat de la localisation": "Delocalise", "numparc": 5843, "duree": "00:12:33", "horodatage": "2021-07-27 08:32:52", "marker-color": "#FF565E"}}, {"type": "Feature", "geometry": {"type": "Point", "coordinates": [2.262319, 48.724201]}, "properties": {"etat de la localisation": "Delocalise", "numparc": 5828, "duree": "00:01:18", "horodatage": "2021-07-27 08:34:47", "marker-color": "#FF565E"}}, {"type": "Feature", "geometry": {"type": "Point", "coordinates": [2.260552, 48.725307]}, "properties": {"etat de la localisation": "Mission suivante non connue", "numparc": 5828, "duree": "", "horodatage": "2021-07-27 08:36:09", "marker-color": "#7156FF"}}, {"type": "Feature", "geometry": {"type": "Point", "coordinates": [2.262357, 48.724274]}, "properties": {"etat de la localisation": "Delocalise", "numparc": 5860, "duree": "00:01:52", "horodatage": "2021-07-27 08:40:56", "marker-color": "#FF565E"}}, {"type": "Feature", "geometry": {"type": "Point", "coordinates": [2.326431, 48.732609]}, "properties": {"etat de la localisation": "Deviation programmee", "numparc": 5858, "duree": "", "horodatage": "2021-07-27 08:44:01", "marker-color": "#56FF93"}}, {"type": "Feature", "geometry": {"type": "Point", "coordinates": [2.262328, 48.724216]}, "properties": {"etat de la localisation": "Delocalise", "numparc": 5854, "duree": "00:01:46", "horodatage": "2021-07-27 08:45:54", "marker-color": "#FF565E"}}, {"type": "Feature", "geometry": {"type": "Point", "coordinates": [2.325201, 48.731724]}, "properties": {"etat de la localisation": "Deviation programmee", "numparc": 5844, "duree": "", "horodatage": "2021-07-27 08:48:35", "marker-color": "#56FF93"}}, {"type": "Feature", "geometry": {"type": "Point", "coordinates": [2.262325, 48.724266]}, "properties": {"etat de la localisation": "Delocalise", "numparc": 5853, "duree": "00:01:24", "horodatage": "2021-07-27 08:52:07", "marker-color": "#FF565E"}}, {"type": "Feature", "geometry": {"type": "Point", "coordinates": [2.326397, 48.732677]}, "properties": {"etat de la localisation": "Deviation programmee", "numparc": 5841, "duree": "", "horodatage": "2021-07-27 08:57:06", "marker-color": "#56FF93"}}, {"type": "Feature", "geometry": {"type": "Point", "coordinates": [2.260432, 48.725193]}, "properties": {"etat de la localisation": "Delocalise", "numparc": 5828, "duree": "00:00:22", "horodatage": "2021-07-27 09:01:25", "marker-color": "#FF565E"}}, {"type": "Feature", "geometry": {"type": "Point", "coordinates": [2.325185, 48.731701]}, "properties": {"etat de la localisation": "Deviation programmee", "numparc": 5816, "duree": "", "horodatage": "2021-07-27 09:05:58", "marker-color": "#56FF93"}}, {"type": "Feature", "geometry": {"type": "Point", "coordinates": [2.326505, 48.732643]}, "properties": {"etat de la localisation": "Deviation programmee", "numparc": 5840, "duree": "", "horodatage": "2021-07-27 09:11:01", "marker-color": "#56FF93"}}, {"type": "Feature", "geometry": {"type": "Point", "coordinates": [2.262338, 48.724277]}, "properties": {"etat de la localisation": "Delocalise", "numparc": 5850, "duree": "00:00:59", "horodatage": "2021-07-27 09:12:34", "marker-color": "#FF565E"}}, {"type": "Feature", "geometry": {"type": "Point", "coordinates": [2.262341, 48.724304]}, "properties": {"etat de la localisation": "Delocalise", "numparc": 5858, "duree": "00:01:17", "horodatage": "2021-07-27 09:15:34", "marker-color": "#FF565E"}}, {"type": "Feature", "geometry": {"type": "Point", "coordinates": [2.325192, 48.731693]}, "properties": {"etat de la localisation": "Deviation programmee", "numparc": 5855, "duree": "", "horodatage": "2021-07-27 09:19:04", "marker-color": "#56FF93"}}, {"type": "Feature", "geometry": {"type": "Point", "coordinates": [2.262522, 48.724415]}, "properties": {"etat de la localisation": "Delocalise", "numparc": 5841, "duree": "00:01:27", "horodatage": "2021-07-27 09:28:20", "marker-color": "#FF565E"}}, {"type": "Feature", "geometry": {"type": "Point", "coordinates": [2.262356, 48.7243]}, "properties": {"etat de la localisation": "Delocalise", "numparc": 5843, "duree": "00:00:52", "horodatage": "2021-07-27 09:34:35", "marker-color": "#FF565E"}}, {"type": "Feature", "geometry": {"type": "Point", "coordinates": [2.325021, 48.73053]}, "properties": {"etat de la localisation": "Delocalise", "numparc": 5828, "duree": "00:08:32", "horodatage": "2021-07-27 09:36:12", "marker-color": "#FF565E"}}, {"type": "Feature", "geometry": {"type": "Point", "coordinates": [2.326378, 48.732639]}, "properties": {"etat de la localisation": "Deviation programmee", "numparc": 5852, "duree": "", "horodatage": "2021-07-27 09:40:56", "marker-color": "#56FF93"}}, {"type": "Feature", "geometry": {"type": "Point", "coordinates": [2.262211, 48.724323]}, "properties": {"etat de la localisation": "Delocalise", "numparc": 5840, "duree": "00:01:40", "horodatage": "2021-07-27 09:41:15", "marker-color": "#FF565E"}}, {"type": "Feature", "geometry": {"type": "Point", "coordinates": [2.325206, 48.731789]}, "properties": {"etat de la localisation": "Deviation programmee", "numparc": 5860, "duree": "", "horodatage": "2021-07-27 09:43:35", "marker-color": "#56FF93"}}, {"type": "Feature", "geometry": {"type": "Point", "coordinates": [2.262323, 48.724228]}, "properties": {"etat de la localisation": "Delocalise", "numparc": 5854, "duree": "00:01:20", "horodatage": "2021-07-27 09:45:59", "marker-color": "#FF565E"}}, {"type": "Feature", "geometry": {"type": "Point", "coordinates": [2.260353, 48.725243]}, "properties": {"etat de la localisation": "Hors service", "numparc": 5843, "duree": "", "horodatage": "2021-07-27 09:47:02", "marker-color": "#707070"}}, {"type": "Feature", "geometry": {"type": "Point", "coordinates": [2.262376, 48.724358]}, "properties": {"etat de la localisation": "Delocalise", "numparc": 5853, "duree": "00:01:10", "horodatage": "2021-07-27 09:58:42", "marker-color": "#FF565E"}}, {"type": "Feature", "geometry": {"type": "Point", "coordinates": [2.260646, 48.724697]}, "properties": {"etat de la localisation": "Delocalise", "numparc": 5843, "duree": "00:01:58", "horodatage": "2021-07-27 10:02:00", "marker-color": "#FF565E"}}, {"type": "Feature", "geometry": {"type": "Point", "coordinates": [2.358259, 48.763191]}, "properties": {"etat de la localisation": "Mission suivante non connue", "numparc": 5828, "duree": "", "horodatage": "2021-07-27 10:02:14", "marker-color": "#7156FF"}}, {"type": "Feature", "geometry": {"type": "Point", "coordinates": [2.299236, 48.722385]}, "properties": {"etat de la localisation": "Hors service", "numparc": 5850, "duree": "", "horodatage": "2021-07-27 10:08:21", "marker-color": "#707070"}}, {"type": "Feature", "geometry": {"type": "Point", "coordinates": [2.262354, 48.724266]}, "properties": {"etat de la localisation": "Delocalise", "numparc": 5852, "duree": "00:01:33", "horodatage": "2021-07-27 10:12:40", "marker-color": "#FF565E"}}, {"type": "Feature", "geometry": {"type": "Point", "coordinates": [2.32517, 48.731712]}, "properties": {"etat de la localisation": "Deviation programmee", "numparc": 5858, "duree": "", "horodatage": "2021-07-27 10:13:15", "marker-color": "#56FF93"}}, {"type": "Feature", "geometry": {"type": "Point", "coordinates": [2.32642, 48.732643]}, "properties": {"etat de la localisation": "Deviation programmee", "numparc": 5844, "duree": "", "horodatage": "2021-07-27 10:14:58", "marker-color": "#56FF93"}}, {"type": "Feature", "geometry": {"type": "Point", "coordinates": [2.359202, 48.761791]}, "properties": {"etat de la localisation": "Delocalise", "numparc": 5855, "duree": "00:01:26", "horodatage": "2021-07-27 10:16:13", "marker-color": "#FF565E"}}, {"type": "Feature", "geometry": {"type": "Point", "coordinates": [2.301245, 48.735023]}, "properties": {"etat de la localisation": "Delocalise", "numparc": 5841, "duree": "00:00:35", "horodatage": "2021-07-27 10:17:11", "marker-color": "#FF565E"}}, {"type": "Feature", "geometry": {"type": "Point", "coordinates": [2.297326, 48.721287]}, "properties": {"etat de la localisation": "Hors service", "numparc": 5828, "duree": "", "horodatage": "2021-07-27 10:20:55", "marker-color": "#707070"}}, {"type": "Feature", "geometry": {"type": "Point", "coordinates": [2.297575, 48.721806]}, "properties": {"etat de la localisation": "Hors service", "numparc": 5841, "duree": "", "horodatage": "2021-07-27 10:22:10", "marker-color": "#707070"}}, {"type": "Feature", "geometry": {"type": "Point", "coordinates": [2.325242, 48.731686]}, "properties": {"etat de la localisation": "Deviation programmee", "numparc": 5843, "duree": "", "horodatage": "2021-07-27 10:24:17", "marker-color": "#56FF93"}}, {"type": "Feature", "geometry": {"type": "Point", "coordinates": [2.32641, 48.732643]}, "properties": {"etat de la localisation": "Deviation programmee", "numparc": 5816, "duree": "", "horodatage": "2021-07-27 10:26:09", "marker-color": "#56FF93"}}, {"type": "Feature", "geometry": {"type": "Point", "coordinates": [2.299244, 48.722336]}, "properties": {"etat de la localisation": "Hors service", "numparc": 5840, "duree": "", "horodatage": "2021-07-27 10:37:04", "marker-color": "#707070"}}, {"type": "Feature", "geometry": {"type": "Point", "coordinates": [2.32641, 48.732655]}, "properties": {"etat de la localisation": "Deviation programmee", "numparc": 5855, "duree": "", "horodatage": "2021-07-27 10:40:52", "marker-color": "#56FF93"}}, {"type": "Feature", "geometry": {"type": "Point", "coordinates": [2.32517, 48.731689]}, "properties": {"etat de la localisation": "Deviation programmee", "numparc": 5854, "duree": "", "horodatage": "2021-07-27 10:42:44", "marker-color": "#56FF93"}}, {"type": "Feature", "geometry": {"type": "Point", "coordinates": [2.262392, 48.72435]}, "properties": {"etat de la localisation": "Delocalise", "numparc": 5844, "duree": "00:00:59", "horodatage": "2021-07-27 10:52:38", "marker-color": "#FF565E"}}, {"type": "Feature", "geometry": {"type": "Point", "coordinates": [2.29921, 48.722275]}, "properties": {"etat de la localisation": "Hors service", "numparc": 5853, "duree": "", "horodatage": "2021-07-27 10:53:39", "marker-color": "#707070"}}, {"type": "Feature", "geometry": {"type": "Point", "coordinates": [2.29792, 48.721306]}, "properties": {"etat de la localisation": "Delocalise", "numparc": 5853, "duree": "00:00:21", "horodatage": "2021-07-27 10:54:22", "marker-color": "#FF565E"}}, {"type": "Feature", "geometry": {"type": "Point", "coordinates": [2.297493, 48.721348]}, "properties": {"etat de la localisation": "Hors service", "numparc": 5853, "duree": "", "horodatage": "2021-07-27 10:56:22", "marker-color": "#707070"}}, {"type": "Feature", "geometry": {"type": "Point", "coordinates": [2.326413, 48.732609]}, "properties": {"etat de la localisation": "Deviation programmee", "numparc": 5860, "duree": "", "horodatage": "2021-07-27 10:56:54", "marker-color": "#56FF93"}}, {"type": "Feature", "geometry": {"type": "Point", "coordinates": [2.262265, 48.7243]}, "properties": {"etat de la localisation": "Delocalise", "numparc": 5816, "duree": "00:01:05", "horodatage": "2021-07-27 11:00:16", "marker-color": "#FF565E"}}, {"type": "Feature", "geometry": {"type": "Point", "coordinates": [2.325165, 48.731701]}, "properties": {"etat de la localisation": "Deviation programmee", "numparc": 5852, "duree": "", "horodatage": "2021-07-27 11:01:14", "marker-color": "#56FF93"}}, {"type": "Feature", "geometry": {"type": "Point", "coordinates": [2.297807, 48.721603]}, "properties": {"etat de la localisation": "Mission inconnue", "numparc": 5840, "duree": "", "horodatage": "2021-07-27 11:07:39", "marker-color": "#FF9F56"}}, {"type": "Feature", "geometry": {"type": "Point", "coordinates": [2.262271, 48.724365]}, "properties": {"etat de la localisation": "Delocalise", "numparc": 5855, "duree": "00:01:04", "horodatage": "2021-07-27 11:11:33", "marker-color": "#FF565E"}}, {"type": "Feature", "geometry": {"type": "Point", "coordinates": [2.326438, 48.732639]}, "properties": {"etat de la localisation": "Deviation programmee", "numparc": 5858, "duree": "", "horodatage": "2021-07-27 11:27:18", "marker-color": "#56FF93"}}, {"type": "Feature", "geometry": {"type": "Point", "coordinates": [2.297683, 48.721855]}, "properties": {"etat de la localisation": "Hors service", "numparc": 5840, "duree": "", "horodatage": "2021-07-27 11:27:23", "marker-color": "#707070"}}, {"type": "Feature", "geometry": {"type": "Point", "coordinates": [2.262348, 48.724224]}, "properties": {"etat de la localisation": "Delocalise", "numparc": 5860, "duree": "00:01:17", "horodatage": "2021-07-27 11:30:27", "marker-color": "#FF565E"}}, {"type": "Feature", "geometry": {"type": "Point", "coordinates": [2.260705, 48.724907]}, "properties": {"etat de la localisation": "Delocalise", "numparc": 5855, "duree": "00:00:51", "horodatage": "2021-07-27 11:30:29", "marker-color": "#FF565E"}}, {"type": "Feature", "geometry": {"type": "Point", "coordinates": [2.325198, 48.731689]}, "properties": {"etat de la localisation": "Deviation programmee", "numparc": 5844, "duree": "", "horodatage": "2021-07-27 11:36:14", "marker-color": "#56FF93"}}, {"type": "Feature", "geometry": {"type": "Point", "coordinates": [2.326398, 48.732632]}, "properties": {"etat de la localisation": "Deviation programmee", "numparc": 5843, "duree": "", "horodatage": "2021-07-27 11:40:43", "marker-color": "#56FF93"}}, {"type": "Feature", "geometry": {"type": "Point", "coordinates": [2.325222, 48.731701]}, "properties": {"etat de la localisation": "Deviation programmee", "numparc": 5816, "duree": "", "horodatage": "2021-07-27 11:43:14", "marker-color": "#56FF93"}}, {"type": "Feature", "geometry": {"type": "Point", "coordinates": [2.326378, 48.732628]}, "properties": {"etat de la localisation": "Deviation programmee", "numparc": 5854, "duree": "", "horodatage": "2021-07-27 11:56:17", "marker-color": "#56FF93"}}, {"type": "Feature", "geometry": {"type": "Point", "coordinates": [2.262325, 48.72427]}, "properties": {"etat de la localisation": "Delocalise", "numparc": 5858, "duree": "00:00:45", "horodatage": "2021-07-27 11:57:25", "marker-color": "#FF565E"}}, {"type": "Feature", "geometry": {"type": "Point", "coordinates": [2.325194, 48.731701]}, "properties": {"etat de la localisation": "Deviation programmee", "numparc": 5855, "duree": "", "horodatage": "2021-07-27 12:01:59", "marker-color": "#56FF93"}}, {"type": "Feature", "geometry": {"type": "Point", "coordinates": [2.29924, 48.722374]}, "properties": {"etat de la localisation": "Hors service", "numparc": 5858, "duree": "", "horodatage": "2021-07-27 12:09:56", "marker-color": "#707070"}}, {"type": "Feature", "geometry": {"type": "Point", "coordinates": [2.326494, 48.732613]}, "properties": {"etat de la localisation": "Deviation programmee", "numparc": 5852, "duree": "", "horodatage": "2021-07-27 12:10:57", "marker-color": "#56FF93"}}, {"type": "Feature", "geometry": {"type": "Point", "coordinates": [2.29806, 48.721527]}, "properties": {"etat de la localisation": "Delocalise", "numparc": 5858, "duree": "00:00:07", "horodatage": "2021-07-27 12:11:10", "marker-color": "#FF565E"}}, {"type": "Feature", "geometry": {"type": "Point", "coordinates": [2.297526, 48.721443]}, "properties": {"etat de la localisation": "Hors service", "numparc": 5858, "duree": "", "horodatage": "2021-07-27 12:13:19", "marker-color": "#707070"}}, {"type": "Feature", "geometry": {"type": "Point", "coordinates": [2.325191, 48.731689]}, "properties": {"etat de la localisation": "Deviation programmee", "numparc": 5860, "duree": "", "horodatage": "2021-07-27 12:13:38", "marker-color": "#56FF93"}}, {"type": "Feature", "geometry": {"type": "Point", "coordinates": [2.262316, 48.724277]}, "properties": {"etat de la localisation": "Delocalise", "numparc": 5843, "duree": "00:01:21", "horodatage": "2021-07-27 12:15:03", "marker-color": "#FF565E"}}, {"type": "Feature", "geometry": {"type": "Point", "coordinates": [2.297422, 48.721287]}, "properties": {"etat de la localisation": "Mission inconnue", "numparc": 5850, "duree": "", "horodatage": "2021-07-27 12:16:53", "marker-color": "#FF9F56"}}, {"type": "Feature", "geometry": {"type": "Point", "coordinates": [2.297478, 48.7215]}, "properties": {"etat de la localisation": "Mission inconnue", "numparc": 5841, "duree": "", "horodatage": "2021-07-27 12:17:36", "marker-color": "#FF9F56"}}, {"type": "Feature", "geometry": {"type": "Point", "coordinates": [2.297305, 48.721298]}, "properties": {"etat de la localisation": "Mission inconnue", "numparc": 5828, "duree": "", "horodatage": "2021-07-27 12:22:35", "marker-color": "#FF9F56"}}, {"type": "Feature", "geometry": {"type": "Point", "coordinates": [2.297305, 48.721298]}, "properties": {"etat de la localisation": "Mission inconnue", "numparc": 5828, "duree": "", "horodatage": "2021-07-27 12:23:29", "marker-color": "#FF9F56"}}, {"type": "Feature", "geometry": {"type": "Point", "coordinates": [2.260236, 48.725014]}, "properties": {"etat de la localisation": "Hors service", "numparc": 5843, "duree": "", "horodatage": "2021-07-27 12:25:31", "marker-color": "#707070"}}, {"type": "Feature", "geometry": {"type": "Point", "coordinates": [2.297305, 48.721298]}, "properties": {"etat de la localisation": "Hors service", "numparc": 5828, "duree": "", "horodatage": "2021-07-27 12:27:28", "marker-color": "#707070"}}, {"type": "Feature", "geometry": {"type": "Point", "coordinates": [2.262225, 48.72435]}, "properties": {"etat de la localisation": "Delocalise", "numparc": 5854, "duree": "00:01:05", "horodatage": "2021-07-27 12:30:46", "marker-color": "#FF565E"}}, {"type": "Feature", "geometry": {"type": "Point", "coordinates": [2.297527, 48.721428]}, "properties": {"etat de la localisation": "Mission inconnue", "numparc": 5853, "duree": "", "horodatage": "2021-07-27 12:36:37", "marker-color": "#FF9F56"}}, {"type": "Feature", "geometry": {"type": "Point", "coordinates": [2.299202, 48.722336]}, "properties": {"etat de la localisation": "Hors service", "numparc": 5855, "duree": "", "horodatage": "2021-07-27 12:37:02", "marker-color": "#707070"}}, {"type": "Feature", "geometry": {"type": "Point", "coordinates": [2.297527, 48.721428]}, "properties": {"etat de la localisation": "Mission inconnue", "numparc": 5853, "duree": "", "horodatage": "2021-07-27 12:41:03", "marker-color": "#FF9F56"}}, {"type": "Feature", "geometry": {"type": "Point", "coordinates": [2.299223, 48.722408]}, "properties": {"etat de la localisation": "Hors service", "numparc": 5854, "duree": "", "horodatage": "2021-07-27 12:42:55", "marker-color": "#707070"}}, {"type": "Feature", "geometry": {"type": "Point", "coordinates": [2.326323, 48.732685]}, "properties": {"etat de la localisation": "Deviation programmee", "numparc": 5844, "duree": "", "horodatage": "2021-07-27 12:44:19", "marker-color": "#56FF93"}}, {"type": "Feature", "geometry": {"type": "Point", "coordinates": [2.26234, 48.724289]}, "properties": {"etat de la localisation": "Delocalise", "numparc": 5852, "duree": "00:00:42", "horodatage": "2021-07-27 12:45:01", "marker-color": "#FF565E"}}, {"type": "Feature", "geometry": {"type": "Point", "coordinates": [2.299238, 48.722359]}, "properties": {"etat de la localisation": "Hors service", "numparc": 5860, "duree": "", "horodatage": "2021-07-27 12:49:03", "marker-color": "#707070"}}, {"type": "Feature", "geometry": {"type": "Point", "coordinates": [2.297756, 48.722309]}, "properties": {"etat de la localisation": "Mission inconnue", "numparc": 5840, "duree": "", "horodatage": "2021-07-27 12:55:34", "marker-color": "#FF9F56"}}, {"type": "Feature", "geometry": {"type": "Point", "coordinates": [2.299215, 48.722363]}, "properties": {"etat de la localisation": "Hors service", "numparc": 5852, "duree": "", "horodatage": "2021-07-27 12:57:48", "marker-color": "#707070"}}, {"type": "Feature", "geometry": {"type": "Point", "coordinates": [2.326379, 48.732643]}, "properties": {"etat de la localisation": "Deviation programmee", "numparc": 5816, "duree": "", "horodatage": "2021-07-27 12:58:37", "marker-color": "#56FF93"}}, {"type": "Feature", "geometry": {"type": "Point", "coordinates": [2.325166, 48.731682]}, "properties": {"etat de la localisation": "Deviation programmee", "numparc": 5843, "duree": "", "horodatage": "2021-07-27 13:00:30", "marker-color": "#56FF93"}}, {"type": "Feature", "geometry": {"type": "Point", "coordinates": [2.325197, 48.731693]}, "properties": {"etat de la localisation": "Deviation programmee", "numparc": 5850, "duree": "", "horodatage": "2021-07-27 13:16:29", "marker-color": "#56FF93"}}, {"type": "Feature", "geometry": {"type": "Point", "coordinates": [2.262324, 48.724243]}, "properties": {"etat de la localisation": "Delocalise", "numparc": 5844, "duree": "00:01:55", "horodatage": "2021-07-27 13:16:37", "marker-color": "#FF565E"}}, {"type": "Feature", "geometry": {"type": "Point", "coordinates": [2.297524, 48.721447]}, "properties": {"etat de la localisation": "Mission inconnue", "numparc": 5858, "duree": "", "horodatage": "2021-07-27 13:27:45", "marker-color": "#FF9F56"}}, {"type": "Feature", "geometry": {"type": "Point", "coordinates": [2.326384, 48.732704]}, "properties": {"etat de la localisation": "Deviation programmee", "numparc": 5841, "duree": "", "horodatage": "2021-07-27 13:28:04", "marker-color": "#56FF93"}}, {"type": "Feature", "geometry": {"type": "Point", "coordinates": [2.26233, 48.724293]}, "properties": {"etat de la localisation": "Delocalise", "numparc": 5816, "duree": "00:01:28", "horodatage": "2021-07-27 13:32:34", "marker-color": "#FF565E"}}, {"type": "Feature", "geometry": {"type": "Point", "coordinates": [2.299231, 48.722309]}, "properties": {"etat de la localisation": "Hors service", "numparc": 5844, "duree": "", "horodatage": "2021-07-27 13:34:03", "marker-color": "#707070"}}, {"type": "Feature", "geometry": {"type": "Point", "coordinates": [2.299241, 48.722343]}, "properties": {"etat de la localisation": "Hors service", "numparc": 5843, "duree": "", "horodatage": "2021-07-27 13:39:05", "marker-color": "#707070"}}, {"type": "Feature", "geometry": {"type": "Point", "coordinates": [2.299257, 48.722324]}, "properties": {"etat de la localisation": "Hors service", "numparc": 5816, "duree": "", "horodatage": "2021-07-27 13:46:00", "marker-color": "#707070"}}, {"type": "Feature", "geometry": {"type": "Point", "coordinates": [2.298093, 48.721588]}, "properties": {"etat de la localisation": "Hors service", "numparc": 5816, "duree": "", "horodatage": "2021-07-27 13:47:50", "marker-color": "#707070"}}, {"type": "Feature", "geometry": {"type": "Point", "coordinates": [2.325167, 48.731701]}, "properties": {"etat de la localisation": "Deviation programmee", "numparc": 5840, "duree": "", "horodatage": "2021-07-27 13:58:26", "marker-color": "#56FF93"}}, {"type": "Feature", "geometry": {"type": "Point", "coordinates": [2.297338, 48.721565]}, "properties": {"etat de la localisation": "Mission inconnue", "numparc": 5860, "duree": "", "horodatage": "2021-07-27 14:01:20", "marker-color": "#FF9F56"}}, {"type": "Feature", "geometry": {"type": "Point", "coordinates": [2.262263, 48.724342]}, "properties": {"etat de la localisation": "Delocalise", "numparc": 5841, "duree": "00:00:51", "horodatage": "2021-07-27 14:04:10", "marker-color": "#FF565E"}}, {"type": "Feature", "geometry": {"type": "Point", "coordinates": [2.325296, 48.738308]}, "properties": {"etat de la localisation": "Delocalise", "numparc": 5858, "duree": "00:03:52", "horodatage": "2021-07-27 14:19:13", "marker-color": "#FF565E"}}, {"type": "Feature", "geometry": {"type": "Point", "coordinates": [2.32519, 48.73167]}, "properties": {"etat de la localisation": "Deviation programmee", "numparc": 5854, "duree": "", "horodatage": "2021-07-27 14:22:12", "marker-color": "#56FF93"}}, {"type": "Feature", "geometry": {"type": "Point", "coordinates": [2.262316, 48.724209]}, "properties": {"etat de la localisation": "Delocalise", "numparc": 5853, "duree": "00:01:21", "horodatage": "2021-07-27 14:26:14", "marker-color": "#FF565E"}}, {"type": "Feature", "geometry": {"type": "Point", "coordinates": [2.326452, 48.732609]}, "properties": {"etat de la localisation": "Deviation programmee", "numparc": 5850, "duree": "", "horodatage": "2021-07-27 14:26:29", "marker-color": "#56FF93"}}, {"type": "Feature", "geometry": {"type": "Point", "coordinates": [2.290942, 48.732567]}, "properties": {"etat de la localisation": "Delocalise", "numparc": 5858, "duree": "00:04:11", "horodatage": "2021-07-27 14:36:09", "marker-color": "#FF565E"}}, {"type": "Feature", "geometry": {"type": "Point", "coordinates": [2.325194, 48.731701]}, "properties": {"etat de la localisation": "Deviation programmee", "numparc": 5841, "duree": "", "horodatage": "2021-07-27 14:45:55", "marker-color": "#56FF93"}}, {"type": "Feature", "geometry": {"type": "Point", "coordinates": [2.260723, 48.724976]}, "properties": {"etat de la localisation": "Delocalise", "numparc": 5853, "duree": "00:01:02", "horodatage": "2021-07-27 14:46:11", "marker-color": "#FF565E"}}, {"type": "Feature", "geometry": {"type": "Point", "coordinates": [2.297459, 48.721714]}, "properties": {"etat de la localisation": "Mission inconnue", "numparc": 5852, "duree": "", "horodatage": "2021-07-27 14:49:26", "marker-color": "#FF9F56"}}, {"type": "Feature", "geometry": {"type": "Point", "coordinates": [2.262318, 48.724194]}, "properties": {"etat de la localisation": "Delocalise", "numparc": 5858, "duree": "00:01:00", "horodatage": "2021-07-27 14:56:31", "marker-color": "#FF565E"}}, {"type": "Feature", "geometry": {"type": "Point", "coordinates": [2.262189, 48.724308]}, "properties": {"etat de la localisation": "Delocalise", "numparc": 5850, "duree": "00:01:00", "horodatage": "2021-07-27 14:56:37", "marker-color": "#FF565E"}}, {"type": "Feature", "geometry": {"type": "Point", "coordinates": [2.325202, 48.731693]}, "properties": {"etat de la localisation": "Deviation programmee", "numparc": 5860, "duree": "", "horodatage": "2021-07-27 14:57:32", "marker-color": "#56FF93"}}, {"type": "Feature", "geometry": {"type": "Point", "coordinates": [2.326483, 48.732632]}, "properties": {"etat de la localisation": "Deviation programmee", "numparc": 5840, "duree": "", "horodatage": "2021-07-27 15:11:48", "marker-color": "#56FF93"}}, {"type": "Feature", "geometry": {"type": "Point", "coordinates": [2.325223, 48.731731]}, "properties": {"etat de la localisation": "Deviation programmee", "numparc": 5853, "duree": "", "horodatage": "2021-07-27 15:15:02", "marker-color": "#56FF93"}}, {"type": "Feature", "geometry": {"type": "Point", "coordinates": [2.285539, 48.734077]}, "properties": {"etat de la localisation": "Delocalise", "numparc": 5858, "duree": "00:01:35", "horodatage": "2021-07-27 15:26:14", "marker-color": "#FF565E"}}, {"type": "Feature", "geometry": {"type": "Point", "coordinates": [2.326429, 48.732666]}, "properties": {"etat de la localisation": "Deviation programmee", "numparc": 5854, "duree": "", "horodatage": "2021-07-27 15:31:08", "marker-color": "#56FF93"}}, {"type": "Feature", "geometry": {"type": "Point", "coordinates": [2.325173, 48.731697]}, "properties": {"etat de la localisation": "Deviation programmee", "numparc": 5858, "duree": "", "horodatage": "2021-07-27 15:39:50", "marker-color": "#56FF93"}}, {"type": "Feature", "geometry": {"type": "Point", "coordinates": [2.262169, 48.724258]}, "properties": {"etat de la localisation": "Delocalise", "numparc": 5840, "duree": "00:01:15", "horodatage": "2021-07-27 15:40:57", "marker-color": "#FF565E"}}, {"type": "Feature", "geometry": {"type": "Point", "coordinates": [2.357677, 48.763496]}, "properties": {"etat de la localisation": "Hors service", "numparc": 5853, "duree": "", "horodatage": "2021-07-27 15:43:04", "marker-color": "#707070"}}, {"type": "Feature", "geometry": {"type": "Point", "coordinates": [2.325188, 48.731678]}, "properties": {"etat de la localisation": "Deviation programmee", "numparc": 5850, "duree": "", "horodatage": "2021-07-27 15:45:25", "marker-color": "#56FF93"}}, {"type": "Feature", "geometry": {"type": "Point", "coordinates": [2.326403, 48.732643]}, "properties": {"etat de la localisation": "Deviation programmee", "numparc": 5852, "duree": "", "horodatage": "2021-07-27 15:45:32", "marker-color": "#56FF93"}}, {"type": "Feature", "geometry": {"type": "Point", "coordinates": [2.35311, 48.743126]}, "properties": {"etat de la localisation": "Delocalise", "numparc": 5858, "duree": "00:01:48", "horodatage": "2021-07-27 15:51:22", "marker-color": "#FF565E"}}, {"type": "Feature", "geometry": {"type": "Point", "coordinates": [2.326429, 48.732632]}, "properties": {"etat de la localisation": "Deviation programmee", "numparc": 5841, "duree": "", "horodatage": "2021-07-27 15:57:09", "marker-color": "#56FF93"}}, {"type": "Feature", "geometry": {"type": "Point", "coordinates": [2.262284, 48.724205]}, "properties": {"etat de la localisation": "Delocalise", "numparc": 5854, "duree": "00:00:50", "horodatage": "2021-07-27 16:09:12", "marker-color": "#FF565E"}}, {"type": "Feature", "geometry": {"type": "Point", "coordinates": [2.326427, 48.732666]}, "properties": {"etat de la localisation": "Deviation programmee", "numparc": 5860, "duree": "", "horodatage": "2021-07-27 16:15:31", "marker-color": "#56FF93"}}, {"type": "Feature", "geometry": {"type": "Point", "coordinates": [2.262314, 48.724247]}, "properties": {"etat de la localisation": "Delocalise", "numparc": 5852, "duree": "00:00:34", "horodatage": "2021-07-27 16:17:16", "marker-color": "#FF565E"}}, {"type": "Feature", "geometry": {"type": "Point", "coordinates": [2.299227, 48.722305]}, "properties": {"etat de la localisation": "Hors service", "numparc": 5854, "duree": "", "horodatage": "2021-07-27 16:25:11", "marker-color": "#707070"}}, {"type": "Feature", "geometry": {"type": "Point", "coordinates": [2.297882, 48.721123]}, "properties": {"etat de la localisation": "Hors service", "numparc": 5854, "duree": "", "horodatage": "2021-07-27 16:26:13", "marker-color": "#707070"}}, {"type": "Feature", "geometry": {"type": "Point", "coordinates": [2.262288, 48.724228]}, "properties": {"etat de la localisation": "Delocalise", "numparc": 5841, "duree": "00:02:20", "horodatage": "2021-07-27 16:33:04", "marker-color": "#FF565E"}}, {"type": "Feature", "geometry": {"type": "Point", "coordinates": [2.32522, 48.731697]}, "properties": {"etat de la localisation": "Deviation programmee", "numparc": 5840, "duree": "", "horodatage": "2021-07-27 16:34:19", "marker-color": "#56FF93"}}, {"type": "Feature", "geometry": {"type": "Point", "coordinates": [2.298444, 48.738968]}, "properties": {"etat de la localisation": "Delocalise", "numparc": 5828, "duree": "00:01:19", "horodatage": "2021-07-27 16:36:11", "marker-color": "#FF565E"}}, {"type": "Feature", "geometry": {"type": "Point", "coordinates": [2.259923, 48.72477]}, "properties": {"etat de la localisation": "Hors service", "numparc": 5841, "duree": "", "horodatage": "2021-07-27 16:38:41", "marker-color": "#707070"}}, {"type": "Feature", "geometry": {"type": "Point", "coordinates": [2.323915, 48.731873]}, "properties": {"etat de la localisation": "Deviation programmee", "numparc": 5828, "duree": "", "horodatage": "2021-07-27 16:44:17", "marker-color": "#56FF93"}}, {"type": "Feature", "geometry": {"type": "Point", "coordinates": [2.262382, 48.7243]}, "properties": {"etat de la localisation": "Delocalise", "numparc": 5860, "duree": "00:00:40", "horodatage": "2021-07-27 16:47:08", "marker-color": "#FF565E"}}, {"type": "Feature", "geometry": {"type": "Point", "coordinates": [2.358255, 48.763252]}, "properties": {"etat de la localisation": "Hors service", "numparc": 5853, "duree": "", "horodatage": "2021-07-27 16:49:38", "marker-color": "#707070"}}, {"type": "Feature", "geometry": {"type": "Point", "coordinates": [2.326423, 48.73262]}, "properties": {"etat de la localisation": "Deviation programmee", "numparc": 5858, "duree": "", "horodatage": "2021-07-27 16:50:07", "marker-color": "#56FF93"}}, {"type": "Feature", "geometry": {"type": "Point", "coordinates": [2.296683, 48.721397]}, "properties": {"etat de la localisation": "Mission inconnue", "numparc": 5854, "duree": "", "horodatage": "2021-07-27 16:51:09", "marker-color": "#FF9F56"}}, {"type": "Feature", "geometry": {"type": "Point", "coordinates": [2.326447, 48.732658]}, "properties": {"etat de la localisation": "Deviation programmee", "numparc": 5850, "duree": "", "horodatage": "2021-07-27 16:59:11", "marker-color": "#56FF93"}}, {"type": "Feature", "geometry": {"type": "Point", "coordinates": [2.369654, 48.746403]}, "properties": {"etat de la localisation": "Delocalise", "numparc": 5828, "duree": "00:00:12", "horodatage": "2021-07-27 17:00:52", "marker-color": "#FF565E"}}, {"type": "Feature", "geometry": {"type": "Point", "coordinates": [2.369097, 48.756214]}, "properties": {"etat de la localisation": "Delocalise", "numparc": 5828, "duree": "00:01:11", "horodatage": "2021-07-27 17:07:20", "marker-color": "#FF565E"}}, {"type": "Feature", "geometry": {"type": "Point", "coordinates": [2.325212, 48.731724]}, "properties": {"etat de la localisation": "Deviation programmee", "numparc": 5852, "duree": "", "horodatage": "2021-07-27 17:10:24", "marker-color": "#56FF93"}}, {"type": "Feature", "geometry": {"type": "Point", "coordinates": [2.325166, 48.731697]}, "properties": {"etat de la localisation": "Deviation programmee", "numparc": 5851, "duree": "", "horodatage": "2021-07-27 17:17:33", "marker-color": "#56FF93"}}, {"type": "Feature", "geometry": {"type": "Point", "coordinates": [2.262323, 48.724232]}, "properties": {"etat de la localisation": "Delocalise", "numparc": 5858, "duree": "00:00:47", "horodatage": "2021-07-27 17:24:56", "marker-color": "#FF565E"}}, {"type": "Feature", "geometry": {"type": "Point", "coordinates": [2.32529, 48.731667]}, "properties": {"etat de la localisation": "Deviation programmee", "numparc": 5860, "duree": "", "horodatage": "2021-07-27 17:30:50", "marker-color": "#56FF93"}}, {"type": "Feature", "geometry": {"type": "Point", "coordinates": [2.262324, 48.724285]}, "properties": {"etat de la localisation": "Delocalise", "numparc": 5850, "duree": "00:01:36", "horodatage": "2021-07-27 17:33:16", "marker-color": "#FF565E"}}, {"type": "Feature", "geometry": {"type": "Point", "coordinates": [2.260086, 48.724422]}, "properties": {"etat de la localisation": "Delocalise", "numparc": 5858, "duree": "00:00:53", "horodatage": "2021-07-27 17:45:00", "marker-color": "#FF565E"}}, {"type": "Feature", "geometry": {"type": "Point", "coordinates": [2.262365, 48.72435]}, "properties": {"etat de la localisation": "Delocalise", "numparc": 5843, "duree": "00:00:48", "horodatage": "2021-07-27 17:48:59", "marker-color": "#FF565E"}}, {"type": "Feature", "geometry": {"type": "Point", "coordinates": [2.326442, 48.732666]}, "properties": {"etat de la localisation": "Deviation programmee", "numparc": 5840, "duree": "", "horodatage": "2021-07-27 17:54:23", "marker-color": "#56FF93"}}, {"type": "Feature", "geometry": {"type": "Point", "coordinates": [2.362086, 48.742519]}, "properties": {"etat de la localisation": "Delocalise", "numparc": 5828, "duree": "00:00:43", "horodatage": "2021-07-27 17:56:52", "marker-color": "#FF565E"}}, {"type": "Feature", "geometry": {"type": "Point", "coordinates": [2.262354, 48.724243]}, "properties": {"etat de la localisation": "Delocalise", "numparc": 5854, "duree": "00:01:59", "horodatage": "2021-07-27 18:01:51", "marker-color": "#FF565E"}}, {"type": "Feature", "geometry": {"type": "Point", "coordinates": [2.262264, 48.724384]}, "properties": {"etat de la localisation": "Delocalise", "numparc": 5853, "duree": "00:00:37", "horodatage": "2021-07-27 18:03:16", "marker-color": "#FF565E"}}, {"type": "Feature", "geometry": {"type": "Point", "coordinates": [2.260793, 48.725407]}, "properties": {"etat de la localisation": "Mission suivante non connue", "numparc": 5853, "duree": "", "horodatage": "2021-07-27 18:03:57", "marker-color": "#7156FF"}}, {"type": "Feature", "geometry": {"type": "Point", "coordinates": [2.358315, 48.763191]}, "properties": {"etat de la localisation": "Hors service", "numparc": 5851, "duree": "", "horodatage": "2021-07-27 18:05:39", "marker-color": "#707070"}}, {"type": "Feature", "geometry": {"type": "Point", "coordinates": [2.336945, 48.738487]}, "properties": {"etat de la localisation": "Delocalise", "numparc": 5828, "duree": "00:02:10", "horodatage": "2021-07-27 18:06:14", "marker-color": "#FF565E"}}, {"type": "Feature", "geometry": {"type": "Point", "coordinates": [2.260392, 48.725075]}, "properties": {"etat de la localisation": "Hors service", "numparc": 5853, "duree": "", "horodatage": "2021-07-27 18:08:53", "marker-color": "#707070"}}, {"type": "Feature", "geometry": {"type": "Point", "coordinates": [2.326467, 48.732643]}, "properties": {"etat de la localisation": "Deviation programmee", "numparc": 5828, "duree": "", "horodatage": "2021-07-27 18:10:22", "marker-color": "#56FF93"}}, {"type": "Feature", "geometry": {"type": "Point", "coordinates": [2.325237, 48.731705]}, "properties": {"etat de la localisation": "Deviation programmee", "numparc": 5850, "duree": "", "horodatage": "2021-07-27 18:18:46", "marker-color": "#56FF93"}}, {"type": "Feature", "geometry": {"type": "Point", "coordinates": [2.358277, 48.763191]}, "properties": {"etat de la localisation": "Hors service", "numparc": 5860, "duree": "", "horodatage": "2021-07-27 18:19:21", "marker-color": "#707070"}}, {"type": "Feature", "geometry": {"type": "Point", "coordinates": [2.26227, 48.724152]}, "properties": {"etat de la localisation": "Delocalise", "numparc": 5858, "duree": "00:01:00", "horodatage": "2021-07-27 18:24:03", "marker-color": "#FF565E"}}, {"type": "Feature", "geometry": {"type": "Point", "coordinates": [2.262272, 48.724323]}, "properties": {"etat de la localisation": "Delocalise", "numparc": 5840, "duree": "00:01:25", "horodatage": "2021-07-27 18:28:36", "marker-color": "#FF565E"}}, {"type": "Feature", "geometry": {"type": "Point", "coordinates": [2.326366, 48.732643]}, "properties": {"etat de la localisation": "Deviation programmee", "numparc": 5852, "duree": "", "horodatage": "2021-07-27 18:28:52", "marker-color": "#56FF93"}}, {"type": "Feature", "geometry": {"type": "Point", "coordinates": [2.260895, 48.724987]}, "properties": {"etat de la localisation": "Delocalise", "numparc": 5853, "duree": "00:00:21", "horodatage": "2021-07-27 18:31:38", "marker-color": "#FF565E"}}, {"type": "Feature", "geometry": {"type": "Point", "coordinates": [2.325182, 48.731758]}, "properties": {"etat de la localisation": "Deviation programmee", "numparc": 5843, "duree": "", "horodatage": "2021-07-27 18:42:49", "marker-color": "#56FF93"}}, {"type": "Feature", "geometry": {"type": "Point", "coordinates": [2.262338, 48.724201]}, "properties": {"etat de la localisation": "Delocalise", "numparc": 5828, "duree": "00:00:50", "horodatage": "2021-07-27 18:44:23", "marker-color": "#FF565E"}}, {"type": "Feature", "geometry": {"type": "Point", "coordinates": [2.326432, 48.732643]}, "properties": {"etat de la localisation": "Deviation programmee", "numparc": 5851, "duree": "", "horodatage": "2021-07-27 18:44:28", "marker-color": "#56FF93"}}, {"type": "Feature", "geometry": {"type": "Point", "coordinates": [2.297939, 48.721462]}, "properties": {"etat de la localisation": "Hors service", "numparc": 5828, "duree": "", "horodatage": "2021-07-27 18:56:46", "marker-color": "#707070"}}, {"type": "Feature", "geometry": {"type": "Point", "coordinates": [2.32638, 48.732689]}, "properties": {"etat de la localisation": "Deviation programmee", "numparc": 5860, "duree": "", "horodatage": "2021-07-27 18:56:57", "marker-color": "#56FF93"}}, {"type": "Feature", "geometry": {"type": "Point", "coordinates": [2.298389, 48.720882]}, "properties": {"etat de la localisation": "Hors service", "numparc": 5850, "duree": "", "horodatage": "2021-07-27 18:57:22", "marker-color": "#707070"}}, {"type": "Feature", "geometry": {"type": "Point", "coordinates": [2.262335, 48.724232]}, "properties": {"etat de la localisation": "Delocalise", "numparc": 5854, "duree": "00:01:52", "horodatage": "2021-07-27 18:58:19", "marker-color": "#FF565E"}}, {"type": "Feature", "geometry": {"type": "Point", "coordinates": [2.262406, 48.724384]}, "properties": {"etat de la localisation": "Delocalise", "numparc": 5852, "duree": "00:01:40", "horodatage": "2021-07-27 19:03:25", "marker-color": "#FF565E"}}, {"type": "Feature", "geometry": {"type": "Point", "coordinates": [2.325103, 48.730644]}, "properties": {"etat de la localisation": "Delocalise", "numparc": 5853, "duree": "00:07:07", "horodatage": "2021-07-27 19:03:38", "marker-color": "#FF565E"}}, {"type": "Feature", "geometry": {"type": "Point", "coordinates": [2.262248, 48.724113]}, "properties": {"etat de la localisation": "Delocalise", "numparc": 5851, "duree": "00:01:52", "horodatage": "2021-07-27 19:12:48", "marker-color": "#FF565E"}}, {"type": "Feature", "geometry": {"type": "Point", "coordinates": [2.260639, 48.724934]}, "properties": {"etat de la localisation": "Delocalise", "numparc": 5858, "duree": "00:01:13", "horodatage": "2021-07-27 19:16:52", "marker-color": "#FF565E"}}, {"type": "Feature", "geometry": {"type": "Point", "coordinates": [2.358343, 48.763168]}, "properties": {"etat de la localisation": "Hors service", "numparc": 5843, "duree": "", "horodatage": "2021-07-27 19:18:24", "marker-color": "#707070"}}, {"type": "Feature", "geometry": {"type": "Point", "coordinates": [2.358239, 48.763279]}, "properties": {"etat de la localisation": "Hors service", "numparc": 5843, "duree": "", "horodatage": "2021-07-27 19:24:08", "marker-color": "#707070"}}, {"type": "Feature", "geometry": {"type": "Point", "coordinates": [2.260265, 48.725094]}, "properties": {"etat de la localisation": "Hors service", "numparc": 5852, "duree": "", "horodatage": "2021-07-27 19:26:06", "marker-color": "#707070"}}, {"type": "Feature", "geometry": {"type": "Point", "coordinates": [2.358274, 48.763191]}, "properties": {"etat de la localisation": "Mission suivante non connue", "numparc": 5853, "duree": "", "horodatage": "2021-07-27 19:27:52", "marker-color": "#7156FF"}}, {"type": "Feature", "geometry": {"type": "Point", "coordinates": [2.262254, 48.724277]}, "properties": {"etat de la localisation": "Delocalise", "numparc": 5860, "duree": "00:01:35", "horodatage": "2021-07-27 19:29:03", "marker-color": "#FF565E"}}, {"type": "Feature", "geometry": {"type": "Point", "coordinates": [2.262245, 48.724361]}, "properties": {"etat de la localisation": "Delocalise", "numparc": 5840, "duree": "00:00:54", "horodatage": "2021-07-27 19:29:57", "marker-color": "#FF565E"}}, {"type": "Feature", "geometry": {"type": "Point", "coordinates": [2.298037, 48.721554]}, "properties": {"etat de la localisation": "Hors service", "numparc": 5853, "duree": "", "horodatage": "2021-07-27 19:38:02", "marker-color": "#707070"}}, {"type": "Feature", "geometry": {"type": "Point", "coordinates": [2.297928, 48.72126]}, "properties": {"etat de la localisation": "Hors service", "numparc": 5840, "duree": "", "horodatage": "2021-07-27 19:38:56", "marker-color": "#707070"}}, {"type": "Feature", "geometry": {"type": "Point", "coordinates": [2.325221, 48.731709]}, "properties": {"etat de la localisation": "Deviation programmee", "numparc": 5854, "duree": "", "horodatage": "2021-07-27 20:02:59", "marker-color": "#56FF93"}}, {"type": "Feature", "geometry": {"type": "Point", "coordinates": [2.262263, 48.724293]}, "properties": {"etat de la localisation": "Delocalise", "numparc": 5858, "duree": "00:01:12", "horodatage": "2021-07-27 20:03:29", "marker-color": "#FF565E"}}, {"type": "Feature", "geometry": {"type": "Point", "coordinates": [2.326343, 48.732628]}, "properties": {"etat de la localisation": "Deviation programmee", "numparc": 5843, "duree": "", "horodatage": "2021-07-27 20:06:00", "marker-color": "#56FF93"}}, {"type": "Feature", "geometry": {"type": "Point", "coordinates": [2.260351, 48.725014]}, "properties": {"etat de la localisation": "Hors service", "numparc": 5860, "duree": "", "horodatage": "2021-07-27 20:10:17", "marker-color": "#707070"}}, {"type": "Feature", "geometry": {"type": "Point", "coordinates": [2.298029, 48.721527]}, "properties": {"etat de la localisation": "Hors service", "numparc": 5858, "duree": "", "horodatage": "2021-07-27 20:23:38", "marker-color": "#707070"}}, {"type": "Feature", "geometry": {"type": "Point", "coordinates": [2.262311, 48.724304]}, "properties": {"etat de la localisation": "Delocalise", "numparc": 5851, "duree": "00:01:09", "horodatage": "2021-07-27 20:23:48", "marker-color": "#FF565E"}}, {"type": "Feature", "geometry": {"type": "Point", "coordinates": [2.325316, 48.731701]}, "properties": {"etat de la localisation": "Deviation programmee", "numparc": 5852, "duree": "", "horodatage": "2021-07-27 20:31:46", "marker-color": "#56FF93"}}, {"type": "Feature", "geometry": {"type": "Point", "coordinates": [2.262293, 48.724304]}, "properties": {"etat de la localisation": "Delocalise", "numparc": 5843, "duree": "00:01:28", "horodatage": "2021-07-27 20:34:58", "marker-color": "#FF565E"}}, {"type": "Feature", "geometry": {"type": "Point", "coordinates": [2.262337, 48.724262]}, "properties": {"etat de la localisation": "Delocalise", "numparc": 5860, "duree": "00:01:13", "horodatage": "2021-07-27 20:49:10", "marker-color": "#FF565E"}}, {"type": "Feature", "geometry": {"type": "Point", "coordinates": [2.326398, 48.732639]}, "properties": {"etat de la localisation": "Deviation programmee", "numparc": 5854, "duree": "", "horodatage": "2021-07-27 20:52:50", "marker-color": "#56FF93"}}, {"type": "Feature", "geometry": {"type": "Point", "coordinates": [2.298044, 48.72155]}, "properties": {"etat de la localisation": "Hors service", "numparc": 5860, "duree": "", "horodatage": "2021-07-27 21:02:33", "marker-color": "#707070"}}, {"type": "Feature", "geometry": {"type": "Point", "coordinates": [2.325204, 48.731731]}, "properties": {"etat de la localisation": "Deviation programmee", "numparc": 5843, "duree": "", "horodatage": "2021-07-27 21:22:08", "marker-color": "#56FF93"}}, {"type": "Feature", "geometry": {"type": "Point", "coordinates": [2.262313, 48.7243]}, "properties": {"etat de la localisation": "Delocalise", "numparc": 5854, "duree": "00:00:41", "horodatage": "2021-07-27 21:22:54", "marker-color": "#FF565E"}}, {"type": "Feature", "geometry": {"type": "Point", "coordinates": [2.357054, 48.746597]}, "properties": {"etat de la localisation": "Delocalise", "numparc": 5852, "duree": "00:06:42", "horodatage": "2021-07-27 21:26:59", "marker-color": "#FF565E"}}, {"type": "Feature", "geometry": {"type": "Point", "coordinates": [2.29799, 48.721413]}, "properties": {"etat de la localisation": "Hors service", "numparc": 5851, "duree": "", "horodatage": "2021-07-27 21:33:12", "marker-color": "#707070"}}, {"type": "Feature", "geometry": {"type": "Point", "coordinates": [2.326369, 48.732681]}, "properties": {"etat de la localisation": "Deviation programmee", "numparc": 5852, "duree": "", "horodatage": "2021-07-27 21:38:49", "marker-color": "#56FF93"}}, {"type": "Feature", "geometry": {"type": "Point", "coordinates": [2.325244, 48.731682]}, "properties": {"etat de la localisation": "Deviation programmee", "numparc": 5854, "duree": "", "horodatage": "2021-07-27 21:56:21", "marker-color": "#56FF93"}}, {"type": "Feature", "geometry": {"type": "Point", "coordinates": [2.357463, 48.743904]}, "properties": {"etat de la localisation": "Delocalise", "numparc": 5854, "duree": "00:00:49", "horodatage": "2021-07-27 22:04:37", "marker-color": "#FF565E"}}, {"type": "Feature", "geometry": {"type": "Point", "coordinates": [2.262337, 48.724297]}, "properties": {"etat de la localisation": "Delocalise", "numparc": 5852, "duree": "00:01:20", "horodatage": "2021-07-27 22:09:56", "marker-color": "#FF565E"}}, {"type": "Feature", "geometry": {"type": "Point", "coordinates": [2.356913, 48.746677]}, "properties": {"etat de la localisation": "Delocalise", "numparc": 5843, "duree": "00:02:52", "horodatage": "2021-07-27 22:12:10", "marker-color": "#FF565E"}}, {"type": "Feature", "geometry": {"type": "Point", "coordinates": [2.326506, 48.732643]}, "properties": {"etat de la localisation": "Deviation programmee", "numparc": 5843, "duree": "", "horodatage": "2021-07-27 22:22:37", "marker-color": "#56FF93"}}, {"type": "Feature", "geometry": {"type": "Point", "coordinates": [2.297957, 48.721363]}, "properties": {"etat de la localisation": "Hors service", "numparc": 5852, "duree": "", "horodatage": "2021-07-27 22:25:04", "marker-color": "#707070"}}, {"type": "Feature", "geometry": {"type": "Point", "coordinates": [2.262182, 48.724369]}, "properties": {"etat de la localisation": "Delocalise", "numparc": 5843, "duree": "00:03:57", "horodatage": "2021-07-27 22:45:47", "marker-color": "#FF565E"}}, {"type": "Feature", "geometry": {"type": "Point", "coordinates": [2.269899, 48.725349]}, "properties": {"etat de la localisation": "Delocalise", "numparc": 5843, "duree": "00:11:29", "horodatage": "2021-07-27 22:50:21", "marker-color": "#FF565E"}}, {"type": "Feature", "geometry": {"type": "Point", "coordinates": [2.326369, 48.732635]}, "properties": {"etat de la localisation": "Deviation programmee", "numparc": 5854, "duree": "", "horodatage": "2021-07-27 22:50:47", "marker-color": "#56FF93"}}, {"type": "Feature", "geometry": {"type": "Point", "coordinates": [2.297254, 48.721886]}, "properties": {"etat de la localisation": "Hors service", "numparc": 5843, "duree": "", "horodatage": "2021-07-27 23:01:50", "marker-color": "#707070"}}, {"type": "Feature", "geometry": {"type": "Point", "coordinates": [2.262268, 48.724297]}, "properties": {"etat de la localisation": "Delocalise", "numparc": 5854, "duree": "00:00:53", "horodatage": "2021-07-27 23:14:47", "marker-color": "#FF565E"}}, {"type": "Feature", "geometry": {"type": "Point", "coordinates": [2.297994, 48.721577]}, "properties": {"etat de la localisation": "Hors service", "numparc": 5854, "duree": "", "horodatage": "2021-07-27 23:27:09", "marker-color": "#707070"}}]}