{"type": "FeatureCollection", "features": [{"type": "Feature", "geometry": {"type": "Point", "coordinates": [2.370742, 48.9104]}, "properties": {"numparc": 5672, "etat de la localisation": "autre", "ID BDGEO": "251", "horodatage": "2022-12-31 02:25:49", "distance (en metres)": 80.88, "station": "DEPOT D'AUBERVILLIERS-SORTIE", "marker-color": "#818181"}}, {"type": "Feature", "geometry": {"type": "Point", "coordinates": [2.371189, 48.910049]}, "properties": {"numparc": 5672, "etat de la localisation": "autre", "ID BDGEO": "251", "horodatage": "2022-12-31 02:29:51", "distance (en metres)": 97.16, "station": "DEPOT D'AUBERVILLIERS-SORTIE", "marker-color": "#818181"}}, {"type": "Feature", "geometry": {"type": "Point", "coordinates": [2.371191, 48.910049]}, "properties": {"numparc": 5672, "etat de la localisation": "autre", "ID BDGEO": "251", "horodatage": "2022-12-31 05:15:34", "distance (en metres)": 97.3, "station": "DEPOT D'AUBERVILLIERS-SORTIE", "marker-color": "#818181"}}, {"type": "Feature", "geometry": {"type": "Point", "coordinates": [2.370466, 48.910614]}, "properties": {"numparc": 5672, "etat de la localisation": "autre", "ID BDGEO": "251", "horodatage": "2022-12-31 05:28:19", "distance (en metres)": 85.38, "station": "DEPOT D'AUBERVILLIERS-SORTIE", "marker-color": "#818181"}}, {"type": "Feature", "geometry": {"type": "Point", "coordinates": [2.347052, 48.934891]}, "properties": {"numparc": 5672, "etat de la localisation": "autre", "ID BDGEO": "110", "horodatage": "2022-12-31 05:56:22", "distance (en metres)": 110.2, "station": "GARE DE SAINT-DENIS-RER-TRAMWAY", "marker-color": "#818181"}}, {"type": "Feature", "geometry": {"type": "Point", "coordinates": [2.408692, 48.876965]}, "properties": {"numparc": 5672, "etat de la localisation": "autre", "ID BDGEO": "1", "horodatage": "2022-12-31 06:37:48", "distance (en metres)": 52.66, "station": "PORTE DES LILAS-METRO", "marker-color": "#818181"}}, {"type": "Feature", "geometry": {"type": "Point", "coordinates": [2.397788, 48.889301]}, "properties": {"numparc": 5672, "etat de la localisation": "autre", "ID BDGEO": "653", "horodatage": "2022-12-31 06:50:06", "distance (en metres)": 48.18, "station": "PTE DE PANTIN-MARSEILLAISE", "marker-color": "#818181"}}, {"type": "Feature", "geometry": {"type": "Point", "coordinates": [2.400713, 48.896683]}, "properties": {"numparc": 5672, "etat de la localisation": "autre", "ID BDGEO": "59", "horodatage": "2022-12-31 06:56:38", "distance (en metres)": 99.04, "station": "PANTIN RER-MAIRIE", "marker-color": "#818181"}}, {"type": "Feature", "geometry": {"type": "Point", "coordinates": [2.347027, 48.934914]}, "properties": {"numparc": 5672, "etat de la localisation": "autre", "ID BDGEO": "110", "horodatage": "2022-12-31 07:20:25", "distance (en metres)": 113.11, "station": "GARE DE SAINT-DENIS-RER-TRAMWAY", "marker-color": "#818181"}}, {"type": "Feature", "geometry": {"type": "Point", "coordinates": [2.403193, 48.88995]}, "properties": {"numparc": 5672, "etat de la localisation": "autre", "ID BDGEO": "259", "horodatage": "2022-12-31 08:04:10", "distance (en metres)": 197.86, "station": "FRANKLIN", "marker-color": "#818181"}}, {"type": "Feature", "geometry": {"type": "Point", "coordinates": [2.408585, 48.877155]}, "properties": {"numparc": 5672, "etat de la localisation": "autre", "ID BDGEO": "1", "horodatage": "2022-12-31 08:16:02", "distance (en metres)": 63.16, "station": "PORTE DES LILAS-METRO", "marker-color": "#818181"}}, {"type": "Feature", "geometry": {"type": "Point", "coordinates": [2.400679, 48.896698]}, "properties": {"numparc": 5672, "etat de la localisation": "autre", "ID BDGEO": "59", "horodatage": "2022-12-31 08:44:34", "distance (en metres)": 96.06, "station": "PANTIN RER-MAIRIE", "marker-color": "#818181"}}, {"type": "Feature", "geometry": {"type": "Point", "coordinates": [2.34696, 48.934956]}, "properties": {"numparc": 5672, "etat de la localisation": "autre", "ID BDGEO": "110", "horodatage": "2022-12-31 09:05:48", "distance (en metres)": 118.88, "station": "GARE DE SAINT-DENIS-RER-TRAMWAY", "marker-color": "#818181"}}, {"type": "Feature", "geometry": {"type": "Point", "coordinates": [2.408471, 48.877232]}, "properties": {"numparc": 5672, "etat de la localisation": "autre", "ID BDGEO": "1", "horodatage": "2022-12-31 10:17:33", "distance (en metres)": 66.84, "station": "PORTE DES LILAS-METRO", "marker-color": "#818181"}}, {"type": "Feature", "geometry": {"type": "Point", "coordinates": [2.39784, 48.889378]}, "properties": {"numparc": 5672, "etat de la localisation": "autre", "ID BDGEO": "653", "horodatage": "2022-12-31 10:43:51", "distance (en metres)": 40.48, "station": "PTE DE PANTIN-MARSEILLAISE", "marker-color": "#818181"}}, {"type": "Feature", "geometry": {"type": "Point", "coordinates": [2.400645, 48.896709]}, "properties": {"numparc": 5672, "etat de la localisation": "autre", "ID BDGEO": "59", "horodatage": "2022-12-31 10:48:39", "distance (en metres)": 93.34, "station": "PANTIN RER-MAIRIE", "marker-color": "#818181"}}, {"type": "Feature", "geometry": {"type": "Point", "coordinates": [2.346967, 48.934959]}, "properties": {"numparc": 5672, "etat de la localisation": "autre", "ID BDGEO": "110", "horodatage": "2022-12-31 11:14:50", "distance (en metres)": 119.15, "station": "GARE DE SAINT-DENIS-RER-TRAMWAY", "marker-color": "#818181"}}, {"type": "Feature", "geometry": {"type": "Point", "coordinates": [2.371599, 48.91048]}, "properties": {"numparc": 5640, "etat de la localisation": "autre", "ID BDGEO": "251", "horodatage": "2022-12-31 11:38:55", "distance (en metres)": 139.39, "station": "DEPOT D'AUBERVILLIERS-SORTIE", "marker-color": "#818181"}}, {"type": "Feature", "geometry": {"type": "Point", "coordinates": [2.37214, 48.910645]}, "properties": {"numparc": 5640, "etat de la localisation": "autre", "ID BDGEO": "251", "horodatage": "2022-12-31 11:41:46", "distance (en metres)": 182.93, "station": "DEPOT D'AUBERVILLIERS-SORTIE", "marker-color": "#818181"}}, {"type": "Feature", "geometry": {"type": "Point", "coordinates": [2.400739, 48.883171]}, "properties": {"numparc": 5640, "etat de la localisation": "autre", "ID BDGEO": "53", "horodatage": "2022-12-31 12:06:26", "distance (en metres)": 151.27, "station": "MAIRIE DU PRE-SAINT-GERVAIS", "marker-color": "#818181"}}, {"type": "Feature", "geometry": {"type": "Point", "coordinates": [2.400747, 48.88316]}, "properties": {"numparc": 5640, "etat de la localisation": "autre", "ID BDGEO": "53", "horodatage": "2022-12-31 12:08:05", "distance (en metres)": 149.91, "station": "MAIRIE DU PRE-SAINT-GERVAIS", "marker-color": "#818181"}}, {"type": "Feature", "geometry": {"type": "Point", "coordinates": [2.400747, 48.88316]}, "properties": {"numparc": 5640, "etat de la localisation": "autre", "ID BDGEO": "53", "horodatage": "2022-12-31 12:09:21", "distance (en metres)": 149.91, "station": "MAIRIE DU PRE-SAINT-GERVAIS", "marker-color": "#818181"}}, {"type": "Feature", "geometry": {"type": "Point", "coordinates": [2.400747, 48.88316]}, "properties": {"numparc": 5640, "etat de la localisation": "autre", "ID BDGEO": "53", "horodatage": "2022-12-31 12:11:10", "distance (en metres)": 149.91, "station": "MAIRIE DU PRE-SAINT-GERVAIS", "marker-color": "#818181"}}, {"type": "Feature", "geometry": {"type": "Point", "coordinates": [2.400747, 48.88316]}, "properties": {"numparc": 5640, "etat de la localisation": "autre", "ID BDGEO": "53", "horodatage": "2022-12-31 12:12:40", "distance (en metres)": 149.91, "station": "MAIRIE DU PRE-SAINT-GERVAIS", "marker-color": "#818181"}}, {"type": "Feature", "geometry": {"type": "Point", "coordinates": [2.400747, 48.88316]}, "properties": {"numparc": 5640, "etat de la localisation": "autre", "ID BDGEO": "53", "horodatage": "2022-12-31 12:14:01", "distance (en metres)": 149.91, "station": "MAIRIE DU PRE-SAINT-GERVAIS", "marker-color": "#818181"}}, {"type": "Feature", "geometry": {"type": "Point", "coordinates": [2.400745, 48.883163]}, "properties": {"numparc": 5640, "etat de la localisation": "autre", "ID BDGEO": "53", "horodatage": "2022-12-31 12:15:00", "distance (en metres)": 150.34, "station": "MAIRIE DU PRE-SAINT-GERVAIS", "marker-color": "#818181"}}, {"type": "Feature", "geometry": {"type": "Point", "coordinates": [2.400745, 48.883163]}, "properties": {"numparc": 5640, "etat de la localisation": "autre", "ID BDGEO": "53", "horodatage": "2022-12-31 12:15:55", "distance (en metres)": 150.34, "station": "MAIRIE DU PRE-SAINT-GERVAIS", "marker-color": "#818181"}}, {"type": "Feature", "geometry": {"type": "Point", "coordinates": [2.40075, 48.883163]}, "properties": {"numparc": 5640, "etat de la localisation": "autre", "ID BDGEO": "53", "horodatage": "2022-12-31 12:16:52", "distance (en metres)": 150.1, "station": "MAIRIE DU PRE-SAINT-GERVAIS", "marker-color": "#818181"}}, {"type": "Feature", "geometry": {"type": "Point", "coordinates": [2.40075, 48.883163]}, "properties": {"numparc": 5640, "etat de la localisation": "autre", "ID BDGEO": "53", "horodatage": "2022-12-31 12:18:20", "distance (en metres)": 150.1, "station": "MAIRIE DU PRE-SAINT-GERVAIS", "marker-color": "#818181"}}, {"type": "Feature", "geometry": {"type": "Point", "coordinates": [2.40075, 48.883163]}, "properties": {"numparc": 5640, "etat de la localisation": "autre", "ID BDGEO": "53", "horodatage": "2022-12-31 12:19:16", "distance (en metres)": 150.1, "station": "MAIRIE DU PRE-SAINT-GERVAIS", "marker-color": "#818181"}}, {"type": "Feature", "geometry": {"type": "Point", "coordinates": [2.400749, 48.88316]}, "properties": {"numparc": 5640, "etat de la localisation": "autre", "ID BDGEO": "53", "horodatage": "2022-12-31 12:22:08", "distance (en metres)": 149.82, "station": "MAIRIE DU PRE-SAINT-GERVAIS", "marker-color": "#818181"}}, {"type": "Feature", "geometry": {"type": "Point", "coordinates": [2.408624, 48.877384]}, "properties": {"numparc": 5672, "etat de la localisation": "autre", "ID BDGEO": "1", "horodatage": "2022-12-31 12:22:48", "distance (en metres)": 86.88, "station": "PORTE DES LILAS-METRO", "marker-color": "#818181"}}, {"type": "Feature", "geometry": {"type": "Point", "coordinates": [2.400749, 48.88316]}, "properties": {"numparc": 5640, "etat de la localisation": "autre", "ID BDGEO": "53", "horodatage": "2022-12-31 12:23:07", "distance (en metres)": 149.82, "station": "MAIRIE DU PRE-SAINT-GERVAIS", "marker-color": "#818181"}}, {"type": "Feature", "geometry": {"type": "Point", "coordinates": [2.400749, 48.88316]}, "properties": {"numparc": 5640, "etat de la localisation": "autre", "ID BDGEO": "53", "horodatage": "2022-12-31 12:23:17", "distance (en metres)": 149.82, "station": "MAIRIE DU PRE-SAINT-GERVAIS", "marker-color": "#818181"}}, {"type": "Feature", "geometry": {"type": "Point", "coordinates": [2.400749, 48.88316]}, "properties": {"numparc": 5640, "etat de la localisation": "autre", "ID BDGEO": "53", "horodatage": "2022-12-31 12:23:41", "distance (en metres)": 149.82, "station": "MAIRIE DU PRE-SAINT-GERVAIS", "marker-color": "#818181"}}, {"type": "Feature", "geometry": {"type": "Point", "coordinates": [2.400749, 48.88316]}, "properties": {"numparc": 5640, "etat de la localisation": "autre", "ID BDGEO": "53", "horodatage": "2022-12-31 12:24:44", "distance (en metres)": 149.82, "station": "MAIRIE DU PRE-SAINT-GERVAIS", "marker-color": "#818181"}}, {"type": "Feature", "geometry": {"type": "Point", "coordinates": [2.400741, 48.883152]}, "properties": {"numparc": 5640, "etat de la localisation": "autre", "ID BDGEO": "53", "horodatage": "2022-12-31 12:26:58", "distance (en metres)": 149.54, "station": "MAIRIE DU PRE-SAINT-GERVAIS", "marker-color": "#818181"}}, {"type": "Feature", "geometry": {"type": "Point", "coordinates": [2.346988, 48.934933]}, "properties": {"numparc": 5640, "etat de la localisation": "autre", "ID BDGEO": "110", "horodatage": "2022-12-31 12:39:09", "distance (en metres)": 115.88, "station": "GARE DE SAINT-DENIS-RER-TRAMWAY", "marker-color": "#818181"}}, {"type": "Feature", "geometry": {"type": "Point", "coordinates": [2.411572, 48.879044]}, "properties": {"numparc": 5672, "etat de la localisation": "autre", "ID BDGEO": "50", "horodatage": "2022-12-31 12:48:58", "distance (en metres)": 52.67, "station": "LES BRUYERES", "marker-color": "#818181"}}, {"type": "Feature", "geometry": {"type": "Point", "coordinates": [2.409556, 48.880871]}, "properties": {"numparc": 5672, "etat de la localisation": "Delocalise", "ID BDGEO": "51", "horodatage": "2022-12-31 12:51:26", "distance (en metres)": 42.18, "station": "JEAN JAURES", "marker-color": "#FF565E"}}, {"type": "Feature", "geometry": {"type": "Point", "coordinates": [2.398172, 48.886719]}, "properties": {"numparc": 5672, "etat de la localisation": "autre", "ID BDGEO": "652", "horodatage": "2022-12-31 12:54:55", "distance (en metres)": 52.83, "station": "MARSEILLAISE-CHEMINETS", "marker-color": "#818181"}}, {"type": "Feature", "geometry": {"type": "Point", "coordinates": [2.401803, 48.894249]}, "properties": {"numparc": 5672, "etat de la localisation": "autre", "ID BDGEO": "57", "horodatage": "2022-12-31 13:00:53", "distance (en metres)": 48.63, "station": "MONTGOLFIER", "marker-color": "#818181"}}, {"type": "Feature", "geometry": {"type": "Point", "coordinates": [2.400797, 48.896889]}, "properties": {"numparc": 5672, "etat de la localisation": "autre", "ID BDGEO": "59", "horodatage": "2022-12-31 13:03:22", "distance (en metres)": 91.35, "station": "PANTIN RER-MAIRIE", "marker-color": "#818181"}}, {"type": "Feature", "geometry": {"type": "Point", "coordinates": [2.387788, 48.908592]}, "properties": {"numparc": 5672, "etat de la localisation": "autre", "ID BDGEO": "65", "horodatage": "2022-12-31 13:09:29", "distance (en metres)": 48.14, "station": "RUE DES CITES", "marker-color": "#818181"}}, {"type": "Feature", "geometry": {"type": "Point", "coordinates": [2.381567, 48.914722]}, "properties": {"numparc": 5672, "etat de la localisation": "autre", "ID BDGEO": "67", "horodatage": "2022-12-31 13:12:59", "distance (en metres)": 43.96, "station": "MAIRIE D'AUBERVILLIERS", "marker-color": "#818181"}}, {"type": "Feature", "geometry": {"type": "Point", "coordinates": [2.347003, 48.935032]}, "properties": {"numparc": 5672, "etat de la localisation": "autre", "ID BDGEO": "110", "horodatage": "2022-12-31 13:27:21", "distance (en metres)": 126.3, "station": "GARE DE SAINT-DENIS-RER-TRAMWAY", "marker-color": "#818181"}}, {"type": "Feature", "geometry": {"type": "Point", "coordinates": [2.347484, 48.934341]}, "properties": {"numparc": 5672, "etat de la localisation": "autre", "ID BDGEO": "110", "horodatage": "2022-12-31 13:28:19", "distance (en metres)": 46.47, "station": "GARE DE SAINT-DENIS-RER-TRAMWAY", "marker-color": "#818181"}}, {"type": "Feature", "geometry": {"type": "Point", "coordinates": [2.347484, 48.934341]}, "properties": {"numparc": 5672, "etat de la localisation": "autre", "ID BDGEO": "110", "horodatage": "2022-12-31 13:28:30", "distance (en metres)": 46.47, "station": "GARE DE SAINT-DENIS-RER-TRAMWAY", "marker-color": "#818181"}}, {"type": "Feature", "geometry": {"type": "Point", "coordinates": [2.347484, 48.934341]}, "properties": {"numparc": 5672, "etat de la localisation": "autre", "ID BDGEO": "110", "horodatage": "2022-12-31 13:42:43", "distance (en metres)": 46.47, "station": "GARE DE SAINT-DENIS-RER-TRAMWAY", "marker-color": "#818181"}}, {"type": "Feature", "geometry": {"type": "Point", "coordinates": [2.408527, 48.877167]}, "properties": {"numparc": 5640, "etat de la localisation": "autre", "ID BDGEO": "1", "horodatage": "2022-12-31 14:01:25", "distance (en metres)": 62.09, "station": "PORTE DES LILAS-METRO", "marker-color": "#818181"}}, {"type": "Feature", "geometry": {"type": "Point", "coordinates": [2.397838, 48.889366]}, "properties": {"numparc": 5640, "etat de la localisation": "autre", "ID BDGEO": "653", "horodatage": "2022-12-31 14:22:15", "distance (en metres)": 41.68, "station": "PTE DE PANTIN-MARSEILLAISE", "marker-color": "#818181"}}, {"type": "Feature", "geometry": {"type": "Point", "coordinates": [2.400739, 48.896629]}, "properties": {"numparc": 5640, "etat de la localisation": "autre", "ID BDGEO": "59", "horodatage": "2022-12-31 14:30:03", "distance (en metres)": 104.4, "station": "PANTIN RER-MAIRIE", "marker-color": "#818181"}}, {"type": "Feature", "geometry": {"type": "Point", "coordinates": [2.408571, 48.877216]}, "properties": {"numparc": 5672, "etat de la localisation": "autre", "ID BDGEO": "1", "horodatage": "2022-12-31 14:50:49", "distance (en metres)": 68.48, "station": "PORTE DES LILAS-METRO", "marker-color": "#818181"}}, {"type": "Feature", "geometry": {"type": "Point", "coordinates": [2.367265, 48.925587]}, "properties": {"numparc": 5640, "etat de la localisation": "autre", "ID BDGEO": "72", "horodatage": "2022-12-31 14:51:49", "distance (en metres)": 95.45, "station": "RUE DU PROGRES", "marker-color": "#818181"}}, {"type": "Feature", "geometry": {"type": "Point", "coordinates": [2.408454, 48.877262]}, "properties": {"numparc": 5687, "etat de la localisation": "autre", "ID BDGEO": "1", "horodatage": "2022-12-31 14:58:54", "distance (en metres)": 69.53, "station": "PORTE DES LILAS-METRO", "marker-color": "#818181"}}, {"type": "Feature", "geometry": {"type": "Point", "coordinates": [2.347025, 48.934921]}, "properties": {"numparc": 5640, "etat de la localisation": "autre", "ID BDGEO": "110", "horodatage": "2022-12-31 14:59:30", "distance (en metres)": 113.97, "station": "GARE DE SAINT-DENIS-RER-TRAMWAY", "marker-color": "#818181"}}, {"type": "Feature", "geometry": {"type": "Point", "coordinates": [2.347025, 48.934921]}, "properties": {"numparc": 5640, "etat de la localisation": "autre", "ID BDGEO": "110", "horodatage": "2022-12-31 14:59:36", "distance (en metres)": 113.97, "station": "GARE DE SAINT-DENIS-RER-TRAMWAY", "marker-color": "#818181"}}, {"type": "Feature", "geometry": {"type": "Point", "coordinates": [2.400553, 48.896465]}, "properties": {"numparc": 5672, "etat de la localisation": "autre", "ID BDGEO": "59", "horodatage": "2022-12-31 15:30:03", "distance (en metres)": 109.02, "station": "PANTIN RER-MAIRIE", "marker-color": "#818181"}}, {"type": "Feature", "geometry": {"type": "Point", "coordinates": [2.400553, 48.896465]}, "properties": {"numparc": 5672, "etat de la localisation": "autre", "ID BDGEO": "59", "horodatage": "2022-12-31 15:30:28", "distance (en metres)": 109.02, "station": "PANTIN RER-MAIRIE", "marker-color": "#818181"}}, {"type": "Feature", "geometry": {"type": "Point", "coordinates": [2.400633, 48.896683]}, "properties": {"numparc": 5687, "etat de la localisation": "autre", "ID BDGEO": "59", "horodatage": "2022-12-31 15:36:42", "distance (en metres)": 94.68, "station": "PANTIN RER-MAIRIE", "marker-color": "#818181"}}, {"type": "Feature", "geometry": {"type": "Point", "coordinates": [2.370097, 48.910725]}, "properties": {"numparc": 5670, "etat de la localisation": "autre", "ID BDGEO": "251", "horodatage": "2022-12-31 15:54:40", "distance (en metres)": 87.25, "station": "DEPOT D'AUBERVILLIERS-SORTIE", "marker-color": "#818181"}}, {"type": "Feature", "geometry": {"type": "Point", "coordinates": [2.368933, 48.911381]}, "properties": {"numparc": 5670, "etat de la localisation": "autre", "ID BDGEO": "251", "horodatage": "2022-12-31 15:57:59", "distance (en metres)": 172.66, "station": "DEPOT D'AUBERVILLIERS-SORTIE", "marker-color": "#818181"}}, {"type": "Feature", "geometry": {"type": "Point", "coordinates": [2.3705, 48.911125]}, "properties": {"numparc": 5670, "etat de la localisation": "autre", "ID BDGEO": "251", "horodatage": "2022-12-31 15:58:34", "distance (en metres)": 138.12, "station": "DEPOT D'AUBERVILLIERS-SORTIE", "marker-color": "#818181"}}, {"type": "Feature", "geometry": {"type": "Point", "coordinates": [2.370425, 48.910637]}, "properties": {"numparc": 5670, "etat de la localisation": "autre", "ID BDGEO": "251", "horodatage": "2022-12-31 16:00:13", "distance (en metres)": 86.11, "station": "DEPOT D'AUBERVILLIERS-SORTIE", "marker-color": "#818181"}}, {"type": "Feature", "geometry": {"type": "Point", "coordinates": [2.347047, 48.934902]}, "properties": {"numparc": 5672, "etat de la localisation": "autre", "ID BDGEO": "110", "horodatage": "2022-12-31 16:01:08", "distance (en metres)": 111.52, "station": "GARE DE SAINT-DENIS-RER-TRAMWAY", "marker-color": "#818181"}}, {"type": "Feature", "geometry": {"type": "Point", "coordinates": [2.347022, 48.934952]}, "properties": {"numparc": 5687, "etat de la localisation": "autre", "ID BDGEO": "110", "horodatage": "2022-12-31 16:07:05", "distance (en metres)": 117.32, "station": "GARE DE SAINT-DENIS-RER-TRAMWAY", "marker-color": "#818181"}}, {"type": "Feature", "geometry": {"type": "Point", "coordinates": [2.347278, 48.934414]}, "properties": {"numparc": 5687, "etat de la localisation": "autre", "ID BDGEO": "110", "horodatage": "2022-12-31 16:08:44", "distance (en metres)": 54.92, "station": "GARE DE SAINT-DENIS-RER-TRAMWAY", "marker-color": "#818181"}}, {"type": "Feature", "geometry": {"type": "Point", "coordinates": [2.408481, 48.877274]}, "properties": {"numparc": 5640, "etat de la localisation": "autre", "ID BDGEO": "1", "horodatage": "2022-12-31 16:12:16", "distance (en metres)": 71.43, "station": "PORTE DES LILAS-METRO", "marker-color": "#818181"}}, {"type": "Feature", "geometry": {"type": "Point", "coordinates": [2.370533, 48.911144]}, "properties": {"numparc": 5653, "etat de la localisation": "Delocalise", "ID BDGEO": "67", "horodatage": "2022-12-31 16:21:45", "distance (en metres)": 882.6, "station": "MAIRIE D'AUBERVILLIERS", "marker-color": "#FF565E"}}, {"type": "Feature", "geometry": {"type": "Point", "coordinates": [2.400723, 48.896694]}, "properties": {"numparc": 5670, "etat de la localisation": "autre", "ID BDGEO": "59", "horodatage": "2022-12-31 16:35:22", "distance (en metres)": 98.78, "station": "PANTIN RER-MAIRIE", "marker-color": "#818181"}}, {"type": "Feature", "geometry": {"type": "Point", "coordinates": [2.397871, 48.889328]}, "properties": {"numparc": 5640, "etat de la localisation": "autre", "ID BDGEO": "653", "horodatage": "2022-12-31 16:39:34", "distance (en metres)": 46.37, "station": "PTE DE PANTIN-MARSEILLAISE", "marker-color": "#818181"}}, {"type": "Feature", "geometry": {"type": "Point", "coordinates": [2.409081, 48.877731]}, "properties": {"numparc": 5653, "etat de la localisation": "Delocalise", "ID BDGEO": "1", "horodatage": "2022-12-31 16:40:34", "distance (en metres)": 136.72, "station": "PORTE DES LILAS-METRO", "marker-color": "#FF565E"}}, {"type": "Feature", "geometry": {"type": "Point", "coordinates": [2.400709, 48.896679]}, "properties": {"numparc": 5640, "etat de la localisation": "autre", "ID BDGEO": "59", "horodatage": "2022-12-31 16:48:44", "distance (en metres)": 99.09, "station": "PANTIN RER-MAIRIE", "marker-color": "#818181"}}, {"type": "Feature", "geometry": {"type": "Point", "coordinates": [2.397885, 48.889313]}, "properties": {"numparc": 5653, "etat de la localisation": "autre", "ID BDGEO": "653", "horodatage": "2022-12-31 16:52:49", "distance (en metres)": 48.28, "station": "PTE DE PANTIN-MARSEILLAISE", "marker-color": "#818181"}}, {"type": "Feature", "geometry": {"type": "Point", "coordinates": [2.400668, 48.896702]}, "properties": {"numparc": 5653, "etat de la localisation": "autre", "ID BDGEO": "59", "horodatage": "2022-12-31 17:04:43", "distance (en metres)": 95.16, "station": "PANTIN RER-MAIRIE", "marker-color": "#818181"}}, {"type": "Feature", "geometry": {"type": "Point", "coordinates": [2.346995, 48.934956]}, "properties": {"numparc": 5670, "etat de la localisation": "autre", "ID BDGEO": "110", "horodatage": "2022-12-31 17:06:12", "distance (en metres)": 118.2, "station": "GARE DE SAINT-DENIS-RER-TRAMWAY", "marker-color": "#818181"}}, {"type": "Feature", "geometry": {"type": "Point", "coordinates": [2.408584, 48.877182]}, "properties": {"numparc": 5672, "etat de la localisation": "autre", "ID BDGEO": "1", "horodatage": "2022-12-31 17:12:07", "distance (en metres)": 65.65, "station": "PORTE DES LILAS-METRO", "marker-color": "#818181"}}, {"type": "Feature", "geometry": {"type": "Point", "coordinates": [2.347033, 48.934937]}, "properties": {"numparc": 5640, "etat de la localisation": "autre", "ID BDGEO": "110", "horodatage": "2022-12-31 17:18:52", "distance (en metres)": 115.48, "station": "GARE DE SAINT-DENIS-RER-TRAMWAY", "marker-color": "#818181"}}, {"type": "Feature", "geometry": {"type": "Point", "coordinates": [2.408538, 48.877178]}, "properties": {"numparc": 5687, "etat de la localisation": "autre", "ID BDGEO": "1", "horodatage": "2022-12-31 17:20:13", "distance (en metres)": 63.61, "station": "PORTE DES LILAS-METRO", "marker-color": "#818181"}}, {"type": "Feature", "geometry": {"type": "Point", "coordinates": [2.346982, 48.934933]}, "properties": {"numparc": 5653, "etat de la localisation": "autre", "ID BDGEO": "110", "horodatage": "2022-12-31 17:32:35", "distance (en metres)": 116.0, "station": "GARE DE SAINT-DENIS-RER-TRAMWAY", "marker-color": "#818181"}}, {"type": "Feature", "geometry": {"type": "Point", "coordinates": [2.400717, 48.896679]}, "properties": {"numparc": 5672, "etat de la localisation": "autre", "ID BDGEO": "59", "horodatage": "2022-12-31 17:43:20", "distance (en metres)": 99.54, "station": "PANTIN RER-MAIRIE", "marker-color": "#818181"}}, {"type": "Feature", "geometry": {"type": "Point", "coordinates": [2.397915, 48.889317]}, "properties": {"numparc": 5687, "etat de la localisation": "autre", "ID BDGEO": "653", "horodatage": "2022-12-31 17:46:15", "distance (en metres)": 48.49, "station": "PTE DE PANTIN-MARSEILLAISE", "marker-color": "#818181"}}, {"type": "Feature", "geometry": {"type": "Point", "coordinates": [2.400664, 48.896717]}, "properties": {"numparc": 5687, "etat de la localisation": "autre", "ID BDGEO": "59", "horodatage": "2022-12-31 17:54:02", "distance (en metres)": 93.85, "station": "PANTIN RER-MAIRIE", "marker-color": "#818181"}}, {"type": "Feature", "geometry": {"type": "Point", "coordinates": [2.408556, 48.877182]}, "properties": {"numparc": 5670, "etat de la localisation": "autre", "ID BDGEO": "1", "horodatage": "2022-12-31 18:09:37", "distance (en metres)": 64.61, "station": "PORTE DES LILAS-METRO", "marker-color": "#818181"}}, {"type": "Feature", "geometry": {"type": "Point", "coordinates": [2.381396, 48.914551]}, "properties": {"numparc": 5653, "etat de la localisation": "autre", "ID BDGEO": "140", "horodatage": "2022-12-31 18:10:51", "distance (en metres)": 43.04, "station": "MAIRIE D'AUBERVILLIERS", "marker-color": "#818181"}}, {"type": "Feature", "geometry": {"type": "Point", "coordinates": [2.347068, 48.934902]}, "properties": {"numparc": 5672, "etat de la localisation": "autre", "ID BDGEO": "110", "horodatage": "2022-12-31 18:16:19", "distance (en metres)": 111.18, "station": "GARE DE SAINT-DENIS-RER-TRAMWAY", "marker-color": "#818181"}}, {"type": "Feature", "geometry": {"type": "Point", "coordinates": [2.347022, 48.934925]}, "properties": {"numparc": 5687, "etat de la localisation": "autre", "ID BDGEO": "110", "horodatage": "2022-12-31 18:22:38", "distance (en metres)": 114.43, "station": "GARE DE SAINT-DENIS-RER-TRAMWAY", "marker-color": "#818181"}}, {"type": "Feature", "geometry": {"type": "Point", "coordinates": [2.403765, 48.881405]}, "properties": {"numparc": 5653, "etat de la localisation": "autre", "ID BDGEO": "194", "horodatage": "2022-12-31 18:38:19", "distance (en metres)": 62.87, "station": "LES MARRONNIERS", "marker-color": "#818181"}}, {"type": "Feature", "geometry": {"type": "Point", "coordinates": [2.397885, 48.889301]}, "properties": {"numparc": 5670, "etat de la localisation": "autre", "ID BDGEO": "653", "horodatage": "2022-12-31 18:39:28", "distance (en metres)": 49.5, "station": "PTE DE PANTIN-MARSEILLAISE", "marker-color": "#818181"}}, {"type": "Feature", "geometry": {"type": "Point", "coordinates": [2.400736, 48.896709]}, "properties": {"numparc": 5670, "etat de la localisation": "autre", "ID BDGEO": "59", "horodatage": "2022-12-31 18:47:24", "distance (en metres)": 98.45, "station": "PANTIN RER-MAIRIE", "marker-color": "#818181"}}, {"type": "Feature", "geometry": {"type": "Point", "coordinates": [2.370725, 48.910419]}, "properties": {"numparc": 5640, "etat de la localisation": "autre", "ID BDGEO": "67", "horodatage": "2022-12-31 18:49:57", "distance (en metres)": 905.57, "station": "MAIRIE D'AUBERVILLIERS", "marker-color": "#818181"}}, {"type": "Feature", "geometry": {"type": "Point", "coordinates": [2.37168, 48.910355]}, "properties": {"numparc": 5640, "etat de la localisation": "autre", "ID BDGEO": "67", "horodatage": "2022-12-31 18:54:29", "distance (en metres)": 848.73, "station": "MAIRIE D'AUBERVILLIERS", "marker-color": "#818181"}}, {"type": "Feature", "geometry": {"type": "Point", "coordinates": [2.371686, 48.910465]}, "properties": {"numparc": 5640, "etat de la localisation": "autre", "ID BDGEO": "67", "horodatage": "2022-12-31 18:58:54", "distance (en metres)": 842.02, "station": "MAIRIE D'AUBERVILLIERS", "marker-color": "#818181"}}, {"type": "Feature", "geometry": {"type": "Point", "coordinates": [2.347033, 48.934952]}, "properties": {"numparc": 5670, "etat de la localisation": "autre", "ID BDGEO": "110", "horodatage": "2022-12-31 19:18:07", "distance (en metres)": 117.13, "station": "GARE DE SAINT-DENIS-RER-TRAMWAY", "marker-color": "#818181"}}, {"type": "Feature", "geometry": {"type": "Point", "coordinates": [2.400699, 48.896656]}, "properties": {"numparc": 5653, "etat de la localisation": "autre", "ID BDGEO": "59", "horodatage": "2022-12-31 19:19:23", "distance (en metres)": 100.23, "station": "PANTIN RER-MAIRIE", "marker-color": "#818181"}}, {"type": "Feature", "geometry": {"type": "Point", "coordinates": [2.347033, 48.934952]}, "properties": {"numparc": 5670, "etat de la localisation": "autre", "ID BDGEO": "110", "horodatage": "2022-12-31 19:20:20", "distance (en metres)": 117.13, "station": "GARE DE SAINT-DENIS-RER-TRAMWAY", "marker-color": "#818181"}}, {"type": "Feature", "geometry": {"type": "Point", "coordinates": [2.408586, 48.87719]}, "properties": {"numparc": 5672, "etat de la localisation": "autre", "ID BDGEO": "1", "horodatage": "2022-12-31 19:26:06", "distance (en metres)": 66.45, "station": "PORTE DES LILAS-METRO", "marker-color": "#818181"}}, {"type": "Feature", "geometry": {"type": "Point", "coordinates": [2.408545, 48.877193]}, "properties": {"numparc": 5687, "etat de la localisation": "autre", "ID BDGEO": "1", "horodatage": "2022-12-31 19:29:30", "distance (en metres)": 65.34, "station": "PORTE DES LILAS-METRO", "marker-color": "#818181"}}, {"type": "Feature", "geometry": {"type": "Point", "coordinates": [2.400702, 48.89669]}, "properties": {"numparc": 5672, "etat de la localisation": "autre", "ID BDGEO": "59", "horodatage": "2022-12-31 19:59:29", "distance (en metres)": 97.88, "station": "PANTIN RER-MAIRIE", "marker-color": "#818181"}}, {"type": "Feature", "geometry": {"type": "Point", "coordinates": [2.347144, 48.93478]}, "properties": {"numparc": 5653, "etat de la localisation": "autre", "ID BDGEO": "110", "horodatage": "2022-12-31 20:00:04", "distance (en metres)": 96.75, "station": "GARE DE SAINT-DENIS-RER-TRAMWAY", "marker-color": "#818181"}}, {"type": "Feature", "geometry": {"type": "Point", "coordinates": [2.347183, 48.934517]}, "properties": {"numparc": 5653, "etat de la localisation": "autre", "ID BDGEO": "110", "horodatage": "2022-12-31 20:01:58", "distance (en metres)": 67.55, "station": "GARE DE SAINT-DENIS-RER-TRAMWAY", "marker-color": "#818181"}}, {"type": "Feature", "geometry": {"type": "Point", "coordinates": [2.347183, 48.934517]}, "properties": {"numparc": 5653, "etat de la localisation": "autre", "ID BDGEO": "110", "horodatage": "2022-12-31 20:02:31", "distance (en metres)": 67.55, "station": "GARE DE SAINT-DENIS-RER-TRAMWAY", "marker-color": "#818181"}}, {"type": "Feature", "geometry": {"type": "Point", "coordinates": [2.40067, 48.896671]}, "properties": {"numparc": 5687, "etat de la localisation": "autre", "ID BDGEO": "59", "horodatage": "2022-12-31 20:07:30", "distance (en metres)": 97.54, "station": "PANTIN RER-MAIRIE", "marker-color": "#818181"}}, {"type": "Feature", "geometry": {"type": "Point", "coordinates": [2.408509, 48.877213]}, "properties": {"numparc": 5670, "etat de la localisation": "autre", "ID BDGEO": "1", "horodatage": "2022-12-31 20:28:14", "distance (en metres)": 66.03, "station": "PORTE DES LILAS-METRO", "marker-color": "#818181"}}, {"type": "Feature", "geometry": {"type": "Point", "coordinates": [2.347007, 48.934937]}, "properties": {"numparc": 5672, "etat de la localisation": "autre", "ID BDGEO": "110", "horodatage": "2022-12-31 20:37:15", "distance (en metres)": 115.94, "station": "GARE DE SAINT-DENIS-RER-TRAMWAY", "marker-color": "#818181"}}, {"type": "Feature", "geometry": {"type": "Point", "coordinates": [2.347137, 48.934776]}, "properties": {"numparc": 5687, "etat de la localisation": "autre", "ID BDGEO": "110", "horodatage": "2022-12-31 20:37:25", "distance (en metres)": 96.43, "station": "GARE DE SAINT-DENIS-RER-TRAMWAY", "marker-color": "#818181"}}, {"type": "Feature", "geometry": {"type": "Point", "coordinates": [2.408495, 48.877247]}, "properties": {"numparc": 5653, "etat de la localisation": "autre", "ID BDGEO": "1", "horodatage": "2022-12-31 20:52:12", "distance (en metres)": 69.08, "station": "PORTE DES LILAS-METRO", "marker-color": "#818181"}}, {"type": "Feature", "geometry": {"type": "Point", "coordinates": [2.400676, 48.896709]}, "properties": {"numparc": 5670, "etat de la localisation": "autre", "ID BDGEO": "59", "horodatage": "2022-12-31 20:59:29", "distance (en metres)": 95.06, "station": "PANTIN RER-MAIRIE", "marker-color": "#818181"}}, {"type": "Feature", "geometry": {"type": "Point", "coordinates": [2.397862, 48.889328]}, "properties": {"numparc": 5653, "etat de la localisation": "autre", "ID BDGEO": "653", "horodatage": "2022-12-31 21:22:22", "distance (en metres)": 46.21, "station": "PTE DE PANTIN-MARSEILLAISE", "marker-color": "#818181"}}, {"type": "Feature", "geometry": {"type": "Point", "coordinates": [2.347031, 48.934925]}, "properties": {"numparc": 5670, "etat de la localisation": "autre", "ID BDGEO": "110", "horodatage": "2022-12-31 21:27:25", "distance (en metres)": 114.27, "station": "GARE DE SAINT-DENIS-RER-TRAMWAY", "marker-color": "#818181"}}, {"type": "Feature", "geometry": {"type": "Point", "coordinates": [2.400751, 48.896687]}, "properties": {"numparc": 5653, "etat de la localisation": "autre", "ID BDGEO": "59", "horodatage": "2022-12-31 21:30:07", "distance (en metres)": 100.9, "station": "PANTIN RER-MAIRIE", "marker-color": "#818181"}}, {"type": "Feature", "geometry": {"type": "Point", "coordinates": [2.408585, 48.877193]}, "properties": {"numparc": 5672, "etat de la localisation": "autre", "ID BDGEO": "1", "horodatage": "2022-12-31 21:39:40", "distance (en metres)": 66.78, "station": "PORTE DES LILAS-METRO", "marker-color": "#818181"}}, {"type": "Feature", "geometry": {"type": "Point", "coordinates": [2.408406, 48.877323]}, "properties": {"numparc": 5687, "etat de la localisation": "autre", "ID BDGEO": "564", "horodatage": "2022-12-31 21:39:46", "distance (en metres)": 42.02, "station": "PORTE DES LILAS#", "marker-color": "#818181"}}, {"type": "Feature", "geometry": {"type": "Point", "coordinates": [2.397892, 48.889336]}, "properties": {"numparc": 5672, "etat de la localisation": "autre", "ID BDGEO": "653", "horodatage": "2022-12-31 21:59:32", "distance (en metres)": 45.96, "station": "PTE DE PANTIN-MARSEILLAISE", "marker-color": "#818181"}}, {"type": "Feature", "geometry": {"type": "Point", "coordinates": [2.400746, 48.896645]}, "properties": {"numparc": 5672, "etat de la localisation": "autre", "ID BDGEO": "59", "horodatage": "2022-12-31 22:06:05", "distance (en metres)": 103.66, "station": "PANTIN RER-MAIRIE", "marker-color": "#818181"}}, {"type": "Feature", "geometry": {"type": "Point", "coordinates": [2.411869, 48.879028]}, "properties": {"numparc": 5670, "etat de la localisation": "Deviation programmee", "ID BDGEO": "50", "horodatage": "2022-12-31 22:19:40", "distance (en metres)": 56.61, "station": "LES BRUYERES", "marker-color": "#56FF93"}}, {"type": "Feature", "geometry": {"type": "Point", "coordinates": [2.408502, 48.877197]}, "properties": {"numparc": 5670, "etat de la localisation": "autre", "ID BDGEO": "1", "horodatage": "2022-12-31 22:22:36", "distance (en metres)": 64.28, "station": "PORTE DES LILAS-METRO", "marker-color": "#818181"}}, {"type": "Feature", "geometry": {"type": "Point", "coordinates": [2.347071, 48.934891]}, "properties": {"numparc": 5672, "etat de la localisation": "autre", "ID BDGEO": "110", "horodatage": "2022-12-31 22:34:35", "distance (en metres)": 109.89, "station": "GARE DE SAINT-DENIS-RER-TRAMWAY", "marker-color": "#818181"}}, {"type": "Feature", "geometry": {"type": "Point", "coordinates": [2.347071, 48.934891]}, "properties": {"numparc": 5672, "etat de la localisation": "autre", "ID BDGEO": "110", "horodatage": "2022-12-31 22:35:02", "distance (en metres)": 109.89, "station": "GARE DE SAINT-DENIS-RER-TRAMWAY", "marker-color": "#818181"}}, {"type": "Feature", "geometry": {"type": "Point", "coordinates": [2.402269, 48.881786]}, "properties": {"numparc": 5653, "etat de la localisation": "autre", "ID BDGEO": "53", "horodatage": "2022-12-31 22:49:22", "distance (en metres)": 40.67, "station": "MAIRIE DU PRE-SAINT-GERVAIS", "marker-color": "#818181"}}, {"type": "Feature", "geometry": {"type": "Point", "coordinates": [2.408598, 48.877171]}, "properties": {"numparc": 5653, "etat de la localisation": "autre", "ID BDGEO": "1", "horodatage": "2022-12-31 22:52:52", "distance (en metres)": 65.1, "station": "PORTE DES LILAS-METRO", "marker-color": "#818181"}}, {"type": "Feature", "geometry": {"type": "Point", "coordinates": [2.369728, 48.923443]}, "properties": {"numparc": 5672, "etat de la localisation": "autre", "ID BDGEO": "136", "horodatage": "2022-12-31 22:54:17", "distance (en metres)": 47.78, "station": "BERGERIES FRANCS MOISINS", "marker-color": "#818181"}}, {"type": "Feature", "geometry": {"type": "Point", "coordinates": [2.400825, 48.896675]}, "properties": {"numparc": 5670, "etat de la localisation": "autre", "ID BDGEO": "59", "horodatage": "2022-12-31 22:55:27", "distance (en metres)": 105.92, "station": "PANTIN RER-MAIRIE", "marker-color": "#818181"}}, {"type": "Feature", "geometry": {"type": "Point", "coordinates": [2.347028, 48.934933]}, "properties": {"numparc": 5670, "etat de la localisation": "autre", "ID BDGEO": "110", "horodatage": "2022-12-31 23:19:21", "distance (en metres)": 115.15, "station": "GARE DE SAINT-DENIS-RER-TRAMWAY", "marker-color": "#818181"}}, {"type": "Feature", "geometry": {"type": "Point", "coordinates": [2.411949, 48.878937]}, "properties": {"numparc": 5672, "etat de la localisation": "Deviation programmee", "ID BDGEO": "50", "horodatage": "2022-12-31 23:26:02", "distance (en metres)": 50.96, "station": "LES BRUYERES", "marker-color": "#56FF93"}}, {"type": "Feature", "geometry": {"type": "Point", "coordinates": [2.400749, 48.896694]}, "properties": {"numparc": 5653, "etat de la localisation": "autre", "ID BDGEO": "59", "horodatage": "2022-12-31 23:27:23", "distance (en metres)": 100.25, "station": "PANTIN RER-MAIRIE", "marker-color": "#818181"}}, {"type": "Feature", "geometry": {"type": "Point", "coordinates": [2.408571, 48.877167]}, "properties": {"numparc": 5672, "etat de la localisation": "autre", "ID BDGEO": "1", "horodatage": "2022-12-31 23:27:46", "distance (en metres)": 63.7, "station": "PORTE DES LILAS-METRO", "marker-color": "#818181"}}, {"type": "Feature", "geometry": {"type": "Point", "coordinates": [2.347123, 48.934818]}, "properties": {"numparc": 5653, "etat de la localisation": "autre", "ID BDGEO": "110", "horodatage": "2022-12-31 23:52:12", "distance (en metres)": 101.21, "station": "GARE DE SAINT-DENIS-RER-TRAMWAY", "marker-color": "#818181"}}, {"type": "Feature", "geometry": {"type": "Point", "coordinates": [2.408491, 48.877228]}, "properties": {"numparc": 5670, "etat de la localisation": "autre", "ID BDGEO": "1", "horodatage": "2023-01-01 00:09:09", "distance (en metres)": 67.02, "station": "PORTE DES LILAS-METRO", "marker-color": "#818181"}}, {"type": "Feature", "geometry": {"type": "Point", "coordinates": [2.346985, 48.934937]}, "properties": {"numparc": 5672, "etat de la localisation": "autre", "ID BDGEO": "110", "horodatage": "2023-01-01 00:09:19", "distance (en metres)": 116.35, "station": "GARE DE SAINT-DENIS-RER-TRAMWAY", "marker-color": "#818181"}}, {"type": "Feature", "geometry": {"type": "Point", "coordinates": [2.403235, 48.890022]}, "properties": {"numparc": 5653, "etat de la localisation": "autre", "ID BDGEO": "257", "horodatage": "2023-01-01 00:34:52", "distance (en metres)": 195.18, "station": "HOCHE-METRO", "marker-color": "#818181"}}, {"type": "Feature", "geometry": {"type": "Point", "coordinates": [2.367546, 48.925228]}, "properties": {"numparc": 5672, "etat de la localisation": "autre", "ID BDGEO": "135", "horodatage": "2023-01-01 00:37:12", "distance (en metres)": 133.66, "station": "RUE DU PROGRES", "marker-color": "#818181"}}, {"type": "Feature", "geometry": {"type": "Point", "coordinates": [2.408422, 48.877274]}, "properties": {"numparc": 5653, "etat de la localisation": "autre", "ID BDGEO": "3", "horodatage": "2023-01-01 00:43:39", "distance (en metres)": 4714.8, "station": "DEPOT D'AUBERVILLIERS-ENTREE", "marker-color": "#818181"}}, {"type": "Feature", "geometry": {"type": "Point", "coordinates": [2.408391, 48.877316]}, "properties": {"numparc": 5653, "etat de la localisation": "autre", "ID BDGEO": "3", "horodatage": "2023-01-01 00:44:14", "distance (en metres)": 4709.71, "station": "DEPOT D'AUBERVILLIERS-ENTREE", "marker-color": "#818181"}}, {"type": "Feature", "geometry": {"type": "Point", "coordinates": [2.408393, 48.877316]}, "properties": {"numparc": 5653, "etat de la localisation": "autre", "ID BDGEO": "3", "horodatage": "2023-01-01 00:44:33", "distance (en metres)": 4709.79, "station": "DEPOT D'AUBERVILLIERS-ENTREE", "marker-color": "#818181"}}, {"type": "Feature", "geometry": {"type": "Point", "coordinates": [2.400759, 48.896687]}, "properties": {"numparc": 5670, "etat de la localisation": "autre", "ID BDGEO": "59", "horodatage": "2023-01-01 00:44:46", "distance (en metres)": 101.35, "station": "PANTIN RER-MAIRIE", "marker-color": "#818181"}}, {"type": "Feature", "geometry": {"type": "Point", "coordinates": [2.408621, 48.877121]}, "properties": {"numparc": 5653, "etat de la localisation": "autre", "ID BDGEO": "3", "horodatage": "2023-01-01 00:53:22", "distance (en metres)": 4737.1, "station": "DEPOT D'AUBERVILLIERS-ENTREE", "marker-color": "#818181"}}, {"type": "Feature", "geometry": {"type": "Point", "coordinates": [2.408621, 48.877121]}, "properties": {"numparc": 5653, "etat de la localisation": "autre", "ID BDGEO": "1", "horodatage": "2023-01-01 00:54:06", "distance (en metres)": 61.51, "station": "PORTE DES LILAS-METRO", "marker-color": "#818181"}}, {"type": "Feature", "geometry": {"type": "Point", "coordinates": [2.408075, 48.876678]}, "properties": {"numparc": 5672, "etat de la localisation": "Delocalise", "ID BDGEO": "210", "horodatage": "2023-01-01 01:05:41", "distance (en metres)": 56.67, "station": "PORTE DES LILAS-METRO.", "marker-color": "#FF565E"}}, {"type": "Feature", "geometry": {"type": "Point", "coordinates": [2.347028, 48.934944]}, "properties": {"numparc": 5670, "etat de la localisation": "autre", "ID BDGEO": "110", "horodatage": "2023-01-01 01:06:51", "distance (en metres)": 116.39, "station": "GARE DE SAINT-DENIS-RER-TRAMWAY", "marker-color": "#818181"}}, {"type": "Feature", "geometry": {"type": "Point", "coordinates": [2.408075, 48.876678]}, "properties": {"numparc": 5672, "etat de la localisation": "autre", "ID BDGEO": "563", "horodatage": "2023-01-01 01:07:30", "distance (en metres)": 3304.69, "station": "QUATRE CHEMINS-REPUBLIQUE-METRO#", "marker-color": "#818181"}}, {"type": "Feature", "geometry": {"type": "Point", "coordinates": [2.408075, 48.876678]}, "properties": {"numparc": 5672, "etat de la localisation": "autre", "ID BDGEO": "563", "horodatage": "2023-01-01 01:07:33", "distance (en metres)": 3304.69, "station": "QUATRE CHEMINS-REPUBLIQUE-METRO#", "marker-color": "#818181"}}, {"type": "Feature", "geometry": {"type": "Point", "coordinates": [2.408075, 48.876678]}, "properties": {"numparc": 5672, "etat de la localisation": "autre", "ID BDGEO": "563", "horodatage": "2023-01-01 01:11:28", "distance (en metres)": 3304.69, "station": "QUATRE CHEMINS-REPUBLIQUE-METRO#", "marker-color": "#818181"}}, {"type": "Feature", "geometry": {"type": "Point", "coordinates": [2.408075, 48.876678]}, "properties": {"numparc": 5672, "etat de la localisation": "autre", "ID BDGEO": "563", "horodatage": "2023-01-01 01:12:22", "distance (en metres)": 3304.69, "station": "QUATRE CHEMINS-REPUBLIQUE-METRO#", "marker-color": "#818181"}}, {"type": "Feature", "geometry": {"type": "Point", "coordinates": [2.408075, 48.876678]}, "properties": {"numparc": 5672, "etat de la localisation": "autre", "ID BDGEO": "563", "horodatage": "2023-01-01 01:19:51", "distance (en metres)": 3304.69, "station": "QUATRE CHEMINS-REPUBLIQUE-METRO#", "marker-color": "#818181"}}, {"type": "Feature", "geometry": {"type": "Point", "coordinates": [2.408075, 48.876678]}, "properties": {"numparc": 5672, "etat de la localisation": "autre", "ID BDGEO": "563", "horodatage": "2023-01-01 01:21:51", "distance (en metres)": 3304.69, "station": "QUATRE CHEMINS-REPUBLIQUE-METRO#", "marker-color": "#818181"}}, {"type": "Feature", "geometry": {"type": "Point", "coordinates": [2.408075, 48.876678]}, "properties": {"numparc": 5672, "etat de la localisation": "autre", "ID BDGEO": "563", "horodatage": "2023-01-01 01:22:32", "distance (en metres)": 3304.69, "station": "QUATRE CHEMINS-REPUBLIQUE-METRO#", "marker-color": "#818181"}}, {"type": "Feature", "geometry": {"type": "Point", "coordinates": [2.408075, 48.876678]}, "properties": {"numparc": 5672, "etat de la localisation": "autre", "ID BDGEO": "563", "horodatage": "2023-01-01 01:24:07", "distance (en metres)": 3304.69, "station": "QUATRE CHEMINS-REPUBLIQUE-METRO#", "marker-color": "#818181"}}, {"type": "Feature", "geometry": {"type": "Point", "coordinates": [2.408075, 48.876678]}, "properties": {"numparc": 5672, "etat de la localisation": "autre", "ID BDGEO": "563", "horodatage": "2023-01-01 01:29:55", "distance (en metres)": 3304.69, "station": "QUATRE CHEMINS-REPUBLIQUE-METRO#", "marker-color": "#818181"}}, {"type": "Feature", "geometry": {"type": "Point", "coordinates": [2.37109, 48.91037]}, "properties": {"numparc": 5653, "etat de la localisation": "autre", "ID BDGEO": "251", "horodatage": "2023-01-01 01:33:38", "distance (en metres)": 100.56, "station": "DEPOT D'AUBERVILLIERS-SORTIE", "marker-color": "#818181"}}, {"type": "Feature", "geometry": {"type": "Point", "coordinates": [2.411561, 48.878601]}, "properties": {"numparc": 5672, "etat de la localisation": "autre", "ID BDGEO": "563", "horodatage": "2023-01-01 01:33:40", "distance (en metres)": 3215.5, "station": "QUATRE CHEMINS-REPUBLIQUE-METRO#", "marker-color": "#818181"}}, {"type": "Feature", "geometry": {"type": "Point", "coordinates": [2.370656, 48.910347]}, "properties": {"numparc": 5653, "etat de la localisation": "autre", "ID BDGEO": "251", "horodatage": "2023-01-01 01:34:33", "distance (en metres)": 72.28, "station": "DEPOT D'AUBERVILLIERS-SORTIE", "marker-color": "#818181"}}, {"type": "Feature", "geometry": {"type": "Point", "coordinates": [2.358335, 48.929577]}, "properties": {"numparc": 5670, "etat de la localisation": "autre", "ID BDGEO": "615", "horodatage": "2023-01-01 01:35:35", "distance (en metres)": 131.86, "station": "PTE DE PARIS-S.DE FRANCE", "marker-color": "#818181"}}, {"type": "Feature", "geometry": {"type": "Point", "coordinates": [2.40225, 48.882179]}, "properties": {"numparc": 5672, "etat de la localisation": "autre", "ID BDGEO": "563", "horodatage": "2023-01-01 01:37:13", "distance (en metres)": 2584.68, "station": "QUATRE CHEMINS-REPUBLIQUE-METRO#", "marker-color": "#818181"}}, {"type": "Feature", "geometry": {"type": "Point", "coordinates": [2.39815, 48.886368]}, "properties": {"numparc": 5672, "etat de la localisation": "autre", "ID BDGEO": "563", "horodatage": "2023-01-01 01:38:59", "distance (en metres)": 2054.38, "station": "QUATRE CHEMINS-REPUBLIQUE-METRO#", "marker-color": "#818181"}}, {"type": "Feature", "geometry": {"type": "Point", "coordinates": [2.370626, 48.91008]}, "properties": {"numparc": 5653, "etat de la localisation": "autre", "ID BDGEO": "251", "horodatage": "2023-01-01 01:39:26", "distance (en metres)": 57.16, "station": "DEPOT D'AUBERVILLIERS-SORTIE", "marker-color": "#818181"}}, {"type": "Feature", "geometry": {"type": "Point", "coordinates": [2.402364, 48.891537]}, "properties": {"numparc": 5672, "etat de la localisation": "autre", "ID BDGEO": "563", "horodatage": "2023-01-01 01:42:49", "distance (en metres)": 1630.04, "station": "QUATRE CHEMINS-REPUBLIQUE-METRO#", "marker-color": "#818181"}}, {"type": "Feature", "geometry": {"type": "Point", "coordinates": [2.40113, 48.895401]}, "properties": {"numparc": 5672, "etat de la localisation": "autre", "ID BDGEO": "563", "horodatage": "2023-01-01 01:44:11", "distance (en metres)": 1218.72, "station": "QUATRE CHEMINS-REPUBLIQUE-METRO#", "marker-color": "#818181"}}, {"type": "Feature", "geometry": {"type": "Point", "coordinates": [2.400807, 48.896675]}, "properties": {"numparc": 5672, "etat de la localisation": "autre", "ID BDGEO": "563", "horodatage": "2023-01-01 01:46:13", "distance (en metres)": 1091.72, "station": "QUATRE CHEMINS-REPUBLIQUE-METRO#", "marker-color": "#818181"}}, {"type": "Feature", "geometry": {"type": "Point", "coordinates": [2.394141, 48.901478]}, "properties": {"numparc": 5672, "etat de la localisation": "autre", "ID BDGEO": "563", "horodatage": "2023-01-01 01:48:41", "distance (en metres)": 372.44, "station": "QUATRE CHEMINS-REPUBLIQUE-METRO#", "marker-color": "#818181"}}, {"type": "Feature", "geometry": {"type": "Point", "coordinates": [2.394141, 48.901478]}, "properties": {"numparc": 5672, "etat de la localisation": "autre", "ID BDGEO": "563", "horodatage": "2023-01-01 01:48:43", "distance (en metres)": 372.44, "station": "QUATRE CHEMINS-REPUBLIQUE-METRO#", "marker-color": "#818181"}}, {"type": "Feature", "geometry": {"type": "Point", "coordinates": [2.392326, 48.903336]}, "properties": {"numparc": 5672, "etat de la localisation": "autre", "ID BDGEO": "563", "horodatage": "2023-01-01 01:49:51", "distance (en metres)": 126.95, "station": "QUATRE CHEMINS-REPUBLIQUE-METRO#", "marker-color": "#818181"}}, {"type": "Feature", "geometry": {"type": "Point", "coordinates": [2.392279, 48.90337]}, "properties": {"numparc": 5672, "etat de la localisation": "autre", "ID BDGEO": "563", "horodatage": "2023-01-01 01:50:11", "distance (en metres)": 121.89, "station": "QUATRE CHEMINS-REPUBLIQUE-METRO#", "marker-color": "#818181"}}, {"type": "Feature", "geometry": {"type": "Point", "coordinates": [2.389248, 48.906502]}, "properties": {"numparc": 5672, "etat de la localisation": "autre", "ID BDGEO": "563", "horodatage": "2023-01-01 01:52:44", "distance (en metres)": 290.87, "station": "QUATRE CHEMINS-REPUBLIQUE-METRO#", "marker-color": "#818181"}}, {"type": "Feature", "geometry": {"type": "Point", "coordinates": [2.389193, 48.906578]}, "properties": {"numparc": 5672, "etat de la localisation": "autre", "ID BDGEO": "563", "horodatage": "2023-01-01 01:53:08", "distance (en metres)": 300.17, "station": "QUATRE CHEMINS-REPUBLIQUE-METRO#", "marker-color": "#818181"}}, {"type": "Feature", "geometry": {"type": "Point", "coordinates": [2.387589, 48.908218]}, "properties": {"numparc": 5672, "etat de la localisation": "autre", "ID BDGEO": "563", "horodatage": "2023-01-01 01:54:28", "distance (en metres)": 517.0, "station": "QUATRE CHEMINS-REPUBLIQUE-METRO#", "marker-color": "#818181"}}, {"type": "Feature", "geometry": {"type": "Point", "coordinates": [2.385519, 48.910374]}, "properties": {"numparc": 5672, "etat de la localisation": "autre", "ID BDGEO": "563", "horodatage": "2023-01-01 01:55:24", "distance (en metres)": 800.4, "station": "QUATRE CHEMINS-REPUBLIQUE-METRO#", "marker-color": "#818181"}}, {"type": "Feature", "geometry": {"type": "Point", "coordinates": [2.381528, 48.91452]}, "properties": {"numparc": 5672, "etat de la localisation": "autre", "ID BDGEO": "251", "horodatage": "2023-01-01 01:57:43", "distance (en metres)": 991.9, "station": "DEPOT D'AUBERVILLIERS-SORTIE", "marker-color": "#818181"}}, {"type": "Feature", "geometry": {"type": "Point", "coordinates": [2.379969, 48.916733]}, "properties": {"numparc": 5672, "etat de la localisation": "autre", "ID BDGEO": "251", "horodatage": "2023-01-01 01:58:55", "distance (en metres)": 1054.97, "station": "DEPOT D'AUBERVILLIERS-SORTIE", "marker-color": "#818181"}}, {"type": "Feature", "geometry": {"type": "Point", "coordinates": [2.377897, 48.919724]}, "properties": {"numparc": 5672, "etat de la localisation": "autre", "ID BDGEO": "251", "horodatage": "2023-01-01 02:00:30", "distance (en metres)": 1234.59, "station": "DEPOT D'AUBERVILLIERS-SORTIE", "marker-color": "#818181"}}, {"type": "Feature", "geometry": {"type": "Point", "coordinates": [2.374904, 48.921776]}, "properties": {"numparc": 5672, "etat de la localisation": "autre", "ID BDGEO": "251", "horodatage": "2023-01-01 02:01:33", "distance (en metres)": 1365.01, "station": "DEPOT D'AUBERVILLIERS-SORTIE", "marker-color": "#818181"}}, {"type": "Feature", "geometry": {"type": "Point", "coordinates": [2.366489, 48.926296]}, "properties": {"numparc": 5672, "etat de la localisation": "autre", "ID BDGEO": "251", "horodatage": "2023-01-01 02:03:27", "distance (en metres)": 1833.8, "station": "DEPOT D'AUBERVILLIERS-SORTIE", "marker-color": "#818181"}}, {"type": "Feature", "geometry": {"type": "Point", "coordinates": [2.364379, 48.927338]}, "properties": {"numparc": 5672, "etat de la localisation": "autre", "ID BDGEO": "251", "horodatage": "2023-01-01 02:04:17", "distance (en metres)": 1974.07, "station": "DEPOT D'AUBERVILLIERS-SORTIE", "marker-color": "#818181"}}, {"type": "Feature", "geometry": {"type": "Point", "coordinates": [2.357074, 48.929665]}, "properties": {"numparc": 5672, "etat de la localisation": "autre", "ID BDGEO": "251", "horodatage": "2023-01-01 02:06:24", "distance (en metres)": 2382.68, "station": "DEPOT D'AUBERVILLIERS-SORTIE", "marker-color": "#818181"}}, {"type": "Feature", "geometry": {"type": "Point", "coordinates": [2.356992, 48.929672]}, "properties": {"numparc": 5672, "etat de la localisation": "autre", "ID BDGEO": "251", "horodatage": "2023-01-01 02:06:46", "distance (en metres)": 2385.82, "station": "DEPOT D'AUBERVILLIERS-SORTIE", "marker-color": "#818181"}}, {"type": "Feature", "geometry": {"type": "Point", "coordinates": [2.347008, 48.934933]}, "properties": {"numparc": 5672, "etat de la localisation": "autre", "ID BDGEO": "251", "horodatage": "2023-01-01 02:09:28", "distance (en metres)": 3240.95, "station": "DEPOT D'AUBERVILLIERS-SORTIE", "marker-color": "#818181"}}, {"type": "Feature", "geometry": {"type": "Point", "coordinates": [2.370803, 48.910419]}, "properties": {"numparc": 5672, "etat de la localisation": "autre", "ID BDGEO": "251", "horodatage": "2023-01-01 02:21:17", "distance (en metres)": 85.71, "station": "DEPOT D'AUBERVILLIERS-SORTIE", "marker-color": "#818181"}}, {"type": "Feature", "geometry": {"type": "Point", "coordinates": [2.369868, 48.909955]}, "properties": {"station": "DEPOT D'AUBERVILLIERS-SORTIE", "ID BDGEO": "251", "marker-color": "#56B3FF"}}, {"type": "Feature", "geometry": {"type": "Point", "coordinates": [2.347403, 48.933927]}, "properties": {"station": "GARE DE SAINT-DENIS-RER-TRAMWAY", "ID BDGEO": "110", "marker-color": "#56B3FF"}}, {"type": "Feature", "geometry": {"type": "Point", "coordinates": [2.40812, 48.876677]}, "properties": {"station": "PORTE DES LILAS-METRO", "ID BDGEO": "1", "marker-color": "#56B3FF"}}, {"type": "Feature", "geometry": {"type": "Point", "coordinates": [2.397712, 48.889732]}, "properties": {"station": "PTE DE PANTIN-MARSEILLAISE", "ID BDGEO": "653", "marker-color": "#56B3FF"}}, {"type": "Feature", "geometry": {"type": "Point", "coordinates": [2.399684, 48.897262]}, "properties": {"station": "PANTIN RER-MAIRIE", "ID BDGEO": "59", "marker-color": "#56B3FF"}}, {"type": "Feature", "geometry": {"type": "Point", "coordinates": [2.403611, 48.888192]}, "properties": {"station": "FRANKLIN", "ID BDGEO": "259", "marker-color": "#56B3FF"}}, {"type": "Feature", "geometry": {"type": "Point", "coordinates": [2.402064, 48.882126]}, "properties": {"station": "MAIRIE DU PRE-SAINT-GERVAIS", "ID BDGEO": "53", "marker-color": "#56B3FF"}}, {"type": "Feature", "geometry": {"type": "Point", "coordinates": [2.411529, 48.878571]}, "properties": {"station": "LES BRUYERES", "ID BDGEO": "50", "marker-color": "#56B3FF"}}, {"type": "Feature", "geometry": {"type": "Point", "coordinates": [2.409474, 48.880495]}, "properties": {"station": "JEAN JAURES", "ID BDGEO": "51", "marker-color": "#56B3FF"}}, {"type": "Feature", "geometry": {"type": "Point", "coordinates": [2.39813, 48.886244]}, "properties": {"station": "MARSEILLAISE-CHEMINETS", "ID BDGEO": "652", "marker-color": "#56B3FF"}}, {"type": "Feature", "geometry": {"type": "Point", "coordinates": [2.401683, 48.893819]}, "properties": {"station": "MONTGOLFIER", "ID BDGEO": "57", "marker-color": "#56B3FF"}}, {"type": "Feature", "geometry": {"type": "Point", "coordinates": [2.387467, 48.908214]}, "properties": {"station": "RUE DES CITES", "ID BDGEO": "65", "marker-color": "#56B3FF"}}, {"type": "Feature", "geometry": {"type": "Point", "coordinates": [2.381597, 48.914328]}, "properties": {"station": "MAIRIE D'AUBERVILLIERS", "ID BDGEO": "67", "marker-color": "#56B3FF"}}, {"type": "Feature", "geometry": {"type": "Point", "coordinates": [2.366386, 48.926222]}, "properties": {"station": "RUE DU PROGRES", "ID BDGEO": "72", "marker-color": "#56B3FF"}}, {"type": "Feature", "geometry": {"type": "Point", "coordinates": [2.381583, 48.914184]}, "properties": {"station": "MAIRIE D'AUBERVILLIERS", "ID BDGEO": "140", "marker-color": "#56B3FF"}}, {"type": "Feature", "geometry": {"type": "Point", "coordinates": [2.40299, 48.881649]}, "properties": {"station": "LES MARRONNIERS", "ID BDGEO": "194", "marker-color": "#56B3FF"}}, {"type": "Feature", "geometry": {"type": "Point", "coordinates": [2.408584, 48.876964]}, "properties": {"station": "PORTE DES LILAS#", "ID BDGEO": "564", "marker-color": "#56B3FF"}}, {"type": "Feature", "geometry": {"type": "Point", "coordinates": [2.369181, 48.923678]}, "properties": {"station": "BERGERIES FRANCS MOISINS", "ID BDGEO": "136", "marker-color": "#56B3FF"}}, {"type": "Feature", "geometry": {"type": "Point", "coordinates": [2.402212, 48.891644]}, "properties": {"station": "HOCHE-METRO", "ID BDGEO": "257", "marker-color": "#56B3FF"}}, {"type": "Feature", "geometry": {"type": "Point", "coordinates": [2.366441, 48.926186]}, "properties": {"station": "RUE DU PROGRES", "ID BDGEO": "135", "marker-color": "#56B3FF"}}, {"type": "Feature", "geometry": {"type": "Point", "coordinates": [2.369855, 48.911258]}, "properties": {"station": "DEPOT D'AUBERVILLIERS-ENTREE", "ID BDGEO": "3", "marker-color": "#56B3FF"}}, {"type": "Feature", "geometry": {"type": "Point", "coordinates": [2.408421, 48.877135]}, "properties": {"station": "PORTE DES LILAS-METRO.", "ID BDGEO": "210", "marker-color": "#56B3FF"}}, {"type": "Feature", "geometry": {"type": "Point", "coordinates": [2.391404, 48.904303]}, "properties": {"station": "QUATRE CHEMINS-REPUBLIQUE-METRO#", "ID BDGEO": "563", "marker-color": "#56B3FF"}}, {"type": "Feature", "geometry": {"type": "Point", "coordinates": [2.356595, 48.929262]}, "properties": {"station": "PTE DE PARIS-S.DE FRANCE", "ID BDGEO": "615", "marker-color": "#56B3FF"}}]}