{"type": "FeatureCollection", "features": [{"type": "Feature", "geometry": {"type": "Point", "coordinates": [2.372075, 48.844711]}, "properties": {"alarme": "VEHICULE DELOCALISE", "numparc": 2846, "type": "EXPLOITATION", "duree": "00:00:44", "horodatage": "2021-10-31 02:27:06", "statut": "start", "marker-color": "#ff0000"}}, {"type": "Feature", "geometry": {"type": "Point", "coordinates": [2.372275, 48.844551]}, "properties": {"alarme": "VEHICULE DELOCALISE", "numparc": 2822, "type": "EXPLOITATION", "duree": "00:00:32", "horodatage": "2021-10-31 02:28:06", "statut": "start", "marker-color": "#ff0000"}}, {"type": "Feature", "geometry": {"type": "Point", "coordinates": [2.462685, 48.790859]}, "properties": {"alarme": "VEHICULE DELOCALISE", "numparc": 2826, "type": "EXPLOITATION", "duree": "00:02:25", "horodatage": "2021-10-31 02:31:41", "statut": "start", "marker-color": "#ff0000"}}, {"type": "Feature", "geometry": {"type": "Point", "coordinates": [2.454999, 48.79845]}, "properties": {"alarme": "VEHICULE DELOCALISE", "numparc": 2852, "type": "EXPLOITATION", "duree": "00:02:07", "horodatage": "2021-10-31 02:34:45", "statut": "start", "marker-color": "#ff0000"}}, {"type": "Feature", "geometry": {"type": "Point", "coordinates": [2.466014, 48.779049]}, "properties": {"alarme": "VEHICULE DELOCALISE", "numparc": 2826, "type": "EXPLOITATION", "duree": "00:02:46", "horodatage": "2021-10-31 02:36:25", "statut": "start", "marker-color": "#ff0000"}}, {"type": "Feature", "geometry": {"type": "Point", "coordinates": [2.43764, 48.807606]}, "properties": {"alarme": "VEHICULE DELOCALISE", "numparc": 2852, "type": "EXPLOITATION", "duree": "00:03:05", "horodatage": "2021-10-31 02:37:58", "statut": "start", "marker-color": "#ff0000"}}, {"type": "Feature", "geometry": {"type": "Point", "coordinates": [2.455742, 48.775524]}, "properties": {"alarme": "VEHICULE DELOCALISE", "numparc": 2826, "type": "EXPLOITATION", "duree": "00:00:48", "horodatage": "2021-10-31 02:39:53", "statut": "start", "marker-color": "#ff0000"}}, {"type": "Feature", "geometry": {"type": "Point", "coordinates": [2.459104, 48.771912]}, "properties": {"alarme": "VEHICULE DELOCALISE", "numparc": 2826, "type": "EXPLOITATION", "duree": "00:00:19", "horodatage": "2021-10-31 02:41:10", "statut": "start", "marker-color": "#ff0000"}}, {"type": "Feature", "geometry": {"type": "Point", "coordinates": [2.461217, 48.771111]}, "properties": {"alarme": "VEHICULE DELOCALISE", "numparc": 2826, "type": "EXPLOITATION", "duree": "00:01:32", "horodatage": "2021-10-31 02:42:38", "statut": "start", "marker-color": "#ff0000"}}, {"type": "Feature", "geometry": {"type": "Point", "coordinates": [2.466503, 48.767952]}, "properties": {"alarme": "VEHICULE DELOCALISE", "numparc": 2826, "type": "EXPLOITATION", "duree": "00:02:31", "horodatage": "2021-10-31 02:44:33", "statut": "start", "marker-color": "#ff0000"}}, {"type": "Feature", "geometry": {"type": "Point", "coordinates": [2.372219, 48.844494]}, "properties": {"alarme": "VEHICULE DELOCALISE", "numparc": 2834, "type": "EXPLOITATION", "duree": "00:00:29", "horodatage": "2021-10-31 02:46:58", "statut": "start", "marker-color": "#ff0000"}}, {"type": "Feature", "geometry": {"type": "Point", "coordinates": [2.37188, 48.844807]}, "properties": {"alarme": "VEHICULE DELOCALISE", "numparc": 2825, "type": "EXPLOITATION", "duree": "00:00:52", "horodatage": "2021-10-31 02:47:05", "statut": "start", "marker-color": "#ff0000"}}, {"type": "Feature", "geometry": {"type": "Point", "coordinates": [2.48656, 48.767776]}, "properties": {"alarme": "VEHICULE DELOCALISE", "numparc": 2826, "type": "EXPLOITATION", "duree": "00:00:17", "horodatage": "2021-10-31 02:47:52", "statut": "start", "marker-color": "#ff0000"}}, {"type": "Feature", "geometry": {"type": "Point", "coordinates": [2.489704, 48.769508]}, "properties": {"alarme": "VEHICULE DELOCALISE", "numparc": 2826, "type": "EXPLOITATION", "duree": "00:04:47", "horodatage": "2021-10-31 02:49:14", "statut": "start", "marker-color": "#ff0000"}}, {"type": "Feature", "geometry": {"type": "Point", "coordinates": [2.512336, 48.764267]}, "properties": {"alarme": "VEHICULE DELOCALISE", "numparc": 2826, "type": "EXPLOITATION", "duree": "00:04:50", "horodatage": "2021-10-31 02:55:49", "statut": "start", "marker-color": "#ff0000"}}, {"type": "Feature", "geometry": {"type": "Point", "coordinates": [2.370828, 48.843529]}, "properties": {"alarme": "VEHICULE DELOCALISE", "numparc": 2852, "type": "EXPLOITATION", "duree": "00:01:26", "horodatage": "2021-10-31 03:07:02", "statut": "start", "marker-color": "#ff0000"}}, {"type": "Feature", "geometry": {"type": "Point", "coordinates": [2.464049, 48.783047]}, "properties": {"alarme": "VEHICULE DELOCALISE", "numparc": 2834, "type": "EXPLOITATION", "duree": "00:01:37", "horodatage": "2021-10-31 03:11:38", "statut": "start", "marker-color": "#ff0000"}}, {"type": "Feature", "geometry": {"type": "Point", "coordinates": [2.46363, 48.777897]}, "properties": {"alarme": "VEHICULE DELOCALISE", "numparc": 2834, "type": "EXPLOITATION", "duree": "00:01:37", "horodatage": "2021-10-31 03:13:37", "statut": "start", "marker-color": "#ff0000"}}, {"type": "Feature", "geometry": {"type": "Point", "coordinates": [2.455846, 48.775444]}, "properties": {"alarme": "VEHICULE DELOCALISE", "numparc": 2834, "type": "EXPLOITATION", "duree": "00:00:30", "horodatage": "2021-10-31 03:16:36", "statut": "start", "marker-color": "#ff0000"}}, {"type": "Feature", "geometry": {"type": "Point", "coordinates": [2.371808, 48.844982]}, "properties": {"alarme": "VEHICULE DELOCALISE", "numparc": 2846, "type": "EXPLOITATION", "duree": "00:00:20", "horodatage": "2021-10-31 03:26:10", "statut": "start", "marker-color": "#ff0000"}}, {"type": "Feature", "geometry": {"type": "Point", "coordinates": [2.383705, 48.836636]}, "properties": {"alarme": "VEHICULE DELOCALISE", "numparc": 2825, "type": "EXPLOITATION", "duree": "00:00:44", "horodatage": "2021-10-31 03:50:57", "statut": "start", "marker-color": "#ff0000"}}, {"type": "Feature", "geometry": {"type": "Point", "coordinates": [2.462649, 48.790874]}, "properties": {"alarme": "VEHICULE DELOCALISE", "numparc": 2846, "type": "EXPLOITATION", "duree": "00:02:41", "horodatage": "2021-10-31 03:52:39", "statut": "start", "marker-color": "#ff0000"}}, {"type": "Feature", "geometry": {"type": "Point", "coordinates": [2.372176, 48.844608]}, "properties": {"alarme": "VEHICULE DELOCALISE", "numparc": 2822, "type": "EXPLOITATION", "duree": "00:00:40", "horodatage": "2021-10-31 04:25:14", "statut": "start", "marker-color": "#ff0000"}}, {"type": "Feature", "geometry": {"type": "Point", "coordinates": [2.462296, 48.790478]}, "properties": {"alarme": "VEHICULE DELOCALISE", "numparc": 2852, "type": "EXPLOITATION", "duree": "00:01:38", "horodatage": "2021-10-31 04:31:42", "statut": "start", "marker-color": "#ff0000"}}, {"type": "Feature", "geometry": {"type": "Point", "coordinates": [2.372068, 48.844696]}, "properties": {"alarme": "VEHICULE DELOCALISE", "numparc": 2834, "type": "EXPLOITATION", "duree": "00:00:27", "horodatage": "2021-10-31 04:43:10", "statut": "start", "marker-color": "#ff0000"}}, {"type": "Feature", "geometry": {"type": "Point", "coordinates": [2.3817, 48.838837]}, "properties": {"alarme": "VEHICULE DELOCALISE", "numparc": 2852, "type": "EXPLOITATION", "duree": "00:03:23", "horodatage": "2021-10-31 04:52:21", "statut": "start", "marker-color": "#ff0000"}}, {"type": "Feature", "geometry": {"type": "Point", "coordinates": [2.462353, 48.790489]}, "properties": {"alarme": "VEHICULE DELOCALISE", "numparc": 2825, "type": "EXPLOITATION", "duree": "00:01:58", "horodatage": "2021-10-31 05:11:44", "statut": "start", "marker-color": "#ff0000"}}, {"type": "Feature", "geometry": {"type": "Point", "coordinates": [2.378202, 48.840073]}, "properties": {"alarme": "VEHICULE DELOCALISE", "numparc": 2846, "type": "EXPLOITATION", "duree": "00:03:25", "horodatage": "2021-10-31 05:16:12", "statut": "start", "marker-color": "#ff0000"}}, {"type": "Feature", "geometry": {"type": "Point", "coordinates": [2.507692, 48.755222]}, "properties": {"alarme": "VEHICULE DELOCALISE", "numparc": 2822, "type": "EXPLOITATION", "duree": "00:12:55", "horodatage": "2021-10-31 05:21:20", "statut": "start", "marker-color": "#ff0000"}}, {"type": "Feature", "geometry": {"type": "Point", "coordinates": [2.457985, 48.792355]}, "properties": {"alarme": "VEHICULE DELOCALISE", "numparc": 2834, "type": "EXPLOITATION", "duree": "00:04:34", "horodatage": "2021-11-01 00:33:07", "statut": "start", "marker-color": "#ff0000"}}, {"type": "Feature", "geometry": {"type": "Point", "coordinates": [2.371241, 48.843555]}, "properties": {"alarme": "VEHICULE DELOCALISE", "numparc": 2846, "type": "EXPLOITATION", "duree": "00:02:10", "horodatage": "2021-11-01 00:45:55", "statut": "start", "marker-color": "#ff0000"}}, {"type": "Feature", "geometry": {"type": "Point", "coordinates": [2.372069, 48.844662]}, "properties": {"alarme": "VEHICULE DELOCALISE", "numparc": 2852, "type": "EXPLOITATION", "duree": "00:01:07", "horodatage": "2021-11-01 01:07:32", "statut": "start", "marker-color": "#ff0000"}}, {"type": "Feature", "geometry": {"type": "Point", "coordinates": [2.466392, 48.777927]}, "properties": {"alarme": "VEHICULE DELOCALISE", "numparc": 2822, "type": "EXPLOITATION", "duree": "00:02:09", "horodatage": "2021-11-01 01:09:18", "statut": "start", "marker-color": "#ff0000"}}, {"type": "Feature", "geometry": {"type": "Point", "coordinates": [2.37793, 48.839836]}, "properties": {"alarme": "VEHICULE DELOCALISE", "numparc": 2826, "type": "EXPLOITATION", "duree": "00:14:42", "horodatage": "2021-11-01 01:13:47", "statut": "start", "marker-color": "#ff0000"}}, {"type": "Feature", "geometry": {"type": "Point", "coordinates": [2.372363, 48.844608]}, "properties": {"alarme": "VEHICULE DELOCALISE", "numparc": 2822, "type": "EXPLOITATION", "duree": "00:09:35", "horodatage": "2021-11-01 01:38:09", "statut": "start", "marker-color": "#ff0000"}}, {"type": "Feature", "geometry": {"type": "Point", "coordinates": [2.377886, 48.83987]}, "properties": {"alarme": "VEHICULE DELOCALISE", "numparc": 2834, "type": "EXPLOITATION", "duree": "00:16:24", "horodatage": "2021-11-01 01:53:44", "statut": "start", "marker-color": "#ff0000"}}, {"type": "Feature", "geometry": {"type": "Point", "coordinates": [2.374217, 48.8433]}, "properties": {"alarme": "VEHICULE DELOCALISE", "numparc": 2846, "type": "EXPLOITATION", "duree": "00:00:44", "horodatage": "2021-10-31 02:27:50", "statut": "end", "marker-color": "#2fe184"}}, {"type": "Feature", "geometry": {"type": "Point", "coordinates": [2.374343, 48.843338]}, "properties": {"alarme": "VEHICULE DELOCALISE", "numparc": 2822, "type": "EXPLOITATION", "duree": "00:00:32", "horodatage": "2021-10-31 02:28:38", "statut": "end", "marker-color": "#2fe184"}}, {"type": "Feature", "geometry": {"type": "Point", "coordinates": [2.462554, 48.785889]}, "properties": {"alarme": "VEHICULE DELOCALISE", "numparc": 2826, "type": "EXPLOITATION", "duree": "00:02:25", "horodatage": "2021-10-31 02:34:06", "statut": "end", "marker-color": "#2fe184"}}, {"type": "Feature", "geometry": {"type": "Point", "coordinates": [2.443774, 48.804363]}, "properties": {"alarme": "VEHICULE DELOCALISE", "numparc": 2852, "type": "EXPLOITATION", "duree": "00:02:07", "horodatage": "2021-10-31 02:36:52", "statut": "end", "marker-color": "#2fe184"}}, {"type": "Feature", "geometry": {"type": "Point", "coordinates": [2.455784, 48.777668]}, "properties": {"alarme": "VEHICULE DELOCALISE", "numparc": 2826, "type": "EXPLOITATION", "duree": "00:02:46", "horodatage": "2021-10-31 02:39:11", "statut": "end", "marker-color": "#2fe184"}}, {"type": "Feature", "geometry": {"type": "Point", "coordinates": [2.423481, 48.814529]}, "properties": {"alarme": "VEHICULE DELOCALISE", "numparc": 2852, "type": "EXPLOITATION", "duree": "00:03:05", "horodatage": "2021-10-31 02:41:03", "statut": "end", "marker-color": "#2fe184"}}, {"type": "Feature", "geometry": {"type": "Point", "coordinates": [2.458006, 48.772942]}, "properties": {"alarme": "VEHICULE DELOCALISE", "numparc": 2826, "type": "EXPLOITATION", "duree": "00:00:48", "horodatage": "2021-10-31 02:40:41", "statut": "end", "marker-color": "#2fe184"}}, {"type": "Feature", "geometry": {"type": "Point", "coordinates": [2.459782, 48.771667]}, "properties": {"alarme": "VEHICULE DELOCALISE", "numparc": 2826, "type": "EXPLOITATION", "duree": "00:00:19", "horodatage": "2021-10-31 02:41:29", "statut": "end", "marker-color": "#2fe184"}}, {"type": "Feature", "geometry": {"type": "Point", "coordinates": [2.463823, 48.768707]}, "properties": {"alarme": "VEHICULE DELOCALISE", "numparc": 2826, "type": "EXPLOITATION", "duree": "00:01:32", "horodatage": "2021-10-31 02:44:10", "statut": "end", "marker-color": "#2fe184"}}, {"type": "Feature", "geometry": {"type": "Point", "coordinates": [2.481503, 48.765636]}, "properties": {"alarme": "VEHICULE DELOCALISE", "numparc": 2826, "type": "EXPLOITATION", "duree": "00:02:31", "horodatage": "2021-10-31 02:47:04", "statut": "end", "marker-color": "#2fe184"}}, {"type": "Feature", "geometry": {"type": "Point", "coordinates": [2.374362, 48.843323]}, "properties": {"alarme": "VEHICULE DELOCALISE", "numparc": 2834, "type": "EXPLOITATION", "duree": "00:00:29", "horodatage": "2021-10-31 02:47:27", "statut": "end", "marker-color": "#2fe184"}}, {"type": "Feature", "geometry": {"type": "Point", "coordinates": [2.374322, 48.843315]}, "properties": {"alarme": "VEHICULE DELOCALISE", "numparc": 2825, "type": "EXPLOITATION", "duree": "00:00:52", "horodatage": "2021-10-31 02:47:57", "statut": "end", "marker-color": "#2fe184"}}, {"type": "Feature", "geometry": {"type": "Point", "coordinates": [2.487108, 48.768009]}, "properties": {"alarme": "VEHICULE DELOCALISE", "numparc": 2826, "type": "EXPLOITATION", "duree": "00:00:17", "horodatage": "2021-10-31 02:48:09", "statut": "end", "marker-color": "#2fe184"}}, {"type": "Feature", "geometry": {"type": "Point", "coordinates": [2.508422, 48.770794]}, "properties": {"alarme": "VEHICULE DELOCALISE", "numparc": 2826, "type": "EXPLOITATION", "duree": "00:04:47", "horodatage": "2021-10-31 02:54:01", "statut": "end", "marker-color": "#2fe184"}}, {"type": "Feature", "geometry": {"type": "Point", "coordinates": [2.505965, 48.753353]}, "properties": {"alarme": "VEHICULE DELOCALISE", "numparc": 2826, "type": "EXPLOITATION", "duree": "00:04:50", "horodatage": "2021-10-31 03:00:39", "statut": "end", "marker-color": "#2fe184"}}, {"type": "Feature", "geometry": {"type": "Point", "coordinates": [2.374175, 48.843063]}, "properties": {"alarme": "VEHICULE DELOCALISE", "numparc": 2852, "type": "EXPLOITATION", "duree": "00:01:26", "horodatage": "2021-10-31 03:08:28", "statut": "end", "marker-color": "#2fe184"}}, {"type": "Feature", "geometry": {"type": "Point", "coordinates": [2.466316, 48.777958]}, "properties": {"alarme": "VEHICULE DELOCALISE", "numparc": 2834, "type": "EXPLOITATION", "duree": "00:01:37", "horodatage": "2021-10-31 03:13:15", "statut": "end", "marker-color": "#2fe184"}}, {"type": "Feature", "geometry": {"type": "Point", "coordinates": [2.455546, 48.77763]}, "properties": {"alarme": "VEHICULE DELOCALISE", "numparc": 2834, "type": "EXPLOITATION", "duree": "00:01:37", "horodatage": "2021-10-31 03:15:14", "statut": "end", "marker-color": "#2fe184"}}, {"type": "Feature", "geometry": {"type": "Point", "coordinates": [2.457089, 48.774471]}, "properties": {"alarme": "VEHICULE DELOCALISE", "numparc": 2834, "type": "EXPLOITATION", "duree": "00:00:30", "horodatage": "2021-10-31 03:17:06", "statut": "end", "marker-color": "#2fe184"}}, {"type": "Feature", "geometry": {"type": "Point", "coordinates": [2.371439, 48.845337]}, "properties": {"alarme": "VEHICULE DELOCALISE", "numparc": 2846, "type": "EXPLOITATION", "duree": "00:00:20", "horodatage": "2021-10-31 03:26:30", "statut": "end", "marker-color": "#2fe184"}}, {"type": "Feature", "geometry": {"type": "Point", "coordinates": [2.385188, 48.835445]}, "properties": {"alarme": "VEHICULE DELOCALISE", "numparc": 2825, "type": "EXPLOITATION", "duree": "00:00:44", "horodatage": "2021-10-31 03:51:41", "statut": "end", "marker-color": "#2fe184"}}, {"type": "Feature", "geometry": {"type": "Point", "coordinates": [2.464545, 48.782051]}, "properties": {"alarme": "VEHICULE DELOCALISE", "numparc": 2846, "type": "EXPLOITATION", "duree": "00:02:41", "horodatage": "2021-10-31 03:55:20", "statut": "end", "marker-color": "#2fe184"}}, {"type": "Feature", "geometry": {"type": "Point", "coordinates": [2.373979, 48.843613]}, "properties": {"alarme": "VEHICULE DELOCALISE", "numparc": 2822, "type": "EXPLOITATION", "duree": "00:00:40", "horodatage": "2021-10-31 04:25:54", "statut": "end", "marker-color": "#2fe184"}}, {"type": "Feature", "geometry": {"type": "Point", "coordinates": [2.460592, 48.794262]}, "properties": {"alarme": "VEHICULE DELOCALISE", "numparc": 2852, "type": "EXPLOITATION", "duree": "00:01:38", "horodatage": "2021-10-31 04:33:20", "statut": "end", "marker-color": "#2fe184"}}, {"type": "Feature", "geometry": {"type": "Point", "coordinates": [2.371427, 48.845238]}, "properties": {"alarme": "VEHICULE DELOCALISE", "numparc": 2834, "type": "EXPLOITATION", "duree": "00:00:27", "horodatage": "2021-10-31 04:43:37", "statut": "end", "marker-color": "#2fe184"}}, {"type": "Feature", "geometry": {"type": "Point", "coordinates": [2.374042, 48.843456]}, "properties": {"alarme": "VEHICULE DELOCALISE", "numparc": 2852, "type": "EXPLOITATION", "duree": "00:03:23", "horodatage": "2021-10-31 04:55:44", "statut": "end", "marker-color": "#2fe184"}}, {"type": "Feature", "geometry": {"type": "Point", "coordinates": [2.460553, 48.794262]}, "properties": {"alarme": "VEHICULE DELOCALISE", "numparc": 2825, "type": "EXPLOITATION", "duree": "00:01:58", "horodatage": "2021-10-31 05:13:42", "statut": "end", "marker-color": "#2fe184"}}, {"type": "Feature", "geometry": {"type": "Point", "coordinates": [2.372185, 48.844063]}, "properties": {"alarme": "VEHICULE DELOCALISE", "numparc": 2846, "type": "EXPLOITATION", "duree": "00:03:25", "horodatage": "2021-10-31 05:19:37", "statut": "end", "marker-color": "#2fe184"}}, {"type": "Feature", "geometry": {"type": "Point", "coordinates": [2.441087, 48.772278]}, "properties": {"alarme": "VEHICULE DELOCALISE", "numparc": 2822, "type": "EXPLOITATION", "duree": "00:12:55", "horodatage": "2021-10-31 05:34:15", "statut": "end", "marker-color": "#2fe184"}}, {"type": "Feature", "geometry": {"type": "Point", "coordinates": [2.45525, 48.777924]}, "properties": {"alarme": "VEHICULE DELOCALISE", "numparc": 2834, "type": "EXPLOITATION", "duree": "00:04:34", "horodatage": "2021-11-01 00:37:41", "statut": "end", "marker-color": "#2fe184"}}, {"type": "Feature", "geometry": {"type": "Point", "coordinates": [2.374321, 48.843254]}, "properties": {"alarme": "VEHICULE DELOCALISE", "numparc": 2846, "type": "EXPLOITATION", "duree": "00:02:10", "horodatage": "2021-11-01 00:48:05", "statut": "end", "marker-color": "#2fe184"}}, {"type": "Feature", "geometry": {"type": "Point", "coordinates": [2.374333, 48.8433]}, "properties": {"alarme": "VEHICULE DELOCALISE", "numparc": 2852, "type": "EXPLOITATION", "duree": "00:01:07", "horodatage": "2021-11-01 01:08:39", "statut": "end", "marker-color": "#2fe184"}}, {"type": "Feature", "geometry": {"type": "Point", "coordinates": [2.462899, 48.785183]}, "properties": {"alarme": "VEHICULE DELOCALISE", "numparc": 2822, "type": "EXPLOITATION", "duree": "00:02:09", "horodatage": "2021-11-01 01:11:27", "statut": "end", "marker-color": "#2fe184"}}, {"type": "Feature", "geometry": {"type": "Point", "coordinates": [2.376391, 48.842197]}, "properties": {"alarme": "VEHICULE DELOCALISE", "numparc": 2826, "type": "EXPLOITATION", "duree": "00:14:42", "horodatage": "2021-11-01 01:28:29", "statut": "end", "marker-color": "#2fe184"}}, {"type": "Feature", "geometry": {"type": "Point", "coordinates": [2.379176, 48.840878]}, "properties": {"alarme": "VEHICULE DELOCALISE", "numparc": 2822, "type": "EXPLOITATION", "duree": "00:09:35", "horodatage": "2021-11-01 01:47:44", "statut": "end", "marker-color": "#2fe184"}}, {"type": "Feature", "geometry": {"type": "Point", "coordinates": [2.377711, 48.84137]}, "properties": {"alarme": "VEHICULE DELOCALISE", "numparc": 2834, "type": "EXPLOITATION", "duree": "00:16:24", "horodatage": "2021-11-01 02:10:08", "statut": "end", "marker-color": "#2fe184"}}]}