{"type": "FeatureCollection", "features": [{"type": "Feature", "geometry": {"type": "Point", "coordinates": [2.387955, 48.754036]}, "properties": {"etat de la localisation": "Hors service", "numparc": 7426, "duree": "", "horodatage": "2022-06-23 04:33:03", "marker-color": "#707070"}}, {"type": "Feature", "geometry": {"type": "Point", "coordinates": [2.357875, 48.763126]}, "properties": {"etat de la localisation": "Mission suivante non connue", "numparc": 7426, "duree": "", "horodatage": "2022-06-23 04:53:34", "marker-color": "#7156FF"}}, {"type": "Feature", "geometry": {"type": "Point", "coordinates": [2.387489, 48.754524]}, "properties": {"etat de la localisation": "Hors service", "numparc": 7448, "duree": "", "horodatage": "2022-06-23 05:45:51", "marker-color": "#707070"}}, {"type": "Feature", "geometry": {"type": "Point", "coordinates": [2.387489, 48.754524]}, "properties": {"etat de la localisation": "Delocalise", "numparc": 7448, "duree": "00:01:11", "horodatage": "2022-06-23 05:46:32", "marker-color": "#FF565E"}}, {"type": "Feature", "geometry": {"type": "Point", "coordinates": [2.369245, 48.728748]}, "properties": {"etat de la localisation": "Mission suivante non connue", "numparc": 7426, "duree": "", "horodatage": "2022-06-23 05:48:05", "marker-color": "#7156FF"}}, {"type": "Feature", "geometry": {"type": "Point", "coordinates": [2.369467, 48.74424]}, "properties": {"etat de la localisation": "Delocalise", "numparc": 7440, "duree": "00:00:29", "horodatage": "2022-06-23 05:48:25", "marker-color": "#FF565E"}}, {"type": "Feature", "geometry": {"type": "Point", "coordinates": [2.36888, 48.7686]}, "properties": {"etat de la localisation": "Hors service", "numparc": 7448, "duree": "", "horodatage": "2022-06-23 06:01:31", "marker-color": "#707070"}}, {"type": "Feature", "geometry": {"type": "Point", "coordinates": [2.36888, 48.7686]}, "properties": {"etat de la localisation": "Mission inconnue", "numparc": 7448, "duree": "", "horodatage": "2022-06-23 06:03:01", "marker-color": "#FF9F56"}}, {"type": "Feature", "geometry": {"type": "Point", "coordinates": [2.370173, 48.746265]}, "properties": {"etat de la localisation": "Hors service", "numparc": 7448, "duree": "", "horodatage": "2022-06-23 06:28:28", "marker-color": "#707070"}}, {"type": "Feature", "geometry": {"type": "Point", "coordinates": [2.388177, 48.75378]}, "properties": {"etat de la localisation": "Delocalise", "numparc": 7421, "duree": "00:06:05", "horodatage": "2022-06-23 06:29:08", "marker-color": "#FF565E"}}, {"type": "Feature", "geometry": {"type": "Point", "coordinates": [2.370173, 48.746265]}, "properties": {"etat de la localisation": "Delocalise", "numparc": 7448, "duree": "00:00:11", "horodatage": "2022-06-23 06:30:00", "marker-color": "#FF565E"}}, {"type": "Feature", "geometry": {"type": "Point", "coordinates": [2.374653, 48.755894]}, "properties": {"etat de la localisation": "Mission inconnue", "numparc": 7421, "duree": "", "horodatage": "2022-06-23 06:35:13", "marker-color": "#FF9F56"}}, {"type": "Feature", "geometry": {"type": "Point", "coordinates": [2.369373, 48.728752]}, "properties": {"etat de la localisation": "Hors service", "numparc": 7448, "duree": "", "horodatage": "2022-06-23 06:40:50", "marker-color": "#707070"}}, {"type": "Feature", "geometry": {"type": "Point", "coordinates": [2.357793, 48.763252]}, "properties": {"etat de la localisation": "Mission suivante non connue", "numparc": 7426, "duree": "", "horodatage": "2022-06-23 06:42:55", "marker-color": "#7156FF"}}, {"type": "Feature", "geometry": {"type": "Point", "coordinates": [2.400091, 48.743053]}, "properties": {"etat de la localisation": "Mission suivante non connue", "numparc": 7421, "duree": "", "horodatage": "2022-06-23 07:09:28", "marker-color": "#7156FF"}}, {"type": "Feature", "geometry": {"type": "Point", "coordinates": [2.412279, 48.764465]}, "properties": {"etat de la localisation": "Hors service", "numparc": 7448, "duree": "", "horodatage": "2022-06-23 07:21:32", "marker-color": "#707070"}}, {"type": "Feature", "geometry": {"type": "Point", "coordinates": [2.363394, 48.729507]}, "properties": {"etat de la localisation": "Delocalise", "numparc": 7437, "duree": "00:02:52", "horodatage": "2022-06-23 07:24:10", "marker-color": "#FF565E"}}, {"type": "Feature", "geometry": {"type": "Point", "coordinates": [2.400292, 48.742889]}, "properties": {"etat de la localisation": "Mission suivante non connue", "numparc": 7426, "duree": "", "horodatage": "2022-06-23 07:43:37", "marker-color": "#7156FF"}}, {"type": "Feature", "geometry": {"type": "Point", "coordinates": [2.387866, 48.753918]}, "properties": {"etat de la localisation": "Mission inconnue", "numparc": 7434, "duree": "", "horodatage": "2022-06-23 08:28:22", "marker-color": "#FF9F56"}}, {"type": "Feature", "geometry": {"type": "Point", "coordinates": [2.387866, 48.753918]}, "properties": {"etat de la localisation": "Hors service", "numparc": 7434, "duree": "", "horodatage": "2022-06-23 08:28:39", "marker-color": "#707070"}}, {"type": "Feature", "geometry": {"type": "Point", "coordinates": [2.363384, 48.729431]}, "properties": {"etat de la localisation": "Delocalise", "numparc": 7457, "duree": "00:03:03", "horodatage": "2022-06-23 08:30:28", "marker-color": "#FF565E"}}, {"type": "Feature", "geometry": {"type": "Point", "coordinates": [2.388029, 48.754955]}, "properties": {"etat de la localisation": "Hors service", "numparc": 7440, "duree": "", "horodatage": "2022-06-23 08:34:17", "marker-color": "#707070"}}, {"type": "Feature", "geometry": {"type": "Point", "coordinates": [2.368266, 48.762245]}, "properties": {"etat de la localisation": "Delocalise", "numparc": 7426, "duree": "00:03:11", "horodatage": "2022-06-23 08:35:13", "marker-color": "#FF565E"}}, {"type": "Feature", "geometry": {"type": "Point", "coordinates": [2.357785, 48.763229]}, "properties": {"etat de la localisation": "Mission suivante non connue", "numparc": 7426, "duree": "", "horodatage": "2022-06-23 08:38:24", "marker-color": "#7156FF"}}, {"type": "Feature", "geometry": {"type": "Point", "coordinates": [2.412939, 48.766693]}, "properties": {"etat de la localisation": "Delocalise", "numparc": 7421, "duree": "00:00:37", "horodatage": "2022-06-23 08:42:12", "marker-color": "#FF565E"}}, {"type": "Feature", "geometry": {"type": "Point", "coordinates": [2.387402, 48.753979]}, "properties": {"etat de la localisation": "Hors service", "numparc": 7448, "duree": "", "horodatage": "2022-06-23 08:49:15", "marker-color": "#707070"}}, {"type": "Feature", "geometry": {"type": "Point", "coordinates": [2.388169, 48.755009]}, "properties": {"etat de la localisation": "Hors service", "numparc": 7426, "duree": "", "horodatage": "2022-06-23 08:55:00", "marker-color": "#707070"}}, {"type": "Feature", "geometry": {"type": "Point", "coordinates": [2.363376, 48.729515]}, "properties": {"etat de la localisation": "Delocalise", "numparc": 7432, "duree": "00:14:26", "horodatage": "2022-06-23 09:04:49", "marker-color": "#FF565E"}}, {"type": "Feature", "geometry": {"type": "Point", "coordinates": [2.363517, 48.729137]}, "properties": {"etat de la localisation": "Delocalise", "numparc": 7421, "duree": "00:09:53", "horodatage": "2022-06-23 09:20:05", "marker-color": "#FF565E"}}, {"type": "Feature", "geometry": {"type": "Point", "coordinates": [2.388011, 48.753929]}, "properties": {"etat de la localisation": "Mission inconnue", "numparc": 7434, "duree": "", "horodatage": "2022-06-23 09:56:00", "marker-color": "#FF9F56"}}, {"type": "Feature", "geometry": {"type": "Point", "coordinates": [2.413437, 48.762726]}, "properties": {"etat de la localisation": "Delocalise", "numparc": 7421, "duree": "00:00:00", "horodatage": "2022-06-23 09:57:27", "marker-color": "#FF565E"}}, {"type": "Feature", "geometry": {"type": "Point", "coordinates": [2.388011, 48.753929]}, "properties": {"etat de la localisation": "Hors service", "numparc": 7434, "duree": "", "horodatage": "2022-06-23 09:58:15", "marker-color": "#707070"}}, {"type": "Feature", "geometry": {"type": "Point", "coordinates": [2.388011, 48.753929]}, "properties": {"etat de la localisation": "Mission inconnue", "numparc": 7434, "duree": "", "horodatage": "2022-06-23 09:59:52", "marker-color": "#FF9F56"}}, {"type": "Feature", "geometry": {"type": "Point", "coordinates": [2.363411, 48.729393]}, "properties": {"etat de la localisation": "Delocalise", "numparc": 7437, "duree": "00:06:08", "horodatage": "2022-06-23 10:03:14", "marker-color": "#FF565E"}}, {"type": "Feature", "geometry": {"type": "Point", "coordinates": [2.388011, 48.753929]}, "properties": {"etat de la localisation": "Hors service", "numparc": 7434, "duree": "", "horodatage": "2022-06-23 10:11:04", "marker-color": "#707070"}}, {"type": "Feature", "geometry": {"type": "Point", "coordinates": [2.387938, 48.753876]}, "properties": {"etat de la localisation": "Mission inconnue", "numparc": 7434, "duree": "", "horodatage": "2022-06-23 11:27:00", "marker-color": "#FF9F56"}}, {"type": "Feature", "geometry": {"type": "Point", "coordinates": [2.363381, 48.729435]}, "properties": {"etat de la localisation": "Delocalise", "numparc": 7432, "duree": "00:15:09", "horodatage": "2022-06-23 11:32:51", "marker-color": "#FF565E"}}, {"type": "Feature", "geometry": {"type": "Point", "coordinates": [2.363611, 48.729046]}, "properties": {"etat de la localisation": "Delocalise", "numparc": 7421, "duree": "00:03:02", "horodatage": "2022-06-23 11:40:02", "marker-color": "#FF565E"}}, {"type": "Feature", "geometry": {"type": "Point", "coordinates": [2.387938, 48.753876]}, "properties": {"etat de la localisation": "Hors service", "numparc": 7434, "duree": "", "horodatage": "2022-06-23 11:47:54", "marker-color": "#707070"}}, {"type": "Feature", "geometry": {"type": "Point", "coordinates": [2.36597, 48.745174]}, "properties": {"etat de la localisation": "Delocalise", "numparc": 7421, "duree": "00:01:27", "horodatage": "2022-06-23 12:06:28", "marker-color": "#FF565E"}}, {"type": "Feature", "geometry": {"type": "Point", "coordinates": [2.375219, 48.755005]}, "properties": {"etat de la localisation": "Mission inconnue", "numparc": 7431, "duree": "", "horodatage": "2022-06-23 12:06:43", "marker-color": "#FF9F56"}}, {"type": "Feature", "geometry": {"type": "Point", "coordinates": [2.414359, 48.760811]}, "properties": {"etat de la localisation": "Delocalise", "numparc": 7452, "duree": "00:01:18", "horodatage": "2022-06-23 12:09:20", "marker-color": "#FF565E"}}, {"type": "Feature", "geometry": {"type": "Point", "coordinates": [2.361082, 48.760509]}, "properties": {"etat de la localisation": "Delocalise", "numparc": 7431, "duree": "00:01:24", "horodatage": "2022-06-23 12:10:40", "marker-color": "#FF565E"}}, {"type": "Feature", "geometry": {"type": "Point", "coordinates": [2.413675, 48.757324]}, "properties": {"etat de la localisation": "Delocalise", "numparc": 7452, "duree": "00:01:22", "horodatage": "2022-06-23 12:11:46", "marker-color": "#FF565E"}}, {"type": "Feature", "geometry": {"type": "Point", "coordinates": [2.413737, 48.754486]}, "properties": {"etat de la localisation": "Mission inconnue", "numparc": 7452, "duree": "", "horodatage": "2022-06-23 12:13:08", "marker-color": "#FF9F56"}}, {"type": "Feature", "geometry": {"type": "Point", "coordinates": [2.412324, 48.753735]}, "properties": {"etat de la localisation": "Mission inconnue", "numparc": 7452, "duree": "", "horodatage": "2022-06-23 12:14:29", "marker-color": "#FF9F56"}}, {"type": "Feature", "geometry": {"type": "Point", "coordinates": [2.413125, 48.750271]}, "properties": {"etat de la localisation": "Delocalise", "numparc": 7452, "duree": "00:02:37", "horodatage": "2022-06-23 12:15:45", "marker-color": "#FF565E"}}, {"type": "Feature", "geometry": {"type": "Point", "coordinates": [2.405641, 48.744316]}, "properties": {"etat de la localisation": "Delocalise", "numparc": 7452, "duree": "00:03:17", "horodatage": "2022-06-23 12:19:20", "marker-color": "#FF565E"}}, {"type": "Feature", "geometry": {"type": "Point", "coordinates": [2.358917, 48.761986]}, "properties": {"etat de la localisation": "Delocalise", "numparc": 7426, "duree": "00:02:33", "horodatage": "2022-06-23 12:20:12", "marker-color": "#FF565E"}}, {"type": "Feature", "geometry": {"type": "Point", "coordinates": [2.37172, 48.760284]}, "properties": {"etat de la localisation": "Delocalise", "numparc": 7431, "duree": "00:01:45", "horodatage": "2022-06-23 12:20:33", "marker-color": "#FF565E"}}, {"type": "Feature", "geometry": {"type": "Point", "coordinates": [2.368582, 48.760487]}, "properties": {"etat de la localisation": "Delocalise", "numparc": 7426, "duree": "00:02:58", "horodatage": "2022-06-23 12:23:22", "marker-color": "#FF565E"}}, {"type": "Feature", "geometry": {"type": "Point", "coordinates": [2.396303, 48.744675]}, "properties": {"etat de la localisation": "Delocalise", "numparc": 7452, "duree": "00:00:52", "horodatage": "2022-06-23 12:23:58", "marker-color": "#FF565E"}}, {"type": "Feature", "geometry": {"type": "Point", "coordinates": [2.388152, 48.745262]}, "properties": {"etat de la localisation": "Delocalise", "numparc": 7452, "duree": "00:03:38", "horodatage": "2022-06-23 12:25:47", "marker-color": "#FF565E"}}, {"type": "Feature", "geometry": {"type": "Point", "coordinates": [2.368263, 48.766518]}, "properties": {"etat de la localisation": "Delocalise", "numparc": 7426, "duree": "00:01:19", "horodatage": "2022-06-23 12:26:42", "marker-color": "#FF565E"}}, {"type": "Feature", "geometry": {"type": "Point", "coordinates": [2.370017, 48.768448]}, "properties": {"etat de la localisation": "Delocalise", "numparc": 7426, "duree": "00:00:48", "horodatage": "2022-06-23 12:28:30", "marker-color": "#FF565E"}}, {"type": "Feature", "geometry": {"type": "Point", "coordinates": [2.363457, 48.729263]}, "properties": {"etat de la localisation": "Delocalise", "numparc": 7437, "duree": "00:02:30", "horodatage": "2022-06-23 12:29:13", "marker-color": "#FF565E"}}, {"type": "Feature", "geometry": {"type": "Point", "coordinates": [2.4134, 48.762691]}, "properties": {"etat de la localisation": "Delocalise", "numparc": 7421, "duree": "00:00:00", "horodatage": "2022-06-23 12:29:24", "marker-color": "#FF565E"}}, {"type": "Feature", "geometry": {"type": "Point", "coordinates": [2.375906, 48.767769]}, "properties": {"etat de la localisation": "Delocalise", "numparc": 7426, "duree": "00:00:59", "horodatage": "2022-06-23 12:29:37", "marker-color": "#FF565E"}}, {"type": "Feature", "geometry": {"type": "Point", "coordinates": [2.36679, 48.745609]}, "properties": {"etat de la localisation": "Delocalise", "numparc": 7452, "duree": "00:10:42", "horodatage": "2022-06-23 12:30:08", "marker-color": "#FF565E"}}, {"type": "Feature", "geometry": {"type": "Point", "coordinates": [2.38192, 48.767029]}, "properties": {"etat de la localisation": "Delocalise", "numparc": 7426, "duree": "00:00:45", "horodatage": "2022-06-23 12:31:12", "marker-color": "#FF565E"}}, {"type": "Feature", "geometry": {"type": "Point", "coordinates": [2.386646, 48.766468]}, "properties": {"etat de la localisation": "Delocalise", "numparc": 7426, "duree": "00:02:02", "horodatage": "2022-06-23 12:32:18", "marker-color": "#FF565E"}}, {"type": "Feature", "geometry": {"type": "Point", "coordinates": [2.393767, 48.763901]}, "properties": {"etat de la localisation": "Delocalise", "numparc": 7426, "duree": "00:00:00", "horodatage": "2022-06-23 12:34:55", "marker-color": "#FF565E"}}, {"type": "Feature", "geometry": {"type": "Point", "coordinates": [2.398632, 48.763535]}, "properties": {"etat de la localisation": "Delocalise", "numparc": 7426, "duree": "00:00:52", "horodatage": "2022-06-23 12:35:55", "marker-color": "#FF565E"}}, {"type": "Feature", "geometry": {"type": "Point", "coordinates": [2.40265, 48.761856]}, "properties": {"etat de la localisation": "Delocalise", "numparc": 7426, "duree": "00:00:59", "horodatage": "2022-06-23 12:37:19", "marker-color": "#FF565E"}}, {"type": "Feature", "geometry": {"type": "Point", "coordinates": [2.406376, 48.763241]}, "properties": {"etat de la localisation": "Delocalise", "numparc": 7426, "duree": "00:01:59", "horodatage": "2022-06-23 12:38:49", "marker-color": "#FF565E"}}, {"type": "Feature", "geometry": {"type": "Point", "coordinates": [2.412239, 48.764194]}, "properties": {"etat de la localisation": "Delocalise", "numparc": 7426, "duree": "00:00:40", "horodatage": "2022-06-23 12:41:14", "marker-color": "#FF565E"}}, {"type": "Feature", "geometry": {"type": "Point", "coordinates": [2.414209, 48.76104]}, "properties": {"etat de la localisation": "Delocalise", "numparc": 7426, "duree": "00:00:59", "horodatage": "2022-06-23 12:42:11", "marker-color": "#FF565E"}}, {"type": "Feature", "geometry": {"type": "Point", "coordinates": [2.413281, 48.757885]}, "properties": {"etat de la localisation": "Delocalise", "numparc": 7426, "duree": "00:03:04", "horodatage": "2022-06-23 12:43:59", "marker-color": "#FF565E"}}, {"type": "Feature", "geometry": {"type": "Point", "coordinates": [2.412856, 48.753006]}, "properties": {"etat de la localisation": "Delocalise", "numparc": 7426, "duree": "00:01:10", "horodatage": "2022-06-23 12:47:28", "marker-color": "#FF565E"}}, {"type": "Feature", "geometry": {"type": "Point", "coordinates": [2.412479, 48.749187]}, "properties": {"etat de la localisation": "Delocalise", "numparc": 7426, "duree": "00:01:08", "horodatage": "2022-06-23 12:49:00", "marker-color": "#FF565E"}}, {"type": "Feature", "geometry": {"type": "Point", "coordinates": [2.410036, 48.745499]}, "properties": {"etat de la localisation": "Delocalise", "numparc": 7426, "duree": "00:00:00", "horodatage": "2022-06-23 12:51:51", "marker-color": "#FF565E"}}, {"type": "Feature", "geometry": {"type": "Point", "coordinates": [2.406129, 48.744446]}, "properties": {"etat de la localisation": "Delocalise", "numparc": 7426, "duree": "00:03:02", "horodatage": "2022-06-23 12:53:24", "marker-color": "#FF565E"}}, {"type": "Feature", "geometry": {"type": "Point", "coordinates": [2.400733, 48.744118]}, "properties": {"etat de la localisation": "Delocalise", "numparc": 7426, "duree": "00:02:23", "horodatage": "2022-06-23 12:57:07", "marker-color": "#FF565E"}}, {"type": "Feature", "geometry": {"type": "Point", "coordinates": [2.391759, 48.744839]}, "properties": {"etat de la localisation": "Delocalise", "numparc": 7426, "duree": "00:03:58", "horodatage": "2022-06-23 12:59:52", "marker-color": "#FF565E"}}, {"type": "Feature", "geometry": {"type": "Point", "coordinates": [2.387571, 48.745365]}, "properties": {"etat de la localisation": "Mission suivante non connue", "numparc": 7431, "duree": "", "horodatage": "2022-06-23 13:03:02", "marker-color": "#7156FF"}}, {"type": "Feature", "geometry": {"type": "Point", "coordinates": [2.374651, 48.746281]}, "properties": {"etat de la localisation": "Delocalise", "numparc": 7426, "duree": "00:00:46", "horodatage": "2022-06-23 13:04:05", "marker-color": "#FF565E"}}, {"type": "Feature", "geometry": {"type": "Point", "coordinates": [2.368802, 48.746212]}, "properties": {"etat de la localisation": "Delocalise", "numparc": 7426, "duree": "00:06:14", "horodatage": "2022-06-23 13:05:48", "marker-color": "#FF565E"}}, {"type": "Feature", "geometry": {"type": "Point", "coordinates": [2.385766, 48.745243]}, "properties": {"etat de la localisation": "Mission inconnue", "numparc": 7431, "duree": "", "horodatage": "2022-06-23 13:10:04", "marker-color": "#FF9F56"}}, {"type": "Feature", "geometry": {"type": "Point", "coordinates": [2.371541, 48.729923]}, "properties": {"etat de la localisation": "Delocalise", "numparc": 7426, "duree": "00:23:06", "horodatage": "2022-06-23 13:13:38", "marker-color": "#FF565E"}}, {"type": "Feature", "geometry": {"type": "Point", "coordinates": [2.38794, 48.753872]}, "properties": {"etat de la localisation": "Mission inconnue", "numparc": 7434, "duree": "", "horodatage": "2022-06-23 13:14:00", "marker-color": "#FF9F56"}}, {"type": "Feature", "geometry": {"type": "Point", "coordinates": [2.363348, 48.729614]}, "properties": {"etat de la localisation": "Delocalise", "numparc": 7457, "duree": "00:02:36", "horodatage": "2022-06-23 13:27:40", "marker-color": "#FF565E"}}, {"type": "Feature", "geometry": {"type": "Point", "coordinates": [2.370687, 48.735188]}, "properties": {"etat de la localisation": "Delocalise", "numparc": 7426, "duree": "00:03:20", "horodatage": "2022-06-23 13:37:39", "marker-color": "#FF565E"}}, {"type": "Feature", "geometry": {"type": "Point", "coordinates": [2.411653, 48.765125]}, "properties": {"etat de la localisation": "Delocalise", "numparc": 7421, "duree": "00:00:25", "horodatage": "2022-06-23 13:38:06", "marker-color": "#FF565E"}}, {"type": "Feature", "geometry": {"type": "Point", "coordinates": [2.38794, 48.753872]}, "properties": {"etat de la localisation": "Hors service", "numparc": 7434, "duree": "", "horodatage": "2022-06-23 13:39:05", "marker-color": "#707070"}}, {"type": "Feature", "geometry": {"type": "Point", "coordinates": [2.372173, 48.746155]}, "properties": {"etat de la localisation": "Delocalise", "numparc": 7426, "duree": "00:03:22", "horodatage": "2022-06-23 13:41:42", "marker-color": "#FF565E"}}, {"type": "Feature", "geometry": {"type": "Point", "coordinates": [2.387851, 48.753891]}, "properties": {"etat de la localisation": "Mission inconnue", "numparc": 7434, "duree": "", "horodatage": "2022-06-23 13:43:19", "marker-color": "#FF9F56"}}, {"type": "Feature", "geometry": {"type": "Point", "coordinates": [2.363355, 48.729515]}, "properties": {"etat de la localisation": "Delocalise", "numparc": 7432, "duree": "00:03:01", "horodatage": "2022-06-23 13:56:17", "marker-color": "#FF565E"}}, {"type": "Feature", "geometry": {"type": "Point", "coordinates": [2.387836, 48.753933]}, "properties": {"etat de la localisation": "Hors service", "numparc": 7434, "duree": "", "horodatage": "2022-06-23 14:10:33", "marker-color": "#707070"}}, {"type": "Feature", "geometry": {"type": "Point", "coordinates": [2.357869, 48.763142]}, "properties": {"etat de la localisation": "Mission suivante non connue", "numparc": 7431, "duree": "", "horodatage": "2022-06-23 14:12:56", "marker-color": "#7156FF"}}, {"type": "Feature", "geometry": {"type": "Point", "coordinates": [2.36355, 48.72921]}, "properties": {"etat de la localisation": "Delocalise", "numparc": 7421, "duree": "00:13:52", "horodatage": "2022-06-23 14:13:48", "marker-color": "#FF565E"}}, {"type": "Feature", "geometry": {"type": "Point", "coordinates": [2.369378, 48.728783]}, "properties": {"etat de la localisation": "Hors service", "numparc": 7448, "duree": "", "horodatage": "2022-06-23 14:33:51", "marker-color": "#707070"}}, {"type": "Feature", "geometry": {"type": "Point", "coordinates": [2.363343, 48.72953]}, "properties": {"etat de la localisation": "Delocalise", "numparc": 7429, "duree": "00:03:18", "horodatage": "2022-06-23 14:52:05", "marker-color": "#FF565E"}}, {"type": "Feature", "geometry": {"type": "Point", "coordinates": [2.363294, 48.729717]}, "properties": {"etat de la localisation": "Delocalise", "numparc": 7437, "duree": "00:02:57", "horodatage": "2022-06-23 14:52:59", "marker-color": "#FF565E"}}, {"type": "Feature", "geometry": {"type": "Point", "coordinates": [2.371413, 48.733429]}, "properties": {"etat de la localisation": "Mission inconnue", "numparc": 7448, "duree": "", "horodatage": "2022-06-23 14:53:12", "marker-color": "#FF9F56"}}, {"type": "Feature", "geometry": {"type": "Point", "coordinates": [2.387854, 48.753933]}, "properties": {"etat de la localisation": "Mission inconnue", "numparc": 7434, "duree": "", "horodatage": "2022-06-23 14:56:11", "marker-color": "#FF9F56"}}, {"type": "Feature", "geometry": {"type": "Point", "coordinates": [2.370156, 48.746021]}, "properties": {"etat de la localisation": "Mission inconnue", "numparc": 7448, "duree": "", "horodatage": "2022-06-23 14:56:58", "marker-color": "#FF9F56"}}, {"type": "Feature", "geometry": {"type": "Point", "coordinates": [2.413409, 48.763443]}, "properties": {"etat de la localisation": "Delocalise", "numparc": 7421, "duree": "00:00:35", "horodatage": "2022-06-23 14:57:44", "marker-color": "#FF565E"}}, {"type": "Feature", "geometry": {"type": "Point", "coordinates": [2.387188, 48.754833]}, "properties": {"etat de la localisation": "Hors service", "numparc": 7434, "duree": "", "horodatage": "2022-06-23 15:04:48", "marker-color": "#707070"}}, {"type": "Feature", "geometry": {"type": "Point", "coordinates": [2.372365, 48.73468]}, "properties": {"etat de la localisation": "Delocalise", "numparc": 7452, "duree": "00:17:10", "horodatage": "2022-06-23 15:07:56", "marker-color": "#FF565E"}}, {"type": "Feature", "geometry": {"type": "Point", "coordinates": [2.407467, 48.744755]}, "properties": {"etat de la localisation": "Mission inconnue", "numparc": 7431, "duree": "", "horodatage": "2022-06-23 15:10:56", "marker-color": "#FF9F56"}}, {"type": "Feature", "geometry": {"type": "Point", "coordinates": [2.411976, 48.748451]}, "properties": {"etat de la localisation": "Mission inconnue", "numparc": 7426, "duree": "", "horodatage": "2022-06-23 15:16:16", "marker-color": "#FF9F56"}}, {"type": "Feature", "geometry": {"type": "Point", "coordinates": [2.369746, 48.738647]}, "properties": {"etat de la localisation": "Mission inconnue", "numparc": 7429, "duree": "", "horodatage": "2022-06-23 15:24:28", "marker-color": "#FF9F56"}}, {"type": "Feature", "geometry": {"type": "Point", "coordinates": [2.363393, 48.729416]}, "properties": {"etat de la localisation": "Delocalise", "numparc": 7431, "duree": "00:09:15", "horodatage": "2022-06-23 15:32:36", "marker-color": "#FF565E"}}, {"type": "Feature", "geometry": {"type": "Point", "coordinates": [2.367886, 48.768253]}, "properties": {"etat de la localisation": "Delocalise", "numparc": 7448, "duree": "00:00:09", "horodatage": "2022-06-23 15:35:33", "marker-color": "#FF565E"}}, {"type": "Feature", "geometry": {"type": "Point", "coordinates": [2.363384, 48.729469]}, "properties": {"etat de la localisation": "Delocalise", "numparc": 7426, "duree": "00:24:50", "horodatage": "2022-06-23 15:37:13", "marker-color": "#FF565E"}}, {"type": "Feature", "geometry": {"type": "Point", "coordinates": [2.369249, 48.728729]}, "properties": {"etat de la localisation": "Mission suivante non connue", "numparc": 7431, "duree": "", "horodatage": "2022-06-23 15:41:51", "marker-color": "#7156FF"}}, {"type": "Feature", "geometry": {"type": "Point", "coordinates": [2.357987, 48.763027]}, "properties": {"etat de la localisation": "Hors service", "numparc": 7448, "duree": "", "horodatage": "2022-06-23 15:47:34", "marker-color": "#707070"}}, {"type": "Feature", "geometry": {"type": "Point", "coordinates": [2.363392, 48.729465]}, "properties": {"etat de la localisation": "Delocalise", "numparc": 7457, "duree": "00:19:04", "horodatage": "2022-06-23 15:58:07", "marker-color": "#FF565E"}}, {"type": "Feature", "geometry": {"type": "Point", "coordinates": [2.369728, 48.738773]}, "properties": {"etat de la localisation": "Delocalise", "numparc": 7426, "duree": "00:02:51", "horodatage": "2022-06-23 16:03:18", "marker-color": "#FF565E"}}, {"type": "Feature", "geometry": {"type": "Point", "coordinates": [2.388651, 48.766224]}, "properties": {"etat de la localisation": "Delocalise", "numparc": 7429, "duree": "00:00:27", "horodatage": "2022-06-23 16:27:55", "marker-color": "#FF565E"}}, {"type": "Feature", "geometry": {"type": "Point", "coordinates": [2.392335, 48.765686]}, "properties": {"etat de la localisation": "Delocalise", "numparc": 7429, "duree": "00:00:55", "horodatage": "2022-06-23 16:29:07", "marker-color": "#FF565E"}}, {"type": "Feature", "geometry": {"type": "Point", "coordinates": [2.395776, 48.763996]}, "properties": {"etat de la localisation": "Delocalise", "numparc": 7429, "duree": "00:01:00", "horodatage": "2022-06-23 16:30:49", "marker-color": "#FF565E"}}, {"type": "Feature", "geometry": {"type": "Point", "coordinates": [2.36336, 48.729416]}, "properties": {"etat de la localisation": "Delocalise", "numparc": 7432, "duree": "00:02:42", "horodatage": "2022-06-23 16:31:10", "marker-color": "#FF565E"}}, {"type": "Feature", "geometry": {"type": "Point", "coordinates": [2.358916, 48.761986]}, "properties": {"etat de la localisation": "Delocalise", "numparc": 7425, "duree": "00:02:41", "horodatage": "2022-06-23 16:33:31", "marker-color": "#FF565E"}}, {"type": "Feature", "geometry": {"type": "Point", "coordinates": [2.402243, 48.762203]}, "properties": {"etat de la localisation": "Delocalise", "numparc": 7429, "duree": "00:02:01", "horodatage": "2022-06-23 16:33:55", "marker-color": "#FF565E"}}, {"type": "Feature", "geometry": {"type": "Point", "coordinates": [2.389021, 48.745071]}, "properties": {"etat de la localisation": "Delocalise", "numparc": 7458, "duree": "00:02:02", "horodatage": "2022-06-23 16:34:48", "marker-color": "#FF565E"}}, {"type": "Feature", "geometry": {"type": "Point", "coordinates": [2.368594, 48.760571]}, "properties": {"etat de la localisation": "Delocalise", "numparc": 7425, "duree": "00:00:58", "horodatage": "2022-06-23 16:36:44", "marker-color": "#FF565E"}}, {"type": "Feature", "geometry": {"type": "Point", "coordinates": [2.412904, 48.750031]}, "properties": {"etat de la localisation": "Delocalise", "numparc": 7448, "duree": "00:02:35", "horodatage": "2022-06-23 16:36:49", "marker-color": "#FF565E"}}, {"type": "Feature", "geometry": {"type": "Point", "coordinates": [2.40705, 48.763866]}, "properties": {"etat de la localisation": "Delocalise", "numparc": 7429, "duree": "00:02:07", "horodatage": "2022-06-23 16:37:50", "marker-color": "#FF565E"}}, {"type": "Feature", "geometry": {"type": "Point", "coordinates": [2.387764, 48.754372]}, "properties": {"etat de la localisation": "Delocalise", "numparc": 7449, "duree": "00:09:53", "horodatage": "2022-06-23 16:37:53", "marker-color": "#FF565E"}}, {"type": "Feature", "geometry": {"type": "Point", "coordinates": [2.368346, 48.765976]}, "properties": {"etat de la localisation": "Delocalise", "numparc": 7425, "duree": "00:00:51", "horodatage": "2022-06-23 16:39:25", "marker-color": "#FF565E"}}, {"type": "Feature", "geometry": {"type": "Point", "coordinates": [2.370031, 48.768463]}, "properties": {"etat de la localisation": "Delocalise", "numparc": 7425, "duree": "00:00:48", "horodatage": "2022-06-23 16:41:13", "marker-color": "#FF565E"}}, {"type": "Feature", "geometry": {"type": "Point", "coordinates": [2.414393, 48.760803]}, "properties": {"etat de la localisation": "Delocalise", "numparc": 7429, "duree": "00:01:20", "horodatage": "2022-06-23 16:41:37", "marker-color": "#FF565E"}}, {"type": "Feature", "geometry": {"type": "Point", "coordinates": [2.407845, 48.744785]}, "properties": {"etat de la localisation": "Delocalise", "numparc": 7458, "duree": "00:00:00", "horodatage": "2022-06-23 16:41:56", "marker-color": "#FF565E"}}, {"type": "Feature", "geometry": {"type": "Point", "coordinates": [2.37601, 48.767719]}, "properties": {"etat de la localisation": "Delocalise", "numparc": 7425, "duree": "00:01:08", "horodatage": "2022-06-23 16:42:19", "marker-color": "#FF565E"}}, {"type": "Feature", "geometry": {"type": "Point", "coordinates": [2.381876, 48.767002]}, "properties": {"etat de la localisation": "Delocalise", "numparc": 7425, "duree": "00:01:13", "horodatage": "2022-06-23 16:43:55", "marker-color": "#FF565E"}}, {"type": "Feature", "geometry": {"type": "Point", "coordinates": [2.414008, 48.756794]}, "properties": {"etat de la localisation": "Delocalise", "numparc": 7429, "duree": "00:04:09", "horodatage": "2022-06-23 16:44:25", "marker-color": "#FF565E"}}, {"type": "Feature", "geometry": {"type": "Point", "coordinates": [2.363328, 48.72908]}, "properties": {"etat de la localisation": "Delocalise", "numparc": 7421, "duree": "00:04:39", "horodatage": "2022-06-23 16:45:31", "marker-color": "#FF565E"}}, {"type": "Feature", "geometry": {"type": "Point", "coordinates": [2.386602, 48.766438]}, "properties": {"etat de la localisation": "Delocalise", "numparc": 7425, "duree": "00:00:37", "horodatage": "2022-06-23 16:45:41", "marker-color": "#FF565E"}}, {"type": "Feature", "geometry": {"type": "Point", "coordinates": [2.413765, 48.751797]}, "properties": {"etat de la localisation": "Delocalise", "numparc": 7458, "duree": "00:00:36", "horodatage": "2022-06-23 16:46:25", "marker-color": "#FF565E"}}, {"type": "Feature", "geometry": {"type": "Point", "coordinates": [2.390896, 48.765865]}, "properties": {"etat de la localisation": "Delocalise", "numparc": 7425, "duree": "00:01:23", "horodatage": "2022-06-23 16:47:04", "marker-color": "#FF565E"}}, {"type": "Feature", "geometry": {"type": "Point", "coordinates": [2.41148, 48.755337]}, "properties": {"etat de la localisation": "Delocalise", "numparc": 7458, "duree": "00:03:28", "horodatage": "2022-06-23 16:48:27", "marker-color": "#FF565E"}}, {"type": "Feature", "geometry": {"type": "Point", "coordinates": [2.393722, 48.763844]}, "properties": {"etat de la localisation": "Delocalise", "numparc": 7425, "duree": "00:00:56", "horodatage": "2022-06-23 16:48:48", "marker-color": "#FF565E"}}, {"type": "Feature", "geometry": {"type": "Point", "coordinates": [2.413155, 48.750351]}, "properties": {"etat de la localisation": "Delocalise", "numparc": 7429, "duree": "00:02:52", "horodatage": "2022-06-23 16:49:44", "marker-color": "#FF565E"}}, {"type": "Feature", "geometry": {"type": "Point", "coordinates": [2.398852, 48.763439]}, "properties": {"etat de la localisation": "Delocalise", "numparc": 7425, "duree": "00:00:33", "horodatage": "2022-06-23 16:50:08", "marker-color": "#FF565E"}}, {"type": "Feature", "geometry": {"type": "Point", "coordinates": [2.401913, 48.762539]}, "properties": {"etat de la localisation": "Delocalise", "numparc": 7425, "duree": "00:00:13", "horodatage": "2022-06-23 16:51:34", "marker-color": "#FF565E"}}, {"type": "Feature", "geometry": {"type": "Point", "coordinates": [2.402877, 48.761631]}, "properties": {"etat de la localisation": "Delocalise", "numparc": 7425, "duree": "00:02:11", "horodatage": "2022-06-23 16:52:19", "marker-color": "#FF565E"}}, {"type": "Feature", "geometry": {"type": "Point", "coordinates": [2.410292, 48.76487]}, "properties": {"etat de la localisation": "Delocalise", "numparc": 7458, "duree": "00:06:54", "horodatage": "2022-06-23 16:52:53", "marker-color": "#FF565E"}}, {"type": "Feature", "geometry": {"type": "Point", "coordinates": [2.406911, 48.744671]}, "properties": {"etat de la localisation": "Delocalise", "numparc": 7429, "duree": "00:04:12", "horodatage": "2022-06-23 16:55:46", "marker-color": "#FF565E"}}, {"type": "Feature", "geometry": {"type": "Point", "coordinates": [2.40671, 48.762989]}, "properties": {"etat de la localisation": "Delocalise", "numparc": 7425, "duree": "00:01:42", "horodatage": "2022-06-23 16:55:49", "marker-color": "#FF565E"}}, {"type": "Feature", "geometry": {"type": "Point", "coordinates": [2.387816, 48.754562]}, "properties": {"etat de la localisation": "Mission inconnue", "numparc": 7434, "duree": "", "horodatage": "2022-06-23 16:56:50", "marker-color": "#FF9F56"}}, {"type": "Feature", "geometry": {"type": "Point", "coordinates": [2.412261, 48.764091]}, "properties": {"etat de la localisation": "Delocalise", "numparc": 7425, "duree": "00:00:39", "horodatage": "2022-06-23 16:58:13", "marker-color": "#FF565E"}}, {"type": "Feature", "geometry": {"type": "Point", "coordinates": [2.414199, 48.760975]}, "properties": {"etat de la localisation": "Delocalise", "numparc": 7425, "duree": "00:01:01", "horodatage": "2022-06-23 16:59:18", "marker-color": "#FF565E"}}, {"type": "Feature", "geometry": {"type": "Point", "coordinates": [2.413172, 48.758564]}, "properties": {"etat de la localisation": "Delocalise", "numparc": 7425, "duree": "00:03:36", "horodatage": "2022-06-23 17:01:14", "marker-color": "#FF565E"}}, {"type": "Feature", "geometry": {"type": "Point", "coordinates": [2.396405, 48.744675]}, "properties": {"etat de la localisation": "Delocalise", "numparc": 7429, "duree": "00:01:00", "horodatage": "2022-06-23 17:01:24", "marker-color": "#FF565E"}}, {"type": "Feature", "geometry": {"type": "Point", "coordinates": [2.388187, 48.754593]}, "properties": {"etat de la localisation": "Hors service", "numparc": 7434, "duree": "", "horodatage": "2022-06-23 17:01:27", "marker-color": "#707070"}}, {"type": "Feature", "geometry": {"type": "Point", "coordinates": [2.399825, 48.763355]}, "properties": {"etat de la localisation": "Delocalise", "numparc": 7458, "duree": "00:00:35", "horodatage": "2022-06-23 17:02:03", "marker-color": "#FF565E"}}, {"type": "Feature", "geometry": {"type": "Point", "coordinates": [2.393013, 48.764179]}, "properties": {"etat de la localisation": "Delocalise", "numparc": 7458, "duree": "00:00:00", "horodatage": "2022-06-23 17:03:30", "marker-color": "#FF565E"}}, {"type": "Feature", "geometry": {"type": "Point", "coordinates": [2.388218, 48.745239]}, "properties": {"etat de la localisation": "Delocalise", "numparc": 7429, "duree": "00:00:19", "horodatage": "2022-06-23 17:03:43", "marker-color": "#FF565E"}}, {"type": "Feature", "geometry": {"type": "Point", "coordinates": [2.391772, 48.76516]}, "properties": {"etat de la localisation": "Delocalise", "numparc": 7458, "duree": "00:01:10", "horodatage": "2022-06-23 17:04:10", "marker-color": "#FF565E"}}, {"type": "Feature", "geometry": {"type": "Point", "coordinates": [2.389136, 48.744987]}, "properties": {"etat de la localisation": "Delocalise", "numparc": 7424, "duree": "00:00:46", "horodatage": "2022-06-23 17:04:17", "marker-color": "#FF565E"}}, {"type": "Feature", "geometry": {"type": "Point", "coordinates": [2.412843, 48.753094]}, "properties": {"etat de la localisation": "Delocalise", "numparc": 7425, "duree": "00:00:46", "horodatage": "2022-06-23 17:05:16", "marker-color": "#FF565E"}}, {"type": "Feature", "geometry": {"type": "Point", "coordinates": [2.39504, 48.744343]}, "properties": {"etat de la localisation": "Delocalise", "numparc": 7424, "duree": "00:01:32", "horodatage": "2022-06-23 17:05:28", "marker-color": "#FF565E"}}, {"type": "Feature", "geometry": {"type": "Point", "coordinates": [2.385309, 48.74535]}, "properties": {"etat de la localisation": "Delocalise", "numparc": 7429, "duree": "00:02:20", "horodatage": "2022-06-23 17:05:50", "marker-color": "#FF565E"}}, {"type": "Feature", "geometry": {"type": "Point", "coordinates": [2.388908, 48.766232]}, "properties": {"etat de la localisation": "Delocalise", "numparc": 7458, "duree": "00:01:07", "horodatage": "2022-06-23 17:05:52", "marker-color": "#FF565E"}}, {"type": "Feature", "geometry": {"type": "Point", "coordinates": [2.41248, 48.749249]}, "properties": {"etat de la localisation": "Delocalise", "numparc": 7425, "duree": "00:01:24", "horodatage": "2022-06-23 17:06:39", "marker-color": "#FF565E"}}, {"type": "Feature", "geometry": {"type": "Point", "coordinates": [2.38478, 48.766777]}, "properties": {"etat de la localisation": "Delocalise", "numparc": 7458, "duree": "00:02:23", "horodatage": "2022-06-23 17:07:20", "marker-color": "#FF565E"}}, {"type": "Feature", "geometry": {"type": "Point", "coordinates": [2.402481, 48.744385]}, "properties": {"etat de la localisation": "Delocalise", "numparc": 7424, "duree": "00:01:56", "horodatage": "2022-06-23 17:07:29", "marker-color": "#FF565E"}}, {"type": "Feature", "geometry": {"type": "Point", "coordinates": [2.36604, 48.745358]}, "properties": {"etat de la localisation": "Delocalise", "numparc": 7421, "duree": "00:00:50", "horodatage": "2022-06-23 17:07:53", "marker-color": "#FF565E"}}, {"type": "Feature", "geometry": {"type": "Point", "coordinates": [2.410012, 48.745544]}, "properties": {"etat de la localisation": "Delocalise", "numparc": 7425, "duree": "00:00:00", "horodatage": "2022-06-23 17:09:08", "marker-color": "#FF565E"}}, {"type": "Feature", "geometry": {"type": "Point", "coordinates": [2.366712, 48.745552]}, "properties": {"etat de la localisation": "Delocalise", "numparc": 7429, "duree": "00:03:21", "horodatage": "2022-06-23 17:09:30", "marker-color": "#FF565E"}}, {"type": "Feature", "geometry": {"type": "Point", "coordinates": [2.407792, 48.744778]}, "properties": {"etat de la localisation": "Delocalise", "numparc": 7424, "duree": "00:00:00", "horodatage": "2022-06-23 17:09:52", "marker-color": "#FF565E"}}, {"type": "Feature", "geometry": {"type": "Point", "coordinates": [2.370863, 48.768478]}, "properties": {"etat de la localisation": "Delocalise", "numparc": 7458, "duree": "00:02:05", "horodatage": "2022-06-23 17:10:09", "marker-color": "#FF565E"}}, {"type": "Feature", "geometry": {"type": "Point", "coordinates": [2.406105, 48.744499]}, "properties": {"etat de la localisation": "Delocalise", "numparc": 7425, "duree": "00:02:08", "horodatage": "2022-06-23 17:10:50", "marker-color": "#FF565E"}}, {"type": "Feature", "geometry": {"type": "Point", "coordinates": [2.367956, 48.767475]}, "properties": {"etat de la localisation": "Delocalise", "numparc": 7458, "duree": "00:00:34", "horodatage": "2022-06-23 17:12:35", "marker-color": "#FF565E"}}, {"type": "Feature", "geometry": {"type": "Point", "coordinates": [2.411139, 48.746761]}, "properties": {"etat de la localisation": "Delocalise", "numparc": 7424, "duree": "00:01:39", "horodatage": "2022-06-23 17:13:19", "marker-color": "#FF565E"}}, {"type": "Feature", "geometry": {"type": "Point", "coordinates": [2.368218, 48.764309]}, "properties": {"etat de la localisation": "Delocalise", "numparc": 7458, "duree": "00:00:46", "horodatage": "2022-06-23 17:13:51", "marker-color": "#FF565E"}}, {"type": "Feature", "geometry": {"type": "Point", "coordinates": [2.371542, 48.732815]}, "properties": {"etat de la localisation": "Delocalise", "numparc": 7429, "duree": "00:00:14", "horodatage": "2022-06-23 17:14:20", "marker-color": "#FF565E"}}, {"type": "Feature", "geometry": {"type": "Point", "coordinates": [2.400415, 48.74371]}, "properties": {"etat de la localisation": "Delocalise", "numparc": 7425, "duree": "00:02:35", "horodatage": "2022-06-23 17:14:23", "marker-color": "#FF565E"}}, {"type": "Feature", "geometry": {"type": "Point", "coordinates": [2.370581, 48.761837]}, "properties": {"etat de la localisation": "Delocalise", "numparc": 7458, "duree": "00:01:48", "horodatage": "2022-06-23 17:15:04", "marker-color": "#FF565E"}}, {"type": "Feature", "geometry": {"type": "Point", "coordinates": [2.413796, 48.751919]}, "properties": {"etat de la localisation": "Delocalise", "numparc": 7424, "duree": "00:04:07", "horodatage": "2022-06-23 17:15:15", "marker-color": "#FF565E"}}, {"type": "Feature", "geometry": {"type": "Point", "coordinates": [2.372139, 48.730316]}, "properties": {"etat de la localisation": "Delocalise", "numparc": 7429, "duree": "00:03:34", "horodatage": "2022-06-23 17:16:05", "marker-color": "#FF565E"}}, {"type": "Feature", "geometry": {"type": "Point", "coordinates": [2.368372, 48.75943]}, "properties": {"etat de la localisation": "Delocalise", "numparc": 7458, "duree": "00:02:34", "horodatage": "2022-06-23 17:17:10", "marker-color": "#FF565E"}}, {"type": "Feature", "geometry": {"type": "Point", "coordinates": [2.391847, 48.744839]}, "properties": {"etat de la localisation": "Delocalise", "numparc": 7425, "duree": "00:01:07", "horodatage": "2022-06-23 17:17:22", "marker-color": "#FF565E"}}, {"type": "Feature", "geometry": {"type": "Point", "coordinates": [2.385726, 48.745262]}, "properties": {"etat de la localisation": "Delocalise", "numparc": 7425, "duree": "00:02:17", "horodatage": "2022-06-23 17:19:38", "marker-color": "#FF565E"}}, {"type": "Feature", "geometry": {"type": "Point", "coordinates": [2.415098, 48.758949]}, "properties": {"etat de la localisation": "Delocalise", "numparc": 7424, "duree": "00:00:55", "horodatage": "2022-06-23 17:19:43", "marker-color": "#FF565E"}}, {"type": "Feature", "geometry": {"type": "Point", "coordinates": [2.413258, 48.763012]}, "properties": {"etat de la localisation": "Delocalise", "numparc": 7424, "duree": "00:00:34", "horodatage": "2022-06-23 17:21:07", "marker-color": "#FF565E"}}, {"type": "Feature", "geometry": {"type": "Point", "coordinates": [2.374759, 48.746258]}, "properties": {"etat de la localisation": "Delocalise", "numparc": 7425, "duree": "00:00:54", "horodatage": "2022-06-23 17:22:14", "marker-color": "#FF565E"}}, {"type": "Feature", "geometry": {"type": "Point", "coordinates": [2.41013, 48.764862]}, "properties": {"etat de la localisation": "Delocalise", "numparc": 7424, "duree": "00:02:57", "horodatage": "2022-06-23 17:22:42", "marker-color": "#FF565E"}}, {"type": "Feature", "geometry": {"type": "Point", "coordinates": [2.369273, 48.745811]}, "properties": {"etat de la localisation": "Delocalise", "numparc": 7425, "duree": "00:01:56", "horodatage": "2022-06-23 17:24:18", "marker-color": "#FF565E"}}, {"type": "Feature", "geometry": {"type": "Point", "coordinates": [2.403081, 48.761456]}, "properties": {"etat de la localisation": "Delocalise", "numparc": 7424, "duree": "00:01:32", "horodatage": "2022-06-23 17:25:55", "marker-color": "#FF565E"}}, {"type": "Feature", "geometry": {"type": "Point", "coordinates": [2.369805, 48.736256]}, "properties": {"etat de la localisation": "Delocalise", "numparc": 7425, "duree": "00:01:01", "horodatage": "2022-06-23 17:26:32", "marker-color": "#FF565E"}}, {"type": "Feature", "geometry": {"type": "Point", "coordinates": [2.399358, 48.763412]}, "properties": {"etat de la localisation": "Delocalise", "numparc": 7424, "duree": "00:00:42", "horodatage": "2022-06-23 17:27:54", "marker-color": "#FF565E"}}, {"type": "Feature", "geometry": {"type": "Point", "coordinates": [2.395364, 48.76403]}, "properties": {"etat de la localisation": "Delocalise", "numparc": 7424, "duree": "00:00:37", "horodatage": "2022-06-23 17:28:52", "marker-color": "#FF565E"}}, {"type": "Feature", "geometry": {"type": "Point", "coordinates": [2.371536, 48.729961]}, "properties": {"etat de la localisation": "Delocalise", "numparc": 7425, "duree": "00:02:26", "horodatage": "2022-06-23 17:29:17", "marker-color": "#FF565E"}}, {"type": "Feature", "geometry": {"type": "Point", "coordinates": [2.392237, 48.764725]}, "properties": {"etat de la localisation": "Delocalise", "numparc": 7424, "duree": "00:02:02", "horodatage": "2022-06-23 17:30:05", "marker-color": "#FF565E"}}, {"type": "Feature", "geometry": {"type": "Point", "coordinates": [2.388376, 48.766258]}, "properties": {"etat de la localisation": "Delocalise", "numparc": 7424, "duree": "00:01:45", "horodatage": "2022-06-23 17:32:29", "marker-color": "#FF565E"}}, {"type": "Feature", "geometry": {"type": "Point", "coordinates": [2.384677, 48.766769]}, "properties": {"etat de la localisation": "Delocalise", "numparc": 7424, "duree": "00:01:49", "horodatage": "2022-06-23 17:34:39", "marker-color": "#FF565E"}}, {"type": "Feature", "geometry": {"type": "Point", "coordinates": [2.37859, 48.767494]}, "properties": {"etat de la localisation": "Delocalise", "numparc": 7424, "duree": "00:00:53", "horodatage": "2022-06-23 17:36:47", "marker-color": "#FF565E"}}, {"type": "Feature", "geometry": {"type": "Point", "coordinates": [2.371068, 48.768383]}, "properties": {"etat de la localisation": "Delocalise", "numparc": 7424, "duree": "00:02:53", "horodatage": "2022-06-23 17:37:58", "marker-color": "#FF565E"}}, {"type": "Feature", "geometry": {"type": "Point", "coordinates": [2.367932, 48.767494]}, "properties": {"etat de la localisation": "Delocalise", "numparc": 7424, "duree": "00:04:24", "horodatage": "2022-06-23 17:41:08", "marker-color": "#FF565E"}}, {"type": "Feature", "geometry": {"type": "Point", "coordinates": [2.368654, 48.75943]}, "properties": {"etat de la localisation": "Delocalise", "numparc": 7424, "duree": "00:03:30", "horodatage": "2022-06-23 17:45:43", "marker-color": "#FF565E"}}, {"type": "Feature", "geometry": {"type": "Point", "coordinates": [2.35882, 48.761974]}, "properties": {"etat de la localisation": "Delocalise", "numparc": 7458, "duree": "00:03:02", "horodatage": "2022-06-23 17:46:51", "marker-color": "#FF565E"}}, {"type": "Feature", "geometry": {"type": "Point", "coordinates": [2.36973, 48.729206]}, "properties": {"etat de la localisation": "Delocalise", "numparc": 7425, "duree": "00:02:05", "horodatage": "2022-06-23 17:47:52", "marker-color": "#FF565E"}}, {"type": "Feature", "geometry": {"type": "Point", "coordinates": [2.371253, 48.733818]}, "properties": {"etat de la localisation": "Delocalise", "numparc": 7425, "duree": "00:01:16", "horodatage": "2022-06-23 17:50:34", "marker-color": "#FF565E"}}, {"type": "Feature", "geometry": {"type": "Point", "coordinates": [2.368628, 48.760674]}, "properties": {"etat de la localisation": "Delocalise", "numparc": 7458, "duree": "00:01:11", "horodatage": "2022-06-23 17:50:52", "marker-color": "#FF565E"}}, {"type": "Feature", "geometry": {"type": "Point", "coordinates": [2.368343, 48.766518]}, "properties": {"etat de la localisation": "Delocalise", "numparc": 7458, "duree": "00:00:38", "horodatage": "2022-06-23 17:52:22", "marker-color": "#FF565E"}}, {"type": "Feature", "geometry": {"type": "Point", "coordinates": [2.369001, 48.73917]}, "properties": {"etat de la localisation": "Delocalise", "numparc": 7425, "duree": "00:01:13", "horodatage": "2022-06-23 17:52:52", "marker-color": "#FF565E"}}, {"type": "Feature", "geometry": {"type": "Point", "coordinates": [2.365359, 48.744389]}, "properties": {"etat de la localisation": "Delocalise", "numparc": 7425, "duree": "00:02:07", "horodatage": "2022-06-23 17:54:24", "marker-color": "#FF565E"}}, {"type": "Feature", "geometry": {"type": "Point", "coordinates": [2.369285, 48.768635]}, "properties": {"etat de la localisation": "Delocalise", "numparc": 7458, "duree": "00:00:00", "horodatage": "2022-06-23 17:54:56", "marker-color": "#FF565E"}}, {"type": "Feature", "geometry": {"type": "Point", "coordinates": [2.375989, 48.76778]}, "properties": {"etat de la localisation": "Delocalise", "numparc": 7458, "duree": "00:00:44", "horodatage": "2022-06-23 17:56:23", "marker-color": "#FF565E"}}, {"type": "Feature", "geometry": {"type": "Point", "coordinates": [2.357772, 48.763828]}, "properties": {"etat de la localisation": "Delocalise", "numparc": 7421, "duree": "00:00:38", "horodatage": "2022-06-23 17:57:35", "marker-color": "#FF565E"}}, {"type": "Feature", "geometry": {"type": "Point", "coordinates": [2.381908, 48.76704]}, "properties": {"etat de la localisation": "Delocalise", "numparc": 7458, "duree": "00:00:47", "horodatage": "2022-06-23 17:57:36", "marker-color": "#FF565E"}}, {"type": "Feature", "geometry": {"type": "Point", "coordinates": [2.386637, 48.76646]}, "properties": {"etat de la localisation": "Delocalise", "numparc": 7458, "duree": "00:00:39", "horodatage": "2022-06-23 17:58:44", "marker-color": "#FF565E"}}, {"type": "Feature", "geometry": {"type": "Point", "coordinates": [2.390857, 48.76593]}, "properties": {"etat de la localisation": "Delocalise", "numparc": 7458, "duree": "00:01:22", "horodatage": "2022-06-23 18:00:22", "marker-color": "#FF565E"}}, {"type": "Feature", "geometry": {"type": "Point", "coordinates": [2.393663, 48.763866]}, "properties": {"etat de la localisation": "Delocalise", "numparc": 7458, "duree": "00:00:00", "horodatage": "2022-06-23 18:02:08", "marker-color": "#FF565E"}}, {"type": "Feature", "geometry": {"type": "Point", "coordinates": [2.398948, 48.763454]}, "properties": {"etat de la localisation": "Delocalise", "numparc": 7458, "duree": "00:01:35", "horodatage": "2022-06-23 18:03:15", "marker-color": "#FF565E"}}, {"type": "Feature", "geometry": {"type": "Point", "coordinates": [2.358406, 48.762318]}, "properties": {"etat de la localisation": "Delocalise", "numparc": 7424, "duree": "00:02:46", "horodatage": "2022-06-23 18:07:17", "marker-color": "#FF565E"}}, {"type": "Feature", "geometry": {"type": "Point", "coordinates": [2.368578, 48.760555]}, "properties": {"etat de la localisation": "Delocalise", "numparc": 7424, "duree": "00:03:39", "horodatage": "2022-06-23 18:10:36", "marker-color": "#FF565E"}}, {"type": "Feature", "geometry": {"type": "Point", "coordinates": [2.414712, 48.766323]}, "properties": {"etat de la localisation": "Delocalise", "numparc": 7458, "duree": "00:00:33", "horodatage": "2022-06-23 18:11:14", "marker-color": "#FF565E"}}, {"type": "Feature", "geometry": {"type": "Point", "coordinates": [2.368698, 48.768623]}, "properties": {"etat de la localisation": "Delocalise", "numparc": 7424, "duree": "00:00:12", "horodatage": "2022-06-23 18:15:53", "marker-color": "#FF565E"}}, {"type": "Feature", "geometry": {"type": "Point", "coordinates": [2.370057, 48.768414]}, "properties": {"etat de la localisation": "Delocalise", "numparc": 7424, "duree": "00:00:45", "horodatage": "2022-06-23 18:16:50", "marker-color": "#FF565E"}}, {"type": "Feature", "geometry": {"type": "Point", "coordinates": [2.375948, 48.767723]}, "properties": {"etat de la localisation": "Delocalise", "numparc": 7424, "duree": "00:00:44", "horodatage": "2022-06-23 18:17:51", "marker-color": "#FF565E"}}, {"type": "Feature", "geometry": {"type": "Point", "coordinates": [2.382083, 48.767002]}, "properties": {"etat de la localisation": "Delocalise", "numparc": 7424, "duree": "00:01:00", "horodatage": "2022-06-23 18:18:52", "marker-color": "#FF565E"}}, {"type": "Feature", "geometry": {"type": "Point", "coordinates": [2.38652, 48.76646]}, "properties": {"etat de la localisation": "Delocalise", "numparc": 7424, "duree": "00:00:33", "horodatage": "2022-06-23 18:20:56", "marker-color": "#FF565E"}}, {"type": "Feature", "geometry": {"type": "Point", "coordinates": [2.391016, 48.765869]}, "properties": {"etat de la localisation": "Delocalise", "numparc": 7424, "duree": "00:02:26", "horodatage": "2022-06-23 18:21:53", "marker-color": "#FF565E"}}, {"type": "Feature", "geometry": {"type": "Point", "coordinates": [2.393749, 48.763901]}, "properties": {"etat de la localisation": "Delocalise", "numparc": 7424, "duree": "00:00:00", "horodatage": "2022-06-23 18:24:39", "marker-color": "#FF565E"}}, {"type": "Feature", "geometry": {"type": "Point", "coordinates": [2.363409, 48.729404]}, "properties": {"etat de la localisation": "Delocalise", "numparc": 7457, "duree": "00:19:11", "horodatage": "2022-06-23 18:27:06", "marker-color": "#FF565E"}}, {"type": "Feature", "geometry": {"type": "Point", "coordinates": [2.403164, 48.761379]}, "properties": {"etat de la localisation": "Delocalise", "numparc": 7424, "duree": "00:01:01", "horodatage": "2022-06-23 18:28:19", "marker-color": "#FF565E"}}, {"type": "Feature", "geometry": {"type": "Point", "coordinates": [2.400224, 48.742939]}, "properties": {"etat de la localisation": "Mission suivante non connue", "numparc": 7449, "duree": "", "horodatage": "2022-06-23 18:28:53", "marker-color": "#7156FF"}}, {"type": "Feature", "geometry": {"type": "Point", "coordinates": [2.362041, 48.759544]}, "properties": {"etat de la localisation": "Mission inconnue", "numparc": 7452, "duree": "", "horodatage": "2022-06-23 18:31:51", "marker-color": "#FF9F56"}}, {"type": "Feature", "geometry": {"type": "Point", "coordinates": [2.370284, 48.758923]}, "properties": {"etat de la localisation": "Delocalise", "numparc": 7452, "duree": "00:00:00", "horodatage": "2022-06-23 18:33:20", "marker-color": "#FF565E"}}, {"type": "Feature", "geometry": {"type": "Point", "coordinates": [2.413699, 48.76614]}, "properties": {"etat de la localisation": "Delocalise", "numparc": 7424, "duree": "00:00:29", "horodatage": "2022-06-23 18:33:38", "marker-color": "#FF565E"}}, {"type": "Feature", "geometry": {"type": "Point", "coordinates": [2.363342, 48.729134]}, "properties": {"etat de la localisation": "Delocalise", "numparc": 7458, "duree": "00:08:55", "horodatage": "2022-06-23 18:44:13", "marker-color": "#FF565E"}}, {"type": "Feature", "geometry": {"type": "Point", "coordinates": [2.363271, 48.729782]}, "properties": {"etat de la localisation": "Delocalise", "numparc": 7432, "duree": "00:02:36", "horodatage": "2022-06-23 18:54:56", "marker-color": "#FF565E"}}, {"type": "Feature", "geometry": {"type": "Point", "coordinates": [2.373824, 48.746231]}, "properties": {"etat de la localisation": "Delocalise", "numparc": 7421, "duree": "00:01:05", "horodatage": "2022-06-23 19:01:13", "marker-color": "#FF565E"}}, {"type": "Feature", "geometry": {"type": "Point", "coordinates": [2.388235, 48.754864]}, "properties": {"etat de la localisation": "Hors service", "numparc": 7431, "duree": "", "horodatage": "2022-06-23 19:02:26", "marker-color": "#707070"}}, {"type": "Feature", "geometry": {"type": "Point", "coordinates": [2.363733, 48.728722]}, "properties": {"etat de la localisation": "Delocalise", "numparc": 7421, "duree": "00:22:39", "horodatage": "2022-06-23 19:10:09", "marker-color": "#FF565E"}}, {"type": "Feature", "geometry": {"type": "Point", "coordinates": [2.38806, 48.754726]}, "properties": {"etat de la localisation": "Hors service", "numparc": 7426, "duree": "", "horodatage": "2022-06-23 19:10:15", "marker-color": "#707070"}}, {"type": "Feature", "geometry": {"type": "Point", "coordinates": [2.392644, 48.765686]}, "properties": {"etat de la localisation": "Delocalise", "numparc": 7424, "duree": "00:00:55", "horodatage": "2022-06-23 19:19:01", "marker-color": "#FF565E"}}, {"type": "Feature", "geometry": {"type": "Point", "coordinates": [2.388015, 48.754192]}, "properties": {"etat de la localisation": "Hors service", "numparc": 7432, "duree": "", "horodatage": "2022-06-23 19:20:47", "marker-color": "#707070"}}, {"type": "Feature", "geometry": {"type": "Point", "coordinates": [2.363385, 48.729458]}, "properties": {"etat de la localisation": "Delocalise", "numparc": 7452, "duree": "00:02:53", "horodatage": "2022-06-23 19:22:35", "marker-color": "#FF565E"}}, {"type": "Feature", "geometry": {"type": "Point", "coordinates": [2.387906, 48.754139]}, "properties": {"etat de la localisation": "Hors service", "numparc": 7437, "duree": "", "horodatage": "2022-06-23 19:23:06", "marker-color": "#707070"}}, {"type": "Feature", "geometry": {"type": "Point", "coordinates": [2.388224, 48.754574]}, "properties": {"etat de la localisation": "Hors service", "numparc": 7448, "duree": "", "horodatage": "2022-06-23 19:31:38", "marker-color": "#707070"}}, {"type": "Feature", "geometry": {"type": "Point", "coordinates": [2.36959, 48.738533]}, "properties": {"etat de la localisation": "Delocalise", "numparc": 7421, "duree": "00:04:33", "horodatage": "2022-06-23 19:35:06", "marker-color": "#FF565E"}}, {"type": "Feature", "geometry": {"type": "Point", "coordinates": [2.374248, 48.74622]}, "properties": {"etat de la localisation": "Delocalise", "numparc": 7421, "duree": "00:03:32", "horodatage": "2022-06-23 19:40:45", "marker-color": "#FF565E"}}, {"type": "Feature", "geometry": {"type": "Point", "coordinates": [2.35958, 48.761395]}, "properties": {"etat de la localisation": "Delocalise", "numparc": 7457, "duree": "00:20:16", "horodatage": "2022-06-23 19:41:48", "marker-color": "#FF565E"}}, {"type": "Feature", "geometry": {"type": "Point", "coordinates": [2.394206, 48.744751]}, "properties": {"etat de la localisation": "Delocalise", "numparc": 7421, "duree": "00:04:13", "horodatage": "2022-06-23 19:45:27", "marker-color": "#FF565E"}}, {"type": "Feature", "geometry": {"type": "Point", "coordinates": [2.388313, 48.754738]}, "properties": {"etat de la localisation": "Mission inconnue", "numparc": 7448, "duree": "", "horodatage": "2022-06-23 19:50:26", "marker-color": "#FF9F56"}}, {"type": "Feature", "geometry": {"type": "Point", "coordinates": [2.410324, 48.74575]}, "properties": {"etat de la localisation": "Delocalise", "numparc": 7421, "duree": "00:00:11", "horodatage": "2022-06-23 19:52:00", "marker-color": "#FF565E"}}, {"type": "Feature", "geometry": {"type": "Point", "coordinates": [2.388322, 48.754749]}, "properties": {"etat de la localisation": "Mission inconnue", "numparc": 7448, "duree": "", "horodatage": "2022-06-23 19:52:04", "marker-color": "#FF9F56"}}, {"type": "Feature", "geometry": {"type": "Point", "coordinates": [2.411196, 48.746914]}, "properties": {"etat de la localisation": "Delocalise", "numparc": 7421, "duree": "00:03:03", "horodatage": "2022-06-23 19:52:34", "marker-color": "#FF565E"}}, {"type": "Feature", "geometry": {"type": "Point", "coordinates": [2.411228, 48.755791]}, "properties": {"etat de la localisation": "Delocalise", "numparc": 7421, "duree": "00:01:47", "horodatage": "2022-06-23 19:56:51", "marker-color": "#FF565E"}}, {"type": "Feature", "geometry": {"type": "Point", "coordinates": [2.363368, 48.729477]}, "properties": {"etat de la localisation": "Delocalise", "numparc": 7425, "duree": "00:02:16", "horodatage": "2022-06-23 19:57:42", "marker-color": "#FF565E"}}, {"type": "Feature", "geometry": {"type": "Point", "coordinates": [2.414907, 48.759735]}, "properties": {"etat de la localisation": "Delocalise", "numparc": 7421, "duree": "00:01:32", "horodatage": "2022-06-23 19:59:12", "marker-color": "#FF565E"}}, {"type": "Feature", "geometry": {"type": "Point", "coordinates": [2.410638, 48.764965]}, "properties": {"etat de la localisation": "Delocalise", "numparc": 7421, "duree": "00:02:30", "horodatage": "2022-06-23 20:01:21", "marker-color": "#FF565E"}}, {"type": "Feature", "geometry": {"type": "Point", "coordinates": [2.387589, 48.754303]}, "properties": {"etat de la localisation": "Hors service", "numparc": 7457, "duree": "", "horodatage": "2022-06-23 20:02:04", "marker-color": "#707070"}}, {"type": "Feature", "geometry": {"type": "Point", "coordinates": [2.402218, 48.762379]}, "properties": {"etat de la localisation": "Delocalise", "numparc": 7421, "duree": "00:00:18", "horodatage": "2022-06-23 20:04:55", "marker-color": "#FF565E"}}, {"type": "Feature", "geometry": {"type": "Point", "coordinates": [2.388322, 48.754749]}, "properties": {"etat de la localisation": "Hors service", "numparc": 7448, "duree": "", "horodatage": "2022-06-23 20:05:28", "marker-color": "#707070"}}, {"type": "Feature", "geometry": {"type": "Point", "coordinates": [2.398237, 48.763611]}, "properties": {"etat de la localisation": "Delocalise", "numparc": 7421, "duree": "00:01:20", "horodatage": "2022-06-23 20:07:21", "marker-color": "#FF565E"}}, {"type": "Feature", "geometry": {"type": "Point", "coordinates": [2.392331, 48.765339]}, "properties": {"etat de la localisation": "Delocalise", "numparc": 7421, "duree": "00:00:58", "horodatage": "2022-06-23 20:10:07", "marker-color": "#FF565E"}}, {"type": "Feature", "geometry": {"type": "Point", "coordinates": [2.386287, 48.766567]}, "properties": {"etat de la localisation": "Delocalise", "numparc": 7421, "duree": "00:00:17", "horodatage": "2022-06-23 20:12:02", "marker-color": "#FF565E"}}, {"type": "Feature", "geometry": {"type": "Point", "coordinates": [2.383736, 48.766907]}, "properties": {"etat de la localisation": "Delocalise", "numparc": 7421, "duree": "00:02:54", "horodatage": "2022-06-23 20:13:03", "marker-color": "#FF565E"}}, {"type": "Feature", "geometry": {"type": "Point", "coordinates": [2.367873, 48.767529]}, "properties": {"etat de la localisation": "Delocalise", "numparc": 7421, "duree": "00:01:00", "horodatage": "2022-06-23 20:17:10", "marker-color": "#FF565E"}}, {"type": "Feature", "geometry": {"type": "Point", "coordinates": [2.369339, 48.728745]}, "properties": {"etat de la localisation": "Hors service", "numparc": 7448, "duree": "", "horodatage": "2022-06-23 20:22:46", "marker-color": "#707070"}}, {"type": "Feature", "geometry": {"type": "Point", "coordinates": [2.409878, 48.745262]}, "properties": {"etat de la localisation": "Delocalise", "numparc": 7424, "duree": "00:00:46", "horodatage": "2022-06-23 20:29:44", "marker-color": "#FF565E"}}, {"type": "Feature", "geometry": {"type": "Point", "coordinates": [2.370489, 48.746109]}, "properties": {"etat de la localisation": "Mission inconnue", "numparc": 7448, "duree": "", "horodatage": "2022-06-23 20:39:19", "marker-color": "#FF9F56"}}, {"type": "Feature", "geometry": {"type": "Point", "coordinates": [2.363361, 48.729538]}, "properties": {"etat de la localisation": "Delocalise", "numparc": 7449, "duree": "00:02:16", "horodatage": "2022-06-23 20:39:59", "marker-color": "#FF565E"}}, {"type": "Feature", "geometry": {"type": "Point", "coordinates": [2.370489, 48.746109]}, "properties": {"etat de la localisation": "Delocalise", "numparc": 7448, "duree": "00:01:23", "horodatage": "2022-06-23 20:40:10", "marker-color": "#FF565E"}}, {"type": "Feature", "geometry": {"type": "Point", "coordinates": [2.388676, 48.745125]}, "properties": {"etat de la localisation": "Mission inconnue", "numparc": 7448, "duree": "", "horodatage": "2022-06-23 20:45:02", "marker-color": "#FF9F56"}}, {"type": "Feature", "geometry": {"type": "Point", "coordinates": [2.388676, 48.745125]}, "properties": {"etat de la localisation": "Delocalise", "numparc": 7448, "duree": "00:00:57", "horodatage": "2022-06-23 20:45:22", "marker-color": "#FF565E"}}, {"type": "Feature", "geometry": {"type": "Point", "coordinates": [2.363777, 48.728874]}, "properties": {"etat de la localisation": "Delocalise", "numparc": 7424, "duree": "00:02:40", "horodatage": "2022-06-23 20:48:08", "marker-color": "#FF565E"}}, {"type": "Feature", "geometry": {"type": "Point", "coordinates": [2.370286, 48.735409]}, "properties": {"etat de la localisation": "Delocalise", "numparc": 7458, "duree": "00:00:41", "horodatage": "2022-06-23 20:59:55", "marker-color": "#FF565E"}}, {"type": "Feature", "geometry": {"type": "Point", "coordinates": [2.363423, 48.729088]}, "properties": {"etat de la localisation": "Delocalise", "numparc": 7458, "duree": "00:02:09", "horodatage": "2022-06-23 21:02:40", "marker-color": "#FF565E"}}, {"type": "Feature", "geometry": {"type": "Point", "coordinates": [2.369002, 48.728584]}, "properties": {"etat de la localisation": "Mission suivante non connue", "numparc": 7458, "duree": "", "horodatage": "2022-06-23 21:04:53", "marker-color": "#7156FF"}}, {"type": "Feature", "geometry": {"type": "Point", "coordinates": [2.369002, 48.728584]}, "properties": {"etat de la localisation": "Mission suivante non connue", "numparc": 7458, "duree": "", "horodatage": "2022-06-23 21:04:53", "marker-color": "#7156FF"}}, {"type": "Feature", "geometry": {"type": "Point", "coordinates": [2.369002, 48.728584]}, "properties": {"etat de la localisation": "Mission suivante non connue", "numparc": 7458, "duree": "", "horodatage": "2022-06-23 21:05:15", "marker-color": "#7156FF"}}, {"type": "Feature", "geometry": {"type": "Point", "coordinates": [2.372969, 48.768188]}, "properties": {"etat de la localisation": "Delocalise", "numparc": 7448, "duree": "00:00:06", "horodatage": "2022-06-23 21:11:04", "marker-color": "#FF565E"}}, {"type": "Feature", "geometry": {"type": "Point", "coordinates": [2.388325, 48.754711]}, "properties": {"etat de la localisation": "Hors service", "numparc": 7458, "duree": "", "horodatage": "2022-06-23 21:16:50", "marker-color": "#707070"}}, {"type": "Feature", "geometry": {"type": "Point", "coordinates": [2.369602, 48.76302]}, "properties": {"etat de la localisation": "Mission inconnue", "numparc": 7448, "duree": "", "horodatage": "2022-06-23 21:18:11", "marker-color": "#FF9F56"}}, {"type": "Feature", "geometry": {"type": "Point", "coordinates": [2.369449, 48.744766]}, "properties": {"etat de la localisation": "Delocalise", "numparc": 7424, "duree": "00:00:24", "horodatage": "2022-06-23 21:20:21", "marker-color": "#FF565E"}}, {"type": "Feature", "geometry": {"type": "Point", "coordinates": [2.357677, 48.76347]}, "properties": {"etat de la localisation": "Mission inconnue", "numparc": 7448, "duree": "", "horodatage": "2022-06-23 21:20:33", "marker-color": "#FF9F56"}}, {"type": "Feature", "geometry": {"type": "Point", "coordinates": [2.363337, 48.729733]}, "properties": {"etat de la localisation": "Delocalise", "numparc": 7459, "duree": "00:02:51", "horodatage": "2022-06-23 21:21:06", "marker-color": "#FF565E"}}, {"type": "Feature", "geometry": {"type": "Point", "coordinates": [2.388543, 48.745163]}, "properties": {"etat de la localisation": "Delocalise", "numparc": 7424, "duree": "00:00:50", "horodatage": "2022-06-23 21:23:42", "marker-color": "#FF565E"}}, {"type": "Feature", "geometry": {"type": "Point", "coordinates": [2.363315, 48.729034]}, "properties": {"etat de la localisation": "Delocalise", "numparc": 7421, "duree": "00:12:19", "horodatage": "2022-06-23 21:35:11", "marker-color": "#FF565E"}}, {"type": "Feature", "geometry": {"type": "Point", "coordinates": [2.363311, 48.729729]}, "properties": {"etat de la localisation": "Delocalise", "numparc": 7452, "duree": "00:31:05", "horodatage": "2022-06-23 21:45:42", "marker-color": "#FF565E"}}, {"type": "Feature", "geometry": {"type": "Point", "coordinates": [2.36976, 48.738598]}, "properties": {"etat de la localisation": "Delocalise", "numparc": 7421, "duree": "00:06:19", "horodatage": "2022-06-23 21:48:28", "marker-color": "#FF565E"}}, {"type": "Feature", "geometry": {"type": "Point", "coordinates": [2.395565, 48.744705]}, "properties": {"etat de la localisation": "Delocalise", "numparc": 7421, "duree": "00:03:04", "horodatage": "2022-06-23 21:55:22", "marker-color": "#FF565E"}}, {"type": "Feature", "geometry": {"type": "Point", "coordinates": [2.410374, 48.745888]}, "properties": {"etat de la localisation": "Delocalise", "numparc": 7421, "duree": "00:00:10", "horodatage": "2022-06-23 21:59:45", "marker-color": "#FF565E"}}, {"type": "Feature", "geometry": {"type": "Point", "coordinates": [2.411215, 48.746956]}, "properties": {"etat de la localisation": "Delocalise", "numparc": 7421, "duree": "00:01:22", "horodatage": "2022-06-23 22:00:24", "marker-color": "#FF565E"}}, {"type": "Feature", "geometry": {"type": "Point", "coordinates": [2.413489, 48.752312]}, "properties": {"etat de la localisation": "Delocalise", "numparc": 7421, "duree": "00:00:26", "horodatage": "2022-06-23 22:02:38", "marker-color": "#FF565E"}}, {"type": "Feature", "geometry": {"type": "Point", "coordinates": [2.411115, 48.755943]}, "properties": {"etat de la localisation": "Delocalise", "numparc": 7421, "duree": "00:02:56", "horodatage": "2022-06-23 22:03:34", "marker-color": "#FF565E"}}, {"type": "Feature", "geometry": {"type": "Point", "coordinates": [2.41218, 48.764557]}, "properties": {"etat de la localisation": "Delocalise", "numparc": 7421, "duree": "00:00:14", "horodatage": "2022-06-23 22:07:01", "marker-color": "#FF565E"}}, {"type": "Feature", "geometry": {"type": "Point", "coordinates": [2.41073, 48.765186]}, "properties": {"etat de la localisation": "Delocalise", "numparc": 7421, "duree": "00:03:25", "horodatage": "2022-06-23 22:07:47", "marker-color": "#FF565E"}}, {"type": "Feature", "geometry": {"type": "Point", "coordinates": [2.398432, 48.763557]}, "properties": {"etat de la localisation": "Delocalise", "numparc": 7421, "duree": "00:02:09", "horodatage": "2022-06-23 22:12:37", "marker-color": "#FF565E"}}, {"type": "Feature", "geometry": {"type": "Point", "coordinates": [2.386684, 48.766537]}, "properties": {"etat de la localisation": "Delocalise", "numparc": 7421, "duree": "00:01:30", "horodatage": "2022-06-23 22:15:44", "marker-color": "#FF565E"}}, {"type": "Feature", "geometry": {"type": "Point", "coordinates": [2.388211, 48.754601]}, "properties": {"etat de la localisation": "Hors service", "numparc": 7424, "duree": "", "horodatage": "2022-06-23 22:16:19", "marker-color": "#707070"}}, {"type": "Feature", "geometry": {"type": "Point", "coordinates": [2.378895, 48.767494]}, "properties": {"etat de la localisation": "Delocalise", "numparc": 7421, "duree": "00:01:40", "horodatage": "2022-06-23 22:17:55", "marker-color": "#FF565E"}}, {"type": "Feature", "geometry": {"type": "Point", "coordinates": [2.363346, 48.729599]}, "properties": {"etat de la localisation": "Delocalise", "numparc": 7425, "duree": "00:02:12", "horodatage": "2022-06-23 22:18:59", "marker-color": "#FF565E"}}, {"type": "Feature", "geometry": {"type": "Point", "coordinates": [2.410259, 48.745716]}, "properties": {"etat de la localisation": "Delocalise", "numparc": 7452, "duree": "00:00:18", "horodatage": "2022-06-23 22:19:24", "marker-color": "#FF565E"}}, {"type": "Feature", "geometry": {"type": "Point", "coordinates": [2.367937, 48.767399]}, "properties": {"etat de la localisation": "Delocalise", "numparc": 7421, "duree": "00:00:23", "horodatage": "2022-06-23 22:20:47", "marker-color": "#FF565E"}}, {"type": "Feature", "geometry": {"type": "Point", "coordinates": [2.363281, 48.729774]}, "properties": {"etat de la localisation": "Delocalise", "numparc": 7449, "duree": "00:02:56", "horodatage": "2022-06-23 23:01:40", "marker-color": "#FF565E"}}, {"type": "Feature", "geometry": {"type": "Point", "coordinates": [2.369433, 48.743256]}, "properties": {"etat de la localisation": "Delocalise", "numparc": 7459, "duree": "00:02:32", "horodatage": "2022-06-23 23:14:01", "marker-color": "#FF565E"}}, {"type": "Feature", "geometry": {"type": "Point", "coordinates": [2.388108, 48.754826]}, "properties": {"etat de la localisation": "Hors service", "numparc": 7429, "duree": "", "horodatage": "2022-06-23 23:20:14", "marker-color": "#707070"}}, {"type": "Feature", "geometry": {"type": "Point", "coordinates": [2.379112, 48.746296]}, "properties": {"etat de la localisation": "Delocalise", "numparc": 7421, "duree": "00:01:11", "horodatage": "2022-06-23 23:20:15", "marker-color": "#FF565E"}}, {"type": "Feature", "geometry": {"type": "Point", "coordinates": [2.363395, 48.729416]}, "properties": {"etat de la localisation": "Delocalise", "numparc": 7421, "duree": "00:22:27", "horodatage": "2022-06-23 23:29:48", "marker-color": "#FF565E"}}, {"type": "Feature", "geometry": {"type": "Point", "coordinates": [2.369773, 48.738544]}, "properties": {"etat de la localisation": "Delocalise", "numparc": 7421, "duree": "00:09:44", "horodatage": "2022-06-23 23:54:34", "marker-color": "#FF565E"}}, {"type": "Feature", "geometry": {"type": "Point", "coordinates": [2.363301, 48.72974]}, "properties": {"etat de la localisation": "Delocalise", "numparc": 7452, "duree": "00:16:34", "horodatage": "2022-06-23 23:58:26", "marker-color": "#FF565E"}}, {"type": "Feature", "geometry": {"type": "Point", "coordinates": [2.410429, 48.745964]}, "properties": {"etat de la localisation": "Delocalise", "numparc": 7421, "duree": "00:02:38", "horodatage": "2022-06-24 00:07:19", "marker-color": "#FF565E"}}, {"type": "Feature", "geometry": {"type": "Point", "coordinates": [2.411267, 48.755726]}, "properties": {"etat de la localisation": "Delocalise", "numparc": 7421, "duree": "00:03:01", "horodatage": "2022-06-24 00:10:32", "marker-color": "#FF565E"}}, {"type": "Feature", "geometry": {"type": "Point", "coordinates": [2.388245, 48.75457]}, "properties": {"etat de la localisation": "Hors service", "numparc": 7449, "duree": "", "horodatage": "2022-06-24 00:12:16", "marker-color": "#707070"}}, {"type": "Feature", "geometry": {"type": "Point", "coordinates": [2.410686, 48.764965]}, "properties": {"etat de la localisation": "Delocalise", "numparc": 7421, "duree": "00:02:07", "horodatage": "2022-06-24 00:13:59", "marker-color": "#FF565E"}}, {"type": "Feature", "geometry": {"type": "Point", "coordinates": [2.368153, 48.739105]}, "properties": {"etat de la localisation": "Delocalise", "numparc": 7452, "duree": "00:01:09", "horodatage": "2022-06-24 00:15:53", "marker-color": "#FF565E"}}, {"type": "Feature", "geometry": {"type": "Point", "coordinates": [2.36329, 48.72974]}, "properties": {"etat de la localisation": "Delocalise", "numparc": 7425, "duree": "00:02:10", "horodatage": "2022-06-24 00:16:06", "marker-color": "#FF565E"}}, {"type": "Feature", "geometry": {"type": "Point", "coordinates": [2.402316, 48.762325]}, "properties": {"etat de la localisation": "Delocalise", "numparc": 7421, "duree": "00:00:19", "horodatage": "2022-06-24 00:16:56", "marker-color": "#FF565E"}}, {"type": "Feature", "geometry": {"type": "Point", "coordinates": [2.369473, 48.746056]}, "properties": {"etat de la localisation": "Delocalise", "numparc": 7452, "duree": "00:06:56", "horodatage": "2022-06-24 00:17:59", "marker-color": "#FF565E"}}, {"type": "Feature", "geometry": {"type": "Point", "coordinates": [2.398692, 48.763504]}, "properties": {"etat de la localisation": "Delocalise", "numparc": 7421, "duree": "00:02:26", "horodatage": "2022-06-24 00:18:36", "marker-color": "#FF565E"}}, {"type": "Feature", "geometry": {"type": "Point", "coordinates": [2.383819, 48.76688]}, "properties": {"etat de la localisation": "Delocalise", "numparc": 7421, "duree": "00:02:03", "horodatage": "2022-06-24 00:21:46", "marker-color": "#FF565E"}}, {"type": "Feature", "geometry": {"type": "Point", "coordinates": [2.367943, 48.767365]}, "properties": {"etat de la localisation": "Delocalise", "numparc": 7421, "duree": "00:00:54", "horodatage": "2022-06-24 00:25:16", "marker-color": "#FF565E"}}, {"type": "Feature", "geometry": {"type": "Point", "coordinates": [2.410363, 48.745857]}, "properties": {"etat de la localisation": "Delocalise", "numparc": 7452, "duree": "00:01:55", "horodatage": "2022-06-24 00:26:20", "marker-color": "#FF565E"}}, {"type": "Feature", "geometry": {"type": "Point", "coordinates": [2.411222, 48.755749]}, "properties": {"etat de la localisation": "Delocalise", "numparc": 7452, "duree": "00:02:45", "horodatage": "2022-06-24 00:28:58", "marker-color": "#FF565E"}}, {"type": "Feature", "geometry": {"type": "Point", "coordinates": [2.41231, 48.764317]}, "properties": {"etat de la localisation": "Delocalise", "numparc": 7452, "duree": "00:00:14", "horodatage": "2022-06-24 00:32:14", "marker-color": "#FF565E"}}, {"type": "Feature", "geometry": {"type": "Point", "coordinates": [2.410731, 48.764965]}, "properties": {"etat de la localisation": "Delocalise", "numparc": 7452, "duree": "00:03:05", "horodatage": "2022-06-24 00:32:54", "marker-color": "#FF565E"}}, {"type": "Feature", "geometry": {"type": "Point", "coordinates": [2.403032, 48.761692]}, "properties": {"etat de la localisation": "Delocalise", "numparc": 7452, "duree": "00:02:05", "horodatage": "2022-06-24 00:37:05", "marker-color": "#FF565E"}}, {"type": "Feature", "geometry": {"type": "Point", "coordinates": [2.392523, 48.76532]}, "properties": {"etat de la localisation": "Delocalise", "numparc": 7452, "duree": "00:06:32", "horodatage": "2022-06-24 00:39:38", "marker-color": "#FF565E"}}, {"type": "Feature", "geometry": {"type": "Point", "coordinates": [2.388065, 48.754395]}, "properties": {"etat de la localisation": "Hors service", "numparc": 7448, "duree": "", "horodatage": "2022-06-24 00:42:08", "marker-color": "#707070"}}, {"type": "Feature", "geometry": {"type": "Point", "coordinates": [2.388419, 48.754559]}, "properties": {"etat de la localisation": "Hors service", "numparc": 7421, "duree": "", "horodatage": "2022-06-24 00:44:13", "marker-color": "#707070"}}, {"type": "Feature", "geometry": {"type": "Point", "coordinates": [2.387961, 48.754826]}, "properties": {"etat de la localisation": "Hors service", "numparc": 7452, "duree": "", "horodatage": "2022-06-24 01:05:59", "marker-color": "#707070"}}, {"type": "Feature", "geometry": {"type": "Point", "coordinates": [2.369446, 48.743172]}, "properties": {"etat de la localisation": "Delocalise", "numparc": 7459, "duree": "00:05:10", "horodatage": "2022-06-24 01:06:39", "marker-color": "#FF565E"}}, {"type": "Feature", "geometry": {"type": "Point", "coordinates": [2.388131, 48.754845]}, "properties": {"etat de la localisation": "Hors service", "numparc": 7459, "duree": "", "horodatage": "2022-06-24 01:29:17", "marker-color": "#707070"}}, {"type": "Feature", "geometry": {"type": "Point", "coordinates": [2.387699, 48.754368]}, "properties": {"etat de la localisation": "Hors service", "numparc": 7425, "duree": "", "horodatage": "2022-06-24 01:33:31", "marker-color": "#707070"}}]}