{"type": "FeatureCollection", "features": [{"type": "Feature", "geometry": {"type": "Point", "coordinates": [2.35464, 48.750401]}, "properties": {"alarme": "VEHICULE DELOCALISE", "numparc": 7062, "type": "EXPLOITATION", "duree": "00:04:07", "horodatage": "2022-10-01 12:36:06", "statut": "start", "marker-color": "#ff0000"}}, {"type": "Feature", "geometry": {"type": "Point", "coordinates": [2.354649, 48.750385]}, "properties": {"alarme": "VEHICULE DELOCALISE", "numparc": 7062, "type": "EXPLOITATION", "duree": "00:03:45", "horodatage": "2022-10-01 13:55:08", "statut": "start", "marker-color": "#ff0000"}}, {"type": "Feature", "geometry": {"type": "Point", "coordinates": [2.354643, 48.750389]}, "properties": {"alarme": "VEHICULE DELOCALISE", "numparc": 7062, "type": "EXPLOITATION", "duree": "00:04:49", "horodatage": "2022-10-01 14:48:57", "statut": "start", "marker-color": "#ff0000"}}, {"type": "Feature", "geometry": {"type": "Point", "coordinates": [2.354626, 48.750401]}, "properties": {"alarme": "VEHICULE DELOCALISE", "numparc": 7062, "type": "EXPLOITATION", "duree": "00:04:07", "horodatage": "2022-10-01 15:58:18", "statut": "start", "marker-color": "#ff0000"}}, {"type": "Feature", "geometry": {"type": "Point", "coordinates": [2.354639, 48.750385]}, "properties": {"alarme": "VEHICULE DELOCALISE", "numparc": 7062, "type": "EXPLOITATION", "duree": "00:04:53", "horodatage": "2022-10-01 17:03:28", "statut": "start", "marker-color": "#ff0000"}}, {"type": "Feature", "geometry": {"type": "Point", "coordinates": [2.353945, 48.751167]}, "properties": {"alarme": "VEHICULE DELOCALISE", "numparc": 7062, "type": "EXPLOITATION", "duree": "00:04:07", "horodatage": "2022-10-01 12:40:13", "statut": "end", "marker-color": "#2fe184"}}, {"type": "Feature", "geometry": {"type": "Point", "coordinates": [2.353935, 48.751163]}, "properties": {"alarme": "VEHICULE DELOCALISE", "numparc": 7062, "type": "EXPLOITATION", "duree": "00:03:45", "horodatage": "2022-10-01 13:58:53", "statut": "end", "marker-color": "#2fe184"}}, {"type": "Feature", "geometry": {"type": "Point", "coordinates": [2.353933, 48.751163]}, "properties": {"alarme": "VEHICULE DELOCALISE", "numparc": 7062, "type": "EXPLOITATION", "duree": "00:04:49", "horodatage": "2022-10-01 14:53:46", "statut": "end", "marker-color": "#2fe184"}}, {"type": "Feature", "geometry": {"type": "Point", "coordinates": [2.353932, 48.751163]}, "properties": {"alarme": "VEHICULE DELOCALISE", "numparc": 7062, "type": "EXPLOITATION", "duree": "00:04:07", "horodatage": "2022-10-01 16:02:25", "statut": "end", "marker-color": "#2fe184"}}, {"type": "Feature", "geometry": {"type": "Point", "coordinates": [2.353937, 48.751163]}, "properties": {"alarme": "VEHICULE DELOCALISE", "numparc": 7062, "type": "EXPLOITATION", "duree": "00:04:53", "horodatage": "2022-10-01 17:08:21", "statut": "end", "marker-color": "#2fe184"}}]}