{"type": "FeatureCollection", "features": [{"type": "Feature", "geometry": {"type": "Point", "coordinates": [2.659021, 48.842445]}, "properties": {"etat de la localisation": "Delocalise", "numparc": 5891, "duree": "00:02:52", "horodatage": "2022-05-13 04:34:04", "marker-color": "#FF565E"}}, {"type": "Feature", "geometry": {"type": "Point", "coordinates": [2.575191, 48.869625]}, "properties": {"etat de la localisation": "Delocalise", "numparc": 5891, "duree": "00:07:04", "horodatage": "2022-05-13 04:51:19", "marker-color": "#FF565E"}}, {"type": "Feature", "geometry": {"type": "Point", "coordinates": [2.660455, 48.842346]}, "properties": {"etat de la localisation": "Mission inconnue", "numparc": 5896, "duree": "", "horodatage": "2022-05-13 04:57:43", "marker-color": "#FF9F56"}}, {"type": "Feature", "geometry": {"type": "Point", "coordinates": [2.660242, 48.842411]}, "properties": {"etat de la localisation": "Delocalise", "numparc": 5904, "duree": "00:02:30", "horodatage": "2022-05-13 05:13:26", "marker-color": "#FF565E"}}, {"type": "Feature", "geometry": {"type": "Point", "coordinates": [2.57525, 48.869667]}, "properties": {"etat de la localisation": "Delocalise", "numparc": 5896, "duree": "00:00:47", "horodatage": "2022-05-13 05:25:52", "marker-color": "#FF565E"}}, {"type": "Feature", "geometry": {"type": "Point", "coordinates": [2.660496, 48.842197]}, "properties": {"etat de la localisation": "Delocalise", "numparc": 5899, "duree": "00:13:08", "horodatage": "2022-05-13 05:40:55", "marker-color": "#FF565E"}}, {"type": "Feature", "geometry": {"type": "Point", "coordinates": [2.660659, 48.842239]}, "properties": {"etat de la localisation": "Delocalise", "numparc": 5886, "duree": "00:05:43", "horodatage": "2022-05-13 06:04:26", "marker-color": "#FF565E"}}, {"type": "Feature", "geometry": {"type": "Point", "coordinates": [2.583262, 48.874443]}, "properties": {"etat de la localisation": "Mission suivante non connue", "numparc": 5899, "duree": "", "horodatage": "2022-05-13 06:07:26", "marker-color": "#7156FF"}}, {"type": "Feature", "geometry": {"type": "Point", "coordinates": [2.58366, 48.874405]}, "properties": {"etat de la localisation": "Hors service", "numparc": 5899, "duree": "", "horodatage": "2022-05-13 06:09:40", "marker-color": "#707070"}}, {"type": "Feature", "geometry": {"type": "Point", "coordinates": [2.658871, 48.84251]}, "properties": {"etat de la localisation": "Mission inconnue", "numparc": 5867, "duree": "", "horodatage": "2022-05-13 06:21:56", "marker-color": "#FF9F56"}}, {"type": "Feature", "geometry": {"type": "Point", "coordinates": [2.660699, 48.842121]}, "properties": {"etat de la localisation": "Delocalise", "numparc": 5893, "duree": "00:10:35", "horodatage": "2022-05-13 06:38:46", "marker-color": "#FF565E"}}, {"type": "Feature", "geometry": {"type": "Point", "coordinates": [2.659084, 48.842152]}, "properties": {"etat de la localisation": "Mission inconnue", "numparc": 5898, "duree": "", "horodatage": "2022-05-13 06:44:14", "marker-color": "#FF9F56"}}, {"type": "Feature", "geometry": {"type": "Point", "coordinates": [2.583278, 48.874424]}, "properties": {"etat de la localisation": "Mission suivante non connue", "numparc": 5867, "duree": "", "horodatage": "2022-05-13 06:53:46", "marker-color": "#7156FF"}}, {"type": "Feature", "geometry": {"type": "Point", "coordinates": [2.623194, 48.839741]}, "properties": {"etat de la localisation": "Delocalise", "numparc": 5899, "duree": "00:01:41", "horodatage": "2022-05-13 06:54:52", "marker-color": "#FF565E"}}, {"type": "Feature", "geometry": {"type": "Point", "coordinates": [2.658795, 48.842667]}, "properties": {"etat de la localisation": "Mission inconnue", "numparc": 5889, "duree": "", "horodatage": "2022-05-13 07:01:43", "marker-color": "#FF9F56"}}, {"type": "Feature", "geometry": {"type": "Point", "coordinates": [2.625997, 48.838985]}, "properties": {"etat de la localisation": "Delocalise", "numparc": 5899, "duree": "00:01:39", "horodatage": "2022-05-13 07:02:37", "marker-color": "#FF565E"}}, {"type": "Feature", "geometry": {"type": "Point", "coordinates": [2.582714, 48.874977]}, "properties": {"etat de la localisation": "Mission suivante non connue", "numparc": 5867, "duree": "", "horodatage": "2022-05-13 07:05:33", "marker-color": "#7156FF"}}, {"type": "Feature", "geometry": {"type": "Point", "coordinates": [2.658848, 48.842773]}, "properties": {"etat de la localisation": "Mission inconnue", "numparc": 5885, "duree": "", "horodatage": "2022-05-13 07:05:39", "marker-color": "#FF9F56"}}, {"type": "Feature", "geometry": {"type": "Point", "coordinates": [2.65924, 48.842075]}, "properties": {"etat de la localisation": "Mission inconnue", "numparc": 5895, "duree": "", "horodatage": "2022-05-13 07:09:57", "marker-color": "#FF9F56"}}, {"type": "Feature", "geometry": {"type": "Point", "coordinates": [2.582572, 48.843613]}, "properties": {"etat de la localisation": "Mission suivante non connue", "numparc": 5867, "duree": "", "horodatage": "2022-05-13 07:22:20", "marker-color": "#7156FF"}}, {"type": "Feature", "geometry": {"type": "Point", "coordinates": [2.577734, 48.871216]}, "properties": {"etat de la localisation": "Delocalise", "numparc": 5904, "duree": "00:00:22", "horodatage": "2022-05-13 07:29:58", "marker-color": "#FF565E"}}, {"type": "Feature", "geometry": {"type": "Point", "coordinates": [2.583513, 48.843609]}, "properties": {"etat de la localisation": "Delocalise", "numparc": 5891, "duree": "00:05:08", "horodatage": "2022-05-13 07:33:28", "marker-color": "#FF565E"}}, {"type": "Feature", "geometry": {"type": "Point", "coordinates": [2.58296, 48.874386]}, "properties": {"etat de la localisation": "Mission suivante non connue", "numparc": 5889, "duree": "", "horodatage": "2022-05-13 07:36:14", "marker-color": "#7156FF"}}, {"type": "Feature", "geometry": {"type": "Point", "coordinates": [2.583737, 48.874317]}, "properties": {"etat de la localisation": "Mission inconnue", "numparc": 5889, "duree": "", "horodatage": "2022-05-13 07:37:52", "marker-color": "#FF9F56"}}, {"type": "Feature", "geometry": {"type": "Point", "coordinates": [2.587009, 48.83569]}, "properties": {"etat de la localisation": "Delocalise", "numparc": 5903, "duree": "00:00:59", "horodatage": "2022-05-13 07:45:19", "marker-color": "#FF565E"}}, {"type": "Feature", "geometry": {"type": "Point", "coordinates": [2.585842, 48.845917]}, "properties": {"etat de la localisation": "Delocalise", "numparc": 5894, "duree": "00:00:55", "horodatage": "2022-05-13 07:48:17", "marker-color": "#FF565E"}}, {"type": "Feature", "geometry": {"type": "Point", "coordinates": [2.585439, 48.849968]}, "properties": {"etat de la localisation": "Delocalise", "numparc": 5894, "duree": "00:05:32", "horodatage": "2022-05-13 07:49:42", "marker-color": "#FF565E"}}, {"type": "Feature", "geometry": {"type": "Point", "coordinates": [2.58003, 48.860737]}, "properties": {"etat de la localisation": "Delocalise", "numparc": 5894, "duree": "00:06:52", "horodatage": "2022-05-13 07:55:43", "marker-color": "#FF565E"}}, {"type": "Feature", "geometry": {"type": "Point", "coordinates": [2.58343, 48.84354]}, "properties": {"etat de la localisation": "Delocalise", "numparc": 5891, "duree": "00:00:51", "horodatage": "2022-05-13 08:10:33", "marker-color": "#FF565E"}}, {"type": "Feature", "geometry": {"type": "Point", "coordinates": [2.585215, 48.845188]}, "properties": {"etat de la localisation": "Delocalise", "numparc": 5891, "duree": "00:07:03", "horodatage": "2022-05-13 08:12:01", "marker-color": "#FF565E"}}, {"type": "Feature", "geometry": {"type": "Point", "coordinates": [2.58325, 48.843636]}, "properties": {"etat de la localisation": "Delocalise", "numparc": 5903, "duree": "00:00:59", "horodatage": "2022-05-13 08:16:57", "marker-color": "#FF565E"}}, {"type": "Feature", "geometry": {"type": "Point", "coordinates": [2.580955, 48.845703]}, "properties": {"etat de la localisation": "Delocalise", "numparc": 5903, "duree": "00:08:14", "horodatage": "2022-05-13 08:18:21", "marker-color": "#FF565E"}}, {"type": "Feature", "geometry": {"type": "Point", "coordinates": [2.58272, 48.856022]}, "properties": {"etat de la localisation": "Delocalise", "numparc": 5891, "duree": "00:00:47", "horodatage": "2022-05-13 08:19:42", "marker-color": "#FF565E"}}, {"type": "Feature", "geometry": {"type": "Point", "coordinates": [2.579915, 48.860687]}, "properties": {"etat de la localisation": "Delocalise", "numparc": 5891, "duree": "00:06:59", "horodatage": "2022-05-13 08:21:36", "marker-color": "#FF565E"}}, {"type": "Feature", "geometry": {"type": "Point", "coordinates": [2.583537, 48.842674]}, "properties": {"etat de la localisation": "Delocalise", "numparc": 5867, "duree": "00:00:40", "horodatage": "2022-05-13 08:28:24", "marker-color": "#FF565E"}}, {"type": "Feature", "geometry": {"type": "Point", "coordinates": [2.623146, 48.839592]}, "properties": {"etat de la localisation": "Delocalise", "numparc": 5885, "duree": "00:00:39", "horodatage": "2022-05-13 08:30:38", "marker-color": "#FF565E"}}, {"type": "Feature", "geometry": {"type": "Point", "coordinates": [2.601161, 48.840912]}, "properties": {"etat de la localisation": "Delocalise", "numparc": 5895, "duree": "00:06:37", "horodatage": "2022-05-13 08:36:58", "marker-color": "#FF565E"}}, {"type": "Feature", "geometry": {"type": "Point", "coordinates": [2.601101, 48.840847]}, "properties": {"etat de la localisation": "Delocalise", "numparc": 5893, "duree": "00:02:59", "horodatage": "2022-05-13 08:45:03", "marker-color": "#FF565E"}}, {"type": "Feature", "geometry": {"type": "Point", "coordinates": [2.583422, 48.842655]}, "properties": {"etat de la localisation": "Delocalise", "numparc": 5894, "duree": "00:01:30", "horodatage": "2022-05-13 08:45:28", "marker-color": "#FF565E"}}, {"type": "Feature", "geometry": {"type": "Point", "coordinates": [2.601107, 48.840862]}, "properties": {"etat de la localisation": "Delocalise", "numparc": 5903, "duree": "00:04:55", "horodatage": "2022-05-13 08:47:40", "marker-color": "#FF565E"}}, {"type": "Feature", "geometry": {"type": "Point", "coordinates": [2.659493, 48.843021]}, "properties": {"etat de la localisation": "Hors service", "numparc": 5867, "duree": "", "horodatage": "2022-05-13 08:51:16", "marker-color": "#707070"}}, {"type": "Feature", "geometry": {"type": "Point", "coordinates": [2.583459, 48.842724]}, "properties": {"etat de la localisation": "Delocalise", "numparc": 5901, "duree": "00:01:21", "horodatage": "2022-05-13 08:52:27", "marker-color": "#FF565E"}}, {"type": "Feature", "geometry": {"type": "Point", "coordinates": [2.582455, 48.842739]}, "properties": {"etat de la localisation": "Mission suivante non connue", "numparc": 5893, "duree": "", "horodatage": "2022-05-13 08:55:55", "marker-color": "#7156FF"}}, {"type": "Feature", "geometry": {"type": "Point", "coordinates": [2.581982, 48.842716]}, "properties": {"etat de la localisation": "Mission suivante non connue", "numparc": 5893, "duree": "", "horodatage": "2022-05-13 08:56:23", "marker-color": "#7156FF"}}, {"type": "Feature", "geometry": {"type": "Point", "coordinates": [2.659446, 48.843014]}, "properties": {"etat de la localisation": "Hors service", "numparc": 5898, "duree": "", "horodatage": "2022-05-13 09:01:13", "marker-color": "#707070"}}, {"type": "Feature", "geometry": {"type": "Point", "coordinates": [2.583308, 48.843605]}, "properties": {"etat de la localisation": "Delocalise", "numparc": 5895, "duree": "00:00:55", "horodatage": "2022-05-13 09:09:01", "marker-color": "#FF565E"}}, {"type": "Feature", "geometry": {"type": "Point", "coordinates": [2.659538, 48.843025]}, "properties": {"etat de la localisation": "Hors service", "numparc": 5893, "duree": "", "horodatage": "2022-05-13 09:09:19", "marker-color": "#707070"}}, {"type": "Feature", "geometry": {"type": "Point", "coordinates": [2.606053, 48.840881]}, "properties": {"etat de la localisation": "Mission suivante non connue", "numparc": 5895, "duree": "", "horodatage": "2022-05-13 09:16:57", "marker-color": "#7156FF"}}, {"type": "Feature", "geometry": {"type": "Point", "coordinates": [2.605651, 48.841198]}, "properties": {"etat de la localisation": "Hors service", "numparc": 5895, "duree": "", "horodatage": "2022-05-13 09:20:12", "marker-color": "#707070"}}, {"type": "Feature", "geometry": {"type": "Point", "coordinates": [2.582309, 48.843571]}, "properties": {"etat de la localisation": "Mission suivante non connue", "numparc": 5896, "duree": "", "horodatage": "2022-05-13 09:20:56", "marker-color": "#7156FF"}}, {"type": "Feature", "geometry": {"type": "Point", "coordinates": [2.599297, 48.840733]}, "properties": {"etat de la localisation": "Delocalise", "numparc": 5895, "duree": "00:03:26", "horodatage": "2022-05-13 09:21:59", "marker-color": "#FF565E"}}, {"type": "Feature", "geometry": {"type": "Point", "coordinates": [2.660052, 48.842022]}, "properties": {"etat de la localisation": "Hors service", "numparc": 5886, "duree": "", "horodatage": "2022-05-13 09:23:00", "marker-color": "#707070"}}, {"type": "Feature", "geometry": {"type": "Point", "coordinates": [2.583081, 48.84425]}, "properties": {"etat de la localisation": "Mission suivante non connue", "numparc": 5896, "duree": "", "horodatage": "2022-05-13 09:23:44", "marker-color": "#7156FF"}}, {"type": "Feature", "geometry": {"type": "Point", "coordinates": [2.623133, 48.8396]}, "properties": {"etat de la localisation": "Delocalise", "numparc": 5891, "duree": "00:01:04", "horodatage": "2022-05-13 09:25:06", "marker-color": "#FF565E"}}, {"type": "Feature", "geometry": {"type": "Point", "coordinates": [2.58479, 48.84013]}, "properties": {"etat de la localisation": "Delocalise", "numparc": 5895, "duree": "00:00:35", "horodatage": "2022-05-13 09:25:45", "marker-color": "#FF565E"}}, {"type": "Feature", "geometry": {"type": "Point", "coordinates": [2.583498, 48.843613]}, "properties": {"etat de la localisation": "Delocalise", "numparc": 5895, "duree": "00:07:57", "horodatage": "2022-05-13 09:26:47", "marker-color": "#FF565E"}}, {"type": "Feature", "geometry": {"type": "Point", "coordinates": [2.659516, 48.843018]}, "properties": {"etat de la localisation": "Hors service", "numparc": 5903, "duree": "", "horodatage": "2022-05-13 09:31:43", "marker-color": "#707070"}}, {"type": "Feature", "geometry": {"type": "Point", "coordinates": [2.659557, 48.84296]}, "properties": {"etat de la localisation": "Hors service", "numparc": 5889, "duree": "", "horodatage": "2022-05-13 09:39:20", "marker-color": "#707070"}}, {"type": "Feature", "geometry": {"type": "Point", "coordinates": [2.660203, 48.842102]}, "properties": {"etat de la localisation": "Hors service", "numparc": 5895, "duree": "", "horodatage": "2022-05-13 09:39:33", "marker-color": "#707070"}}, {"type": "Feature", "geometry": {"type": "Point", "coordinates": [2.593839, 48.839947]}, "properties": {"etat de la localisation": "Delocalise", "numparc": 5904, "duree": "00:02:43", "horodatage": "2022-05-13 09:49:50", "marker-color": "#FF565E"}}, {"type": "Feature", "geometry": {"type": "Point", "coordinates": [2.593832, 48.839916]}, "properties": {"etat de la localisation": "Delocalise", "numparc": 5904, "duree": "00:03:29", "horodatage": "2022-05-13 10:10:41", "marker-color": "#FF565E"}}, {"type": "Feature", "geometry": {"type": "Point", "coordinates": [2.583444, 48.843506]}, "properties": {"etat de la localisation": "Delocalise", "numparc": 5904, "duree": "00:00:29", "horodatage": "2022-05-13 10:15:31", "marker-color": "#FF565E"}}, {"type": "Feature", "geometry": {"type": "Point", "coordinates": [2.62321, 48.839718]}, "properties": {"etat de la localisation": "Delocalise", "numparc": 5885, "duree": "00:01:22", "horodatage": "2022-05-13 10:19:24", "marker-color": "#FF565E"}}, {"type": "Feature", "geometry": {"type": "Point", "coordinates": [2.659556, 48.843018]}, "properties": {"etat de la localisation": "Hors service", "numparc": 5896, "duree": "", "horodatage": "2022-05-13 10:21:34", "marker-color": "#707070"}}, {"type": "Feature", "geometry": {"type": "Point", "coordinates": [2.659191, 48.84243]}, "properties": {"etat de la localisation": "Hors service", "numparc": 5904, "duree": "", "horodatage": "2022-05-13 10:28:21", "marker-color": "#707070"}}, {"type": "Feature", "geometry": {"type": "Point", "coordinates": [2.62597, 48.838879]}, "properties": {"etat de la localisation": "Delocalise", "numparc": 5885, "duree": "00:02:43", "horodatage": "2022-05-13 10:35:20", "marker-color": "#FF565E"}}, {"type": "Feature", "geometry": {"type": "Point", "coordinates": [2.583488, 48.842705]}, "properties": {"etat de la localisation": "Delocalise", "numparc": 5901, "duree": "00:01:20", "horodatage": "2022-05-13 10:42:20", "marker-color": "#FF565E"}}, {"type": "Feature", "geometry": {"type": "Point", "coordinates": [2.660328, 48.84227]}, "properties": {"etat de la localisation": "Mission inconnue", "numparc": 5896, "duree": "", "horodatage": "2022-05-13 11:18:32", "marker-color": "#FF9F56"}}, {"type": "Feature", "geometry": {"type": "Point", "coordinates": [2.660328, 48.84227]}, "properties": {"etat de la localisation": "Hors service", "numparc": 5896, "duree": "", "horodatage": "2022-05-13 11:19:20", "marker-color": "#707070"}}, {"type": "Feature", "geometry": {"type": "Point", "coordinates": [2.58353, 48.84264]}, "properties": {"etat de la localisation": "Delocalise", "numparc": 5894, "duree": "00:02:31", "horodatage": "2022-05-13 12:08:24", "marker-color": "#FF565E"}}, {"type": "Feature", "geometry": {"type": "Point", "coordinates": [2.583441, 48.842724]}, "properties": {"etat de la localisation": "Delocalise", "numparc": 5901, "duree": "00:00:30", "horodatage": "2022-05-13 12:25:22", "marker-color": "#FF565E"}}, {"type": "Feature", "geometry": {"type": "Point", "coordinates": [2.583508, 48.84264]}, "properties": {"etat de la localisation": "Delocalise", "numparc": 5891, "duree": "00:00:28", "horodatage": "2022-05-13 12:40:42", "marker-color": "#FF565E"}}, {"type": "Feature", "geometry": {"type": "Point", "coordinates": [2.582486, 48.842773]}, "properties": {"etat de la localisation": "Hors service", "numparc": 5903, "duree": "", "horodatage": "2022-05-13 12:48:30", "marker-color": "#707070"}}, {"type": "Feature", "geometry": {"type": "Point", "coordinates": [2.583453, 48.842716]}, "properties": {"etat de la localisation": "Delocalise", "numparc": 5899, "duree": "00:00:39", "horodatage": "2022-05-13 13:08:44", "marker-color": "#FF565E"}}, {"type": "Feature", "geometry": {"type": "Point", "coordinates": [2.582896, 48.842819]}, "properties": {"etat de la localisation": "Hors service", "numparc": 5903, "duree": "", "horodatage": "2022-05-13 13:50:34", "marker-color": "#707070"}}, {"type": "Feature", "geometry": {"type": "Point", "coordinates": [2.59152, 48.840656]}, "properties": {"etat de la localisation": "Mission inconnue", "numparc": 5903, "duree": "", "horodatage": "2022-05-13 13:54:15", "marker-color": "#FF9F56"}}, {"type": "Feature", "geometry": {"type": "Point", "coordinates": [2.583494, 48.843147]}, "properties": {"etat de la localisation": "Delocalise", "numparc": 5901, "duree": "00:03:59", "horodatage": "2022-05-13 14:01:31", "marker-color": "#FF565E"}}, {"type": "Feature", "geometry": {"type": "Point", "coordinates": [2.582497, 48.843616]}, "properties": {"etat de la localisation": "Hors service", "numparc": 5901, "duree": "", "horodatage": "2022-05-13 14:08:02", "marker-color": "#707070"}}, {"type": "Feature", "geometry": {"type": "Point", "coordinates": [2.583509, 48.842667]}, "properties": {"etat de la localisation": "Delocalise", "numparc": 5891, "duree": "00:01:47", "horodatage": "2022-05-13 14:15:58", "marker-color": "#FF565E"}}, {"type": "Feature", "geometry": {"type": "Point", "coordinates": [2.583425, 48.842655]}, "properties": {"etat de la localisation": "Delocalise", "numparc": 5903, "duree": "00:02:22", "horodatage": "2022-05-13 14:16:34", "marker-color": "#FF565E"}}, {"type": "Feature", "geometry": {"type": "Point", "coordinates": [2.59402, 48.840588]}, "properties": {"etat de la localisation": "Delocalise", "numparc": 5903, "duree": "00:00:51", "horodatage": "2022-05-13 14:40:28", "marker-color": "#FF565E"}}, {"type": "Feature", "geometry": {"type": "Point", "coordinates": [2.592185, 48.836018]}, "properties": {"etat de la localisation": "Delocalise", "numparc": 5903, "duree": "00:00:14", "horodatage": "2022-05-13 14:42:59", "marker-color": "#FF565E"}}, {"type": "Feature", "geometry": {"type": "Point", "coordinates": [2.593837, 48.839943]}, "properties": {"etat de la localisation": "Delocalise", "numparc": 5894, "duree": "00:01:57", "horodatage": "2022-05-13 14:43:16", "marker-color": "#FF565E"}}, {"type": "Feature", "geometry": {"type": "Point", "coordinates": [2.659533, 48.842987]}, "properties": {"etat de la localisation": "Hors service", "numparc": 5894, "duree": "", "horodatage": "2022-05-13 15:03:45", "marker-color": "#707070"}}, {"type": "Feature", "geometry": {"type": "Point", "coordinates": [2.582722, 48.842743]}, "properties": {"etat de la localisation": "Hors service", "numparc": 5903, "duree": "", "horodatage": "2022-05-13 15:07:58", "marker-color": "#707070"}}, {"type": "Feature", "geometry": {"type": "Point", "coordinates": [2.5841, 48.840973]}, "properties": {"etat de la localisation": "Delocalise", "numparc": 5903, "duree": "00:02:35", "horodatage": "2022-05-13 15:17:39", "marker-color": "#FF565E"}}, {"type": "Feature", "geometry": {"type": "Point", "coordinates": [2.58349, 48.842659]}, "properties": {"etat de la localisation": "Delocalise", "numparc": 5885, "duree": "00:00:28", "horodatage": "2022-05-13 15:27:43", "marker-color": "#FF565E"}}, {"type": "Feature", "geometry": {"type": "Point", "coordinates": [2.582503, 48.842659]}, "properties": {"etat de la localisation": "Hors service", "numparc": 5903, "duree": "", "horodatage": "2022-05-13 15:45:50", "marker-color": "#707070"}}, {"type": "Feature", "geometry": {"type": "Point", "coordinates": [2.660671, 48.842087]}, "properties": {"etat de la localisation": "Delocalise", "numparc": 5867, "duree": "00:01:13", "horodatage": "2022-05-13 16:13:34", "marker-color": "#FF565E"}}, {"type": "Feature", "geometry": {"type": "Point", "coordinates": [2.660697, 48.842216]}, "properties": {"etat de la localisation": "Mission inconnue", "numparc": 5898, "duree": "", "horodatage": "2022-05-13 16:16:00", "marker-color": "#FF9F56"}}, {"type": "Feature", "geometry": {"type": "Point", "coordinates": [2.593127, 48.838249]}, "properties": {"etat de la localisation": "Mission suivante non connue", "numparc": 5903, "duree": "", "horodatage": "2022-05-13 16:18:38", "marker-color": "#7156FF"}}, {"type": "Feature", "geometry": {"type": "Point", "coordinates": [2.583573, 48.843494]}, "properties": {"etat de la localisation": "Delocalise", "numparc": 5903, "duree": "00:21:46", "horodatage": "2022-05-13 16:28:05", "marker-color": "#FF565E"}}, {"type": "Feature", "geometry": {"type": "Point", "coordinates": [2.658892, 48.842411]}, "properties": {"etat de la localisation": "Delocalise", "numparc": 5904, "duree": "00:01:09", "horodatage": "2022-05-13 16:33:28", "marker-color": "#FF565E"}}, {"type": "Feature", "geometry": {"type": "Point", "coordinates": [2.58328, 48.874355]}, "properties": {"etat de la localisation": "Mission suivante non connue", "numparc": 5895, "duree": "", "horodatage": "2022-05-13 16:48:25", "marker-color": "#7156FF"}}, {"type": "Feature", "geometry": {"type": "Point", "coordinates": [2.582318, 48.843609]}, "properties": {"etat de la localisation": "Hors service", "numparc": 5903, "duree": "", "horodatage": "2022-05-13 16:49:51", "marker-color": "#707070"}}, {"type": "Feature", "geometry": {"type": "Point", "coordinates": [2.583274, 48.844109]}, "properties": {"etat de la localisation": "Mission suivante non connue", "numparc": 5903, "duree": "", "horodatage": "2022-05-13 17:03:55", "marker-color": "#7156FF"}}, {"type": "Feature", "geometry": {"type": "Point", "coordinates": [2.58227, 48.843651]}, "properties": {"etat de la localisation": "Mission suivante non connue", "numparc": 5903, "duree": "", "horodatage": "2022-05-13 17:27:39", "marker-color": "#7156FF"}}, {"type": "Feature", "geometry": {"type": "Point", "coordinates": [2.591539, 48.840672]}, "properties": {"etat de la localisation": "Delocalise", "numparc": 5899, "duree": "00:02:48", "horodatage": "2022-05-13 17:31:43", "marker-color": "#FF565E"}}, {"type": "Feature", "geometry": {"type": "Point", "coordinates": [2.582068, 48.843628]}, "properties": {"etat de la localisation": "Hors service", "numparc": 5903, "duree": "", "horodatage": "2022-05-13 17:49:05", "marker-color": "#707070"}}, {"type": "Feature", "geometry": {"type": "Point", "coordinates": [2.586236, 48.84042]}, "properties": {"etat de la localisation": "Mission inconnue", "numparc": 5903, "duree": "", "horodatage": "2022-05-13 17:54:35", "marker-color": "#FF9F56"}}, {"type": "Feature", "geometry": {"type": "Point", "coordinates": [2.585247, 48.839725]}, "properties": {"etat de la localisation": "Delocalise", "numparc": 5903, "duree": "00:01:54", "horodatage": "2022-05-13 17:59:35", "marker-color": "#FF565E"}}, {"type": "Feature", "geometry": {"type": "Point", "coordinates": [2.605591, 48.841412]}, "properties": {"etat de la localisation": "Mission suivante non connue", "numparc": 5867, "duree": "", "horodatage": "2022-05-13 18:10:24", "marker-color": "#7156FF"}}, {"type": "Feature", "geometry": {"type": "Point", "coordinates": [2.605591, 48.841412]}, "properties": {"etat de la localisation": "Mission inconnue", "numparc": 5867, "duree": "", "horodatage": "2022-05-13 18:11:02", "marker-color": "#FF9F56"}}, {"type": "Feature", "geometry": {"type": "Point", "coordinates": [2.659197, 48.842464]}, "properties": {"etat de la localisation": "Hors service", "numparc": 5903, "duree": "", "horodatage": "2022-05-13 18:15:05", "marker-color": "#707070"}}, {"type": "Feature", "geometry": {"type": "Point", "coordinates": [2.583514, 48.842659]}, "properties": {"etat de la localisation": "Delocalise", "numparc": 5885, "duree": "00:05:06", "horodatage": "2022-05-13 18:24:17", "marker-color": "#FF565E"}}, {"type": "Feature", "geometry": {"type": "Point", "coordinates": [2.658883, 48.842381]}, "properties": {"etat de la localisation": "Hors service", "numparc": 5867, "duree": "", "horodatage": "2022-05-13 18:24:28", "marker-color": "#707070"}}, {"type": "Feature", "geometry": {"type": "Point", "coordinates": [2.584182, 48.845123]}, "properties": {"etat de la localisation": "Delocalise", "numparc": 5904, "duree": "00:01:23", "horodatage": "2022-05-13 18:40:50", "marker-color": "#FF565E"}}, {"type": "Feature", "geometry": {"type": "Point", "coordinates": [2.578582, 48.862267]}, "properties": {"etat de la localisation": "Delocalise", "numparc": 5898, "duree": "00:00:00", "horodatage": "2022-05-13 18:52:22", "marker-color": "#FF565E"}}, {"type": "Feature", "geometry": {"type": "Point", "coordinates": [2.585659, 48.855701]}, "properties": {"etat de la localisation": "Delocalise", "numparc": 5895, "duree": "00:12:48", "horodatage": "2022-05-13 18:53:09", "marker-color": "#FF565E"}}, {"type": "Feature", "geometry": {"type": "Point", "coordinates": [2.577089, 48.863022]}, "properties": {"etat de la localisation": "Delocalise", "numparc": 5898, "duree": "00:00:00", "horodatage": "2022-05-13 18:55:04", "marker-color": "#FF565E"}}, {"type": "Feature", "geometry": {"type": "Point", "coordinates": [2.659162, 48.842201]}, "properties": {"etat de la localisation": "Hors service", "numparc": 5899, "duree": "", "horodatage": "2022-05-13 19:04:53", "marker-color": "#707070"}}, {"type": "Feature", "geometry": {"type": "Point", "coordinates": [2.582197, 48.857361]}, "properties": {"etat de la localisation": "Delocalise", "numparc": 5895, "duree": "00:01:08", "horodatage": "2022-05-13 19:06:44", "marker-color": "#FF565E"}}, {"type": "Feature", "geometry": {"type": "Point", "coordinates": [2.579412, 48.854679]}, "properties": {"etat de la localisation": "Delocalise", "numparc": 5895, "duree": "00:01:18", "horodatage": "2022-05-13 19:08:51", "marker-color": "#FF565E"}}, {"type": "Feature", "geometry": {"type": "Point", "coordinates": [2.581607, 48.850601]}, "properties": {"etat de la localisation": "Delocalise", "numparc": 5895, "duree": "00:01:06", "horodatage": "2022-05-13 19:10:43", "marker-color": "#FF565E"}}, {"type": "Feature", "geometry": {"type": "Point", "coordinates": [2.585393, 48.849129]}, "properties": {"etat de la localisation": "Delocalise", "numparc": 5895, "duree": "00:00:25", "horodatage": "2022-05-13 19:12:15", "marker-color": "#FF565E"}}, {"type": "Feature", "geometry": {"type": "Point", "coordinates": [2.585537, 48.847641]}, "properties": {"etat de la localisation": "Mission inconnue", "numparc": 5895, "duree": "", "horodatage": "2022-05-13 19:13:21", "marker-color": "#FF9F56"}}, {"type": "Feature", "geometry": {"type": "Point", "coordinates": [2.659215, 48.842171]}, "properties": {"etat de la localisation": "Hors service", "numparc": 5891, "duree": "", "horodatage": "2022-05-13 19:22:21", "marker-color": "#707070"}}, {"type": "Feature", "geometry": {"type": "Point", "coordinates": [2.659517, 48.842152]}, "properties": {"etat de la localisation": "Hors service", "numparc": 5901, "duree": "", "horodatage": "2022-05-13 19:26:40", "marker-color": "#707070"}}, {"type": "Feature", "geometry": {"type": "Point", "coordinates": [2.621134, 48.84013]}, "properties": {"etat de la localisation": "Delocalise", "numparc": 5895, "duree": "00:00:22", "horodatage": "2022-05-13 19:35:51", "marker-color": "#FF565E"}}, {"type": "Feature", "geometry": {"type": "Point", "coordinates": [2.626201, 48.83894]}, "properties": {"etat de la localisation": "Mission inconnue", "numparc": 5895, "duree": "", "horodatage": "2022-05-13 19:36:13", "marker-color": "#FF9F56"}}, {"type": "Feature", "geometry": {"type": "Point", "coordinates": [2.628005, 48.83876]}, "properties": {"etat de la localisation": "Mission inconnue", "numparc": 5895, "duree": "", "horodatage": "2022-05-13 19:37:24", "marker-color": "#FF9F56"}}, {"type": "Feature", "geometry": {"type": "Point", "coordinates": [2.659367, 48.842186]}, "properties": {"etat de la localisation": "Hors service", "numparc": 5898, "duree": "", "horodatage": "2022-05-13 19:38:55", "marker-color": "#707070"}}, {"type": "Feature", "geometry": {"type": "Point", "coordinates": [2.659025, 48.842442]}, "properties": {"etat de la localisation": "Mission inconnue", "numparc": 5898, "duree": "", "horodatage": "2022-05-13 20:02:11", "marker-color": "#FF9F56"}}, {"type": "Feature", "geometry": {"type": "Point", "coordinates": [2.659025, 48.842442]}, "properties": {"etat de la localisation": "Hors service", "numparc": 5898, "duree": "", "horodatage": "2022-05-13 20:04:37", "marker-color": "#707070"}}, {"type": "Feature", "geometry": {"type": "Point", "coordinates": [2.659232, 48.842445]}, "properties": {"etat de la localisation": "Hors service", "numparc": 5885, "duree": "", "horodatage": "2022-05-13 20:18:08", "marker-color": "#707070"}}, {"type": "Feature", "geometry": {"type": "Point", "coordinates": [2.578943, 48.854588]}, "properties": {"etat de la localisation": "Mission inconnue", "numparc": 5895, "duree": "", "horodatage": "2022-05-13 20:19:25", "marker-color": "#FF9F56"}}, {"type": "Feature", "geometry": {"type": "Point", "coordinates": [2.577468, 48.862812]}, "properties": {"etat de la localisation": "Delocalise", "numparc": 5895, "duree": "00:00:42", "horodatage": "2022-05-13 20:24:48", "marker-color": "#FF565E"}}, {"type": "Feature", "geometry": {"type": "Point", "coordinates": [2.659506, 48.842781]}, "properties": {"etat de la localisation": "Hors service", "numparc": 5895, "duree": "", "horodatage": "2022-05-13 22:26:26", "marker-color": "#707070"}}, {"type": "Feature", "geometry": {"type": "Point", "coordinates": [2.659547, 48.842766]}, "properties": {"etat de la localisation": "Hors service", "numparc": 5904, "duree": "", "horodatage": "2022-05-13 22:58:11", "marker-color": "#707070"}}]}