{"type": "FeatureCollection", "features": [{"type": "Feature", "geometry": {"type": "Point", "coordinates": [2.260357, 48.724628]}, "properties": {"alarme": "VEHICULE DELOCALISE", "numparc": 5852, "type": "EXPLOITATION", "duree": "00:01:52", "horodatage": "2022-07-09 06:20:41", "statut": "start", "marker-color": "#ff0000"}}, {"type": "Feature", "geometry": {"type": "Point", "coordinates": [2.357353, 48.748196]}, "properties": {"alarme": "VEHICULE DELOCALISE", "numparc": 5854, "type": "EXPLOITATION", "duree": "00:07:56", "horodatage": "2022-07-09 06:26:54", "statut": "start", "marker-color": "#ff0000"}}, {"type": "Feature", "geometry": {"type": "Point", "coordinates": [2.364487, 48.759579]}, "properties": {"alarme": "VEHICULE DELOCALISE", "numparc": 5854, "type": "EXPLOITATION", "duree": "00:01:10", "horodatage": "2022-07-09 06:37:29", "statut": "start", "marker-color": "#ff0000"}}, {"type": "Feature", "geometry": {"type": "Point", "coordinates": [2.281081, 48.727798]}, "properties": {"alarme": "VEHICULE DELOCALISE", "numparc": 5854, "type": "EXPLOITATION", "duree": "00:01:57", "horodatage": "2022-07-09 07:30:08", "statut": "start", "marker-color": "#ff0000"}}, {"type": "Feature", "geometry": {"type": "Point", "coordinates": [2.364524, 48.759571]}, "properties": {"alarme": "VEHICULE DELOCALISE", "numparc": 5860, "type": "EXPLOITATION", "duree": "00:01:42", "horodatage": "2022-07-09 07:37:51", "statut": "start", "marker-color": "#ff0000"}}, {"type": "Feature", "geometry": {"type": "Point", "coordinates": [2.357342, 48.748161]}, "properties": {"alarme": "VEHICULE DELOCALISE", "numparc": 5854, "type": "EXPLOITATION", "duree": "00:07:54", "horodatage": "2022-07-09 08:39:03", "statut": "start", "marker-color": "#ff0000"}}, {"type": "Feature", "geometry": {"type": "Point", "coordinates": [2.280203, 48.727673]}, "properties": {"alarme": "VEHICULE DELOCALISE", "numparc": 5852, "type": "EXPLOITATION", "duree": "00:01:31", "horodatage": "2022-07-09 08:42:34", "statut": "start", "marker-color": "#ff0000"}}, {"type": "Feature", "geometry": {"type": "Point", "coordinates": [2.267591, 48.720875]}, "properties": {"alarme": "VEHICULE DELOCALISE", "numparc": 5855, "type": "EXPLOITATION", "duree": "00:00:39", "horodatage": "2022-07-09 09:05:42", "statut": "start", "marker-color": "#ff0000"}}, {"type": "Feature", "geometry": {"type": "Point", "coordinates": [2.261823, 48.72562]}, "properties": {"alarme": "VEHICULE DELOCALISE", "numparc": 5853, "type": "EXPLOITATION", "duree": "00:29:59", "horodatage": "2022-07-09 10:04:56", "statut": "start", "marker-color": "#ff0000"}}, {"type": "Feature", "geometry": {"type": "Point", "coordinates": [2.260596, 48.723873]}, "properties": {"alarme": "VEHICULE DELOCALISE", "numparc": 5854, "type": "EXPLOITATION", "duree": "00:00:24", "horodatage": "2022-07-09 10:39:34", "statut": "start", "marker-color": "#ff0000"}}, {"type": "Feature", "geometry": {"type": "Point", "coordinates": [2.267312, 48.724216]}, "properties": {"alarme": "VEHICULE DELOCALISE", "numparc": 5862, "type": "EXPLOITATION", "duree": "00:08:20", "horodatage": "2022-07-09 11:15:09", "statut": "start", "marker-color": "#ff0000"}}, {"type": "Feature", "geometry": {"type": "Point", "coordinates": [2.35707, 48.74807]}, "properties": {"alarme": "VEHICULE DELOCALISE", "numparc": 5854, "type": "EXPLOITATION", "duree": "00:04:56", "horodatage": "2022-07-09 11:21:44", "statut": "start", "marker-color": "#ff0000"}}, {"type": "Feature", "geometry": {"type": "Point", "coordinates": [2.267468, 48.72068]}, "properties": {"alarme": "VEHICULE DELOCALISE", "numparc": 5862, "type": "EXPLOITATION", "duree": "00:00:35", "horodatage": "2022-07-09 11:23:50", "statut": "start", "marker-color": "#ff0000"}}, {"type": "Feature", "geometry": {"type": "Point", "coordinates": [2.268173, 48.71891]}, "properties": {"alarme": "VEHICULE DELOCALISE", "numparc": 5862, "type": "EXPLOITATION", "duree": "00:00:32", "horodatage": "2022-07-09 11:25:13", "statut": "start", "marker-color": "#ff0000"}}, {"type": "Feature", "geometry": {"type": "Point", "coordinates": [2.272564, 48.721363]}, "properties": {"alarme": "VEHICULE DELOCALISE", "numparc": 5862, "type": "EXPLOITATION", "duree": "00:00:26", "horodatage": "2022-07-09 11:26:35", "statut": "start", "marker-color": "#ff0000"}}, {"type": "Feature", "geometry": {"type": "Point", "coordinates": [2.26947, 48.723938]}, "properties": {"alarme": "VEHICULE DELOCALISE", "numparc": 5862, "type": "EXPLOITATION", "duree": "00:02:46", "horodatage": "2022-07-09 11:28:26", "statut": "start", "marker-color": "#ff0000"}}, {"type": "Feature", "geometry": {"type": "Point", "coordinates": [2.276655, 48.729019]}, "properties": {"alarme": "VEHICULE DELOCALISE", "numparc": 5862, "type": "EXPLOITATION", "duree": "00:00:38", "horodatage": "2022-07-09 11:32:37", "statut": "start", "marker-color": "#ff0000"}}, {"type": "Feature", "geometry": {"type": "Point", "coordinates": [2.280794, 48.727551]}, "properties": {"alarme": "VEHICULE DELOCALISE", "numparc": 5862, "type": "EXPLOITATION", "duree": "00:00:24", "horodatage": "2022-07-09 11:33:52", "statut": "start", "marker-color": "#ff0000"}}, {"type": "Feature", "geometry": {"type": "Point", "coordinates": [2.284533, 48.728184]}, "properties": {"alarme": "VEHICULE DELOCALISE", "numparc": 5862, "type": "EXPLOITATION", "duree": "00:02:46", "horodatage": "2022-07-09 11:34:50", "statut": "start", "marker-color": "#ff0000"}}, {"type": "Feature", "geometry": {"type": "Point", "coordinates": [2.260315, 48.724495]}, "properties": {"alarme": "VEHICULE DELOCALISE", "numparc": 5855, "type": "EXPLOITATION", "duree": "00:00:49", "horodatage": "2022-07-09 11:43:22", "statut": "start", "marker-color": "#ff0000"}}, {"type": "Feature", "geometry": {"type": "Point", "coordinates": [2.281048, 48.727928]}, "properties": {"alarme": "VEHICULE DELOCALISE", "numparc": 5862, "type": "EXPLOITATION", "duree": "00:00:32", "horodatage": "2022-07-09 13:31:56", "statut": "start", "marker-color": "#ff0000"}}, {"type": "Feature", "geometry": {"type": "Point", "coordinates": [2.357001, 48.748337]}, "properties": {"alarme": "VEHICULE DELOCALISE", "numparc": 5855, "type": "EXPLOITATION", "duree": "00:04:50", "horodatage": "2022-07-09 14:13:13", "statut": "start", "marker-color": "#ff0000"}}, {"type": "Feature", "geometry": {"type": "Point", "coordinates": [2.281075, 48.727982]}, "properties": {"alarme": "VEHICULE DELOCALISE", "numparc": 5854, "type": "EXPLOITATION", "duree": "00:01:04", "horodatage": "2022-07-09 14:46:39", "statut": "start", "marker-color": "#ff0000"}}, {"type": "Feature", "geometry": {"type": "Point", "coordinates": [2.364447, 48.759575]}, "properties": {"alarme": "VEHICULE DELOCALISE", "numparc": 5862, "type": "EXPLOITATION", "duree": "00:07:27", "horodatage": "2022-07-09 14:54:28", "statut": "start", "marker-color": "#ff0000"}}, {"type": "Feature", "geometry": {"type": "Point", "coordinates": [2.3585, 48.76231]}, "properties": {"alarme": "VEHICULE DELOCALISE", "numparc": 5862, "type": "EXPLOITATION", "duree": "00:01:26", "horodatage": "2022-07-09 15:02:34", "statut": "start", "marker-color": "#ff0000"}}, {"type": "Feature", "geometry": {"type": "Point", "coordinates": [2.260475, 48.723843]}, "properties": {"alarme": "VEHICULE DELOCALISE", "numparc": 5862, "type": "EXPLOITATION", "duree": "00:00:33", "horodatage": "2022-07-09 16:48:48", "statut": "start", "marker-color": "#ff0000"}}, {"type": "Feature", "geometry": {"type": "Point", "coordinates": [2.260158, 48.72438]}, "properties": {"alarme": "VEHICULE DELOCALISE", "numparc": 5855, "type": "EXPLOITATION", "duree": "00:00:56", "horodatage": "2022-07-09 17:17:56", "statut": "start", "marker-color": "#ff0000"}}, {"type": "Feature", "geometry": {"type": "Point", "coordinates": [2.357445, 48.748047]}, "properties": {"alarme": "VEHICULE DELOCALISE", "numparc": 5855, "type": "EXPLOITATION", "duree": "00:05:36", "horodatage": "2022-07-09 17:56:43", "statut": "start", "marker-color": "#ff0000"}}, {"type": "Feature", "geometry": {"type": "Point", "coordinates": [2.364551, 48.75964]}, "properties": {"alarme": "VEHICULE DELOCALISE", "numparc": 5855, "type": "EXPLOITATION", "duree": "00:01:33", "horodatage": "2022-07-09 18:04:13", "statut": "start", "marker-color": "#ff0000"}}, {"type": "Feature", "geometry": {"type": "Point", "coordinates": [2.364495, 48.759632]}, "properties": {"alarme": "VEHICULE DELOCALISE", "numparc": 5862, "type": "EXPLOITATION", "duree": "00:07:58", "horodatage": "2022-07-09 20:06:41", "statut": "start", "marker-color": "#ff0000"}}, {"type": "Feature", "geometry": {"type": "Point", "coordinates": [2.260295, 48.724468]}, "properties": {"alarme": "VEHICULE DELOCALISE", "numparc": 5818, "type": "EXPLOITATION", "duree": "00:00:58", "horodatage": "2022-07-09 21:31:31", "statut": "start", "marker-color": "#ff0000"}}, {"type": "Feature", "geometry": {"type": "Point", "coordinates": [2.260925, 48.724976]}, "properties": {"alarme": "VEHICULE DELOCALISE", "numparc": 5849, "type": "EXPLOITATION", "duree": "00:00:57", "horodatage": "2022-07-09 21:53:05", "statut": "start", "marker-color": "#ff0000"}}, {"type": "Feature", "geometry": {"type": "Point", "coordinates": [2.260208, 48.724525]}, "properties": {"alarme": "VEHICULE DELOCALISE", "numparc": 5818, "type": "EXPLOITATION", "duree": "00:00:52", "horodatage": "2022-07-09 22:11:42", "statut": "start", "marker-color": "#ff0000"}}, {"type": "Feature", "geometry": {"type": "Point", "coordinates": [2.266196, 48.721706]}, "properties": {"alarme": "VEHICULE DELOCALISE", "numparc": 5852, "type": "EXPLOITATION", "duree": "00:01:52", "horodatage": "2022-07-09 06:22:33", "statut": "end", "marker-color": "#2fe184"}}, {"type": "Feature", "geometry": {"type": "Point", "coordinates": [2.370584, 48.758377]}, "properties": {"alarme": "VEHICULE DELOCALISE", "numparc": 5854, "type": "EXPLOITATION", "duree": "00:07:56", "horodatage": "2022-07-09 06:34:50", "statut": "end", "marker-color": "#2fe184"}}, {"type": "Feature", "geometry": {"type": "Point", "coordinates": [2.358351, 48.763176]}, "properties": {"alarme": "VEHICULE DELOCALISE", "numparc": 5854, "type": "EXPLOITATION", "duree": "00:01:10", "horodatage": "2022-07-09 06:38:39", "statut": "end", "marker-color": "#2fe184"}}, {"type": "Feature", "geometry": {"type": "Point", "coordinates": [2.274192, 48.728405]}, "properties": {"alarme": "VEHICULE DELOCALISE", "numparc": 5854, "type": "EXPLOITATION", "duree": "00:01:57", "horodatage": "2022-07-09 07:32:05", "statut": "end", "marker-color": "#2fe184"}}, {"type": "Feature", "geometry": {"type": "Point", "coordinates": [2.358256, 48.763287]}, "properties": {"alarme": "VEHICULE DELOCALISE", "numparc": 5860, "type": "EXPLOITATION", "duree": "00:01:42", "horodatage": "2022-07-09 07:39:33", "statut": "end", "marker-color": "#2fe184"}}, {"type": "Feature", "geometry": {"type": "Point", "coordinates": [2.358368, 48.763168]}, "properties": {"alarme": "VEHICULE DELOCALISE", "numparc": 5854, "type": "EXPLOITATION", "duree": "00:07:54", "horodatage": "2022-07-09 08:46:57", "statut": "end", "marker-color": "#2fe184"}}, {"type": "Feature", "geometry": {"type": "Point", "coordinates": [2.285376, 48.729698]}, "properties": {"alarme": "VEHICULE DELOCALISE", "numparc": 5852, "type": "EXPLOITATION", "duree": "00:01:31", "horodatage": "2022-07-09 08:44:05", "statut": "end", "marker-color": "#2fe184"}}, {"type": "Feature", "geometry": {"type": "Point", "coordinates": [2.266301, 48.719608]}, "properties": {"alarme": "VEHICULE DELOCALISE", "numparc": 5855, "type": "EXPLOITATION", "duree": "00:00:39", "horodatage": "2022-07-09 09:06:21", "statut": "end", "marker-color": "#2fe184"}}, {"type": "Feature", "geometry": {"type": "Point", "coordinates": [2.298285, 48.721687]}, "properties": {"alarme": "VEHICULE DELOCALISE", "numparc": 5853, "type": "EXPLOITATION", "duree": "00:29:59", "horodatage": "2022-07-09 10:34:55", "statut": "end", "marker-color": "#2fe184"}}, {"type": "Feature", "geometry": {"type": "Point", "coordinates": [2.261665, 48.723148]}, "properties": {"alarme": "VEHICULE DELOCALISE", "numparc": 5854, "type": "EXPLOITATION", "duree": "00:00:24", "horodatage": "2022-07-09 10:39:58", "statut": "end", "marker-color": "#2fe184"}}, {"type": "Feature", "geometry": {"type": "Point", "coordinates": [2.266294, 48.721722]}, "properties": {"alarme": "VEHICULE DELOCALISE", "numparc": 5862, "type": "EXPLOITATION", "duree": "00:08:20", "horodatage": "2022-07-09 11:23:29", "statut": "end", "marker-color": "#2fe184"}}, {"type": "Feature", "geometry": {"type": "Point", "coordinates": [2.370593, 48.7584]}, "properties": {"alarme": "VEHICULE DELOCALISE", "numparc": 5854, "type": "EXPLOITATION", "duree": "00:04:56", "horodatage": "2022-07-09 11:26:40", "statut": "end", "marker-color": "#2fe184"}}, {"type": "Feature", "geometry": {"type": "Point", "coordinates": [2.266395, 48.719505]}, "properties": {"alarme": "VEHICULE DELOCALISE", "numparc": 5862, "type": "EXPLOITATION", "duree": "00:00:35", "horodatage": "2022-07-09 11:24:25", "statut": "end", "marker-color": "#2fe184"}}, {"type": "Feature", "geometry": {"type": "Point", "coordinates": [2.270897, 48.719994]}, "properties": {"alarme": "VEHICULE DELOCALISE", "numparc": 5862, "type": "EXPLOITATION", "duree": "00:00:32", "horodatage": "2022-07-09 11:25:45", "statut": "end", "marker-color": "#2fe184"}}, {"type": "Feature", "geometry": {"type": "Point", "coordinates": [2.271193, 48.72261]}, "properties": {"alarme": "VEHICULE DELOCALISE", "numparc": 5862, "type": "EXPLOITATION", "duree": "00:00:26", "horodatage": "2022-07-09 11:27:01", "statut": "end", "marker-color": "#2fe184"}}, {"type": "Feature", "geometry": {"type": "Point", "coordinates": [2.274547, 48.728508]}, "properties": {"alarme": "VEHICULE DELOCALISE", "numparc": 5862, "type": "EXPLOITATION", "duree": "00:02:46", "horodatage": "2022-07-09 11:31:12", "statut": "end", "marker-color": "#2fe184"}}, {"type": "Feature", "geometry": {"type": "Point", "coordinates": [2.278915, 48.72826]}, "properties": {"alarme": "VEHICULE DELOCALISE", "numparc": 5862, "type": "EXPLOITATION", "duree": "00:00:38", "horodatage": "2022-07-09 11:33:15", "statut": "end", "marker-color": "#2fe184"}}, {"type": "Feature", "geometry": {"type": "Point", "coordinates": [2.282417, 48.727669]}, "properties": {"alarme": "VEHICULE DELOCALISE", "numparc": 5862, "type": "EXPLOITATION", "duree": "00:00:24", "horodatage": "2022-07-09 11:34:16", "statut": "end", "marker-color": "#2fe184"}}, {"type": "Feature", "geometry": {"type": "Point", "coordinates": [2.286265, 48.732529]}, "properties": {"alarme": "VEHICULE DELOCALISE", "numparc": 5862, "type": "EXPLOITATION", "duree": "00:02:46", "horodatage": "2022-07-09 11:37:36", "statut": "end", "marker-color": "#2fe184"}}, {"type": "Feature", "geometry": {"type": "Point", "coordinates": [2.262119, 48.722794]}, "properties": {"alarme": "VEHICULE DELOCALISE", "numparc": 5855, "type": "EXPLOITATION", "duree": "00:00:49", "horodatage": "2022-07-09 11:44:11", "statut": "end", "marker-color": "#2fe184"}}, {"type": "Feature", "geometry": {"type": "Point", "coordinates": [2.279336, 48.728313]}, "properties": {"alarme": "VEHICULE DELOCALISE", "numparc": 5862, "type": "EXPLOITATION", "duree": "00:00:32", "horodatage": "2022-07-09 13:32:28", "statut": "end", "marker-color": "#2fe184"}}, {"type": "Feature", "geometry": {"type": "Point", "coordinates": [2.370659, 48.758228]}, "properties": {"alarme": "VEHICULE DELOCALISE", "numparc": 5855, "type": "EXPLOITATION", "duree": "00:04:50", "horodatage": "2022-07-09 14:18:03", "statut": "end", "marker-color": "#2fe184"}}, {"type": "Feature", "geometry": {"type": "Point", "coordinates": [2.276129, 48.729572]}, "properties": {"alarme": "VEHICULE DELOCALISE", "numparc": 5854, "type": "EXPLOITATION", "duree": "00:01:04", "horodatage": "2022-07-09 14:47:43", "statut": "end", "marker-color": "#2fe184"}}, {"type": "Feature", "geometry": {"type": "Point", "coordinates": [2.358169, 48.762894]}, "properties": {"alarme": "VEHICULE DELOCALISE", "numparc": 5862, "type": "EXPLOITATION", "duree": "00:07:27", "horodatage": "2022-07-09 15:01:55", "statut": "end", "marker-color": "#2fe184"}}, {"type": "Feature", "geometry": {"type": "Point", "coordinates": [2.365946, 48.759171]}, "properties": {"alarme": "VEHICULE DELOCALISE", "numparc": 5862, "type": "EXPLOITATION", "duree": "00:01:26", "horodatage": "2022-07-09 15:04:00", "statut": "end", "marker-color": "#2fe184"}}, {"type": "Feature", "geometry": {"type": "Point", "coordinates": [2.262108, 48.722733]}, "properties": {"alarme": "VEHICULE DELOCALISE", "numparc": 5862, "type": "EXPLOITATION", "duree": "00:00:33", "horodatage": "2022-07-09 16:49:21", "statut": "end", "marker-color": "#2fe184"}}, {"type": "Feature", "geometry": {"type": "Point", "coordinates": [2.262024, 48.722843]}, "properties": {"alarme": "VEHICULE DELOCALISE", "numparc": 5855, "type": "EXPLOITATION", "duree": "00:00:56", "horodatage": "2022-07-09 17:18:52", "statut": "end", "marker-color": "#2fe184"}}, {"type": "Feature", "geometry": {"type": "Point", "coordinates": [2.370626, 48.758335]}, "properties": {"alarme": "VEHICULE DELOCALISE", "numparc": 5855, "type": "EXPLOITATION", "duree": "00:05:36", "horodatage": "2022-07-09 18:02:19", "statut": "end", "marker-color": "#2fe184"}}, {"type": "Feature", "geometry": {"type": "Point", "coordinates": [2.358251, 48.76329]}, "properties": {"alarme": "VEHICULE DELOCALISE", "numparc": 5855, "type": "EXPLOITATION", "duree": "00:01:33", "horodatage": "2022-07-09 18:05:46", "statut": "end", "marker-color": "#2fe184"}}, {"type": "Feature", "geometry": {"type": "Point", "coordinates": [2.304239, 48.72802]}, "properties": {"alarme": "VEHICULE DELOCALISE", "numparc": 5862, "type": "EXPLOITATION", "duree": "00:07:58", "horodatage": "2022-07-09 20:14:39", "statut": "end", "marker-color": "#2fe184"}}, {"type": "Feature", "geometry": {"type": "Point", "coordinates": [2.262072, 48.722836]}, "properties": {"alarme": "VEHICULE DELOCALISE", "numparc": 5818, "type": "EXPLOITATION", "duree": "00:00:58", "horodatage": "2022-07-09 21:32:29", "statut": "end", "marker-color": "#2fe184"}}, {"type": "Feature", "geometry": {"type": "Point", "coordinates": [2.262176, 48.722733]}, "properties": {"alarme": "VEHICULE DELOCALISE", "numparc": 5849, "type": "EXPLOITATION", "duree": "00:00:57", "horodatage": "2022-07-09 21:54:02", "statut": "end", "marker-color": "#2fe184"}}, {"type": "Feature", "geometry": {"type": "Point", "coordinates": [2.262161, 48.722782]}, "properties": {"alarme": "VEHICULE DELOCALISE", "numparc": 5818, "type": "EXPLOITATION", "duree": "00:00:52", "horodatage": "2022-07-09 22:12:34", "statut": "end", "marker-color": "#2fe184"}}]}