{"type": "FeatureCollection", "features": [{"type": "Feature", "geometry": {"type": "Point", "coordinates": [2.329387, 48.822903]}, "properties": {"numparc": 1412, "etat de la localisation": "autre", "ID BDGEO": "868", "horodatage": "2023-05-17 02:56:30", "distance (en metres)": 6059.37, "station": "GARE ST-LAZARE-BUDAPEST", "marker-color": "#818181"}}, {"type": "Feature", "geometry": {"type": "Point", "coordinates": [2.327935, 48.823517]}, "properties": {"numparc": 1691, "etat de la localisation": "autre", "ID BDGEO": "61", "horodatage": "2023-05-17 05:13:01", "distance (en metres)": 80.85, "station": "CENTRE BUS MONTROUGE SORTIE", "marker-color": "#818181"}}, {"type": "Feature", "geometry": {"type": "Point", "coordinates": [2.346298, 48.855785]}, "properties": {"numparc": 1375, "etat de la localisation": "autre", "ID BDGEO": "119", "horodatage": "2023-05-17 13:05:17", "distance (en metres)": 306.88, "station": "SAINT MICHEL-SAINT GERMAIN", "marker-color": "#818181"}}, {"type": "Feature", "geometry": {"type": "Point", "coordinates": [2.3433, 48.85825]}, "properties": {"numparc": 1375, "etat de la localisation": "autre", "ID BDGEO": "122", "horodatage": "2023-05-17 21:10:17", "distance (en metres)": 187.4, "station": "RIVOLI-PONT NEUF", "marker-color": "#818181"}}, {"type": "Feature", "geometry": {"type": "Point", "coordinates": [2.346238, 48.857475]}, "properties": {"numparc": 1375, "etat de la localisation": "autre", "ID BDGEO": "121", "horodatage": "2023-05-17 21:11:49", "distance (en metres)": 172.93, "station": "RIVOLI-CHATELET", "marker-color": "#818181"}}, {"type": "Feature", "geometry": {"type": "Point", "coordinates": [2.334107, 48.86322]}, "properties": {"numparc": 1375, "etat de la localisation": "autre", "ID BDGEO": "124", "horodatage": "2023-05-17 21:23:45", "distance (en metres)": 145.48, "station": "PALAIS ROYAL-MUSEE DU LOUVRE", "marker-color": "#818181"}}, {"type": "Feature", "geometry": {"type": "Point", "coordinates": [2.326899, 48.877371]}, "properties": {"station": "GARE ST-LAZARE-BUDAPEST", "ID BDGEO": "868", "marker-color": "#56B3FF"}}, {"type": "Feature", "geometry": {"type": "Point", "coordinates": [2.328938, 48.823213]}, "properties": {"station": "CENTRE BUS MONTROUGE SORTIE", "ID BDGEO": "61", "marker-color": "#56B3FF"}}, {"type": "Feature", "geometry": {"type": "Point", "coordinates": [2.34416, 48.853411]}, "properties": {"station": "SAINT MICHEL-SAINT GERMAIN", "ID BDGEO": "119", "marker-color": "#56B3FF"}}, {"type": "Feature", "geometry": {"type": "Point", "coordinates": [2.344501, 48.859738]}, "properties": {"station": "RIVOLI-PONT NEUF", "ID BDGEO": "122", "marker-color": "#56B3FF"}}, {"type": "Feature", "geometry": {"type": "Point", "coordinates": [2.346816, 48.858983]}, "properties": {"station": "RIVOLI-CHATELET", "ID BDGEO": "121", "marker-color": "#56B3FF"}}, {"type": "Feature", "geometry": {"type": "Point", "coordinates": [2.335824, 48.862561]}, "properties": {"station": "PALAIS ROYAL-MUSEE DU LOUVRE", "ID BDGEO": "124", "marker-color": "#56B3FF"}}]}