{"type": "FeatureCollection", "features": [{"type": "Feature", "geometry": {"type": "Point", "coordinates": [2.325152, 48.875912]}, "properties": {"alarme": "VEHICULE DELOCALISE", "numparc": 4420, "type": "EXPLOITATION", "duree": "00:00:19", "horodatage": "2023-05-27 13:01:28", "statut": "start", "marker-color": "#ff0000"}}, {"type": "Feature", "geometry": {"type": "Point", "coordinates": [2.392015, 48.871777]}, "properties": {"alarme": "VEHICULE DELOCALISE", "numparc": 4436, "type": "EXPLOITATION", "duree": "00:00:10", "horodatage": "2023-05-27 16:08:06", "statut": "start", "marker-color": "#ff0000"}}, {"type": "Feature", "geometry": {"type": "Point", "coordinates": [2.398962, 48.864353]}, "properties": {"alarme": "DEFAUT LIAISON DATA SAEIV / AIGLE", "numparc": 4440, "type": "TECHNIQUE", "duree": "00:01:24", "horodatage": "2023-05-27 17:15:17", "statut": "start", "marker-color": "#ff0000"}}, {"type": "Feature", "geometry": {"type": "Point", "coordinates": [2.325264, 48.875427]}, "properties": {"alarme": "VEHICULE DELOCALISE", "numparc": 4423, "type": "EXPLOITATION", "duree": "00:07:34", "horodatage": "2023-05-27 19:51:12", "statut": "start", "marker-color": "#ff0000"}}, {"type": "Feature", "geometry": {"type": "Point", "coordinates": [2.325028, 48.875881]}, "properties": {"alarme": "VEHICULE DELOCALISE", "numparc": 4420, "type": "EXPLOITATION", "duree": "00:00:19", "horodatage": "2023-05-27 13:01:47", "statut": "end", "marker-color": "#2fe184"}}, {"type": "Feature", "geometry": {"type": "Point", "coordinates": [2.392019, 48.871777]}, "properties": {"alarme": "VEHICULE DELOCALISE", "numparc": 4436, "type": "EXPLOITATION", "duree": "00:00:10", "horodatage": "2023-05-27 16:08:16", "statut": "end", "marker-color": "#2fe184"}}, {"type": "Feature", "geometry": {"type": "Point", "coordinates": [2.396432, 48.867577]}, "properties": {"alarme": "DEFAUT LIAISON DATA SAEIV / AIGLE", "numparc": 4440, "type": "TECHNIQUE", "duree": "00:01:24", "horodatage": "2023-05-27 17:16:41", "statut": "end", "marker-color": "#2fe184"}}, {"type": "Feature", "geometry": {"type": "Point", "coordinates": [2.338067, 48.889561]}, "properties": {"alarme": "VEHICULE DELOCALISE", "numparc": 4423, "type": "EXPLOITATION", "duree": "00:07:34", "horodatage": "2023-05-27 19:58:46", "statut": "end", "marker-color": "#2fe184"}}]}