{"type": "FeatureCollection", "features": [{"type": "Feature", "geometry": {"type": "Point", "coordinates": [2.407452, 48.848961]}, "properties": {"etat de la localisation": "Mission inconnue", "numparc": 717, "duree": "", "horodatage": "2022-04-16 06:07:42", "marker-color": "#FF9F56"}}, {"type": "Feature", "geometry": {"type": "Point", "coordinates": [2.365001, 48.848412]}, "properties": {"etat de la localisation": "Delocalise", "numparc": 716, "duree": "00:04:30", "horodatage": "2022-04-16 07:08:04", "marker-color": "#FF565E"}}, {"type": "Feature", "geometry": {"type": "Point", "coordinates": [2.338902, 48.861771]}, "properties": {"etat de la localisation": "Delocalise", "numparc": 716, "duree": "00:03:30", "horodatage": "2022-04-16 07:15:42", "marker-color": "#FF565E"}}, {"type": "Feature", "geometry": {"type": "Point", "coordinates": [2.325828, 48.866074]}, "properties": {"etat de la localisation": "Delocalise", "numparc": 716, "duree": "00:07:16", "horodatage": "2022-04-16 07:20:50", "marker-color": "#FF565E"}}, {"type": "Feature", "geometry": {"type": "Point", "coordinates": [2.22825, 48.841095]}, "properties": {"etat de la localisation": "Delocalise", "numparc": 716, "duree": "00:01:40", "horodatage": "2022-04-16 07:44:25", "marker-color": "#FF565E"}}, {"type": "Feature", "geometry": {"type": "Point", "coordinates": [2.35333, 48.855125]}, "properties": {"etat de la localisation": "Delocalise", "numparc": 717, "duree": "00:03:59", "horodatage": "2022-04-16 11:30:58", "marker-color": "#FF565E"}}, {"type": "Feature", "geometry": {"type": "Point", "coordinates": [2.373445, 48.843906]}, "properties": {"etat de la localisation": "Mission inconnue", "numparc": 722, "duree": "", "horodatage": "2022-04-16 11:34:45", "marker-color": "#FF9F56"}}, {"type": "Feature", "geometry": {"type": "Point", "coordinates": [2.407615, 48.849884]}, "properties": {"etat de la localisation": "Delocalise", "numparc": 644, "duree": "00:02:15", "horodatage": "2022-04-16 12:19:55", "marker-color": "#FF565E"}}, {"type": "Feature", "geometry": {"type": "Point", "coordinates": [2.407392, 48.849411]}, "properties": {"etat de la localisation": "Hors service", "numparc": 644, "duree": "", "horodatage": "2022-04-16 12:25:36", "marker-color": "#707070"}}, {"type": "Feature", "geometry": {"type": "Point", "coordinates": [2.407363, 48.850182]}, "properties": {"etat de la localisation": "Delocalise", "numparc": 718, "duree": "00:05:29", "horodatage": "2022-04-16 14:36:57", "marker-color": "#FF565E"}}, {"type": "Feature", "geometry": {"type": "Point", "coordinates": [2.314118, 48.86504]}, "properties": {"etat de la localisation": "Mission inconnue", "numparc": 716, "duree": "", "horodatage": "2022-04-16 15:42:50", "marker-color": "#FF9F56"}}, {"type": "Feature", "geometry": {"type": "Point", "coordinates": [2.293516, 48.862309]}, "properties": {"etat de la localisation": "Delocalise", "numparc": 716, "duree": "00:05:29", "horodatage": "2022-04-16 15:58:22", "marker-color": "#FF565E"}}, {"type": "Feature", "geometry": {"type": "Point", "coordinates": [2.313491, 48.864655]}, "properties": {"etat de la localisation": "Delocalise", "numparc": 716, "duree": "00:24:49", "horodatage": "2022-04-16 16:05:51", "marker-color": "#FF565E"}}, {"type": "Feature", "geometry": {"type": "Point", "coordinates": [2.359395, 48.852619]}, "properties": {"etat de la localisation": "Delocalise", "numparc": 716, "duree": "00:03:30", "horodatage": "2022-04-16 16:33:14", "marker-color": "#FF565E"}}, {"type": "Feature", "geometry": {"type": "Point", "coordinates": [2.371845, 48.844036]}, "properties": {"etat de la localisation": "Delocalise", "numparc": 716, "duree": "00:01:31", "horodatage": "2022-04-16 16:38:42", "marker-color": "#FF565E"}}, {"type": "Feature", "geometry": {"type": "Point", "coordinates": [2.375128, 48.842812]}, "properties": {"etat de la localisation": "Delocalise", "numparc": 716, "duree": "00:22:04", "horodatage": "2022-04-16 16:41:26", "marker-color": "#FF565E"}}, {"type": "Feature", "geometry": {"type": "Point", "coordinates": [2.375069, 48.842922]}, "properties": {"etat de la localisation": "Hors service", "numparc": 716, "duree": "", "horodatage": "2022-04-16 17:03:30", "marker-color": "#707070"}}, {"type": "Feature", "geometry": {"type": "Point", "coordinates": [2.357073, 48.852394]}, "properties": {"etat de la localisation": "Delocalise", "numparc": 718, "duree": "00:23:52", "horodatage": "2022-04-16 18:31:58", "marker-color": "#FF565E"}}, {"type": "Feature", "geometry": {"type": "Point", "coordinates": [2.279242, 48.853249]}, "properties": {"etat de la localisation": "Delocalise", "numparc": 722, "duree": "00:01:56", "horodatage": "2022-04-16 18:44:01", "marker-color": "#FF565E"}}, {"type": "Feature", "geometry": {"type": "Point", "coordinates": [2.22293, 48.843594]}, "properties": {"etat de la localisation": "Mission suivante non connue", "numparc": 716, "duree": "", "horodatage": "2022-04-16 18:59:38", "marker-color": "#7156FF"}}, {"type": "Feature", "geometry": {"type": "Point", "coordinates": [2.222354, 48.84333]}, "properties": {"etat de la localisation": "Mission suivante non connue", "numparc": 716, "duree": "", "horodatage": "2022-04-16 19:01:08", "marker-color": "#7156FF"}}, {"type": "Feature", "geometry": {"type": "Point", "coordinates": [2.222354, 48.84333]}, "properties": {"etat de la localisation": "Mission inconnue", "numparc": 716, "duree": "", "horodatage": "2022-04-16 19:01:13", "marker-color": "#FF9F56"}}, {"type": "Feature", "geometry": {"type": "Point", "coordinates": [2.407182, 48.84911]}, "properties": {"etat de la localisation": "Hors service", "numparc": 722, "duree": "", "horodatage": "2022-04-16 19:49:04", "marker-color": "#707070"}}, {"type": "Feature", "geometry": {"type": "Point", "coordinates": [2.406559, 48.850433]}, "properties": {"etat de la localisation": "Mission inconnue", "numparc": 670, "duree": "", "horodatage": "2022-04-16 19:50:24", "marker-color": "#FF9F56"}}, {"type": "Feature", "geometry": {"type": "Point", "coordinates": [2.406895, 48.850204]}, "properties": {"etat de la localisation": "Mission inconnue", "numparc": 670, "duree": "", "horodatage": "2022-04-16 19:50:42", "marker-color": "#FF9F56"}}, {"type": "Feature", "geometry": {"type": "Point", "coordinates": [2.407587, 48.850216]}, "properties": {"etat de la localisation": "Hors service", "numparc": 716, "duree": "", "horodatage": "2022-04-16 20:04:38", "marker-color": "#707070"}}, {"type": "Feature", "geometry": {"type": "Point", "coordinates": [2.406701, 48.850422]}, "properties": {"etat de la localisation": "Hors service", "numparc": 718, "duree": "", "horodatage": "2022-04-16 20:19:35", "marker-color": "#707070"}}, {"type": "Feature", "geometry": {"type": "Point", "coordinates": [2.407456, 48.848999]}, "properties": {"etat de la localisation": "Delocalise", "numparc": 717, "duree": "00:06:59", "horodatage": "2022-04-16 20:48:10", "marker-color": "#FF565E"}}, {"type": "Feature", "geometry": {"type": "Point", "coordinates": [2.407456, 48.848999]}, "properties": {"etat de la localisation": "Hors service", "numparc": 717, "duree": "", "horodatage": "2022-04-16 20:55:09", "marker-color": "#707070"}}, {"type": "Feature", "geometry": {"type": "Point", "coordinates": [2.406868, 48.850353]}, "properties": {"etat de la localisation": "Hors service", "numparc": 644, "duree": "", "horodatage": "2022-04-16 21:11:06", "marker-color": "#707070"}}, {"type": "Feature", "geometry": {"type": "Point", "coordinates": [2.407065, 48.84911]}, "properties": {"etat de la localisation": "Hors service", "numparc": 670, "duree": "", "horodatage": "2022-04-17 01:02:39", "marker-color": "#707070"}}]}