{"type": "FeatureCollection", "features": [{"type": "Feature", "geometry": {"type": "Point", "coordinates": [2.298574, 48.722027]}, "properties": {"etat de la localisation": "Delocalise", "numparc": 5848, "duree": "00:04:23", "horodatage": "2023-05-11 05:24:46", "marker-color": "#FF565E"}}, {"type": "Feature", "geometry": {"type": "Point", "coordinates": [2.297796, 48.722336]}, "properties": {"etat de la localisation": "Delocalise", "numparc": 5841, "duree": "00:00:29", "horodatage": "2023-05-11 06:53:57", "marker-color": "#FF565E"}}, {"type": "Feature", "geometry": {"type": "Point", "coordinates": [2.24023, 48.779362]}, "properties": {"etat de la localisation": "Mission suivante non connue", "numparc": 5845, "duree": "", "horodatage": "2023-05-11 06:57:33", "marker-color": "#7156FF"}}, {"type": "Feature", "geometry": {"type": "Point", "coordinates": [2.301061, 48.75544]}, "properties": {"etat de la localisation": "Hors service", "numparc": 5841, "duree": "", "horodatage": "2023-05-11 08:35:59", "marker-color": "#707070"}}, {"type": "Feature", "geometry": {"type": "Point", "coordinates": [2.300927, 48.755184]}, "properties": {"etat de la localisation": "Hors service", "numparc": 5847, "duree": "", "horodatage": "2023-05-11 09:08:21", "marker-color": "#707070"}}, {"type": "Feature", "geometry": {"type": "Point", "coordinates": [2.240203, 48.77935]}, "properties": {"etat de la localisation": "Mission suivante non connue", "numparc": 5846, "duree": "", "horodatage": "2023-05-11 09:16:29", "marker-color": "#7156FF"}}, {"type": "Feature", "geometry": {"type": "Point", "coordinates": [2.300962, 48.754349]}, "properties": {"etat de la localisation": "Delocalise", "numparc": 5849, "duree": "00:01:25", "horodatage": "2023-05-11 09:30:56", "marker-color": "#FF565E"}}, {"type": "Feature", "geometry": {"type": "Point", "coordinates": [2.300945, 48.755299]}, "properties": {"etat de la localisation": "Hors service", "numparc": 5848, "duree": "", "horodatage": "2023-05-11 10:18:48", "marker-color": "#707070"}}, {"type": "Feature", "geometry": {"type": "Point", "coordinates": [2.301082, 48.755444]}, "properties": {"etat de la localisation": "Hors service", "numparc": 5841, "duree": "", "horodatage": "2023-05-11 10:34:06", "marker-color": "#707070"}}, {"type": "Feature", "geometry": {"type": "Point", "coordinates": [2.240147, 48.779392]}, "properties": {"etat de la localisation": "Mission suivante non connue", "numparc": 5846, "duree": "", "horodatage": "2023-05-11 11:19:17", "marker-color": "#7156FF"}}, {"type": "Feature", "geometry": {"type": "Point", "coordinates": [2.240147, 48.779392]}, "properties": {"etat de la localisation": "Mission suivante non connue", "numparc": 5846, "duree": "", "horodatage": "2023-05-11 11:20:17", "marker-color": "#7156FF"}}, {"type": "Feature", "geometry": {"type": "Point", "coordinates": [2.297537, 48.721687]}, "properties": {"etat de la localisation": "Hors service", "numparc": 5849, "duree": "", "horodatage": "2023-05-11 12:26:17", "marker-color": "#707070"}}, {"type": "Feature", "geometry": {"type": "Point", "coordinates": [2.298122, 48.722473]}, "properties": {"etat de la localisation": "Hors service", "numparc": 5845, "duree": "", "horodatage": "2023-05-11 12:44:39", "marker-color": "#707070"}}, {"type": "Feature", "geometry": {"type": "Point", "coordinates": [2.297266, 48.721493]}, "properties": {"etat de la localisation": "Hors service", "numparc": 5847, "duree": "", "horodatage": "2023-05-11 13:28:44", "marker-color": "#707070"}}, {"type": "Feature", "geometry": {"type": "Point", "coordinates": [2.29747, 48.721462]}, "properties": {"etat de la localisation": "Hors service", "numparc": 5848, "duree": "", "horodatage": "2023-05-11 13:40:33", "marker-color": "#707070"}}, {"type": "Feature", "geometry": {"type": "Point", "coordinates": [2.298123, 48.722473]}, "properties": {"etat de la localisation": "Mission inconnue", "numparc": 5845, "duree": "", "horodatage": "2023-05-11 14:01:07", "marker-color": "#FF9F56"}}, {"type": "Feature", "geometry": {"type": "Point", "coordinates": [2.297469, 48.721462]}, "properties": {"etat de la localisation": "Mission inconnue", "numparc": 5848, "duree": "", "horodatage": "2023-05-11 14:17:00", "marker-color": "#FF9F56"}}, {"type": "Feature", "geometry": {"type": "Point", "coordinates": [2.301375, 48.75518]}, "properties": {"etat de la localisation": "Mission suivante non connue", "numparc": 5845, "duree": "", "horodatage": "2023-05-11 14:27:17", "marker-color": "#7156FF"}}, {"type": "Feature", "geometry": {"type": "Point", "coordinates": [2.297483, 48.721512]}, "properties": {"etat de la localisation": "Hors service", "numparc": 5841, "duree": "", "horodatage": "2023-05-11 14:27:45", "marker-color": "#707070"}}, {"type": "Feature", "geometry": {"type": "Point", "coordinates": [2.240171, 48.779408]}, "properties": {"etat de la localisation": "Mission suivante non connue", "numparc": 5845, "duree": "", "horodatage": "2023-05-11 14:59:49", "marker-color": "#7156FF"}}, {"type": "Feature", "geometry": {"type": "Point", "coordinates": [2.297265, 48.721493]}, "properties": {"etat de la localisation": "Delocalise", "numparc": 5847, "duree": "00:05:05", "horodatage": "2023-05-11 15:09:32", "marker-color": "#FF565E"}}, {"type": "Feature", "geometry": {"type": "Point", "coordinates": [2.30132, 48.755169]}, "properties": {"etat de la localisation": "Mission suivante non connue", "numparc": 5841, "duree": "", "horodatage": "2023-05-11 15:10:12", "marker-color": "#7156FF"}}, {"type": "Feature", "geometry": {"type": "Point", "coordinates": [2.269439, 48.783504]}, "properties": {"etat de la localisation": "Delocalise", "numparc": 5841, "duree": "00:01:52", "horodatage": "2023-05-11 15:35:56", "marker-color": "#FF565E"}}, {"type": "Feature", "geometry": {"type": "Point", "coordinates": [2.300975, 48.755344]}, "properties": {"etat de la localisation": "Mission suivante non connue", "numparc": 5845, "duree": "", "horodatage": "2023-05-11 15:38:52", "marker-color": "#7156FF"}}, {"type": "Feature", "geometry": {"type": "Point", "coordinates": [2.24017, 48.779381]}, "properties": {"etat de la localisation": "Mission suivante non connue", "numparc": 5845, "duree": "", "horodatage": "2023-05-11 16:51:00", "marker-color": "#7156FF"}}, {"type": "Feature", "geometry": {"type": "Point", "coordinates": [2.300943, 48.755398]}, "properties": {"etat de la localisation": "Mission suivante non connue", "numparc": 5845, "duree": "", "horodatage": "2023-05-11 17:30:20", "marker-color": "#7156FF"}}, {"type": "Feature", "geometry": {"type": "Point", "coordinates": [2.283505, 48.779053]}, "properties": {"etat de la localisation": "Delocalise", "numparc": 5841, "duree": "00:00:11", "horodatage": "2023-05-11 18:04:41", "marker-color": "#FF565E"}}, {"type": "Feature", "geometry": {"type": "Point", "coordinates": [2.240241, 48.779377]}, "properties": {"etat de la localisation": "Mission suivante non connue", "numparc": 5848, "duree": "", "horodatage": "2023-05-11 19:05:50", "marker-color": "#7156FF"}}, {"type": "Feature", "geometry": {"type": "Point", "coordinates": [2.301158, 48.755707]}, "properties": {"etat de la localisation": "Hors service", "numparc": 5847, "duree": "", "horodatage": "2023-05-11 19:12:36", "marker-color": "#707070"}}, {"type": "Feature", "geometry": {"type": "Point", "coordinates": [2.29794, 48.722416]}, "properties": {"etat de la localisation": "Hors service", "numparc": 5840, "duree": "", "horodatage": "2023-05-11 19:20:41", "marker-color": "#707070"}}, {"type": "Feature", "geometry": {"type": "Point", "coordinates": [2.298661, 48.722702]}, "properties": {"etat de la localisation": "Hors service", "numparc": 5845, "duree": "", "horodatage": "2023-05-11 21:02:27", "marker-color": "#707070"}}, {"type": "Feature", "geometry": {"type": "Point", "coordinates": [2.297723, 48.72245]}, "properties": {"etat de la localisation": "Hors service", "numparc": 5848, "duree": "", "horodatage": "2023-05-11 21:25:56", "marker-color": "#707070"}}, {"type": "Feature", "geometry": {"type": "Point", "coordinates": [2.29769, 48.722301]}, "properties": {"etat de la localisation": "Hors service", "numparc": 5841, "duree": "", "horodatage": "2023-05-11 21:43:46", "marker-color": "#707070"}}, {"type": "Feature", "geometry": {"type": "Point", "coordinates": [2.296672, 48.721607]}, "properties": {"etat de la localisation": "Hors service", "numparc": 5847, "duree": "", "horodatage": "2023-05-11 22:04:45", "marker-color": "#707070"}}]}