{"type": "FeatureCollection", "features": [{"type": "Feature", "geometry": {"type": "Point", "coordinates": [2.188618, 48.902401]}, "properties": {"numparc": 5774, "etat de la localisation": "autre", "ID BDGEO": "23", "horodatage": "2022-09-10 05:44:52", "distance (en metres)": 85.05, "station": "NANTERRE(E)", "marker-color": "#818181"}}, {"type": "Feature", "geometry": {"type": "Point", "coordinates": [2.188417, 48.902855]}, "properties": {"numparc": 2879, "etat de la localisation": "autre", "ID BDGEO": "23", "horodatage": "2022-09-10 07:14:06", "distance (en metres)": 41.14, "station": "NANTERRE(E)", "marker-color": "#818181"}}, {"type": "Feature", "geometry": {"type": "Point", "coordinates": [2.188417, 48.902855]}, "properties": {"numparc": 2879, "etat de la localisation": "autre", "ID BDGEO": "23", "horodatage": "2022-09-10 07:14:07", "distance (en metres)": 41.14, "station": "NANTERRE(E)", "marker-color": "#818181"}}, {"type": "Feature", "geometry": {"type": "Point", "coordinates": [2.172853, 48.887203]}, "properties": {"numparc": 5799, "etat de la localisation": "autre", "ID BDGEO": "23", "horodatage": "2022-09-10 15:11:02", "distance (en metres)": 2120.45, "station": "NANTERRE(E)", "marker-color": "#818181"}}, {"type": "Feature", "geometry": {"type": "Point", "coordinates": [2.189765, 48.902214]}, "properties": {"numparc": 5784, "etat de la localisation": "autre", "ID BDGEO": "23", "horodatage": "2022-09-10 19:41:33", "distance (en metres)": 129.76, "station": "NANTERRE(E)", "marker-color": "#818181"}}, {"type": "Feature", "geometry": {"type": "Point", "coordinates": [2.189744, 48.902191]}, "properties": {"numparc": 5774, "etat de la localisation": "autre", "ID BDGEO": "23", "horodatage": "2022-09-10 21:54:38", "distance (en metres)": 130.96, "station": "NANTERRE(E)", "marker-color": "#818181"}}, {"type": "Feature", "geometry": {"type": "Point", "coordinates": [2.189801, 48.90221]}, "properties": {"numparc": 2877, "etat de la localisation": "autre", "ID BDGEO": "23", "horodatage": "2022-09-10 22:21:02", "distance (en metres)": 131.65, "station": "NANTERRE(E)", "marker-color": "#818181"}}, {"type": "Feature", "geometry": {"type": "Point", "coordinates": [2.18873, 48.903162]}, "properties": {"station": "NANTERRE(E)", "ID BDGEO": "23", "marker-color": "#56B3FF"}}]}