{"type": "FeatureCollection", "features": [{"type": "Feature", "geometry": {"type": "Point", "coordinates": [2.660743, 48.841999]}, "properties": {"numparc": 4997, "etat de la localisation": "autre", "ID BDGEO": "95", "horodatage": "2023-02-20 05:55:26", "distance (en metres)": 107.66, "station": "CENTRE BUS DE BUSSY-SORTIE", "marker-color": "#818181"}}, {"type": "Feature", "geometry": {"type": "Point", "coordinates": [2.659074, 48.842075]}, "properties": {"numparc": 4982, "etat de la localisation": "autre", "ID BDGEO": "95", "horodatage": "2023-02-20 06:38:14", "distance (en metres)": 63.75, "station": "CENTRE BUS DE BUSSY-SORTIE", "marker-color": "#818181"}}, {"type": "Feature", "geometry": {"type": "Point", "coordinates": [2.659074, 48.842075]}, "properties": {"numparc": 4982, "etat de la localisation": "autre", "ID BDGEO": "95", "horodatage": "2023-02-20 06:38:18", "distance (en metres)": 63.75, "station": "CENTRE BUS DE BUSSY-SORTIE", "marker-color": "#818181"}}, {"type": "Feature", "geometry": {"type": "Point", "coordinates": [2.65905, 48.842228]}, "properties": {"numparc": 4982, "etat de la localisation": "Delocalise", "ID BDGEO": "95", "horodatage": "2023-02-20 06:45:51", "distance (en metres)": 51.5, "station": "CENTRE BUS DE BUSSY-SORTIE", "marker-color": "#FF565E"}}, {"type": "Feature", "geometry": {"type": "Point", "coordinates": [2.678209, 48.842922]}, "properties": {"numparc": 4997, "etat de la localisation": "autre", "ID BDGEO": "95", "horodatage": "2023-02-20 07:28:20", "distance (en metres)": 1366.63, "station": "CENTRE BUS DE BUSSY-SORTIE", "marker-color": "#818181"}}, {"type": "Feature", "geometry": {"type": "Point", "coordinates": [2.678209, 48.842922]}, "properties": {"numparc": 4997, "etat de la localisation": "autre", "ID BDGEO": "95", "horodatage": "2023-02-20 07:28:23", "distance (en metres)": 1366.63, "station": "CENTRE BUS DE BUSSY-SORTIE", "marker-color": "#818181"}}, {"type": "Feature", "geometry": {"type": "Point", "coordinates": [2.674008, 48.842487]}, "properties": {"numparc": 4997, "etat de la localisation": "autre", "ID BDGEO": "95", "horodatage": "2023-02-20 07:29:13", "distance (en metres)": 1058.62, "station": "CENTRE BUS DE BUSSY-SORTIE", "marker-color": "#818181"}}, {"type": "Feature", "geometry": {"type": "Point", "coordinates": [2.651981, 48.84684]}, "properties": {"numparc": 4997, "etat de la localisation": "autre", "ID BDGEO": "95", "horodatage": "2023-02-20 07:34:05", "distance (en metres)": 729.93, "station": "CENTRE BUS DE BUSSY-SORTIE", "marker-color": "#818181"}}, {"type": "Feature", "geometry": {"type": "Point", "coordinates": [2.654705, 48.8391]}, "properties": {"numparc": 4994, "etat de la localisation": "autre", "ID BDGEO": "95", "horodatage": "2023-02-20 09:03:10", "distance (en metres)": 522.73, "station": "CENTRE BUS DE BUSSY-SORTIE", "marker-color": "#818181"}}, {"type": "Feature", "geometry": {"type": "Point", "coordinates": [2.616408, 48.843796]}, "properties": {"numparc": 4997, "etat de la localisation": "autre", "ID BDGEO": "97", "horodatage": "2023-02-20 12:35:14", "distance (en metres)": 58.98, "station": "NOISIEL-RER (C)#", "marker-color": "#818181"}}, {"type": "Feature", "geometry": {"type": "Point", "coordinates": [2.658804, 48.842495]}, "properties": {"numparc": 4993, "etat de la localisation": "autre", "ID BDGEO": "95", "horodatage": "2023-02-20 20:01:48", "distance (en metres)": 54.51, "station": "CENTRE BUS DE BUSSY-SORTIE", "marker-color": "#818181"}}, {"type": "Feature", "geometry": {"type": "Point", "coordinates": [2.645191, 48.857708]}, "properties": {"numparc": 5892, "etat de la localisation": "autre", "ID BDGEO": "46", "horodatage": "2023-02-20 20:03:00", "distance (en metres)": 98.7, "station": "LES CANTINES", "marker-color": "#818181"}}, {"type": "Feature", "geometry": {"type": "Point", "coordinates": [2.616595, 48.843777]}, "properties": {"numparc": 4982, "etat de la localisation": "autre", "ID BDGEO": "97", "horodatage": "2023-02-20 20:33:07", "distance (en metres)": 72.39, "station": "NOISIEL-RER (C)#", "marker-color": "#818181"}}, {"type": "Feature", "geometry": {"type": "Point", "coordinates": [2.660482, 48.842369]}, "properties": {"numparc": 4982, "etat de la localisation": "autre", "ID BDGEO": "95", "horodatage": "2023-02-20 20:45:34", "distance (en metres)": 71.91, "station": "CENTRE BUS DE BUSSY-SORTIE", "marker-color": "#818181"}}, {"type": "Feature", "geometry": {"type": "Point", "coordinates": [2.66054, 48.841957]}, "properties": {"numparc": 4999, "etat de la localisation": "autre", "ID BDGEO": "95", "horodatage": "2023-02-20 21:18:57", "distance (en metres)": 99.02, "station": "CENTRE BUS DE BUSSY-SORTIE", "marker-color": "#818181"}}, {"type": "Feature", "geometry": {"type": "Point", "coordinates": [2.660491, 48.842186]}, "properties": {"numparc": 4987, "etat de la localisation": "autre", "ID BDGEO": "95", "horodatage": "2023-02-20 22:11:41", "distance (en metres)": 80.84, "station": "CENTRE BUS DE BUSSY-SORTIE", "marker-color": "#818181"}}, {"type": "Feature", "geometry": {"type": "Point", "coordinates": [2.660115, 48.84243]}, "properties": {"numparc": 4997, "etat de la localisation": "autre", "ID BDGEO": "95", "horodatage": "2023-02-20 23:32:46", "distance (en metres)": 44.27, "station": "CENTRE BUS DE BUSSY-SORTIE", "marker-color": "#818181"}}, {"type": "Feature", "geometry": {"type": "Point", "coordinates": [2.659542, 48.842559]}, "properties": {"station": "CENTRE BUS DE BUSSY-SORTIE", "ID BDGEO": "95", "marker-color": "#56B3FF"}}, {"type": "Feature", "geometry": {"type": "Point", "coordinates": [2.615608, 48.84373]}, "properties": {"station": "NOISIEL-RER (C)#", "ID BDGEO": "97", "marker-color": "#56B3FF"}}, {"type": "Feature", "geometry": {"type": "Point", "coordinates": [2.645993, 48.858422]}, "properties": {"station": "LES CANTINES", "ID BDGEO": "46", "marker-color": "#56B3FF"}}]}