{"type": "FeatureCollection", "features": [{"type": "Feature", "geometry": {"type": "Point", "coordinates": [2.328695, 48.823124]}, "properties": {"numparc": 1398, "etat de la localisation": "autre", "ID BDGEO": "5429", "horodatage": "2022-05-01 05:40:41", "distance (en metres)": 97.02, "station": "MONTROUGE SORTIE#", "marker-color": "#818181"}}, {"type": "Feature", "geometry": {"type": "Point", "coordinates": [2.328721, 48.823792]}, "properties": {"numparc": 1434, "etat de la localisation": "autre", "ID BDGEO": "5429", "horodatage": "2022-05-01 06:28:12", "distance (en metres)": 106.39, "station": "MONTROUGE SORTIE#", "marker-color": "#818181"}}, {"type": "Feature", "geometry": {"type": "Point", "coordinates": [2.329074, 48.823044]}, "properties": {"numparc": 1474, "etat de la localisation": "autre", "ID BDGEO": "5429", "horodatage": "2022-05-01 06:36:43", "distance (en metres)": 73.55, "station": "MONTROUGE SORTIE#", "marker-color": "#818181"}}, {"type": "Feature", "geometry": {"type": "Point", "coordinates": [2.292045, 48.82098]}, "properties": {"numparc": 1434, "etat de la localisation": "autre", "ID BDGEO": "5380", "horodatage": "2022-05-01 07:06:55", "distance (en metres)": 47.35, "station": "INSURRECTION-BLEUZEN", "marker-color": "#818181"}}, {"type": "Feature", "geometry": {"type": "Point", "coordinates": [2.327899, 48.823032]}, "properties": {"numparc": 1472, "etat de la localisation": "Delocalise", "ID BDGEO": "5429", "horodatage": "2022-05-01 07:39:37", "distance (en metres)": 156.13, "station": "MONTROUGE SORTIE#", "marker-color": "#FF565E"}}, {"type": "Feature", "geometry": {"type": "Point", "coordinates": [2.292053, 48.820995]}, "properties": {"numparc": 1474, "etat de la localisation": "autre", "ID BDGEO": "5380", "horodatage": "2022-05-01 07:46:52", "distance (en metres)": 48.79, "station": "INSURRECTION-BLEUZEN", "marker-color": "#818181"}}, {"type": "Feature", "geometry": {"type": "Point", "coordinates": [2.322792, 48.838039]}, "properties": {"numparc": 1434, "etat de la localisation": "Deviation programmee", "ID BDGEO": "5410", "horodatage": "2022-05-01 07:51:18", "distance (en metres)": 103.6, "station": "JEAN ZAY - MAINE", "marker-color": "#56FF93"}}, {"type": "Feature", "geometry": {"type": "Point", "coordinates": [2.319115, 48.837822]}, "properties": {"numparc": 1472, "etat de la localisation": "Deviation programmee", "ID BDGEO": "5411", "horodatage": "2022-05-01 08:56:36", "distance (en metres)": 62.11, "station": "PLACE DE CATALOGNE", "marker-color": "#56FF93"}}, {"type": "Feature", "geometry": {"type": "Point", "coordinates": [2.30888, 48.8311]}, "properties": {"numparc": 1472, "etat de la localisation": "autre", "ID BDGEO": "5414", "horodatage": "2022-05-01 09:00:17", "distance (en metres)": 42.18, "station": "VERCINGETORIX-ROUVIER", "marker-color": "#818181"}}, {"type": "Feature", "geometry": {"type": "Point", "coordinates": [2.272621, 48.814407]}, "properties": {"numparc": 1472, "etat de la localisation": "autre", "ID BDGEO": "5375", "horodatage": "2022-05-01 09:14:58", "distance (en metres)": 59.63, "station": "GARE DE CLAMART", "marker-color": "#818181"}}, {"type": "Feature", "geometry": {"type": "Point", "coordinates": [2.292047, 48.820984]}, "properties": {"numparc": 1474, "etat de la localisation": "autre", "ID BDGEO": "5380", "horodatage": "2022-05-01 09:20:24", "distance (en metres)": 47.71, "station": "INSURRECTION-BLEUZEN", "marker-color": "#818181"}}, {"type": "Feature", "geometry": {"type": "Point", "coordinates": [2.292057, 48.820969]}, "properties": {"numparc": 1472, "etat de la localisation": "autre", "ID BDGEO": "5380", "horodatage": "2022-05-01 09:36:51", "distance (en metres)": 47.39, "station": "INSURRECTION-BLEUZEN", "marker-color": "#818181"}}, {"type": "Feature", "geometry": {"type": "Point", "coordinates": [2.272642, 48.814407]}, "properties": {"numparc": 1472, "etat de la localisation": "autre", "ID BDGEO": "5375", "horodatage": "2022-05-01 10:59:00", "distance (en metres)": 59.18, "station": "GARE DE CLAMART", "marker-color": "#818181"}}, {"type": "Feature", "geometry": {"type": "Point", "coordinates": [2.292027, 48.820957]}, "properties": {"numparc": 1474, "etat de la localisation": "autre", "ID BDGEO": "5380", "horodatage": "2022-05-01 11:06:54", "distance (en metres)": 44.85, "station": "INSURRECTION-BLEUZEN", "marker-color": "#818181"}}, {"type": "Feature", "geometry": {"type": "Point", "coordinates": [2.292061, 48.820972]}, "properties": {"numparc": 1472, "etat de la localisation": "autre", "ID BDGEO": "5380", "horodatage": "2022-05-01 11:20:17", "distance (en metres)": 47.87, "station": "INSURRECTION-BLEUZEN", "marker-color": "#818181"}}, {"type": "Feature", "geometry": {"type": "Point", "coordinates": [2.292043, 48.820957]}, "properties": {"numparc": 1434, "etat de la localisation": "autre", "ID BDGEO": "5380", "horodatage": "2022-05-01 12:08:39", "distance (en metres)": 45.84, "station": "INSURRECTION-BLEUZEN", "marker-color": "#818181"}}, {"type": "Feature", "geometry": {"type": "Point", "coordinates": [2.322897, 48.838036]}, "properties": {"numparc": 1474, "etat de la localisation": "Deviation programmee", "ID BDGEO": "5410", "horodatage": "2022-05-01 12:09:24", "distance (en metres)": 110.25, "station": "JEAN ZAY - MAINE", "marker-color": "#56FF93"}}, {"type": "Feature", "geometry": {"type": "Point", "coordinates": [2.322808, 48.837986]}, "properties": {"numparc": 1472, "etat de la localisation": "Deviation programmee", "ID BDGEO": "5410", "horodatage": "2022-05-01 12:22:45", "distance (en metres)": 102.0, "station": "JEAN ZAY - MAINE", "marker-color": "#56FF93"}}, {"type": "Feature", "geometry": {"type": "Point", "coordinates": [2.319039, 48.837864]}, "properties": {"numparc": 1472, "etat de la localisation": "Deviation programmee", "ID BDGEO": "5411", "horodatage": "2022-05-01 12:24:28", "distance (en metres)": 67.65, "station": "PLACE DE CATALOGNE", "marker-color": "#56FF93"}}, {"type": "Feature", "geometry": {"type": "Point", "coordinates": [2.327966, 48.823689]}, "properties": {"numparc": 1474, "etat de la localisation": "autre", "ID BDGEO": "5429", "horodatage": "2022-05-01 12:43:46", "distance (en metres)": 153.45, "station": "MONTROUGE SORTIE#", "marker-color": "#818181"}}, {"type": "Feature", "geometry": {"type": "Point", "coordinates": [2.329083, 48.82283]}, "properties": {"numparc": 1474, "etat de la localisation": "autre", "ID BDGEO": "5429", "horodatage": "2022-05-01 12:45:55", "distance (en metres)": 85.72, "station": "MONTROUGE SORTIE#", "marker-color": "#818181"}}, {"type": "Feature", "geometry": {"type": "Point", "coordinates": [2.29199, 48.820976]}, "properties": {"numparc": 1472, "etat de la localisation": "autre", "ID BDGEO": "5380", "horodatage": "2022-05-01 13:08:28", "distance (en metres)": 43.82, "station": "INSURRECTION-BLEUZEN", "marker-color": "#818181"}}, {"type": "Feature", "geometry": {"type": "Point", "coordinates": [2.322775, 48.838055]}, "properties": {"numparc": 1434, "etat de la localisation": "Deviation programmee", "ID BDGEO": "5410", "horodatage": "2022-05-01 13:09:28", "distance (en metres)": 103.31, "station": "JEAN ZAY - MAINE", "marker-color": "#56FF93"}}, {"type": "Feature", "geometry": {"type": "Point", "coordinates": [2.319015, 48.837879]}, "properties": {"numparc": 1434, "etat de la localisation": "Deviation programmee", "ID BDGEO": "5411", "horodatage": "2022-05-01 13:12:36", "distance (en metres)": 69.69, "station": "PLACE DE CATALOGNE", "marker-color": "#56FF93"}}, {"type": "Feature", "geometry": {"type": "Point", "coordinates": [2.292059, 48.820984]}, "properties": {"numparc": 1434, "etat de la localisation": "autre", "ID BDGEO": "5380", "horodatage": "2022-05-01 13:52:00", "distance (en metres)": 48.43, "station": "INSURRECTION-BLEUZEN", "marker-color": "#818181"}}, {"type": "Feature", "geometry": {"type": "Point", "coordinates": [2.322803, 48.838058]}, "properties": {"numparc": 1472, "etat de la localisation": "Deviation programmee", "ID BDGEO": "5410", "horodatage": "2022-05-01 14:02:46", "distance (en metres)": 105.32, "station": "JEAN ZAY - MAINE", "marker-color": "#56FF93"}}, {"type": "Feature", "geometry": {"type": "Point", "coordinates": [2.322838, 48.838093]}, "properties": {"numparc": 1434, "etat de la localisation": "Deviation programmee", "ID BDGEO": "5410", "horodatage": "2022-05-01 14:44:04", "distance (en metres)": 109.42, "station": "JEAN ZAY - MAINE", "marker-color": "#56FF93"}}, {"type": "Feature", "geometry": {"type": "Point", "coordinates": [2.292044, 48.821026]}, "properties": {"numparc": 1472, "etat de la localisation": "autre", "ID BDGEO": "5380", "horodatage": "2022-05-01 14:45:24", "distance (en metres)": 50.31, "station": "INSURRECTION-BLEUZEN", "marker-color": "#818181"}}, {"type": "Feature", "geometry": {"type": "Point", "coordinates": [2.292105, 48.820988]}, "properties": {"numparc": 1434, "etat de la localisation": "autre", "ID BDGEO": "5380", "horodatage": "2022-05-01 15:25:13", "distance (en metres)": 51.49, "station": "INSURRECTION-BLEUZEN", "marker-color": "#818181"}}, {"type": "Feature", "geometry": {"type": "Point", "coordinates": [2.322811, 48.838051]}, "properties": {"numparc": 1434, "etat de la localisation": "Deviation programmee", "ID BDGEO": "5410", "horodatage": "2022-05-01 16:28:07", "distance (en metres)": 105.41, "station": "JEAN ZAY - MAINE", "marker-color": "#56FF93"}}, {"type": "Feature", "geometry": {"type": "Point", "coordinates": [2.323012, 48.836712]}, "properties": {"numparc": 1472, "etat de la localisation": "autre", "ID BDGEO": "5388", "horodatage": "2022-05-01 16:40:13", "distance (en metres)": 43.77, "station": "LOSSERAND - MAINE", "marker-color": "#818181"}}, {"type": "Feature", "geometry": {"type": "Point", "coordinates": [2.304074, 48.826927]}, "properties": {"numparc": 1434, "etat de la localisation": "autre", "ID BDGEO": "5416", "horodatage": "2022-05-01 16:41:27", "distance (en metres)": 42.16, "station": "PORTE DE VANVES", "marker-color": "#818181"}}, {"type": "Feature", "geometry": {"type": "Point", "coordinates": [2.287888, 48.819229]}, "properties": {"numparc": 1434, "etat de la localisation": "autre", "ID BDGEO": "5379", "horodatage": "2022-05-01 17:05:31", "distance (en metres)": 44.45, "station": "DIDEROT", "marker-color": "#818181"}}, {"type": "Feature", "geometry": {"type": "Point", "coordinates": [2.319009, 48.837833]}, "properties": {"numparc": 1472, "etat de la localisation": "Deviation programmee", "ID BDGEO": "5411", "horodatage": "2022-05-01 17:24:12", "distance (en metres)": 64.84, "station": "PLACE DE CATALOGNE", "marker-color": "#56FF93"}}, {"type": "Feature", "geometry": {"type": "Point", "coordinates": [2.292079, 48.821022]}, "properties": {"numparc": 1472, "etat de la localisation": "autre", "ID BDGEO": "5380", "horodatage": "2022-05-01 17:56:53", "distance (en metres)": 52.08, "station": "INSURRECTION-BLEUZEN", "marker-color": "#818181"}}, {"type": "Feature", "geometry": {"type": "Point", "coordinates": [2.322781, 48.838028]}, "properties": {"numparc": 1434, "etat de la localisation": "Deviation programmee", "ID BDGEO": "5410", "horodatage": "2022-05-01 18:02:50", "distance (en metres)": 102.3, "station": "JEAN ZAY - MAINE", "marker-color": "#56FF93"}}, {"type": "Feature", "geometry": {"type": "Point", "coordinates": [2.315799, 48.83316]}, "properties": {"numparc": 1472, "etat de la localisation": "autre", "ID BDGEO": "5386", "horodatage": "2022-05-01 18:08:15", "distance (en metres)": 50.96, "station": "LOSSERAND - GERGOVIE", "marker-color": "#818181"}}, {"type": "Feature", "geometry": {"type": "Point", "coordinates": [2.317587, 48.834156]}, "properties": {"numparc": 1472, "etat de la localisation": "autre", "ID BDGEO": "5387", "horodatage": "2022-05-01 18:09:10", "distance (en metres)": 42.49, "station": "PERNETY", "marker-color": "#818181"}}, {"type": "Feature", "geometry": {"type": "Point", "coordinates": [2.322413, 48.836815]}, "properties": {"numparc": 1472, "etat de la localisation": "autre", "ID BDGEO": "5388", "horodatage": "2022-05-01 18:11:06", "distance (en metres)": 41.96, "station": "LOSSERAND - MAINE", "marker-color": "#818181"}}, {"type": "Feature", "geometry": {"type": "Point", "coordinates": [2.292063, 48.820961]}, "properties": {"numparc": 1434, "etat de la localisation": "autre", "ID BDGEO": "5380", "horodatage": "2022-05-01 18:40:18", "distance (en metres)": 47.32, "station": "INSURRECTION-BLEUZEN", "marker-color": "#818181"}}, {"type": "Feature", "geometry": {"type": "Point", "coordinates": [2.322857, 48.838001]}, "properties": {"numparc": 1472, "etat de la localisation": "Deviation programmee", "ID BDGEO": "5410", "horodatage": "2022-05-01 18:53:29", "distance (en metres)": 105.96, "station": "JEAN ZAY - MAINE", "marker-color": "#56FF93"}}, {"type": "Feature", "geometry": {"type": "Point", "coordinates": [2.327866, 48.823708]}, "properties": {"numparc": 1472, "etat de la localisation": "autre", "ID BDGEO": "5429", "horodatage": "2022-05-01 19:34:06", "distance (en metres)": 161.06, "station": "MONTROUGE SORTIE#", "marker-color": "#818181"}}, {"type": "Feature", "geometry": {"type": "Point", "coordinates": [2.31903, 48.837742]}, "properties": {"numparc": 1434, "etat de la localisation": "Deviation programmee", "ID BDGEO": "5411", "horodatage": "2022-05-01 19:36:27", "distance (en metres)": 54.61, "station": "PLACE DE CATALOGNE", "marker-color": "#56FF93"}}, {"type": "Feature", "geometry": {"type": "Point", "coordinates": [2.304173, 48.827023]}, "properties": {"numparc": 1434, "etat de la localisation": "autre", "ID BDGEO": "20015", "horodatage": "2022-05-01 19:43:36", "distance (en metres)": 61.16, "station": "PORTE DE VANVES#", "marker-color": "#818181"}}, {"type": "Feature", "geometry": {"type": "Point", "coordinates": [2.328011, 48.823631]}, "properties": {"numparc": 1434, "etat de la localisation": "autre", "ID BDGEO": "5426", "horodatage": "2022-05-01 20:08:14", "distance (en metres)": 178.58, "station": "MONTROUGE RENTREE#", "marker-color": "#818181"}}, {"type": "Feature", "geometry": {"type": "Point", "coordinates": [2.329517, 48.822811]}, "properties": {"numparc": 1434, "etat de la localisation": "autre", "ID BDGEO": "5429", "horodatage": "2022-05-01 20:14:22", "distance (en metres)": 66.27, "station": "MONTROUGE SORTIE#", "marker-color": "#818181"}}, {"type": "Feature", "geometry": {"type": "Point", "coordinates": [2.329529, 48.822575]}, "properties": {"numparc": 1434, "etat de la localisation": "autre", "ID BDGEO": "5429", "horodatage": "2022-05-01 20:20:06", "distance (en metres)": 89.47, "station": "MONTROUGE SORTIE#", "marker-color": "#818181"}}, {"type": "Feature", "geometry": {"type": "Point", "coordinates": [2.329986, 48.823321]}, "properties": {"station": "MONTROUGE SORTIE#", "ID BDGEO": "5429", "marker-color": "#56B3FF"}}, {"type": "Feature", "geometry": {"type": "Point", "coordinates": [2.291509, 48.820742]}, "properties": {"station": "INSURRECTION-BLEUZEN", "ID BDGEO": "5380", "marker-color": "#56B3FF"}}, {"type": "Feature", "geometry": {"type": "Point", "coordinates": [2.321543, 48.837601]}, "properties": {"station": "JEAN ZAY - MAINE", "ID BDGEO": "5410", "marker-color": "#56B3FF"}}, {"type": "Feature", "geometry": {"type": "Point", "coordinates": [2.319228, 48.837268]}, "properties": {"station": "PLACE DE CATALOGNE", "ID BDGEO": "5411", "marker-color": "#56B3FF"}}, {"type": "Feature", "geometry": {"type": "Point", "coordinates": [2.309333, 48.831335]}, "properties": {"station": "VERCINGETORIX-ROUVIER", "ID BDGEO": "5414", "marker-color": "#56B3FF"}}, {"type": "Feature", "geometry": {"type": "Point", "coordinates": [2.27287, 48.814918]}, "properties": {"station": "GARE DE CLAMART", "ID BDGEO": "5375", "marker-color": "#56B3FF"}}, {"type": "Feature", "geometry": {"type": "Point", "coordinates": [2.322564, 48.836451]}, "properties": {"station": "LOSSERAND - MAINE", "ID BDGEO": "5388", "marker-color": "#56B3FF"}}, {"type": "Feature", "geometry": {"type": "Point", "coordinates": [2.304571, 48.827118]}, "properties": {"station": "PORTE DE VANVES", "ID BDGEO": "5416", "marker-color": "#56B3FF"}}, {"type": "Feature", "geometry": {"type": "Point", "coordinates": [2.287332, 48.819068]}, "properties": {"station": "DIDEROT", "ID BDGEO": "5379", "marker-color": "#56B3FF"}}, {"type": "Feature", "geometry": {"type": "Point", "coordinates": [2.315786, 48.832702]}, "properties": {"station": "LOSSERAND - GERGOVIE", "ID BDGEO": "5386", "marker-color": "#56B3FF"}}, {"type": "Feature", "geometry": {"type": "Point", "coordinates": [2.317855, 48.833817]}, "properties": {"station": "PERNETY", "ID BDGEO": "5387", "marker-color": "#56B3FF"}}, {"type": "Feature", "geometry": {"type": "Point", "coordinates": [2.304871, 48.827325]}, "properties": {"station": "PORTE DE VANVES#", "ID BDGEO": "20015", "marker-color": "#56B3FF"}}, {"type": "Feature", "geometry": {"type": "Point", "coordinates": [2.329959, 48.822665]}, "properties": {"station": "MONTROUGE RENTREE#", "ID BDGEO": "5426", "marker-color": "#56B3FF"}}]}