{"type": "FeatureCollection", "features": [{"type": "Feature", "geometry": {"type": "Point", "coordinates": [2.442834, 48.772255]}, "properties": {"numparc": 9529, "etat de la localisation": "autre", "ID BDGEO": "126", "horodatage": "2021-08-24 02:51:15", "distance (en metres)": 609.66, "station": "POMPADOUR", "marker-color": "#818181"}}, {"type": "Feature", "geometry": {"type": "Point", "coordinates": [2.441116, 48.772301]}, "properties": {"numparc": 9529, "etat de la localisation": "Delocalise", "ID BDGEO": "126", "horodatage": "2021-08-24 02:57:38", "distance (en metres)": 484.55, "station": "POMPADOUR", "marker-color": "#FF565E"}}, {"type": "Feature", "geometry": {"type": "Point", "coordinates": [2.441116, 48.772301]}, "properties": {"numparc": 9529, "etat de la localisation": "Delocalise", "ID BDGEO": "126", "horodatage": "2021-08-24 03:03:36", "distance (en metres)": 484.55, "station": "POMPADOUR", "marker-color": "#FF565E"}}, {"type": "Feature", "geometry": {"type": "Point", "coordinates": [2.442114, 48.77256]}, "properties": {"numparc": 9523, "etat de la localisation": "autre", "ID BDGEO": "804", "horodatage": "2021-08-24 03:10:49", "distance (en metres)": 329.67, "station": "BASSE QUINTE", "marker-color": "#818181"}}, {"type": "Feature", "geometry": {"type": "Point", "coordinates": [2.44315, 48.771732]}, "properties": {"numparc": 9523, "etat de la localisation": "autre", "ID BDGEO": "133", "horodatage": "2021-08-24 03:20:08", "distance (en metres)": 396.87, "station": "VAL POMPADOUR", "marker-color": "#818181"}}, {"type": "Feature", "geometry": {"type": "Point", "coordinates": [2.44236, 48.771809]}, "properties": {"numparc": 9524, "etat de la localisation": "autre", "ID BDGEO": "208", "horodatage": "2021-08-24 04:34:00", "distance (en metres)": 105.8, "station": "DEPOT CRETEIL SORTIE", "marker-color": "#818181"}}, {"type": "Feature", "geometry": {"type": "Point", "coordinates": [2.442382, 48.771812]}, "properties": {"numparc": 9524, "etat de la localisation": "autre", "ID BDGEO": "208", "horodatage": "2021-08-24 04:36:12", "distance (en metres)": 104.56, "station": "DEPOT CRETEIL SORTIE", "marker-color": "#818181"}}, {"type": "Feature", "geometry": {"type": "Point", "coordinates": [2.442596, 48.771839]}, "properties": {"numparc": 9523, "etat de la localisation": "autre", "ID BDGEO": "804", "horodatage": "2021-08-24 04:42:21", "distance (en metres)": 403.31, "station": "BASSE QUINTE", "marker-color": "#818181"}}, {"type": "Feature", "geometry": {"type": "Point", "coordinates": [2.442211, 48.771988]}, "properties": {"numparc": 9525, "etat de la localisation": "autre", "ID BDGEO": "208", "horodatage": "2021-08-24 04:53:14", "distance (en metres)": 98.85, "station": "DEPOT CRETEIL SORTIE", "marker-color": "#818181"}}, {"type": "Feature", "geometry": {"type": "Point", "coordinates": [2.445266, 48.772465]}, "properties": {"numparc": 9525, "etat de la localisation": "autre", "ID BDGEO": "131", "horodatage": "2021-08-24 05:03:41", "distance (en metres)": 393.96, "station": "VAL POMPADOUR", "marker-color": "#818181"}}, {"type": "Feature", "geometry": {"type": "Point", "coordinates": [2.402064, 48.763321]}, "properties": {"numparc": 9523, "etat de la localisation": "autre", "ID BDGEO": "114", "horodatage": "2021-08-24 05:03:54", "distance (en metres)": 115.27, "station": "RENE PANHARD", "marker-color": "#818181"}}, {"type": "Feature", "geometry": {"type": "Point", "coordinates": [2.421219, 48.768955]}, "properties": {"numparc": 9523, "etat de la localisation": "autre", "ID BDGEO": "122", "horodatage": "2021-08-24 05:08:04", "distance (en metres)": 46.91, "station": "MARCELLIN BERTHELOT", "marker-color": "#818181"}}, {"type": "Feature", "geometry": {"type": "Point", "coordinates": [2.408475, 48.765343]}, "properties": {"numparc": 9535, "etat de la localisation": "autre", "ID BDGEO": "118", "horodatage": "2021-08-24 05:10:41", "distance (en metres)": 43.72, "station": "CHOISY-LE-ROI RER", "marker-color": "#818181"}}, {"type": "Feature", "geometry": {"type": "Point", "coordinates": [2.435051, 48.773087]}, "properties": {"numparc": 9535, "etat de la localisation": "autre", "ID BDGEO": "127", "horodatage": "2021-08-24 05:29:38", "distance (en metres)": 40.78, "station": "POMPADOUR", "marker-color": "#818181"}}, {"type": "Feature", "geometry": {"type": "Point", "coordinates": [2.443101, 48.772182]}, "properties": {"numparc": 9532, "etat de la localisation": "autre", "ID BDGEO": "208", "horodatage": "2021-08-24 05:43:03", "distance (en metres)": 43.68, "station": "DEPOT CRETEIL SORTIE", "marker-color": "#818181"}}, {"type": "Feature", "geometry": {"type": "Point", "coordinates": [2.44456, 48.773331]}, "properties": {"numparc": 9525, "etat de la localisation": "autre", "ID BDGEO": "804", "horodatage": "2021-08-24 05:43:43", "distance (en metres)": 258.08, "station": "BASSE QUINTE", "marker-color": "#818181"}}, {"type": "Feature", "geometry": {"type": "Point", "coordinates": [2.408504, 48.765369]}, "properties": {"numparc": 9525, "etat de la localisation": "autre", "ID BDGEO": "118", "horodatage": "2021-08-24 05:50:36", "distance (en metres)": 40.44, "station": "CHOISY-LE-ROI RER", "marker-color": "#818181"}}, {"type": "Feature", "geometry": {"type": "Point", "coordinates": [2.435071, 48.773071]}, "properties": {"numparc": 9524, "etat de la localisation": "autre", "ID BDGEO": "127", "horodatage": "2021-08-24 05:51:08", "distance (en metres)": 41.16, "station": "POMPADOUR", "marker-color": "#818181"}}, {"type": "Feature", "geometry": {"type": "Point", "coordinates": [2.443127, 48.772003]}, "properties": {"numparc": 9528, "etat de la localisation": "autre", "ID BDGEO": "208", "horodatage": "2021-08-24 06:15:37", "distance (en metres)": 62.94, "station": "DEPOT CRETEIL SORTIE", "marker-color": "#818181"}}, {"type": "Feature", "geometry": {"type": "Point", "coordinates": [2.441358, 48.772251]}, "properties": {"numparc": 9528, "etat de la localisation": "autre", "ID BDGEO": "126", "horodatage": "2021-08-24 06:23:13", "distance (en metres)": 502.99, "station": "POMPADOUR", "marker-color": "#818181"}}, {"type": "Feature", "geometry": {"type": "Point", "coordinates": [2.443276, 48.771961]}, "properties": {"numparc": 9534, "etat de la localisation": "autre", "ID BDGEO": "208", "horodatage": "2021-08-24 06:29:24", "distance (en metres)": 67.14, "station": "DEPOT CRETEIL SORTIE", "marker-color": "#818181"}}, {"type": "Feature", "geometry": {"type": "Point", "coordinates": [2.444571, 48.773346]}, "properties": {"numparc": 9524, "etat de la localisation": "autre", "ID BDGEO": "804", "horodatage": "2021-08-24 06:34:51", "distance (en metres)": 256.89, "station": "BASSE QUINTE", "marker-color": "#818181"}}, {"type": "Feature", "geometry": {"type": "Point", "coordinates": [2.443143, 48.771923]}, "properties": {"numparc": 9539, "etat de la localisation": "autre", "ID BDGEO": "208", "horodatage": "2021-08-24 06:42:25", "distance (en metres)": 71.64, "station": "DEPOT CRETEIL SORTIE", "marker-color": "#818181"}}, {"type": "Feature", "geometry": {"type": "Point", "coordinates": [2.408481, 48.765373]}, "properties": {"numparc": 9525, "etat de la localisation": "autre", "ID BDGEO": "118", "horodatage": "2021-08-24 07:09:44", "distance (en metres)": 41.73, "station": "CHOISY-LE-ROI RER", "marker-color": "#818181"}}, {"type": "Feature", "geometry": {"type": "Point", "coordinates": [2.439559, 48.774078]}, "properties": {"numparc": 9531, "etat de la localisation": "autre", "ID BDGEO": "126", "horodatage": "2021-08-24 07:11:02", "distance (en metres)": 380.44, "station": "POMPADOUR", "marker-color": "#818181"}}, {"type": "Feature", "geometry": {"type": "Point", "coordinates": [2.439559, 48.774078]}, "properties": {"numparc": 9531, "etat de la localisation": "autre", "ID BDGEO": "126", "horodatage": "2021-08-24 07:13:09", "distance (en metres)": 380.44, "station": "POMPADOUR", "marker-color": "#818181"}}, {"type": "Feature", "geometry": {"type": "Point", "coordinates": [2.410522, 48.765923]}, "properties": {"numparc": 9531, "etat de la localisation": "autre", "ID BDGEO": "118", "horodatage": "2021-08-24 07:16:05", "distance (en metres)": 120.08, "station": "CHOISY-LE-ROI RER", "marker-color": "#818181"}}, {"type": "Feature", "geometry": {"type": "Point", "coordinates": [2.422074, 48.769222]}, "properties": {"numparc": 9532, "etat de la localisation": "autre", "ID BDGEO": "123", "horodatage": "2021-08-24 07:16:43", "distance (en metres)": 81.4, "station": "MARCELLIN BERTHELOT", "marker-color": "#818181"}}, {"type": "Feature", "geometry": {"type": "Point", "coordinates": [2.408498, 48.765369]}, "properties": {"numparc": 9523, "etat de la localisation": "autre", "ID BDGEO": "118", "horodatage": "2021-08-24 07:18:00", "distance (en metres)": 40.83, "station": "CHOISY-LE-ROI RER", "marker-color": "#818181"}}, {"type": "Feature", "geometry": {"type": "Point", "coordinates": [2.408498, 48.765369]}, "properties": {"numparc": 9523, "etat de la localisation": "autre", "ID BDGEO": "118", "horodatage": "2021-08-24 07:18:16", "distance (en metres)": 40.83, "station": "CHOISY-LE-ROI RER", "marker-color": "#818181"}}, {"type": "Feature", "geometry": {"type": "Point", "coordinates": [2.410522, 48.765923]}, "properties": {"numparc": 9531, "etat de la localisation": "autre", "ID BDGEO": "118", "horodatage": "2021-08-24 07:18:45", "distance (en metres)": 120.08, "station": "CHOISY-LE-ROI RER", "marker-color": "#818181"}}, {"type": "Feature", "geometry": {"type": "Point", "coordinates": [2.410522, 48.765923]}, "properties": {"numparc": 9531, "etat de la localisation": "autre", "ID BDGEO": "118", "horodatage": "2021-08-24 07:19:48", "distance (en metres)": 120.08, "station": "CHOISY-LE-ROI RER", "marker-color": "#818181"}}, {"type": "Feature", "geometry": {"type": "Point", "coordinates": [2.410522, 48.765923]}, "properties": {"numparc": 9531, "etat de la localisation": "autre", "ID BDGEO": "118", "horodatage": "2021-08-24 07:20:46", "distance (en metres)": 120.08, "station": "CHOISY-LE-ROI RER", "marker-color": "#818181"}}, {"type": "Feature", "geometry": {"type": "Point", "coordinates": [2.410522, 48.765923]}, "properties": {"numparc": 9531, "etat de la localisation": "autre", "ID BDGEO": "118", "horodatage": "2021-08-24 07:22:30", "distance (en metres)": 120.08, "station": "CHOISY-LE-ROI RER", "marker-color": "#818181"}}, {"type": "Feature", "geometry": {"type": "Point", "coordinates": [2.50669, 48.772392]}, "properties": {"numparc": 9524, "etat de la localisation": "autre", "ID BDGEO": "291", "horodatage": "2021-08-24 07:22:42", "distance (en metres)": 50.01, "station": "SUCY-BONNEUIL RER", "marker-color": "#818181"}}, {"type": "Feature", "geometry": {"type": "Point", "coordinates": [2.410522, 48.765923]}, "properties": {"numparc": 9531, "etat de la localisation": "autre", "ID BDGEO": "118", "horodatage": "2021-08-24 07:26:37", "distance (en metres)": 120.08, "station": "CHOISY-LE-ROI RER", "marker-color": "#818181"}}, {"type": "Feature", "geometry": {"type": "Point", "coordinates": [2.410522, 48.765923]}, "properties": {"numparc": 9531, "etat de la localisation": "autre", "ID BDGEO": "118", "horodatage": "2021-08-24 07:28:00", "distance (en metres)": 120.08, "station": "CHOISY-LE-ROI RER", "marker-color": "#818181"}}, {"type": "Feature", "geometry": {"type": "Point", "coordinates": [2.410522, 48.765923]}, "properties": {"numparc": 9531, "etat de la localisation": "autre", "ID BDGEO": "118", "horodatage": "2021-08-24 07:29:31", "distance (en metres)": 120.08, "station": "CHOISY-LE-ROI RER", "marker-color": "#818181"}}, {"type": "Feature", "geometry": {"type": "Point", "coordinates": [2.410522, 48.765923]}, "properties": {"numparc": 9531, "etat de la localisation": "autre", "ID BDGEO": "118", "horodatage": "2021-08-24 07:31:19", "distance (en metres)": 120.08, "station": "CHOISY-LE-ROI RER", "marker-color": "#818181"}}, {"type": "Feature", "geometry": {"type": "Point", "coordinates": [2.410522, 48.765923]}, "properties": {"numparc": 9531, "etat de la localisation": "autre", "ID BDGEO": "118", "horodatage": "2021-08-24 07:32:22", "distance (en metres)": 120.08, "station": "CHOISY-LE-ROI RER", "marker-color": "#818181"}}, {"type": "Feature", "geometry": {"type": "Point", "coordinates": [2.426118, 48.770348]}, "properties": {"numparc": 9531, "etat de la localisation": "autre", "ID BDGEO": "125", "horodatage": "2021-08-24 07:40:56", "distance (en metres)": 49.81, "station": "PARC INTERDEPARTEMENTAL DES SPORTS", "marker-color": "#818181"}}, {"type": "Feature", "geometry": {"type": "Point", "coordinates": [2.408511, 48.765358]}, "properties": {"numparc": 9539, "etat de la localisation": "autre", "ID BDGEO": "118", "horodatage": "2021-08-24 07:41:22", "distance (en metres)": 40.6, "station": "CHOISY-LE-ROI RER", "marker-color": "#818181"}}, {"type": "Feature", "geometry": {"type": "Point", "coordinates": [2.426118, 48.770348]}, "properties": {"numparc": 9531, "etat de la localisation": "autre", "ID BDGEO": "125", "horodatage": "2021-08-24 07:42:00", "distance (en metres)": 49.81, "station": "PARC INTERDEPARTEMENTAL DES SPORTS", "marker-color": "#818181"}}, {"type": "Feature", "geometry": {"type": "Point", "coordinates": [2.408481, 48.765366]}, "properties": {"numparc": 9524, "etat de la localisation": "autre", "ID BDGEO": "118", "horodatage": "2021-08-24 07:59:33", "distance (en metres)": 42.08, "station": "CHOISY-LE-ROI RER", "marker-color": "#818181"}}, {"type": "Feature", "geometry": {"type": "Point", "coordinates": [2.506509, 48.771809]}, "properties": {"numparc": 9531, "etat de la localisation": "autre", "ID BDGEO": "154", "horodatage": "2021-08-24 07:59:58", "distance (en metres)": 50.49, "station": "SUCY-BONNEUIL RER.", "marker-color": "#818181"}}, {"type": "Feature", "geometry": {"type": "Point", "coordinates": [2.48374, 48.766663]}, "properties": {"numparc": 9525, "etat de la localisation": "autre", "ID BDGEO": "144", "horodatage": "2021-08-24 08:09:15", "distance (en metres)": 216.79, "station": "STADE DE BONNEUIL", "marker-color": "#818181"}}, {"type": "Feature", "geometry": {"type": "Point", "coordinates": [2.408501, 48.765369]}, "properties": {"numparc": 9532, "etat de la localisation": "autre", "ID BDGEO": "118", "horodatage": "2021-08-24 08:09:37", "distance (en metres)": 40.64, "station": "CHOISY-LE-ROI RER", "marker-color": "#818181"}}, {"type": "Feature", "geometry": {"type": "Point", "coordinates": [2.496849, 48.773151]}, "properties": {"numparc": 9531, "etat de la localisation": "autre", "ID BDGEO": "153", "horodatage": "2021-08-24 08:09:44", "distance (en metres)": 58.74, "station": "PETITS CARREAUX", "marker-color": "#818181"}}, {"type": "Feature", "geometry": {"type": "Point", "coordinates": [2.496849, 48.773151]}, "properties": {"numparc": 9531, "etat de la localisation": "autre", "ID BDGEO": "153", "horodatage": "2021-08-24 08:11:51", "distance (en metres)": 58.74, "station": "PETITS CARREAUX", "marker-color": "#818181"}}, {"type": "Feature", "geometry": {"type": "Point", "coordinates": [2.496849, 48.773151]}, "properties": {"numparc": 9531, "etat de la localisation": "autre", "ID BDGEO": "153", "horodatage": "2021-08-24 08:15:15", "distance (en metres)": 58.74, "station": "PETITS CARREAUX", "marker-color": "#818181"}}, {"type": "Feature", "geometry": {"type": "Point", "coordinates": [2.496849, 48.773151]}, "properties": {"numparc": 9531, "etat de la localisation": "autre", "ID BDGEO": "153", "horodatage": "2021-08-24 08:16:36", "distance (en metres)": 58.74, "station": "PETITS CARREAUX", "marker-color": "#818181"}}, {"type": "Feature", "geometry": {"type": "Point", "coordinates": [2.496849, 48.773151]}, "properties": {"numparc": 9531, "etat de la localisation": "autre", "ID BDGEO": "153", "horodatage": "2021-08-24 08:18:21", "distance (en metres)": 58.74, "station": "PETITS CARREAUX", "marker-color": "#818181"}}, {"type": "Feature", "geometry": {"type": "Point", "coordinates": [2.441756, 48.775818]}, "properties": {"numparc": 9531, "etat de la localisation": "Delocalise", "ID BDGEO": "129", "horodatage": "2021-08-24 08:26:32", "distance (en metres)": 116.75, "station": "BASSE QUINTE", "marker-color": "#FF565E"}}, {"type": "Feature", "geometry": {"type": "Point", "coordinates": [2.425653, 48.770245]}, "properties": {"numparc": 9531, "etat de la localisation": "Delocalise", "ID BDGEO": "125", "horodatage": "2021-08-24 08:27:54", "distance (en metres)": 85.68, "station": "PARC INTERDEPARTEMENTAL DES SPORTS", "marker-color": "#FF565E"}}, {"type": "Feature", "geometry": {"type": "Point", "coordinates": [2.408482, 48.76535]}, "properties": {"numparc": 9525, "etat de la localisation": "autre", "ID BDGEO": "118", "horodatage": "2021-08-24 08:27:59", "distance (en metres)": 42.88, "station": "CHOISY-LE-ROI RER", "marker-color": "#818181"}}, {"type": "Feature", "geometry": {"type": "Point", "coordinates": [2.401163, 48.762768]}, "properties": {"numparc": 9531, "etat de la localisation": "Delocalise", "ID BDGEO": "115", "horodatage": "2021-08-24 08:34:40", "distance (en metres)": 78.75, "station": "RENE PANHARD", "marker-color": "#FF565E"}}, {"type": "Feature", "geometry": {"type": "Point", "coordinates": [2.408497, 48.765354]}, "properties": {"numparc": 9523, "etat de la localisation": "autre", "ID BDGEO": "118", "horodatage": "2021-08-24 08:39:43", "distance (en metres)": 41.71, "station": "CHOISY-LE-ROI RER", "marker-color": "#818181"}}, {"type": "Feature", "geometry": {"type": "Point", "coordinates": [2.393501, 48.758518]}, "properties": {"numparc": 9531, "etat de la localisation": "Delocalise", "ID BDGEO": "1029", "horodatage": "2021-08-24 08:47:12", "distance (en metres)": 4774.23, "station": "FACULTE DES SPORTS.", "marker-color": "#FF565E"}}, {"type": "Feature", "geometry": {"type": "Point", "coordinates": [2.399609, 48.760746]}, "properties": {"numparc": 9531, "etat de la localisation": "Delocalise", "ID BDGEO": "1029", "horodatage": "2021-08-24 08:48:40", "distance (en metres)": 4283.87, "station": "FACULTE DES SPORTS.", "marker-color": "#FF565E"}}, {"type": "Feature", "geometry": {"type": "Point", "coordinates": [2.402059, 48.763241]}, "properties": {"numparc": 9531, "etat de la localisation": "Delocalise", "ID BDGEO": "1029", "horodatage": "2021-08-24 08:49:49", "distance (en metres)": 4059.91, "station": "FACULTE DES SPORTS.", "marker-color": "#FF565E"}}, {"type": "Feature", "geometry": {"type": "Point", "coordinates": [2.405154, 48.764164]}, "properties": {"numparc": 9531, "etat de la localisation": "Delocalise", "ID BDGEO": "1029", "horodatage": "2021-08-24 08:50:51", "distance (en metres)": 3821.55, "station": "FACULTE DES SPORTS.", "marker-color": "#FF565E"}}, {"type": "Feature", "geometry": {"type": "Point", "coordinates": [2.408944, 48.765446]}, "properties": {"numparc": 9531, "etat de la localisation": "Delocalise", "ID BDGEO": "1029", "horodatage": "2021-08-24 08:52:45", "distance (en metres)": 3530.1, "station": "FACULTE DES SPORTS.", "marker-color": "#FF565E"}}, {"type": "Feature", "geometry": {"type": "Point", "coordinates": [2.417131, 48.767719]}, "properties": {"numparc": 9531, "etat de la localisation": "Delocalise", "ID BDGEO": "1029", "horodatage": "2021-08-24 08:54:10", "distance (en metres)": 2916.08, "station": "FACULTE DES SPORTS.", "marker-color": "#FF565E"}}, {"type": "Feature", "geometry": {"type": "Point", "coordinates": [2.421235, 48.768936]}, "properties": {"numparc": 9531, "etat de la localisation": "Delocalise", "ID BDGEO": "1029", "horodatage": "2021-08-24 08:55:25", "distance (en metres)": 2615.26, "station": "FACULTE DES SPORTS.", "marker-color": "#FF565E"}}, {"type": "Feature", "geometry": {"type": "Point", "coordinates": [2.434918, 48.773037]}, "properties": {"numparc": 9531, "etat de la localisation": "Delocalise", "ID BDGEO": "1029", "horodatage": "2021-08-24 08:57:24", "distance (en metres)": 1693.91, "station": "FACULTE DES SPORTS.", "marker-color": "#FF565E"}}, {"type": "Feature", "geometry": {"type": "Point", "coordinates": [2.443224, 48.775188]}, "properties": {"numparc": 9531, "etat de la localisation": "Delocalise", "ID BDGEO": "1029", "horodatage": "2021-08-24 08:59:15", "distance (en metres)": 1258.83, "station": "FACULTE DES SPORTS.", "marker-color": "#FF565E"}}, {"type": "Feature", "geometry": {"type": "Point", "coordinates": [2.447224, 48.76915]}, "properties": {"numparc": 9531, "etat de la localisation": "Delocalise", "ID BDGEO": "1029", "horodatage": "2021-08-24 09:00:44", "distance (en metres)": 715.35, "station": "FACULTE DES SPORTS.", "marker-color": "#FF565E"}}, {"type": "Feature", "geometry": {"type": "Point", "coordinates": [2.408496, 48.765354]}, "properties": {"numparc": 9524, "etat de la localisation": "autre", "ID BDGEO": "118", "horodatage": "2021-08-24 09:16:10", "distance (en metres)": 41.77, "station": "CHOISY-LE-ROI RER", "marker-color": "#818181"}}, {"type": "Feature", "geometry": {"type": "Point", "coordinates": [2.389585, 48.757404]}, "properties": {"numparc": 9524, "etat de la localisation": "autre", "ID BDGEO": "109", "horodatage": "2021-08-24 09:20:45", "distance (en metres)": 46.11, "station": "CARREFOUR RESISTANCE", "marker-color": "#818181"}}, {"type": "Feature", "geometry": {"type": "Point", "coordinates": [2.490862, 48.772854]}, "properties": {"numparc": 9534, "etat de la localisation": "autre", "ID BDGEO": "151", "horodatage": "2021-08-24 09:25:34", "distance (en metres)": 106.27, "station": "RHIN ET DANUBE", "marker-color": "#818181"}}, {"type": "Feature", "geometry": {"type": "Point", "coordinates": [2.486768, 48.767891]}, "properties": {"numparc": 9531, "etat de la localisation": "Delocalise", "ID BDGEO": "208", "horodatage": "2021-08-24 09:25:46", "distance (en metres)": 3232.2, "station": "DEPOT CRETEIL SORTIE", "marker-color": "#FF565E"}}, {"type": "Feature", "geometry": {"type": "Point", "coordinates": [2.481258, 48.765579]}, "properties": {"numparc": 9531, "etat de la localisation": "Delocalise", "ID BDGEO": "208", "horodatage": "2021-08-24 09:27:29", "distance (en metres)": 2892.65, "station": "DEPOT CRETEIL SORTIE", "marker-color": "#FF565E"}}, {"type": "Feature", "geometry": {"type": "Point", "coordinates": [2.470626, 48.766983]}, "properties": {"numparc": 9531, "etat de la localisation": "Delocalise", "ID BDGEO": "208", "horodatage": "2021-08-24 09:29:18", "distance (en metres)": 2100.94, "station": "DEPOT CRETEIL SORTIE", "marker-color": "#FF565E"}}, {"type": "Feature", "geometry": {"type": "Point", "coordinates": [2.463494, 48.768776]}, "properties": {"numparc": 9531, "etat de la localisation": "Delocalise", "ID BDGEO": "208", "horodatage": "2021-08-24 09:30:36", "distance (en metres)": 1543.08, "station": "DEPOT CRETEIL SORTIE", "marker-color": "#FF565E"}}, {"type": "Feature", "geometry": {"type": "Point", "coordinates": [2.389628, 48.757439]}, "properties": {"numparc": 9532, "etat de la localisation": "autre", "ID BDGEO": "109", "horodatage": "2021-08-24 09:30:45", "distance (en metres)": 50.78, "station": "CARREFOUR RESISTANCE", "marker-color": "#818181"}}, {"type": "Feature", "geometry": {"type": "Point", "coordinates": [2.456267, 48.768345]}, "properties": {"numparc": 9531, "etat de la localisation": "Delocalise", "ID BDGEO": "208", "horodatage": "2021-08-24 09:32:13", "distance (en metres)": 1063.88, "station": "DEPOT CRETEIL SORTIE", "marker-color": "#FF565E"}}, {"type": "Feature", "geometry": {"type": "Point", "coordinates": [2.388506, 48.757103]}, "properties": {"numparc": 9532, "etat de la localisation": "autre", "ID BDGEO": "109", "horodatage": "2021-08-24 09:32:54", "distance (en metres)": 40.32, "station": "CARREFOUR RESISTANCE", "marker-color": "#818181"}}, {"type": "Feature", "geometry": {"type": "Point", "coordinates": [2.506737, 48.772346]}, "properties": {"numparc": 9523, "etat de la localisation": "autre", "ID BDGEO": "291", "horodatage": "2021-08-24 09:40:33", "distance (en metres)": 44.92, "station": "SUCY-BONNEUIL RER", "marker-color": "#818181"}}, {"type": "Feature", "geometry": {"type": "Point", "coordinates": [2.408504, 48.765362]}, "properties": {"numparc": 9525, "etat de la localisation": "autre", "ID BDGEO": "118", "horodatage": "2021-08-24 09:49:24", "distance (en metres)": 40.82, "station": "CHOISY-LE-ROI RER", "marker-color": "#818181"}}, {"type": "Feature", "geometry": {"type": "Point", "coordinates": [2.443115, 48.772152]}, "properties": {"numparc": 9532, "etat de la localisation": "autre", "ID BDGEO": "208", "horodatage": "2021-08-24 09:51:18", "distance (en metres)": 46.72, "station": "DEPOT CRETEIL SORTIE", "marker-color": "#818181"}}, {"type": "Feature", "geometry": {"type": "Point", "coordinates": [2.44153, 48.773125]}, "properties": {"numparc": 9534, "etat de la localisation": "autre", "ID BDGEO": "126", "horodatage": "2021-08-24 09:52:23", "distance (en metres)": 507.6, "station": "POMPADOUR", "marker-color": "#818181"}}, {"type": "Feature", "geometry": {"type": "Point", "coordinates": [2.443141, 48.771942]}, "properties": {"numparc": 9534, "etat de la localisation": "autre", "ID BDGEO": "126", "horodatage": "2021-08-24 09:55:43", "distance (en metres)": 637.77, "station": "POMPADOUR", "marker-color": "#818181"}}, {"type": "Feature", "geometry": {"type": "Point", "coordinates": [2.408516, 48.765358]}, "properties": {"numparc": 9523, "etat de la localisation": "autre", "ID BDGEO": "118", "horodatage": "2021-08-24 10:04:28", "distance (en metres)": 40.28, "station": "CHOISY-LE-ROI RER", "marker-color": "#818181"}}, {"type": "Feature", "geometry": {"type": "Point", "coordinates": [2.44459, 48.773415]}, "properties": {"numparc": 9524, "etat de la localisation": "autre", "ID BDGEO": "804", "horodatage": "2021-08-24 10:43:41", "distance (en metres)": 250.52, "station": "BASSE QUINTE", "marker-color": "#818181"}}, {"type": "Feature", "geometry": {"type": "Point", "coordinates": [2.44459, 48.773415]}, "properties": {"numparc": 9524, "etat de la localisation": "autre", "ID BDGEO": "804", "horodatage": "2021-08-24 10:43:44", "distance (en metres)": 250.52, "station": "BASSE QUINTE", "marker-color": "#818181"}}, {"type": "Feature", "geometry": {"type": "Point", "coordinates": [2.442987, 48.771908]}, "properties": {"numparc": 9524, "etat de la localisation": "autre", "ID BDGEO": "208", "horodatage": "2021-08-24 11:14:37", "distance (en metres)": 75.26, "station": "DEPOT CRETEIL SORTIE", "marker-color": "#818181"}}, {"type": "Feature", "geometry": {"type": "Point", "coordinates": [2.408511, 48.765362]}, "properties": {"numparc": 9539, "etat de la localisation": "autre", "ID BDGEO": "118", "horodatage": "2021-08-24 11:35:53", "distance (en metres)": 40.37, "station": "CHOISY-LE-ROI RER", "marker-color": "#818181"}}, {"type": "Feature", "geometry": {"type": "Point", "coordinates": [2.44287, 48.772408]}, "properties": {"numparc": 9534, "etat de la localisation": "autre", "ID BDGEO": "126", "horodatage": "2021-08-24 12:01:15", "distance (en metres)": 610.03, "station": "POMPADOUR", "marker-color": "#818181"}}, {"type": "Feature", "geometry": {"type": "Point", "coordinates": [2.443178, 48.771847]}, "properties": {"numparc": 9528, "etat de la localisation": "autre", "ID BDGEO": "804", "horodatage": "2021-08-24 12:29:11", "distance (en metres)": 400.6, "station": "BASSE QUINTE", "marker-color": "#818181"}}, {"type": "Feature", "geometry": {"type": "Point", "coordinates": [2.443178, 48.771847]}, "properties": {"numparc": 9528, "etat de la localisation": "autre", "ID BDGEO": "804", "horodatage": "2021-08-24 12:30:14", "distance (en metres)": 400.6, "station": "BASSE QUINTE", "marker-color": "#818181"}}, {"type": "Feature", "geometry": {"type": "Point", "coordinates": [2.443178, 48.771843]}, "properties": {"numparc": 9528, "etat de la localisation": "autre", "ID BDGEO": "804", "horodatage": "2021-08-24 12:30:43", "distance (en metres)": 401.04, "station": "BASSE QUINTE", "marker-color": "#818181"}}, {"type": "Feature", "geometry": {"type": "Point", "coordinates": [2.44234, 48.771751]}, "properties": {"numparc": 9528, "etat de la localisation": "autre", "ID BDGEO": "804", "horodatage": "2021-08-24 12:45:58", "distance (en metres)": 415.22, "station": "BASSE QUINTE", "marker-color": "#818181"}}, {"type": "Feature", "geometry": {"type": "Point", "coordinates": [2.44234, 48.771751]}, "properties": {"numparc": 9528, "etat de la localisation": "Delocalise", "ID BDGEO": "804", "horodatage": "2021-08-24 12:47:48", "distance (en metres)": 415.22, "station": "BASSE QUINTE", "marker-color": "#FF565E"}}, {"type": "Feature", "geometry": {"type": "Point", "coordinates": [2.408513, 48.765343]}, "properties": {"numparc": 9539, "etat de la localisation": "autre", "ID BDGEO": "118", "horodatage": "2021-08-24 12:55:23", "distance (en metres)": 41.35, "station": "CHOISY-LE-ROI RER", "marker-color": "#818181"}}, {"type": "Feature", "geometry": {"type": "Point", "coordinates": [2.408459, 48.765362]}, "properties": {"numparc": 9528, "etat de la localisation": "autre", "ID BDGEO": "118", "horodatage": "2021-08-24 13:04:21", "distance (en metres)": 43.72, "station": "CHOISY-LE-ROI RER", "marker-color": "#818181"}}, {"type": "Feature", "geometry": {"type": "Point", "coordinates": [2.408515, 48.765354]}, "properties": {"numparc": 9525, "etat de la localisation": "autre", "ID BDGEO": "118", "horodatage": "2021-08-24 13:22:31", "distance (en metres)": 40.58, "station": "CHOISY-LE-ROI RER", "marker-color": "#818181"}}, {"type": "Feature", "geometry": {"type": "Point", "coordinates": [2.418365, 48.768112]}, "properties": {"numparc": 9528, "etat de la localisation": "autre", "ID BDGEO": "121", "horodatage": "2021-08-24 13:24:00", "distance (en metres)": 120.5, "station": "PASTEUR", "marker-color": "#818181"}}, {"type": "Feature", "geometry": {"type": "Point", "coordinates": [2.435079, 48.773102]}, "properties": {"numparc": 9528, "etat de la localisation": "autre", "ID BDGEO": "127", "horodatage": "2021-08-24 13:27:45", "distance (en metres)": 43.4, "station": "POMPADOUR", "marker-color": "#818181"}}, {"type": "Feature", "geometry": {"type": "Point", "coordinates": [2.505233, 48.773132]}, "properties": {"numparc": 9528, "etat de la localisation": "autre", "ID BDGEO": "291", "horodatage": "2021-08-24 13:46:24", "distance (en metres)": 171.0, "station": "SUCY-BONNEUIL RER", "marker-color": "#818181"}}, {"type": "Feature", "geometry": {"type": "Point", "coordinates": [2.463213, 48.768814]}, "properties": {"numparc": 9525, "etat de la localisation": "autre", "ID BDGEO": "136", "horodatage": "2021-08-24 13:51:34", "distance (en metres)": 47.99, "station": "POINTE DU LAC", "marker-color": "#818181"}}, {"type": "Feature", "geometry": {"type": "Point", "coordinates": [2.441834, 48.771973]}, "properties": {"numparc": 9537, "etat de la localisation": "autre", "ID BDGEO": "208", "horodatage": "2021-08-24 14:18:45", "distance (en metres)": 122.1, "station": "DEPOT CRETEIL SORTIE", "marker-color": "#818181"}}, {"type": "Feature", "geometry": {"type": "Point", "coordinates": [2.444574, 48.773396]}, "properties": {"numparc": 9525, "etat de la localisation": "autre", "ID BDGEO": "804", "horodatage": "2021-08-24 14:29:00", "distance (en metres)": 251.92, "station": "BASSE QUINTE", "marker-color": "#818181"}}, {"type": "Feature", "geometry": {"type": "Point", "coordinates": [2.408504, 48.765343]}, "properties": {"numparc": 9525, "etat de la localisation": "autre", "ID BDGEO": "118", "horodatage": "2021-08-24 14:38:10", "distance (en metres)": 41.9, "station": "CHOISY-LE-ROI RER", "marker-color": "#818181"}}, {"type": "Feature", "geometry": {"type": "Point", "coordinates": [2.43507, 48.773071]}, "properties": {"numparc": 9528, "etat de la localisation": "autre", "ID BDGEO": "127", "horodatage": "2021-08-24 14:41:32", "distance (en metres)": 41.1, "station": "POMPADOUR", "marker-color": "#818181"}}, {"type": "Feature", "geometry": {"type": "Point", "coordinates": [2.506109, 48.773666]}, "properties": {"numparc": 9528, "etat de la localisation": "autre", "ID BDGEO": "291", "horodatage": "2021-08-24 15:01:47", "distance (en metres)": 196.68, "station": "SUCY-BONNEUIL RER", "marker-color": "#818181"}}, {"type": "Feature", "geometry": {"type": "Point", "coordinates": [2.505442, 48.773575]}, "properties": {"numparc": 9528, "etat de la localisation": "autre", "ID BDGEO": "291", "horodatage": "2021-08-24 15:08:48", "distance (en metres)": 204.0, "station": "SUCY-BONNEUIL RER", "marker-color": "#818181"}}, {"type": "Feature", "geometry": {"type": "Point", "coordinates": [2.443059, 48.772186]}, "properties": {"numparc": 9535, "etat de la localisation": "autre", "ID BDGEO": "126", "horodatage": "2021-08-24 15:11:27", "distance (en metres)": 627.12, "station": "POMPADOUR", "marker-color": "#818181"}}, {"type": "Feature", "geometry": {"type": "Point", "coordinates": [2.444596, 48.773346]}, "properties": {"numparc": 9539, "etat de la localisation": "autre", "ID BDGEO": "804", "horodatage": "2021-08-24 15:11:47", "distance (en metres)": 257.65, "station": "BASSE QUINTE", "marker-color": "#818181"}}, {"type": "Feature", "geometry": {"type": "Point", "coordinates": [2.443116, 48.772152]}, "properties": {"numparc": 9532, "etat de la localisation": "autre", "ID BDGEO": "208", "horodatage": "2021-08-24 15:13:46", "distance (en metres)": 46.7, "station": "DEPOT CRETEIL SORTIE", "marker-color": "#818181"}}, {"type": "Feature", "geometry": {"type": "Point", "coordinates": [2.444602, 48.773407]}, "properties": {"numparc": 9537, "etat de la localisation": "autre", "ID BDGEO": "804", "horodatage": "2021-08-24 15:28:06", "distance (en metres)": 251.7, "station": "BASSE QUINTE", "marker-color": "#818181"}}, {"type": "Feature", "geometry": {"type": "Point", "coordinates": [2.443006, 48.772488]}, "properties": {"numparc": 9534, "etat de la localisation": "autre", "ID BDGEO": "126", "horodatage": "2021-08-24 15:42:43", "distance (en metres)": 618.95, "station": "POMPADOUR", "marker-color": "#818181"}}, {"type": "Feature", "geometry": {"type": "Point", "coordinates": [2.444628, 48.773201]}, "properties": {"numparc": 9535, "etat de la localisation": "autre", "ID BDGEO": "129", "horodatage": "2021-08-24 15:46:49", "distance (en metres)": 262.15, "station": "BASSE QUINTE", "marker-color": "#818181"}}, {"type": "Feature", "geometry": {"type": "Point", "coordinates": [2.443006, 48.772488]}, "properties": {"numparc": 9534, "etat de la localisation": "autre", "ID BDGEO": "126", "horodatage": "2021-08-24 15:47:25", "distance (en metres)": 618.95, "station": "POMPADOUR", "marker-color": "#818181"}}, {"type": "Feature", "geometry": {"type": "Point", "coordinates": [2.389623, 48.757431]}, "properties": {"numparc": 9528, "etat de la localisation": "autre", "ID BDGEO": "109", "horodatage": "2021-08-24 15:52:02", "distance (en metres)": 50.01, "station": "CARREFOUR RESISTANCE", "marker-color": "#818181"}}, {"type": "Feature", "geometry": {"type": "Point", "coordinates": [2.390389, 48.757675]}, "properties": {"numparc": 9528, "etat de la localisation": "autre", "ID BDGEO": "109", "horodatage": "2021-08-24 15:55:26", "distance (en metres)": 112.28, "station": "CARREFOUR RESISTANCE", "marker-color": "#818181"}}, {"type": "Feature", "geometry": {"type": "Point", "coordinates": [2.408478, 48.765358]}, "properties": {"numparc": 9534, "etat de la localisation": "autre", "ID BDGEO": "118", "horodatage": "2021-08-24 16:00:01", "distance (en metres)": 42.7, "station": "CHOISY-LE-ROI RER", "marker-color": "#818181"}}, {"type": "Feature", "geometry": {"type": "Point", "coordinates": [2.408499, 48.76535]}, "properties": {"numparc": 9532, "etat de la localisation": "autre", "ID BDGEO": "118", "horodatage": "2021-08-24 16:14:50", "distance (en metres)": 41.81, "station": "CHOISY-LE-ROI RER", "marker-color": "#818181"}}, {"type": "Feature", "geometry": {"type": "Point", "coordinates": [2.443153, 48.771935]}, "properties": {"numparc": 9524, "etat de la localisation": "autre", "ID BDGEO": "208", "horodatage": "2021-08-24 16:29:08", "distance (en metres)": 70.25, "station": "DEPOT CRETEIL SORTIE", "marker-color": "#818181"}}, {"type": "Feature", "geometry": {"type": "Point", "coordinates": [2.443153, 48.771935]}, "properties": {"numparc": 9524, "etat de la localisation": "autre", "ID BDGEO": "208", "horodatage": "2021-08-24 16:31:02", "distance (en metres)": 70.25, "station": "DEPOT CRETEIL SORTIE", "marker-color": "#818181"}}, {"type": "Feature", "geometry": {"type": "Point", "coordinates": [2.443158, 48.771935]}, "properties": {"numparc": 9524, "etat de la localisation": "autre", "ID BDGEO": "208", "horodatage": "2021-08-24 16:33:28", "distance (en metres)": 70.22, "station": "DEPOT CRETEIL SORTIE", "marker-color": "#818181"}}, {"type": "Feature", "geometry": {"type": "Point", "coordinates": [2.443044, 48.772335]}, "properties": {"numparc": 9531, "etat de la localisation": "autre", "ID BDGEO": "126", "horodatage": "2021-08-24 16:42:07", "distance (en metres)": 623.68, "station": "POMPADOUR", "marker-color": "#818181"}}, {"type": "Feature", "geometry": {"type": "Point", "coordinates": [2.444604, 48.773151]}, "properties": {"numparc": 9528, "etat de la localisation": "autre", "ID BDGEO": "129", "horodatage": "2021-08-24 16:45:49", "distance (en metres)": 266.56, "station": "BASSE QUINTE", "marker-color": "#818181"}}, {"type": "Feature", "geometry": {"type": "Point", "coordinates": [2.443044, 48.772335]}, "properties": {"numparc": 9531, "etat de la localisation": "autre", "ID BDGEO": "126", "horodatage": "2021-08-24 16:47:54", "distance (en metres)": 623.68, "station": "POMPADOUR", "marker-color": "#818181"}}, {"type": "Feature", "geometry": {"type": "Point", "coordinates": [2.443044, 48.772335]}, "properties": {"numparc": 9531, "etat de la localisation": "autre", "ID BDGEO": "129", "horodatage": "2021-08-24 16:49:48", "distance (en metres)": 336.48, "station": "BASSE QUINTE", "marker-color": "#818181"}}, {"type": "Feature", "geometry": {"type": "Point", "coordinates": [2.443044, 48.772335]}, "properties": {"numparc": 9531, "etat de la localisation": "autre", "ID BDGEO": "129", "horodatage": "2021-08-24 16:50:37", "distance (en metres)": 336.48, "station": "BASSE QUINTE", "marker-color": "#818181"}}, {"type": "Feature", "geometry": {"type": "Point", "coordinates": [2.443044, 48.772335]}, "properties": {"numparc": 9531, "etat de la localisation": "autre", "ID BDGEO": "129", "horodatage": "2021-08-24 16:54:29", "distance (en metres)": 336.48, "station": "BASSE QUINTE", "marker-color": "#818181"}}, {"type": "Feature", "geometry": {"type": "Point", "coordinates": [2.443044, 48.772335]}, "properties": {"numparc": 9531, "etat de la localisation": "autre", "ID BDGEO": "129", "horodatage": "2021-08-24 16:56:36", "distance (en metres)": 336.48, "station": "BASSE QUINTE", "marker-color": "#818181"}}, {"type": "Feature", "geometry": {"type": "Point", "coordinates": [2.443044, 48.772335]}, "properties": {"numparc": 9531, "etat de la localisation": "autre", "ID BDGEO": "129", "horodatage": "2021-08-24 16:57:40", "distance (en metres)": 336.48, "station": "BASSE QUINTE", "marker-color": "#818181"}}, {"type": "Feature", "geometry": {"type": "Point", "coordinates": [2.443044, 48.772335]}, "properties": {"numparc": 9531, "etat de la localisation": "autre", "ID BDGEO": "129", "horodatage": "2021-08-24 16:58:41", "distance (en metres)": 336.48, "station": "BASSE QUINTE", "marker-color": "#818181"}}, {"type": "Feature", "geometry": {"type": "Point", "coordinates": [2.506664, 48.772385]}, "properties": {"numparc": 9528, "etat de la localisation": "autre", "ID BDGEO": "291", "horodatage": "2021-08-24 16:59:17", "distance (en metres)": 49.34, "station": "SUCY-BONNEUIL RER", "marker-color": "#818181"}}, {"type": "Feature", "geometry": {"type": "Point", "coordinates": [2.443044, 48.772335]}, "properties": {"numparc": 9531, "etat de la localisation": "autre", "ID BDGEO": "129", "horodatage": "2021-08-24 17:00:12", "distance (en metres)": 336.48, "station": "BASSE QUINTE", "marker-color": "#818181"}}, {"type": "Feature", "geometry": {"type": "Point", "coordinates": [2.443044, 48.772335]}, "properties": {"numparc": 9531, "etat de la localisation": "autre", "ID BDGEO": "129", "horodatage": "2021-08-24 17:01:16", "distance (en metres)": 336.48, "station": "BASSE QUINTE", "marker-color": "#818181"}}, {"type": "Feature", "geometry": {"type": "Point", "coordinates": [2.440869, 48.773853]}, "properties": {"numparc": 9531, "etat de la localisation": "autre", "ID BDGEO": "129", "horodatage": "2021-08-24 17:06:46", "distance (en metres)": 238.7, "station": "BASSE QUINTE", "marker-color": "#818181"}}, {"type": "Feature", "geometry": {"type": "Point", "coordinates": [2.434947, 48.773209]}, "properties": {"numparc": 9531, "etat de la localisation": "autre", "ID BDGEO": "127", "horodatage": "2021-08-24 17:10:59", "distance (en metres)": 44.2, "station": "POMPADOUR", "marker-color": "#818181"}}, {"type": "Feature", "geometry": {"type": "Point", "coordinates": [2.399489, 48.760548]}, "properties": {"numparc": 9531, "etat de la localisation": "Delocalise", "ID BDGEO": "112", "horodatage": "2021-08-24 17:13:29", "distance (en metres)": 131.48, "station": "GEORGES HALGOULT", "marker-color": "#FF565E"}}, {"type": "Feature", "geometry": {"type": "Point", "coordinates": [2.401614, 48.762646]}, "properties": {"numparc": 9531, "etat de la localisation": "Delocalise", "ID BDGEO": "114", "horodatage": "2021-08-24 17:14:29", "distance (en metres)": 46.63, "station": "RENE PANHARD", "marker-color": "#FF565E"}}, {"type": "Feature", "geometry": {"type": "Point", "coordinates": [2.408287, 48.765221]}, "properties": {"numparc": 9531, "etat de la localisation": "Delocalise", "ID BDGEO": "118", "horodatage": "2021-08-24 17:17:10", "distance (en metres)": 62.66, "station": "CHOISY-LE-ROI RER", "marker-color": "#FF565E"}}, {"type": "Feature", "geometry": {"type": "Point", "coordinates": [2.408438, 48.765343]}, "properties": {"numparc": 9534, "etat de la localisation": "autre", "ID BDGEO": "118", "horodatage": "2021-08-24 17:19:05", "distance (en metres)": 46.07, "station": "CHOISY-LE-ROI RER", "marker-color": "#818181"}}, {"type": "Feature", "geometry": {"type": "Point", "coordinates": [2.426616, 48.770542]}, "properties": {"numparc": 9531, "etat de la localisation": "Delocalise", "ID BDGEO": "124", "horodatage": "2021-08-24 17:21:38", "distance (en metres)": 76.02, "station": "PARC INTERDEPARTEMENTAL DES SPORTS", "marker-color": "#FF565E"}}, {"type": "Feature", "geometry": {"type": "Point", "coordinates": [2.426616, 48.770542]}, "properties": {"numparc": 9531, "etat de la localisation": "Delocalise", "ID BDGEO": "124", "horodatage": "2021-08-24 17:23:31", "distance (en metres)": 76.02, "station": "PARC INTERDEPARTEMENTAL DES SPORTS", "marker-color": "#FF565E"}}, {"type": "Feature", "geometry": {"type": "Point", "coordinates": [2.426616, 48.770542]}, "properties": {"numparc": 9531, "etat de la localisation": "Delocalise", "ID BDGEO": "124", "horodatage": "2021-08-24 17:25:42", "distance (en metres)": 76.02, "station": "PARC INTERDEPARTEMENTAL DES SPORTS", "marker-color": "#FF565E"}}, {"type": "Feature", "geometry": {"type": "Point", "coordinates": [2.408469, 48.765343]}, "properties": {"numparc": 9524, "etat de la localisation": "autre", "ID BDGEO": "118", "horodatage": "2021-08-24 17:26:28", "distance (en metres)": 44.1, "station": "CHOISY-LE-ROI RER", "marker-color": "#818181"}}, {"type": "Feature", "geometry": {"type": "Point", "coordinates": [2.446888, 48.76992]}, "properties": {"numparc": 9531, "etat de la localisation": "Delocalise", "ID BDGEO": "126", "horodatage": "2021-08-24 17:27:15", "distance (en metres)": 965.43, "station": "POMPADOUR", "marker-color": "#FF565E"}}, {"type": "Feature", "geometry": {"type": "Point", "coordinates": [2.456565, 48.76833]}, "properties": {"numparc": 9531, "etat de la localisation": "Delocalise", "ID BDGEO": "126", "horodatage": "2021-08-24 17:28:59", "distance (en metres)": 1693.07, "station": "POMPADOUR", "marker-color": "#FF565E"}}, {"type": "Feature", "geometry": {"type": "Point", "coordinates": [2.462921, 48.768742]}, "properties": {"numparc": 9531, "etat de la localisation": "Delocalise", "ID BDGEO": "126", "horodatage": "2021-08-24 17:30:23", "distance (en metres)": 2129.96, "station": "POMPADOUR", "marker-color": "#FF565E"}}, {"type": "Feature", "geometry": {"type": "Point", "coordinates": [2.470443, 48.766953]}, "properties": {"numparc": 9531, "etat de la localisation": "Delocalise", "ID BDGEO": "126", "horodatage": "2021-08-24 17:31:35", "distance (en metres)": 2712.79, "station": "POMPADOUR", "marker-color": "#FF565E"}}, {"type": "Feature", "geometry": {"type": "Point", "coordinates": [2.408478, 48.765343]}, "properties": {"numparc": 9532, "etat de la localisation": "autre", "ID BDGEO": "118", "horodatage": "2021-08-24 17:34:02", "distance (en metres)": 43.53, "station": "CHOISY-LE-ROI RER", "marker-color": "#818181"}}, {"type": "Feature", "geometry": {"type": "Point", "coordinates": [2.481516, 48.765648]}, "properties": {"numparc": 9531, "etat de la localisation": "Delocalise", "ID BDGEO": "126", "horodatage": "2021-08-24 17:34:13", "distance (en metres)": 3535.39, "station": "POMPADOUR", "marker-color": "#FF565E"}}, {"type": "Feature", "geometry": {"type": "Point", "coordinates": [2.487015, 48.767971]}, "properties": {"numparc": 9531, "etat de la localisation": "Delocalise", "ID BDGEO": "126", "horodatage": "2021-08-24 17:35:27", "distance (en metres)": 3882.39, "station": "POMPADOUR", "marker-color": "#FF565E"}}, {"type": "Feature", "geometry": {"type": "Point", "coordinates": [2.490361, 48.771946]}, "properties": {"numparc": 9531, "etat de la localisation": "Delocalise", "ID BDGEO": "126", "horodatage": "2021-08-24 17:37:29", "distance (en metres)": 4087.9, "station": "POMPADOUR", "marker-color": "#FF565E"}}, {"type": "Feature", "geometry": {"type": "Point", "coordinates": [2.496118, 48.77314]}, "properties": {"numparc": 9531, "etat de la localisation": "Delocalise", "ID BDGEO": "126", "horodatage": "2021-08-24 17:38:47", "distance (en metres)": 4507.88, "station": "POMPADOUR", "marker-color": "#FF565E"}}, {"type": "Feature", "geometry": {"type": "Point", "coordinates": [2.408507, 48.765373]}, "properties": {"numparc": 9528, "etat de la localisation": "autre", "ID BDGEO": "118", "horodatage": "2021-08-24 17:39:12", "distance (en metres)": 40.04, "station": "CHOISY-LE-ROI RER", "marker-color": "#818181"}}, {"type": "Feature", "geometry": {"type": "Point", "coordinates": [2.506621, 48.772179]}, "properties": {"numparc": 9531, "etat de la localisation": "Delocalise", "ID BDGEO": "126", "horodatage": "2021-08-24 17:40:45", "distance (en metres)": 5278.51, "station": "POMPADOUR", "marker-color": "#FF565E"}}, {"type": "Feature", "geometry": {"type": "Point", "coordinates": [2.408504, 48.765362]}, "properties": {"numparc": 9525, "etat de la localisation": "autre", "ID BDGEO": "118", "horodatage": "2021-08-24 17:56:07", "distance (en metres)": 40.82, "station": "CHOISY-LE-ROI RER", "marker-color": "#818181"}}, {"type": "Feature", "geometry": {"type": "Point", "coordinates": [2.435092, 48.773094]}, "properties": {"numparc": 9528, "etat de la localisation": "autre", "ID BDGEO": "127", "horodatage": "2021-08-24 18:03:06", "distance (en metres)": 43.76, "station": "POMPADOUR", "marker-color": "#818181"}}, {"type": "Feature", "geometry": {"type": "Point", "coordinates": [2.506659, 48.772385]}, "properties": {"numparc": 9528, "etat de la localisation": "autre", "ID BDGEO": "291", "horodatage": "2021-08-24 18:18:49", "distance (en metres)": 49.36, "station": "SUCY-BONNEUIL RER", "marker-color": "#818181"}}, {"type": "Feature", "geometry": {"type": "Point", "coordinates": [2.408445, 48.765331]}, "properties": {"numparc": 9524, "etat de la localisation": "autre", "ID BDGEO": "118", "horodatage": "2021-08-24 18:49:16", "distance (en metres)": 46.29, "station": "CHOISY-LE-ROI RER", "marker-color": "#818181"}}, {"type": "Feature", "geometry": {"type": "Point", "coordinates": [2.40849, 48.765339]}, "properties": {"numparc": 9532, "etat de la localisation": "autre", "ID BDGEO": "118", "horodatage": "2021-08-24 18:52:47", "distance (en metres)": 43.01, "station": "CHOISY-LE-ROI RER", "marker-color": "#818181"}}, {"type": "Feature", "geometry": {"type": "Point", "coordinates": [2.408395, 48.765327]}, "properties": {"numparc": 9528, "etat de la localisation": "autre", "ID BDGEO": "118", "horodatage": "2021-08-24 18:57:39", "distance (en metres)": 49.69, "station": "CHOISY-LE-ROI RER", "marker-color": "#818181"}}, {"type": "Feature", "geometry": {"type": "Point", "coordinates": [2.506299, 48.773586]}, "properties": {"numparc": 9531, "etat de la localisation": "autre", "ID BDGEO": "291", "horodatage": "2021-08-24 18:58:26", "distance (en metres)": 185.25, "station": "SUCY-BONNEUIL RER", "marker-color": "#818181"}}, {"type": "Feature", "geometry": {"type": "Point", "coordinates": [2.389589, 48.757446]}, "properties": {"numparc": 9528, "etat de la localisation": "autre", "ID BDGEO": "109", "horodatage": "2021-08-24 19:02:38", "distance (en metres)": 48.78, "station": "CARREFOUR RESISTANCE", "marker-color": "#818181"}}, {"type": "Feature", "geometry": {"type": "Point", "coordinates": [2.506299, 48.773586]}, "properties": {"numparc": 9531, "etat de la localisation": "autre", "ID BDGEO": "291", "horodatage": "2021-08-24 19:08:47", "distance (en metres)": 185.25, "station": "SUCY-BONNEUIL RER", "marker-color": "#818181"}}, {"type": "Feature", "geometry": {"type": "Point", "coordinates": [2.506299, 48.773586]}, "properties": {"numparc": 9531, "etat de la localisation": "autre", "ID BDGEO": "291", "horodatage": "2021-08-24 19:11:50", "distance (en metres)": 185.25, "station": "SUCY-BONNEUIL RER", "marker-color": "#818181"}}, {"type": "Feature", "geometry": {"type": "Point", "coordinates": [2.506299, 48.773586]}, "properties": {"numparc": 9531, "etat de la localisation": "autre", "ID BDGEO": "291", "horodatage": "2021-08-24 19:12:18", "distance (en metres)": 185.25, "station": "SUCY-BONNEUIL RER", "marker-color": "#818181"}}, {"type": "Feature", "geometry": {"type": "Point", "coordinates": [2.408487, 48.765343]}, "properties": {"numparc": 9525, "etat de la localisation": "autre", "ID BDGEO": "118", "horodatage": "2021-08-24 19:12:47", "distance (en metres)": 42.96, "station": "CHOISY-LE-ROI RER", "marker-color": "#818181"}}, {"type": "Feature", "geometry": {"type": "Point", "coordinates": [2.506299, 48.773586]}, "properties": {"numparc": 9531, "etat de la localisation": "autre", "ID BDGEO": "291", "horodatage": "2021-08-24 19:14:58", "distance (en metres)": 185.25, "station": "SUCY-BONNEUIL RER", "marker-color": "#818181"}}, {"type": "Feature", "geometry": {"type": "Point", "coordinates": [2.506299, 48.773586]}, "properties": {"numparc": 9531, "etat de la localisation": "autre", "ID BDGEO": "291", "horodatage": "2021-08-24 19:16:25", "distance (en metres)": 185.25, "station": "SUCY-BONNEUIL RER", "marker-color": "#818181"}}, {"type": "Feature", "geometry": {"type": "Point", "coordinates": [2.506299, 48.773586]}, "properties": {"numparc": 9531, "etat de la localisation": "autre", "ID BDGEO": "291", "horodatage": "2021-08-24 19:18:57", "distance (en metres)": 185.25, "station": "SUCY-BONNEUIL RER", "marker-color": "#818181"}}, {"type": "Feature", "geometry": {"type": "Point", "coordinates": [2.506299, 48.773586]}, "properties": {"numparc": 9531, "etat de la localisation": "autre", "ID BDGEO": "291", "horodatage": "2021-08-24 19:20:07", "distance (en metres)": 185.25, "station": "SUCY-BONNEUIL RER", "marker-color": "#818181"}}, {"type": "Feature", "geometry": {"type": "Point", "coordinates": [2.506299, 48.773586]}, "properties": {"numparc": 9531, "etat de la localisation": "autre", "ID BDGEO": "291", "horodatage": "2021-08-24 19:21:28", "distance (en metres)": 185.25, "station": "SUCY-BONNEUIL RER", "marker-color": "#818181"}}, {"type": "Feature", "geometry": {"type": "Point", "coordinates": [2.435104, 48.773109]}, "properties": {"numparc": 9528, "etat de la localisation": "autre", "ID BDGEO": "127", "horodatage": "2021-08-24 19:22:31", "distance (en metres)": 45.37, "station": "POMPADOUR", "marker-color": "#818181"}}, {"type": "Feature", "geometry": {"type": "Point", "coordinates": [2.506299, 48.773586]}, "properties": {"numparc": 9531, "etat de la localisation": "autre", "ID BDGEO": "291", "horodatage": "2021-08-24 19:23:16", "distance (en metres)": 185.25, "station": "SUCY-BONNEUIL RER", "marker-color": "#818181"}}, {"type": "Feature", "geometry": {"type": "Point", "coordinates": [2.441698, 48.77235]}, "properties": {"numparc": 9539, "etat de la localisation": "autre", "ID BDGEO": "208", "horodatage": "2021-08-24 19:23:34", "distance (en metres)": 115.35, "station": "DEPOT CRETEIL SORTIE", "marker-color": "#818181"}}, {"type": "Feature", "geometry": {"type": "Point", "coordinates": [2.441698, 48.772091]}, "properties": {"numparc": 9539, "etat de la localisation": "autre", "ID BDGEO": "208", "horodatage": "2021-08-24 19:24:30", "distance (en metres)": 124.53, "station": "DEPOT CRETEIL SORTIE", "marker-color": "#818181"}}, {"type": "Feature", "geometry": {"type": "Point", "coordinates": [2.506299, 48.773586]}, "properties": {"numparc": 9531, "etat de la localisation": "autre", "ID BDGEO": "291", "horodatage": "2021-08-24 19:24:48", "distance (en metres)": 185.25, "station": "SUCY-BONNEUIL RER", "marker-color": "#818181"}}, {"type": "Feature", "geometry": {"type": "Point", "coordinates": [2.506299, 48.773586]}, "properties": {"numparc": 9531, "etat de la localisation": "autre", "ID BDGEO": "291", "horodatage": "2021-08-24 19:26:40", "distance (en metres)": 185.25, "station": "SUCY-BONNEUIL RER", "marker-color": "#818181"}}, {"type": "Feature", "geometry": {"type": "Point", "coordinates": [2.506299, 48.773586]}, "properties": {"numparc": 9531, "etat de la localisation": "autre", "ID BDGEO": "291", "horodatage": "2021-08-24 19:29:28", "distance (en metres)": 185.25, "station": "SUCY-BONNEUIL RER", "marker-color": "#818181"}}, {"type": "Feature", "geometry": {"type": "Point", "coordinates": [2.443384, 48.771923]}, "properties": {"numparc": 9539, "etat de la localisation": "autre", "ID BDGEO": "208", "horodatage": "2021-08-24 19:30:08", "distance (en metres)": 72.1, "station": "DEPOT CRETEIL SORTIE", "marker-color": "#818181"}}, {"type": "Feature", "geometry": {"type": "Point", "coordinates": [2.506299, 48.773586]}, "properties": {"numparc": 9531, "etat de la localisation": "autre", "ID BDGEO": "291", "horodatage": "2021-08-24 19:30:24", "distance (en metres)": 185.25, "station": "SUCY-BONNEUIL RER", "marker-color": "#818181"}}, {"type": "Feature", "geometry": {"type": "Point", "coordinates": [2.506299, 48.773586]}, "properties": {"numparc": 9531, "etat de la localisation": "autre", "ID BDGEO": "291", "horodatage": "2021-08-24 19:32:19", "distance (en metres)": 185.25, "station": "SUCY-BONNEUIL RER", "marker-color": "#818181"}}, {"type": "Feature", "geometry": {"type": "Point", "coordinates": [2.506299, 48.773586]}, "properties": {"numparc": 9531, "etat de la localisation": "autre", "ID BDGEO": "291", "horodatage": "2021-08-24 19:34:20", "distance (en metres)": 185.25, "station": "SUCY-BONNEUIL RER", "marker-color": "#818181"}}, {"type": "Feature", "geometry": {"type": "Point", "coordinates": [2.506299, 48.773586]}, "properties": {"numparc": 9531, "etat de la localisation": "autre", "ID BDGEO": "291", "horodatage": "2021-08-24 19:34:47", "distance (en metres)": 185.25, "station": "SUCY-BONNEUIL RER", "marker-color": "#818181"}}, {"type": "Feature", "geometry": {"type": "Point", "coordinates": [2.506299, 48.773586]}, "properties": {"numparc": 9531, "etat de la localisation": "autre", "ID BDGEO": "291", "horodatage": "2021-08-24 19:35:29", "distance (en metres)": 185.25, "station": "SUCY-BONNEUIL RER", "marker-color": "#818181"}}, {"type": "Feature", "geometry": {"type": "Point", "coordinates": [2.506299, 48.773586]}, "properties": {"numparc": 9531, "etat de la localisation": "autre", "ID BDGEO": "291", "horodatage": "2021-08-24 19:36:27", "distance (en metres)": 185.25, "station": "SUCY-BONNEUIL RER", "marker-color": "#818181"}}, {"type": "Feature", "geometry": {"type": "Point", "coordinates": [2.506299, 48.773586]}, "properties": {"numparc": 9531, "etat de la localisation": "autre", "ID BDGEO": "291", "horodatage": "2021-08-24 19:38:05", "distance (en metres)": 185.25, "station": "SUCY-BONNEUIL RER", "marker-color": "#818181"}}, {"type": "Feature", "geometry": {"type": "Point", "coordinates": [2.506299, 48.773586]}, "properties": {"numparc": 9531, "etat de la localisation": "autre", "ID BDGEO": "291", "horodatage": "2021-08-24 19:38:54", "distance (en metres)": 185.25, "station": "SUCY-BONNEUIL RER", "marker-color": "#818181"}}, {"type": "Feature", "geometry": {"type": "Point", "coordinates": [2.408502, 48.765343]}, "properties": {"numparc": 9537, "etat de la localisation": "autre", "ID BDGEO": "118", "horodatage": "2021-08-24 19:46:08", "distance (en metres)": 42.03, "station": "CHOISY-LE-ROI RER", "marker-color": "#818181"}}, {"type": "Feature", "geometry": {"type": "Point", "coordinates": [2.506299, 48.773586]}, "properties": {"numparc": 9531, "etat de la localisation": "autre", "ID BDGEO": "291", "horodatage": "2021-08-24 19:54:43", "distance (en metres)": 185.25, "station": "SUCY-BONNEUIL RER", "marker-color": "#818181"}}, {"type": "Feature", "geometry": {"type": "Point", "coordinates": [2.506299, 48.773586]}, "properties": {"numparc": 9531, "etat de la localisation": "autre", "ID BDGEO": "291", "horodatage": "2021-08-24 19:56:51", "distance (en metres)": 185.25, "station": "SUCY-BONNEUIL RER", "marker-color": "#818181"}}, {"type": "Feature", "geometry": {"type": "Point", "coordinates": [2.506299, 48.773586]}, "properties": {"numparc": 9531, "etat de la localisation": "autre", "ID BDGEO": "291", "horodatage": "2021-08-24 19:57:43", "distance (en metres)": 185.25, "station": "SUCY-BONNEUIL RER", "marker-color": "#818181"}}, {"type": "Feature", "geometry": {"type": "Point", "coordinates": [2.506299, 48.773586]}, "properties": {"numparc": 9531, "etat de la localisation": "autre", "ID BDGEO": "291", "horodatage": "2021-08-24 19:58:29", "distance (en metres)": 185.25, "station": "SUCY-BONNEUIL RER", "marker-color": "#818181"}}, {"type": "Feature", "geometry": {"type": "Point", "coordinates": [2.408521, 48.765343]}, "properties": {"numparc": 9524, "etat de la localisation": "autre", "ID BDGEO": "118", "horodatage": "2021-08-24 19:59:12", "distance (en metres)": 40.85, "station": "CHOISY-LE-ROI RER", "marker-color": "#818181"}}, {"type": "Feature", "geometry": {"type": "Point", "coordinates": [2.506299, 48.773586]}, "properties": {"numparc": 9531, "etat de la localisation": "autre", "ID BDGEO": "291", "horodatage": "2021-08-24 20:00:29", "distance (en metres)": 185.25, "station": "SUCY-BONNEUIL RER", "marker-color": "#818181"}}, {"type": "Feature", "geometry": {"type": "Point", "coordinates": [2.441208, 48.773834]}, "properties": {"numparc": 9528, "etat de la localisation": "autre", "ID BDGEO": "8", "horodatage": "2021-08-24 20:02:36", "distance (en metres)": 208.44, "station": "DEPOT CRETEIL ENTREE", "marker-color": "#818181"}}, {"type": "Feature", "geometry": {"type": "Point", "coordinates": [2.506299, 48.773586]}, "properties": {"numparc": 9531, "etat de la localisation": "autre", "ID BDGEO": "291", "horodatage": "2021-08-24 20:03:11", "distance (en metres)": 185.25, "station": "SUCY-BONNEUIL RER", "marker-color": "#818181"}}, {"type": "Feature", "geometry": {"type": "Point", "coordinates": [2.506299, 48.773586]}, "properties": {"numparc": 9531, "etat de la localisation": "autre", "ID BDGEO": "291", "horodatage": "2021-08-24 20:04:06", "distance (en metres)": 185.25, "station": "SUCY-BONNEUIL RER", "marker-color": "#818181"}}, {"type": "Feature", "geometry": {"type": "Point", "coordinates": [2.506299, 48.773586]}, "properties": {"numparc": 9531, "etat de la localisation": "autre", "ID BDGEO": "291", "horodatage": "2021-08-24 20:05:50", "distance (en metres)": 185.25, "station": "SUCY-BONNEUIL RER", "marker-color": "#818181"}}, {"type": "Feature", "geometry": {"type": "Point", "coordinates": [2.506299, 48.773586]}, "properties": {"numparc": 9531, "etat de la localisation": "autre", "ID BDGEO": "291", "horodatage": "2021-08-24 20:07:06", "distance (en metres)": 185.25, "station": "SUCY-BONNEUIL RER", "marker-color": "#818181"}}, {"type": "Feature", "geometry": {"type": "Point", "coordinates": [2.443148, 48.771797]}, "properties": {"numparc": 9528, "etat de la localisation": "autre", "ID BDGEO": "208", "horodatage": "2021-08-24 20:10:05", "distance (en metres)": 85.57, "station": "DEPOT CRETEIL SORTIE", "marker-color": "#818181"}}, {"type": "Feature", "geometry": {"type": "Point", "coordinates": [2.443148, 48.771797]}, "properties": {"numparc": 9528, "etat de la localisation": "autre", "ID BDGEO": "208", "horodatage": "2021-08-24 20:10:07", "distance (en metres)": 85.57, "station": "DEPOT CRETEIL SORTIE", "marker-color": "#818181"}}, {"type": "Feature", "geometry": {"type": "Point", "coordinates": [2.443148, 48.771797]}, "properties": {"numparc": 9528, "etat de la localisation": "autre", "ID BDGEO": "208", "horodatage": "2021-08-24 20:10:13", "distance (en metres)": 85.57, "station": "DEPOT CRETEIL SORTIE", "marker-color": "#818181"}}, {"type": "Feature", "geometry": {"type": "Point", "coordinates": [2.506299, 48.773586]}, "properties": {"numparc": 9531, "etat de la localisation": "autre", "ID BDGEO": "291", "horodatage": "2021-08-24 20:10:16", "distance (en metres)": 185.25, "station": "SUCY-BONNEUIL RER", "marker-color": "#818181"}}, {"type": "Feature", "geometry": {"type": "Point", "coordinates": [2.441671, 48.772614]}, "properties": {"numparc": 9537, "etat de la localisation": "autre", "ID BDGEO": "208", "horodatage": "2021-08-24 20:10:44", "distance (en metres)": 114.97, "station": "DEPOT CRETEIL SORTIE", "marker-color": "#818181"}}, {"type": "Feature", "geometry": {"type": "Point", "coordinates": [2.506299, 48.773586]}, "properties": {"numparc": 9531, "etat de la localisation": "autre", "ID BDGEO": "291", "horodatage": "2021-08-24 20:12:03", "distance (en metres)": 185.25, "station": "SUCY-BONNEUIL RER", "marker-color": "#818181"}}, {"type": "Feature", "geometry": {"type": "Point", "coordinates": [2.506299, 48.773586]}, "properties": {"numparc": 9531, "etat de la localisation": "autre", "ID BDGEO": "291", "horodatage": "2021-08-24 20:12:26", "distance (en metres)": 185.25, "station": "SUCY-BONNEUIL RER", "marker-color": "#818181"}}, {"type": "Feature", "geometry": {"type": "Point", "coordinates": [2.506299, 48.773586]}, "properties": {"numparc": 9531, "etat de la localisation": "autre", "ID BDGEO": "291", "horodatage": "2021-08-24 20:13:30", "distance (en metres)": 185.25, "station": "SUCY-BONNEUIL RER", "marker-color": "#818181"}}, {"type": "Feature", "geometry": {"type": "Point", "coordinates": [2.44282, 48.771767]}, "properties": {"numparc": 9537, "etat de la localisation": "autre", "ID BDGEO": "208", "horodatage": "2021-08-24 20:13:30", "distance (en metres)": 93.8, "station": "DEPOT CRETEIL SORTIE", "marker-color": "#818181"}}, {"type": "Feature", "geometry": {"type": "Point", "coordinates": [2.506299, 48.773586]}, "properties": {"numparc": 9531, "etat de la localisation": "autre", "ID BDGEO": "291", "horodatage": "2021-08-24 20:14:55", "distance (en metres)": 185.25, "station": "SUCY-BONNEUIL RER", "marker-color": "#818181"}}, {"type": "Feature", "geometry": {"type": "Point", "coordinates": [2.443121, 48.771862]}, "properties": {"numparc": 9537, "etat de la localisation": "autre", "ID BDGEO": "208", "horodatage": "2021-08-24 20:16:42", "distance (en metres)": 78.56, "station": "DEPOT CRETEIL SORTIE", "marker-color": "#818181"}}, {"type": "Feature", "geometry": {"type": "Point", "coordinates": [2.443148, 48.771797]}, "properties": {"numparc": 9528, "etat de la localisation": "autre", "ID BDGEO": "208", "horodatage": "2021-08-24 20:16:58", "distance (en metres)": 85.57, "station": "DEPOT CRETEIL SORTIE", "marker-color": "#818181"}}, {"type": "Feature", "geometry": {"type": "Point", "coordinates": [2.408441, 48.76535]}, "properties": {"numparc": 9525, "etat de la localisation": "autre", "ID BDGEO": "118", "horodatage": "2021-08-24 20:33:01", "distance (en metres)": 45.51, "station": "CHOISY-LE-ROI RER", "marker-color": "#818181"}}, {"type": "Feature", "geometry": {"type": "Point", "coordinates": [2.47272, 48.766743]}, "properties": {"numparc": 9531, "etat de la localisation": "autre", "ID BDGEO": "138", "horodatage": "2021-08-24 20:46:44", "distance (en metres)": 137.59, "station": "EUROPARC", "marker-color": "#818181"}}, {"type": "Feature", "geometry": {"type": "Point", "coordinates": [2.47272, 48.766743]}, "properties": {"numparc": 9531, "etat de la localisation": "autre", "ID BDGEO": "138", "horodatage": "2021-08-24 20:47:51", "distance (en metres)": 137.59, "station": "EUROPARC", "marker-color": "#818181"}}, {"type": "Feature", "geometry": {"type": "Point", "coordinates": [2.47272, 48.766743]}, "properties": {"numparc": 9531, "etat de la localisation": "autre", "ID BDGEO": "138", "horodatage": "2021-08-24 20:49:14", "distance (en metres)": 137.59, "station": "EUROPARC", "marker-color": "#818181"}}, {"type": "Feature", "geometry": {"type": "Point", "coordinates": [2.47272, 48.766743]}, "properties": {"numparc": 9531, "etat de la localisation": "autre", "ID BDGEO": "138", "horodatage": "2021-08-24 20:50:52", "distance (en metres)": 137.59, "station": "EUROPARC", "marker-color": "#818181"}}, {"type": "Feature", "geometry": {"type": "Point", "coordinates": [2.443644, 48.774567]}, "properties": {"numparc": 9531, "etat de la localisation": "autre", "ID BDGEO": "129", "horodatage": "2021-08-24 20:52:19", "distance (en metres)": 94.22, "station": "BASSE QUINTE", "marker-color": "#818181"}}, {"type": "Feature", "geometry": {"type": "Point", "coordinates": [2.443148, 48.771915]}, "properties": {"numparc": 9539, "etat de la localisation": "autre", "ID BDGEO": "208", "horodatage": "2021-08-24 20:53:25", "distance (en metres)": 72.5, "station": "DEPOT CRETEIL SORTIE", "marker-color": "#818181"}}, {"type": "Feature", "geometry": {"type": "Point", "coordinates": [2.435124, 48.773098]}, "properties": {"numparc": 9525, "etat de la localisation": "autre", "ID BDGEO": "127", "horodatage": "2021-08-24 20:54:05", "distance (en metres)": 46.01, "station": "POMPADOUR", "marker-color": "#818181"}}, {"type": "Feature", "geometry": {"type": "Point", "coordinates": [2.443644, 48.774567]}, "properties": {"numparc": 9531, "etat de la localisation": "autre", "ID BDGEO": "129", "horodatage": "2021-08-24 20:54:14", "distance (en metres)": 94.22, "station": "BASSE QUINTE", "marker-color": "#818181"}}, {"type": "Feature", "geometry": {"type": "Point", "coordinates": [2.443148, 48.771915]}, "properties": {"numparc": 9539, "etat de la localisation": "autre", "ID BDGEO": "208", "horodatage": "2021-08-24 20:55:51", "distance (en metres)": 72.5, "station": "DEPOT CRETEIL SORTIE", "marker-color": "#818181"}}, {"type": "Feature", "geometry": {"type": "Point", "coordinates": [2.443644, 48.774567]}, "properties": {"numparc": 9531, "etat de la localisation": "autre", "ID BDGEO": "129", "horodatage": "2021-08-24 20:56:01", "distance (en metres)": 94.22, "station": "BASSE QUINTE", "marker-color": "#818181"}}, {"type": "Feature", "geometry": {"type": "Point", "coordinates": [2.443148, 48.771915]}, "properties": {"numparc": 9539, "etat de la localisation": "autre", "ID BDGEO": "208", "horodatage": "2021-08-24 20:57:08", "distance (en metres)": 72.5, "station": "DEPOT CRETEIL SORTIE", "marker-color": "#818181"}}, {"type": "Feature", "geometry": {"type": "Point", "coordinates": [2.443148, 48.771915]}, "properties": {"numparc": 9539, "etat de la localisation": "autre", "ID BDGEO": "208", "horodatage": "2021-08-24 20:57:14", "distance (en metres)": 72.5, "station": "DEPOT CRETEIL SORTIE", "marker-color": "#818181"}}, {"type": "Feature", "geometry": {"type": "Point", "coordinates": [2.443644, 48.774567]}, "properties": {"numparc": 9531, "etat de la localisation": "autre", "ID BDGEO": "129", "horodatage": "2021-08-24 20:58:05", "distance (en metres)": 94.22, "station": "BASSE QUINTE", "marker-color": "#818181"}}, {"type": "Feature", "geometry": {"type": "Point", "coordinates": [2.443644, 48.774567]}, "properties": {"numparc": 9531, "etat de la localisation": "autre", "ID BDGEO": "129", "horodatage": "2021-08-24 20:59:43", "distance (en metres)": 94.22, "station": "BASSE QUINTE", "marker-color": "#818181"}}, {"type": "Feature", "geometry": {"type": "Point", "coordinates": [2.443644, 48.774567]}, "properties": {"numparc": 9531, "etat de la localisation": "autre", "ID BDGEO": "129", "horodatage": "2021-08-24 21:01:10", "distance (en metres)": 94.22, "station": "BASSE QUINTE", "marker-color": "#818181"}}, {"type": "Feature", "geometry": {"type": "Point", "coordinates": [2.443644, 48.774567]}, "properties": {"numparc": 9531, "etat de la localisation": "autre", "ID BDGEO": "129", "horodatage": "2021-08-24 21:02:23", "distance (en metres)": 94.22, "station": "BASSE QUINTE", "marker-color": "#818181"}}, {"type": "Feature", "geometry": {"type": "Point", "coordinates": [2.443644, 48.774567]}, "properties": {"numparc": 9531, "etat de la localisation": "autre", "ID BDGEO": "129", "horodatage": "2021-08-24 21:03:24", "distance (en metres)": 94.22, "station": "BASSE QUINTE", "marker-color": "#818181"}}, {"type": "Feature", "geometry": {"type": "Point", "coordinates": [2.443165, 48.771927]}, "properties": {"numparc": 9539, "etat de la localisation": "autre", "ID BDGEO": "208", "horodatage": "2021-08-24 21:04:03", "distance (en metres)": 71.06, "station": "DEPOT CRETEIL SORTIE", "marker-color": "#818181"}}, {"type": "Feature", "geometry": {"type": "Point", "coordinates": [2.443165, 48.771927]}, "properties": {"numparc": 9539, "etat de la localisation": "autre", "ID BDGEO": "208", "horodatage": "2021-08-24 21:04:36", "distance (en metres)": 71.06, "station": "DEPOT CRETEIL SORTIE", "marker-color": "#818181"}}, {"type": "Feature", "geometry": {"type": "Point", "coordinates": [2.408481, 48.765358]}, "properties": {"numparc": 9524, "etat de la localisation": "autre", "ID BDGEO": "118", "horodatage": "2021-08-24 21:16:11", "distance (en metres)": 42.51, "station": "CHOISY-LE-ROI RER", "marker-color": "#818181"}}, {"type": "Feature", "geometry": {"type": "Point", "coordinates": [2.446984, 48.77013]}, "properties": {"numparc": 9531, "etat de la localisation": "autre", "ID BDGEO": "131", "horodatage": "2021-08-24 21:24:36", "distance (en metres)": 108.84, "station": "VAL POMPADOUR", "marker-color": "#818181"}}, {"type": "Feature", "geometry": {"type": "Point", "coordinates": [2.446984, 48.77013]}, "properties": {"numparc": 9531, "etat de la localisation": "autre", "ID BDGEO": "131", "horodatage": "2021-08-24 21:26:24", "distance (en metres)": 108.84, "station": "VAL POMPADOUR", "marker-color": "#818181"}}, {"type": "Feature", "geometry": {"type": "Point", "coordinates": [2.446984, 48.77013]}, "properties": {"numparc": 9531, "etat de la localisation": "autre", "ID BDGEO": "131", "horodatage": "2021-08-24 21:27:49", "distance (en metres)": 108.84, "station": "VAL POMPADOUR", "marker-color": "#818181"}}, {"type": "Feature", "geometry": {"type": "Point", "coordinates": [2.446984, 48.77013]}, "properties": {"numparc": 9531, "etat de la localisation": "autre", "ID BDGEO": "131", "horodatage": "2021-08-24 21:29:12", "distance (en metres)": 108.84, "station": "VAL POMPADOUR", "marker-color": "#818181"}}, {"type": "Feature", "geometry": {"type": "Point", "coordinates": [2.446984, 48.77013]}, "properties": {"numparc": 9531, "etat de la localisation": "autre", "ID BDGEO": "131", "horodatage": "2021-08-24 21:32:39", "distance (en metres)": 108.84, "station": "VAL POMPADOUR", "marker-color": "#818181"}}, {"type": "Feature", "geometry": {"type": "Point", "coordinates": [2.443188, 48.771919]}, "properties": {"numparc": 9523, "etat de la localisation": "autre", "ID BDGEO": "208", "horodatage": "2021-08-24 21:32:58", "distance (en metres)": 71.84, "station": "DEPOT CRETEIL SORTIE", "marker-color": "#818181"}}, {"type": "Feature", "geometry": {"type": "Point", "coordinates": [2.446984, 48.77013]}, "properties": {"numparc": 9531, "etat de la localisation": "autre", "ID BDGEO": "131", "horodatage": "2021-08-24 21:33:46", "distance (en metres)": 108.84, "station": "VAL POMPADOUR", "marker-color": "#818181"}}, {"type": "Feature", "geometry": {"type": "Point", "coordinates": [2.408482, 48.765354]}, "properties": {"numparc": 9532, "etat de la localisation": "autre", "ID BDGEO": "118", "horodatage": "2021-08-24 21:34:30", "distance (en metres)": 42.66, "station": "CHOISY-LE-ROI RER", "marker-color": "#818181"}}, {"type": "Feature", "geometry": {"type": "Point", "coordinates": [2.446984, 48.77013]}, "properties": {"numparc": 9531, "etat de la localisation": "autre", "ID BDGEO": "131", "horodatage": "2021-08-24 21:37:13", "distance (en metres)": 108.84, "station": "VAL POMPADOUR", "marker-color": "#818181"}}, {"type": "Feature", "geometry": {"type": "Point", "coordinates": [2.446984, 48.77013]}, "properties": {"numparc": 9531, "etat de la localisation": "autre", "ID BDGEO": "131", "horodatage": "2021-08-24 21:39:12", "distance (en metres)": 108.84, "station": "VAL POMPADOUR", "marker-color": "#818181"}}, {"type": "Feature", "geometry": {"type": "Point", "coordinates": [2.408476, 48.765354]}, "properties": {"numparc": 9525, "etat de la localisation": "autre", "ID BDGEO": "118", "horodatage": "2021-08-24 21:44:29", "distance (en metres)": 43.05, "station": "CHOISY-LE-ROI RER", "marker-color": "#818181"}}, {"type": "Feature", "geometry": {"type": "Point", "coordinates": [2.446984, 48.77013]}, "properties": {"numparc": 9531, "etat de la localisation": "autre", "ID BDGEO": "131", "horodatage": "2021-08-24 21:53:24", "distance (en metres)": 108.84, "station": "VAL POMPADOUR", "marker-color": "#818181"}}, {"type": "Feature", "geometry": {"type": "Point", "coordinates": [2.399707, 48.761005]}, "properties": {"numparc": 9525, "etat de la localisation": "autre", "ID BDGEO": "113", "horodatage": "2021-08-24 21:55:24", "distance (en metres)": 42.36, "station": "GEORGES HALGOULT", "marker-color": "#818181"}}, {"type": "Feature", "geometry": {"type": "Point", "coordinates": [2.443191, 48.771767]}, "properties": {"numparc": 9532, "etat de la localisation": "autre", "ID BDGEO": "1026", "horodatage": "2021-08-24 21:57:40", "distance (en metres)": 672.34, "station": "POMPADOUR.", "marker-color": "#818181"}}, {"type": "Feature", "geometry": {"type": "Point", "coordinates": [2.446984, 48.77013]}, "properties": {"numparc": 9531, "etat de la localisation": "autre", "ID BDGEO": "131", "horodatage": "2021-08-24 21:57:53", "distance (en metres)": 108.84, "station": "VAL POMPADOUR", "marker-color": "#818181"}}, {"type": "Feature", "geometry": {"type": "Point", "coordinates": [2.446984, 48.77013]}, "properties": {"numparc": 9531, "etat de la localisation": "autre", "ID BDGEO": "131", "horodatage": "2021-08-24 21:59:39", "distance (en metres)": 108.84, "station": "VAL POMPADOUR", "marker-color": "#818181"}}, {"type": "Feature", "geometry": {"type": "Point", "coordinates": [2.446984, 48.77013]}, "properties": {"numparc": 9531, "etat de la localisation": "autre", "ID BDGEO": "131", "horodatage": "2021-08-24 22:01:09", "distance (en metres)": 108.84, "station": "VAL POMPADOUR", "marker-color": "#818181"}}, {"type": "Feature", "geometry": {"type": "Point", "coordinates": [2.435088, 48.773079]}, "properties": {"numparc": 9525, "etat de la localisation": "autre", "ID BDGEO": "127", "horodatage": "2021-08-24 22:03:33", "distance (en metres)": 42.68, "station": "POMPADOUR", "marker-color": "#818181"}}, {"type": "Feature", "geometry": {"type": "Point", "coordinates": [2.446984, 48.77013]}, "properties": {"numparc": 9531, "etat de la localisation": "autre", "ID BDGEO": "131", "horodatage": "2021-08-24 22:04:44", "distance (en metres)": 108.84, "station": "VAL POMPADOUR", "marker-color": "#818181"}}, {"type": "Feature", "geometry": {"type": "Point", "coordinates": [2.435506, 48.773251]}, "properties": {"numparc": 9531, "etat de la localisation": "autre", "ID BDGEO": "127", "horodatage": "2021-08-24 22:12:50", "distance (en metres)": 78.76, "station": "POMPADOUR", "marker-color": "#818181"}}, {"type": "Feature", "geometry": {"type": "Point", "coordinates": [2.435506, 48.773251]}, "properties": {"numparc": 9531, "etat de la localisation": "autre", "ID BDGEO": "127", "horodatage": "2021-08-24 22:17:51", "distance (en metres)": 78.76, "station": "POMPADOUR", "marker-color": "#818181"}}, {"type": "Feature", "geometry": {"type": "Point", "coordinates": [2.435506, 48.773251]}, "properties": {"numparc": 9531, "etat de la localisation": "autre", "ID BDGEO": "127", "horodatage": "2021-08-24 22:20:02", "distance (en metres)": 78.76, "station": "POMPADOUR", "marker-color": "#818181"}}, {"type": "Feature", "geometry": {"type": "Point", "coordinates": [2.435506, 48.773251]}, "properties": {"numparc": 9531, "etat de la localisation": "autre", "ID BDGEO": "127", "horodatage": "2021-08-24 22:20:59", "distance (en metres)": 78.76, "station": "POMPADOUR", "marker-color": "#818181"}}, {"type": "Feature", "geometry": {"type": "Point", "coordinates": [2.394005, 48.75869]}, "properties": {"numparc": 9531, "etat de la localisation": "autre", "ID BDGEO": "111", "horodatage": "2021-08-24 22:23:25", "distance (en metres)": 50.26, "station": "VICTOR BASCH", "marker-color": "#818181"}}, {"type": "Feature", "geometry": {"type": "Point", "coordinates": [2.394005, 48.75869]}, "properties": {"numparc": 9531, "etat de la localisation": "autre", "ID BDGEO": "111", "horodatage": "2021-08-24 22:31:24", "distance (en metres)": 50.26, "station": "VICTOR BASCH", "marker-color": "#818181"}}, {"type": "Feature", "geometry": {"type": "Point", "coordinates": [2.394005, 48.75869]}, "properties": {"numparc": 9531, "etat de la localisation": "autre", "ID BDGEO": "111", "horodatage": "2021-08-24 22:35:50", "distance (en metres)": 50.26, "station": "VICTOR BASCH", "marker-color": "#818181"}}, {"type": "Feature", "geometry": {"type": "Point", "coordinates": [2.408484, 48.765362]}, "properties": {"numparc": 9524, "etat de la localisation": "autre", "ID BDGEO": "118", "horodatage": "2021-08-24 22:37:56", "distance (en metres)": 42.1, "station": "CHOISY-LE-ROI RER", "marker-color": "#818181"}}, {"type": "Feature", "geometry": {"type": "Point", "coordinates": [2.433461, 48.772621]}, "properties": {"numparc": 9531, "etat de la localisation": "autre", "ID BDGEO": "127", "horodatage": "2021-08-24 22:40:51", "distance (en metres)": 87.26, "station": "POMPADOUR", "marker-color": "#818181"}}, {"type": "Feature", "geometry": {"type": "Point", "coordinates": [2.433461, 48.772621]}, "properties": {"numparc": 9531, "etat de la localisation": "autre", "ID BDGEO": "127", "horodatage": "2021-08-24 22:44:55", "distance (en metres)": 87.26, "station": "POMPADOUR", "marker-color": "#818181"}}, {"type": "Feature", "geometry": {"type": "Point", "coordinates": [2.433461, 48.772621]}, "properties": {"numparc": 9531, "etat de la localisation": "autre", "ID BDGEO": "127", "horodatage": "2021-08-24 22:46:55", "distance (en metres)": 87.26, "station": "POMPADOUR", "marker-color": "#818181"}}, {"type": "Feature", "geometry": {"type": "Point", "coordinates": [2.433461, 48.772621]}, "properties": {"numparc": 9531, "etat de la localisation": "autre", "ID BDGEO": "127", "horodatage": "2021-08-24 22:48:36", "distance (en metres)": 87.26, "station": "POMPADOUR", "marker-color": "#818181"}}, {"type": "Feature", "geometry": {"type": "Point", "coordinates": [2.433461, 48.772621]}, "properties": {"numparc": 9531, "etat de la localisation": "autre", "ID BDGEO": "127", "horodatage": "2021-08-24 22:50:06", "distance (en metres)": 87.26, "station": "POMPADOUR", "marker-color": "#818181"}}, {"type": "Feature", "geometry": {"type": "Point", "coordinates": [2.441121, 48.772186]}, "properties": {"numparc": 9532, "etat de la localisation": "autre", "ID BDGEO": "1026", "horodatage": "2021-08-24 23:20:15", "distance (en metres)": 515.47, "station": "POMPADOUR.", "marker-color": "#818181"}}, {"type": "Feature", "geometry": {"type": "Point", "coordinates": [2.441121, 48.772186]}, "properties": {"numparc": 9532, "etat de la localisation": "autre", "ID BDGEO": "1026", "horodatage": "2021-08-24 23:23:02", "distance (en metres)": 515.47, "station": "POMPADOUR.", "marker-color": "#818181"}}, {"type": "Feature", "geometry": {"type": "Point", "coordinates": [2.441965, 48.772423]}, "properties": {"numparc": 9532, "etat de la localisation": "autre", "ID BDGEO": "1026", "horodatage": "2021-08-24 23:33:14", "distance (en metres)": 574.57, "station": "POMPADOUR.", "marker-color": "#818181"}}, {"type": "Feature", "geometry": {"type": "Point", "coordinates": [2.441535, 48.77177]}, "properties": {"numparc": 9532, "etat de la localisation": "autre", "ID BDGEO": "1026", "horodatage": "2021-08-24 23:37:49", "distance (en metres)": 552.92, "station": "POMPADOUR.", "marker-color": "#818181"}}, {"type": "Feature", "geometry": {"type": "Point", "coordinates": [2.408494, 48.765369]}, "properties": {"numparc": 9525, "etat de la localisation": "autre", "ID BDGEO": "118", "horodatage": "2021-08-25 00:11:57", "distance (en metres)": 41.09, "station": "CHOISY-LE-ROI RER", "marker-color": "#818181"}}, {"type": "Feature", "geometry": {"type": "Point", "coordinates": [2.399578, 48.760761]}, "properties": {"numparc": 9531, "etat de la localisation": "autre", "ID BDGEO": "128", "horodatage": "2021-08-25 00:30:15", "distance (en metres)": 2922.77, "station": "POMPADOUR#", "marker-color": "#818181"}}, {"type": "Feature", "geometry": {"type": "Point", "coordinates": [2.399578, 48.760761]}, "properties": {"numparc": 9531, "etat de la localisation": "autre", "ID BDGEO": "128", "horodatage": "2021-08-25 00:36:05", "distance (en metres)": 2922.77, "station": "POMPADOUR#", "marker-color": "#818181"}}, {"type": "Feature", "geometry": {"type": "Point", "coordinates": [2.399578, 48.760761]}, "properties": {"numparc": 9531, "etat de la localisation": "autre", "ID BDGEO": "128", "horodatage": "2021-08-25 00:37:56", "distance (en metres)": 2922.77, "station": "POMPADOUR#", "marker-color": "#818181"}}, {"type": "Feature", "geometry": {"type": "Point", "coordinates": [2.399578, 48.760761]}, "properties": {"numparc": 9531, "etat de la localisation": "autre", "ID BDGEO": "128", "horodatage": "2021-08-25 00:38:48", "distance (en metres)": 2922.77, "station": "POMPADOUR#", "marker-color": "#818181"}}, {"type": "Feature", "geometry": {"type": "Point", "coordinates": [2.399578, 48.760761]}, "properties": {"numparc": 9531, "etat de la localisation": "autre", "ID BDGEO": "128", "horodatage": "2021-08-25 00:39:55", "distance (en metres)": 2922.77, "station": "POMPADOUR#", "marker-color": "#818181"}}, {"type": "Feature", "geometry": {"type": "Point", "coordinates": [2.399578, 48.760761]}, "properties": {"numparc": 9531, "etat de la localisation": "autre", "ID BDGEO": "128", "horodatage": "2021-08-25 00:41:58", "distance (en metres)": 2922.77, "station": "POMPADOUR#", "marker-color": "#818181"}}, {"type": "Feature", "geometry": {"type": "Point", "coordinates": [2.434799, 48.773037]}, "properties": {"numparc": 9531, "etat de la localisation": "autre", "ID BDGEO": "208", "horodatage": "2021-08-25 00:54:31", "distance (en metres)": 620.67, "station": "DEPOT CRETEIL SORTIE", "marker-color": "#818181"}}, {"type": "Feature", "geometry": {"type": "Point", "coordinates": [2.434604, 48.773057]}, "properties": {"station": "POMPADOUR", "ID BDGEO": "126", "marker-color": "#56B3FF"}}, {"type": "Feature", "geometry": {"type": "Point", "coordinates": [2.443122, 48.77545]}, "properties": {"station": "BASSE QUINTE", "ID BDGEO": "804", "marker-color": "#56B3FF"}}, {"type": "Feature", "geometry": {"type": "Point", "coordinates": [2.447161, 48.769334]}, "properties": {"station": "VAL POMPADOUR", "ID BDGEO": "133", "marker-color": "#56B3FF"}}, {"type": "Feature", "geometry": {"type": "Point", "coordinates": [2.443238, 48.772564]}, "properties": {"station": "DEPOT CRETEIL SORTIE", "ID BDGEO": "208", "marker-color": "#56B3FF"}}, {"type": "Feature", "geometry": {"type": "Point", "coordinates": [2.447215, 48.769163]}, "properties": {"station": "VAL POMPADOUR", "ID BDGEO": "131", "marker-color": "#56B3FF"}}, {"type": "Feature", "geometry": {"type": "Point", "coordinates": [2.40099, 48.762564]}, "properties": {"station": "RENE PANHARD", "ID BDGEO": "114", "marker-color": "#56B3FF"}}, {"type": "Feature", "geometry": {"type": "Point", "coordinates": [2.421748, 48.769193]}, "properties": {"station": "MARCELLIN BERTHELOT", "ID BDGEO": "122", "marker-color": "#56B3FF"}}, {"type": "Feature", "geometry": {"type": "Point", "coordinates": [2.408988, 48.765543]}, "properties": {"station": "CHOISY-LE-ROI RER", "ID BDGEO": "118", "marker-color": "#56B3FF"}}, {"type": "Feature", "geometry": {"type": "Point", "coordinates": [2.434577, 48.772895]}, "properties": {"station": "POMPADOUR", "ID BDGEO": "127", "marker-color": "#56B3FF"}}, {"type": "Feature", "geometry": {"type": "Point", "coordinates": [2.421108, 48.768861]}, "properties": {"station": "MARCELLIN BERTHELOT", "ID BDGEO": "123", "marker-color": "#56B3FF"}}, {"type": "Feature", "geometry": {"type": "Point", "coordinates": [2.506712, 48.771942]}, "properties": {"station": "SUCY-BONNEUIL RER", "ID BDGEO": "291", "marker-color": "#56B3FF"}}, {"type": "Feature", "geometry": {"type": "Point", "coordinates": [2.42674, 48.770529]}, "properties": {"station": "PARC INTERDEPARTEMENTAL DES SPORTS", "ID BDGEO": "125", "marker-color": "#56B3FF"}}, {"type": "Feature", "geometry": {"type": "Point", "coordinates": [2.506767, 48.77223]}, "properties": {"station": "SUCY-BONNEUIL RER.", "ID BDGEO": "154", "marker-color": "#56B3FF"}}, {"type": "Feature", "geometry": {"type": "Point", "coordinates": [2.481293, 48.765567]}, "properties": {"station": "STADE DE BONNEUIL", "ID BDGEO": "144", "marker-color": "#56B3FF"}}, {"type": "Feature", "geometry": {"type": "Point", "coordinates": [2.496055, 48.773081]}, "properties": {"station": "PETITS CARREAUX", "ID BDGEO": "153", "marker-color": "#56B3FF"}}, {"type": "Feature", "geometry": {"type": "Point", "coordinates": [2.443189, 48.77536]}, "properties": {"station": "BASSE QUINTE", "ID BDGEO": "129", "marker-color": "#56B3FF"}}, {"type": "Feature", "geometry": {"type": "Point", "coordinates": [2.401943, 48.763255]}, "properties": {"station": "RENE PANHARD", "ID BDGEO": "115", "marker-color": "#56B3FF"}}, {"type": "Feature", "geometry": {"type": "Point", "coordinates": [2.456908, 48.768345]}, "properties": {"station": "FACULTE DES SPORTS.", "ID BDGEO": "1029", "marker-color": "#56B3FF"}}, {"type": "Feature", "geometry": {"type": "Point", "coordinates": [2.389034, 48.757204]}, "properties": {"station": "CARREFOUR RESISTANCE", "ID BDGEO": "109", "marker-color": "#56B3FF"}}, {"type": "Feature", "geometry": {"type": "Point", "coordinates": [2.490367, 48.771956]}, "properties": {"station": "RHIN ET DANUBE", "ID BDGEO": "151", "marker-color": "#56B3FF"}}, {"type": "Feature", "geometry": {"type": "Point", "coordinates": [2.416877, 48.76765]}, "properties": {"station": "PASTEUR", "ID BDGEO": "121", "marker-color": "#56B3FF"}}, {"type": "Feature", "geometry": {"type": "Point", "coordinates": [2.463843, 48.768697]}, "properties": {"station": "POINTE DU LAC", "ID BDGEO": "136", "marker-color": "#56B3FF"}}, {"type": "Feature", "geometry": {"type": "Point", "coordinates": [2.39805, 48.759842]}, "properties": {"station": "GEORGES HALGOULT", "ID BDGEO": "112", "marker-color": "#56B3FF"}}, {"type": "Feature", "geometry": {"type": "Point", "coordinates": [2.425625, 48.770341]}, "properties": {"station": "PARC INTERDEPARTEMENTAL DES SPORTS", "ID BDGEO": "124", "marker-color": "#56B3FF"}}, {"type": "Feature", "geometry": {"type": "Point", "coordinates": [2.440449, 48.772027]}, "properties": {"station": "DEPOT CRETEIL ENTREE", "ID BDGEO": "8", "marker-color": "#56B3FF"}}, {"type": "Feature", "geometry": {"type": "Point", "coordinates": [2.470855, 48.766883]}, "properties": {"station": "EUROPARC", "ID BDGEO": "138", "marker-color": "#56B3FF"}}, {"type": "Feature", "geometry": {"type": "Point", "coordinates": [2.399465, 48.760659]}, "properties": {"station": "GEORGES HALGOULT", "ID BDGEO": "113", "marker-color": "#56B3FF"}}, {"type": "Feature", "geometry": {"type": "Point", "coordinates": [2.434141, 48.772761]}, "properties": {"station": "POMPADOUR.", "ID BDGEO": "1026", "marker-color": "#56B3FF"}}, {"type": "Feature", "geometry": {"type": "Point", "coordinates": [2.393399, 48.758478]}, "properties": {"station": "VICTOR BASCH", "ID BDGEO": "111", "marker-color": "#56B3FF"}}, {"type": "Feature", "geometry": {"type": "Point", "coordinates": [2.434781, 48.773111]}, "properties": {"station": "POMPADOUR#", "ID BDGEO": "128", "marker-color": "#56B3FF"}}]}