{"type": "FeatureCollection", "features": [{"type": "Feature", "geometry": {"type": "Point", "coordinates": [2.442235, 48.771843]}, "properties": {"etat de la localisation": "Delocalise", "numparc": 9531, "duree": "00:26:31", "horodatage": "2021-12-14 05:17:10", "marker-color": "#FF565E"}}, {"type": "Feature", "geometry": {"type": "Point", "coordinates": [2.442571, 48.771893]}, "properties": {"etat de la localisation": "Delocalise", "numparc": 9534, "duree": "00:29:26", "horodatage": "2021-12-14 06:31:00", "marker-color": "#FF565E"}}, {"type": "Feature", "geometry": {"type": "Point", "coordinates": [2.443002, 48.772491]}, "properties": {"etat de la localisation": "Mission inconnue", "numparc": 9529, "duree": "", "horodatage": "2021-12-14 07:32:23", "marker-color": "#FF9F56"}}, {"type": "Feature", "geometry": {"type": "Point", "coordinates": [2.443002, 48.772491]}, "properties": {"etat de la localisation": "Mission inconnue", "numparc": 9529, "duree": "", "horodatage": "2021-12-14 07:32:32", "marker-color": "#FF9F56"}}, {"type": "Feature", "geometry": {"type": "Point", "coordinates": [2.443072, 48.772896]}, "properties": {"etat de la localisation": "Mission inconnue", "numparc": 9529, "duree": "", "horodatage": "2021-12-14 07:33:11", "marker-color": "#FF9F56"}}, {"type": "Feature", "geometry": {"type": "Point", "coordinates": [2.546744, 48.804226]}, "properties": {"etat de la localisation": "Mission inconnue", "numparc": 9534, "duree": "", "horodatage": "2021-12-14 08:12:53", "marker-color": "#FF9F56"}}, {"type": "Feature", "geometry": {"type": "Point", "coordinates": [2.53362, 48.805893]}, "properties": {"etat de la localisation": "Delocalise", "numparc": 9534, "duree": "00:00:21", "horodatage": "2021-12-14 08:19:51", "marker-color": "#FF565E"}}, {"type": "Feature", "geometry": {"type": "Point", "coordinates": [2.443109, 48.772049]}, "properties": {"etat de la localisation": "Hors service", "numparc": 9531, "duree": "", "horodatage": "2021-12-14 10:16:02", "marker-color": "#707070"}}, {"type": "Feature", "geometry": {"type": "Point", "coordinates": [2.44229, 48.772278]}, "properties": {"etat de la localisation": "Hors service", "numparc": 9529, "duree": "", "horodatage": "2021-12-14 14:15:58", "marker-color": "#707070"}}, {"type": "Feature", "geometry": {"type": "Point", "coordinates": [2.509508, 48.8074]}, "properties": {"etat de la localisation": "Mission suivante non connue", "numparc": 9534, "duree": "", "horodatage": "2021-12-14 14:38:50", "marker-color": "#7156FF"}}, {"type": "Feature", "geometry": {"type": "Point", "coordinates": [2.44229, 48.772278]}, "properties": {"etat de la localisation": "Mission inconnue", "numparc": 9529, "duree": "", "horodatage": "2021-12-14 15:04:49", "marker-color": "#FF9F56"}}, {"type": "Feature", "geometry": {"type": "Point", "coordinates": [2.44229, 48.772278]}, "properties": {"etat de la localisation": "Hors service", "numparc": 9529, "duree": "", "horodatage": "2021-12-14 15:24:16", "marker-color": "#707070"}}, {"type": "Feature", "geometry": {"type": "Point", "coordinates": [2.442288, 48.772278]}, "properties": {"etat de la localisation": "Mission inconnue", "numparc": 9529, "duree": "", "horodatage": "2021-12-14 15:45:42", "marker-color": "#FF9F56"}}, {"type": "Feature", "geometry": {"type": "Point", "coordinates": [2.443019, 48.773209]}, "properties": {"etat de la localisation": "Delocalise", "numparc": 9531, "duree": "00:27:48", "horodatage": "2021-12-14 15:56:31", "marker-color": "#FF565E"}}, {"type": "Feature", "geometry": {"type": "Point", "coordinates": [2.56055, 48.795834]}, "properties": {"etat de la localisation": "Mission inconnue", "numparc": 9531, "duree": "", "horodatage": "2021-12-14 16:24:19", "marker-color": "#FF9F56"}}, {"type": "Feature", "geometry": {"type": "Point", "coordinates": [2.509076, 48.80777]}, "properties": {"etat de la localisation": "Mission inconnue", "numparc": 9531, "duree": "", "horodatage": "2021-12-14 17:02:23", "marker-color": "#FF9F56"}}, {"type": "Feature", "geometry": {"type": "Point", "coordinates": [2.584652, 48.805149]}, "properties": {"etat de la localisation": "Mission suivante non connue", "numparc": 9531, "duree": "", "horodatage": "2021-12-14 17:58:29", "marker-color": "#7156FF"}}, {"type": "Feature", "geometry": {"type": "Point", "coordinates": [2.584728, 48.805119]}, "properties": {"etat de la localisation": "Mission suivante non connue", "numparc": 9531, "duree": "", "horodatage": "2021-12-14 17:59:25", "marker-color": "#7156FF"}}, {"type": "Feature", "geometry": {"type": "Point", "coordinates": [2.441787, 48.772236]}, "properties": {"etat de la localisation": "Hors service", "numparc": 9531, "duree": "", "horodatage": "2021-12-14 19:20:16", "marker-color": "#707070"}}, {"type": "Feature", "geometry": {"type": "Point", "coordinates": [2.443338, 48.772495]}, "properties": {"etat de la localisation": "Hors service", "numparc": 9534, "duree": "", "horodatage": "2021-12-14 19:40:12", "marker-color": "#707070"}}, {"type": "Feature", "geometry": {"type": "Point", "coordinates": [2.441591, 48.771854]}, "properties": {"etat de la localisation": "Hors service", "numparc": 9529, "duree": "", "horodatage": "2021-12-14 21:21:37", "marker-color": "#707070"}}]}