{"type": "FeatureCollection", "features": [{"type": "Feature", "geometry": {"type": "Point", "coordinates": [2.427865, 48.879086]}, "properties": {"numparc": 4940, "etat de la localisation": "autre", "ID BDGEO": "15", "horodatage": "2021-11-04 05:07:24", "distance (en metres)": 62.04, "station": "DEPOT DES LILAS SORTIE#", "marker-color": "#818181"}}, {"type": "Feature", "geometry": {"type": "Point", "coordinates": [2.427865, 48.879086]}, "properties": {"numparc": 4940, "etat de la localisation": "autre", "ID BDGEO": "15", "horodatage": "2021-11-04 05:12:14", "distance (en metres)": 62.04, "station": "DEPOT DES LILAS SORTIE#", "marker-color": "#818181"}}, {"type": "Feature", "geometry": {"type": "Point", "coordinates": [2.428504, 48.878548]}, "properties": {"numparc": 4934, "etat de la localisation": "Delocalise", "ID BDGEO": "65", "horodatage": "2021-11-04 06:00:14", "distance (en metres)": 115.61, "station": "FLOREAL", "marker-color": "#FF565E"}}, {"type": "Feature", "geometry": {"type": "Point", "coordinates": [2.417169, 48.86507]}, "properties": {"numparc": 4940, "etat de la localisation": "autre", "ID BDGEO": "16", "horodatage": "2021-11-04 06:00:31", "distance (en metres)": 42.22, "station": "GALLIENI", "marker-color": "#818181"}}, {"type": "Feature", "geometry": {"type": "Point", "coordinates": [2.428056, 48.878666]}, "properties": {"numparc": 4934, "etat de la localisation": "Delocalise", "ID BDGEO": "65", "horodatage": "2021-11-04 06:01:49", "distance (en metres)": 95.86, "station": "FLOREAL", "marker-color": "#FF565E"}}, {"type": "Feature", "geometry": {"type": "Point", "coordinates": [2.440534, 48.844257]}, "properties": {"numparc": 4940, "etat de la localisation": "autre", "ID BDGEO": "17", "horodatage": "2021-11-04 06:17:07", "distance (en metres)": 89.04, "station": "CHATEAU DE VINCENNES", "marker-color": "#818181"}}, {"type": "Feature", "geometry": {"type": "Point", "coordinates": [2.441128, 48.844231]}, "properties": {"numparc": 4940, "etat de la localisation": "autre", "ID BDGEO": "17", "horodatage": "2021-11-04 06:17:37", "distance (en metres)": 45.78, "station": "CHATEAU DE VINCENNES", "marker-color": "#818181"}}, {"type": "Feature", "geometry": {"type": "Point", "coordinates": [2.440422, 48.844265]}, "properties": {"numparc": 4934, "etat de la localisation": "autre", "ID BDGEO": "17", "horodatage": "2021-11-04 06:37:37", "distance (en metres)": 97.27, "station": "CHATEAU DE VINCENNES", "marker-color": "#818181"}}, {"type": "Feature", "geometry": {"type": "Point", "coordinates": [2.41556, 48.868233]}, "properties": {"numparc": 4940, "etat de la localisation": "autre", "ID BDGEO": "35", "horodatage": "2021-11-04 06:59:24", "distance (en metres)": 46.69, "station": "LA POSTE", "marker-color": "#818181"}}, {"type": "Feature", "geometry": {"type": "Point", "coordinates": [2.430882, 48.87849]}, "properties": {"numparc": 4940, "etat de la localisation": "autre", "ID BDGEO": "44", "horodatage": "2021-11-04 07:09:18", "distance (en metres)": 212.57, "station": "LES NOYERS", "marker-color": "#818181"}}, {"type": "Feature", "geometry": {"type": "Point", "coordinates": [2.437558, 48.880871]}, "properties": {"numparc": 4940, "etat de la localisation": "autre", "ID BDGEO": "46", "horodatage": "2021-11-04 07:13:16", "distance (en metres)": 84.6, "station": "GABRIEL HUSSON", "marker-color": "#818181"}}, {"type": "Feature", "geometry": {"type": "Point", "coordinates": [2.421673, 48.872932]}, "properties": {"numparc": 4934, "etat de la localisation": "autre", "ID BDGEO": "39", "horodatage": "2021-11-04 07:15:06", "distance (en metres)": 46.54, "station": "RENE ALAZARD-SADI CARNOT", "marker-color": "#818181"}}, {"type": "Feature", "geometry": {"type": "Point", "coordinates": [2.427721, 48.889008]}, "properties": {"numparc": 4940, "etat de la localisation": "autre", "ID BDGEO": "441", "horodatage": "2021-11-04 07:46:30", "distance (en metres)": 40.96, "station": "MANEYROL", "marker-color": "#818181"}}, {"type": "Feature", "geometry": {"type": "Point", "coordinates": [2.417088, 48.86507]}, "properties": {"numparc": 4934, "etat de la localisation": "autre", "ID BDGEO": "16", "horodatage": "2021-11-04 08:28:52", "distance (en metres)": 42.57, "station": "GALLIENI", "marker-color": "#818181"}}, {"type": "Feature", "geometry": {"type": "Point", "coordinates": [2.440497, 48.844231]}, "properties": {"numparc": 4940, "etat de la localisation": "autre", "ID BDGEO": "17", "horodatage": "2021-11-04 08:33:35", "distance (en metres)": 91.34, "station": "CHATEAU DE VINCENNES", "marker-color": "#818181"}}, {"type": "Feature", "geometry": {"type": "Point", "coordinates": [2.440353, 48.844261]}, "properties": {"numparc": 4934, "etat de la localisation": "autre", "ID BDGEO": "17", "horodatage": "2021-11-04 08:46:29", "distance (en metres)": 102.22, "station": "CHATEAU DE VINCENNES", "marker-color": "#818181"}}, {"type": "Feature", "geometry": {"type": "Point", "coordinates": [2.415464, 48.868141]}, "properties": {"numparc": 4940, "etat de la localisation": "autre", "ID BDGEO": "35", "horodatage": "2021-11-04 09:09:36", "distance (en metres)": 45.33, "station": "LA POSTE", "marker-color": "#818181"}}, {"type": "Feature", "geometry": {"type": "Point", "coordinates": [2.430881, 48.87851]}, "properties": {"numparc": 4940, "etat de la localisation": "autre", "ID BDGEO": "44", "horodatage": "2021-11-04 09:21:56", "distance (en metres)": 211.87, "station": "LES NOYERS", "marker-color": "#818181"}}, {"type": "Feature", "geometry": {"type": "Point", "coordinates": [2.43753, 48.88084]}, "properties": {"numparc": 4940, "etat de la localisation": "autre", "ID BDGEO": "46", "horodatage": "2021-11-04 09:25:56", "distance (en metres)": 81.01, "station": "GABRIEL HUSSON", "marker-color": "#818181"}}, {"type": "Feature", "geometry": {"type": "Point", "coordinates": [2.415575, 48.868206]}, "properties": {"numparc": 4934, "etat de la localisation": "autre", "ID BDGEO": "35", "horodatage": "2021-11-04 09:27:23", "distance (en metres)": 43.75, "station": "LA POSTE", "marker-color": "#818181"}}, {"type": "Feature", "geometry": {"type": "Point", "coordinates": [2.430888, 48.878494]}, "properties": {"numparc": 4934, "etat de la localisation": "autre", "ID BDGEO": "44", "horodatage": "2021-11-04 09:37:39", "distance (en metres)": 212.01, "station": "LES NOYERS", "marker-color": "#818181"}}, {"type": "Feature", "geometry": {"type": "Point", "coordinates": [2.437488, 48.880821]}, "properties": {"numparc": 4934, "etat de la localisation": "autre", "ID BDGEO": "46", "horodatage": "2021-11-04 09:41:42", "distance (en metres)": 77.28, "station": "GABRIEL HUSSON", "marker-color": "#818181"}}, {"type": "Feature", "geometry": {"type": "Point", "coordinates": [2.427294, 48.878796]}, "properties": {"numparc": 4934, "etat de la localisation": "autre", "ID BDGEO": "15", "horodatage": "2021-11-04 10:20:29", "distance (en metres)": 44.43, "station": "DEPOT DES LILAS SORTIE#", "marker-color": "#818181"}}, {"type": "Feature", "geometry": {"type": "Point", "coordinates": [2.427294, 48.878796]}, "properties": {"numparc": 4934, "etat de la localisation": "autre", "ID BDGEO": "15", "horodatage": "2021-11-04 10:21:13", "distance (en metres)": 44.43, "station": "DEPOT DES LILAS SORTIE#", "marker-color": "#818181"}}, {"type": "Feature", "geometry": {"type": "Point", "coordinates": [2.440719, 48.844234]}, "properties": {"numparc": 4940, "etat de la localisation": "autre", "ID BDGEO": "17", "horodatage": "2021-11-04 10:50:33", "distance (en metres)": 75.29, "station": "CHATEAU DE VINCENNES", "marker-color": "#818181"}}, {"type": "Feature", "geometry": {"type": "Point", "coordinates": [2.41548, 48.86821]}, "properties": {"numparc": 4940, "etat de la localisation": "autre", "ID BDGEO": "35", "horodatage": "2021-11-04 11:24:33", "distance (en metres)": 49.04, "station": "LA POSTE", "marker-color": "#818181"}}, {"type": "Feature", "geometry": {"type": "Point", "coordinates": [2.430888, 48.878475]}, "properties": {"numparc": 4940, "etat de la localisation": "autre", "ID BDGEO": "44", "horodatage": "2021-11-04 11:35:36", "distance (en metres)": 212.79, "station": "LES NOYERS", "marker-color": "#818181"}}, {"type": "Feature", "geometry": {"type": "Point", "coordinates": [2.437508, 48.880783]}, "properties": {"numparc": 4940, "etat de la localisation": "autre", "ID BDGEO": "46", "horodatage": "2021-11-04 11:39:44", "distance (en metres)": 76.31, "station": "GABRIEL HUSSON", "marker-color": "#818181"}}, {"type": "Feature", "geometry": {"type": "Point", "coordinates": [2.417015, 48.865051]}, "properties": {"numparc": 4940, "etat de la localisation": "autre", "ID BDGEO": "16", "horodatage": "2021-11-04 12:47:11", "distance (en metres)": 41.53, "station": "GALLIENI", "marker-color": "#818181"}}, {"type": "Feature", "geometry": {"type": "Point", "coordinates": [2.440712, 48.844234]}, "properties": {"numparc": 4940, "etat de la localisation": "autre", "ID BDGEO": "17", "horodatage": "2021-11-04 13:05:36", "distance (en metres)": 75.79, "station": "CHATEAU DE VINCENNES", "marker-color": "#818181"}}, {"type": "Feature", "geometry": {"type": "Point", "coordinates": [2.415533, 48.868233]}, "properties": {"numparc": 4940, "etat de la localisation": "autre", "ID BDGEO": "35", "horodatage": "2021-11-04 13:43:05", "distance (en metres)": 48.02, "station": "LA POSTE", "marker-color": "#818181"}}, {"type": "Feature", "geometry": {"type": "Point", "coordinates": [2.4309, 48.878483]}, "properties": {"numparc": 4940, "etat de la localisation": "autre", "ID BDGEO": "44", "horodatage": "2021-11-04 13:51:49", "distance (en metres)": 211.65, "station": "LES NOYERS", "marker-color": "#818181"}}, {"type": "Feature", "geometry": {"type": "Point", "coordinates": [2.437514, 48.880836]}, "properties": {"numparc": 4940, "etat de la localisation": "autre", "ID BDGEO": "46", "horodatage": "2021-11-04 13:54:44", "distance (en metres)": 79.8, "station": "GABRIEL HUSSON", "marker-color": "#818181"}}, {"type": "Feature", "geometry": {"type": "Point", "coordinates": [2.417216, 48.865089]}, "properties": {"numparc": 4940, "etat de la localisation": "autre", "ID BDGEO": "16", "horodatage": "2021-11-04 15:08:44", "distance (en metres)": 44.51, "station": "GALLIENI", "marker-color": "#818181"}}, {"type": "Feature", "geometry": {"type": "Point", "coordinates": [2.428555, 48.879284]}, "properties": {"numparc": 4934, "etat de la localisation": "autre", "ID BDGEO": "15", "horodatage": "2021-11-04 15:21:03", "distance (en metres)": 112.97, "station": "DEPOT DES LILAS SORTIE#", "marker-color": "#818181"}}, {"type": "Feature", "geometry": {"type": "Point", "coordinates": [2.428429, 48.879337]}, "properties": {"numparc": 4934, "etat de la localisation": "Delocalise", "ID BDGEO": "15", "horodatage": "2021-11-04 15:23:45", "distance (en metres)": 104.83, "station": "DEPOT DES LILAS SORTIE#", "marker-color": "#FF565E"}}, {"type": "Feature", "geometry": {"type": "Point", "coordinates": [2.440639, 48.844238]}, "properties": {"numparc": 4940, "etat de la localisation": "autre", "ID BDGEO": "17", "horodatage": "2021-11-04 15:30:32", "distance (en metres)": 81.13, "station": "CHATEAU DE VINCENNES", "marker-color": "#818181"}}, {"type": "Feature", "geometry": {"type": "Point", "coordinates": [2.441044, 48.844238]}, "properties": {"numparc": 4940, "etat de la localisation": "autre", "ID BDGEO": "17", "horodatage": "2021-11-04 15:31:38", "distance (en metres)": 51.96, "station": "CHATEAU DE VINCENNES", "marker-color": "#818181"}}, {"type": "Feature", "geometry": {"type": "Point", "coordinates": [2.417237, 48.864578]}, "properties": {"numparc": 4940, "etat de la localisation": "autre", "ID BDGEO": "33", "horodatage": "2021-11-04 16:16:22", "distance (en metres)": 50.68, "station": "GALLIENI", "marker-color": "#818181"}}, {"type": "Feature", "geometry": {"type": "Point", "coordinates": [2.415571, 48.868214]}, "properties": {"numparc": 4940, "etat de la localisation": "autre", "ID BDGEO": "35", "horodatage": "2021-11-04 16:21:57", "distance (en metres)": 44.57, "station": "LA POSTE", "marker-color": "#818181"}}, {"type": "Feature", "geometry": {"type": "Point", "coordinates": [2.430859, 48.87851]}, "properties": {"numparc": 4940, "etat de la localisation": "autre", "ID BDGEO": "44", "horodatage": "2021-11-04 16:35:20", "distance (en metres)": 213.38, "station": "LES NOYERS", "marker-color": "#818181"}}, {"type": "Feature", "geometry": {"type": "Point", "coordinates": [2.437486, 48.880814]}, "properties": {"numparc": 4930, "etat de la localisation": "autre", "ID BDGEO": "46", "horodatage": "2021-11-04 16:36:35", "distance (en metres)": 76.69, "station": "GABRIEL HUSSON", "marker-color": "#818181"}}, {"type": "Feature", "geometry": {"type": "Point", "coordinates": [2.437418, 48.880795]}, "properties": {"numparc": 4940, "etat de la localisation": "autre", "ID BDGEO": "46", "horodatage": "2021-11-04 16:39:05", "distance (en metres)": 71.37, "station": "GABRIEL HUSSON", "marker-color": "#818181"}}, {"type": "Feature", "geometry": {"type": "Point", "coordinates": [2.427247, 48.895332]}, "properties": {"numparc": 4940, "etat de la localisation": "autre", "ID BDGEO": "51", "horodatage": "2021-11-04 16:54:24", "distance (en metres)": 54.82, "station": "RAYMOND QUENEAU - ROUTE DE NOISY.", "marker-color": "#818181"}}, {"type": "Feature", "geometry": {"type": "Point", "coordinates": [2.416979, 48.86507]}, "properties": {"numparc": 4934, "etat de la localisation": "autre", "ID BDGEO": "16", "horodatage": "2021-11-04 17:00:39", "distance (en metres)": 44.3, "station": "GALLIENI", "marker-color": "#818181"}}, {"type": "Feature", "geometry": {"type": "Point", "coordinates": [2.427706, 48.889023]}, "properties": {"numparc": 4930, "etat de la localisation": "autre", "ID BDGEO": "441", "horodatage": "2021-11-04 17:23:12", "distance (en metres)": 42.2, "station": "MANEYROL", "marker-color": "#818181"}}, {"type": "Feature", "geometry": {"type": "Point", "coordinates": [2.441065, 48.844189]}, "properties": {"numparc": 4934, "etat de la localisation": "autre", "ID BDGEO": "17", "horodatage": "2021-11-04 17:28:10", "distance (en metres)": 49.5, "station": "CHATEAU DE VINCENNES", "marker-color": "#818181"}}, {"type": "Feature", "geometry": {"type": "Point", "coordinates": [2.417201, 48.86507]}, "properties": {"numparc": 4930, "etat de la localisation": "autre", "ID BDGEO": "16", "horodatage": "2021-11-04 17:55:38", "distance (en metres)": 42.31, "station": "GALLIENI", "marker-color": "#818181"}}, {"type": "Feature", "geometry": {"type": "Point", "coordinates": [2.440691, 48.84425]}, "properties": {"numparc": 4940, "etat de la localisation": "autre", "ID BDGEO": "17", "horodatage": "2021-11-04 18:00:20", "distance (en metres)": 77.57, "station": "CHATEAU DE VINCENNES", "marker-color": "#818181"}}, {"type": "Feature", "geometry": {"type": "Point", "coordinates": [2.440403, 48.844273]}, "properties": {"numparc": 4930, "etat de la localisation": "autre", "ID BDGEO": "17", "horodatage": "2021-11-04 18:17:12", "distance (en metres)": 98.78, "station": "CHATEAU DE VINCENNES", "marker-color": "#818181"}}, {"type": "Feature", "geometry": {"type": "Point", "coordinates": [2.430919, 48.878483]}, "properties": {"numparc": 4934, "etat de la localisation": "autre", "ID BDGEO": "44", "horodatage": "2021-11-04 18:23:22", "distance (en metres)": 210.37, "station": "LES NOYERS", "marker-color": "#818181"}}, {"type": "Feature", "geometry": {"type": "Point", "coordinates": [2.440475, 48.844337]}, "properties": {"numparc": 4930, "etat de la localisation": "autre", "ID BDGEO": "17", "horodatage": "2021-11-04 18:27:03", "distance (en metres)": 95.02, "station": "CHATEAU DE VINCENNES", "marker-color": "#818181"}}, {"type": "Feature", "geometry": {"type": "Point", "coordinates": [2.43749, 48.880829]}, "properties": {"numparc": 4934, "etat de la localisation": "autre", "ID BDGEO": "46", "horodatage": "2021-11-04 18:28:37", "distance (en metres)": 77.87, "station": "GABRIEL HUSSON", "marker-color": "#818181"}}, {"type": "Feature", "geometry": {"type": "Point", "coordinates": [2.415628, 48.868229]}, "properties": {"numparc": 4940, "etat de la localisation": "autre", "ID BDGEO": "35", "horodatage": "2021-11-04 18:45:30", "distance (en metres)": 43.22, "station": "LA POSTE", "marker-color": "#818181"}}, {"type": "Feature", "geometry": {"type": "Point", "coordinates": [2.42674, 48.895405]}, "properties": {"numparc": 4934, "etat de la localisation": "autre", "ID BDGEO": "15", "horodatage": "2021-11-04 18:54:23", "distance (en metres)": 1807.21, "station": "DEPOT DES LILAS SORTIE#", "marker-color": "#818181"}}, {"type": "Feature", "geometry": {"type": "Point", "coordinates": [2.430895, 48.878479]}, "properties": {"numparc": 4940, "etat de la localisation": "autre", "ID BDGEO": "44", "horodatage": "2021-11-04 18:58:27", "distance (en metres)": 212.15, "station": "LES NOYERS", "marker-color": "#818181"}}, {"type": "Feature", "geometry": {"type": "Point", "coordinates": [2.43746, 48.880821]}, "properties": {"numparc": 4940, "etat de la localisation": "autre", "ID BDGEO": "46", "horodatage": "2021-11-04 19:02:38", "distance (en metres)": 75.57, "station": "GABRIEL HUSSON", "marker-color": "#818181"}}, {"type": "Feature", "geometry": {"type": "Point", "coordinates": [2.435127, 48.893757]}, "properties": {"numparc": 4934, "etat de la localisation": "autre", "ID BDGEO": "15", "horodatage": "2021-11-04 19:04:20", "distance (en metres)": 1728.58, "station": "DEPOT DES LILAS SORTIE#", "marker-color": "#818181"}}, {"type": "Feature", "geometry": {"type": "Point", "coordinates": [2.415517, 48.868195]}, "properties": {"numparc": 4930, "etat de la localisation": "autre", "ID BDGEO": "35", "horodatage": "2021-11-04 19:12:39", "distance (en metres)": 45.88, "station": "LA POSTE", "marker-color": "#818181"}}, {"type": "Feature", "geometry": {"type": "Point", "coordinates": [2.434525, 48.893723]}, "properties": {"numparc": 4940, "etat de la localisation": "autre", "ID BDGEO": "53", "horodatage": "2021-11-04 19:16:15", "distance (en metres)": 57.87, "station": "LOUISE DORY", "marker-color": "#818181"}}, {"type": "Feature", "geometry": {"type": "Point", "coordinates": [2.426897, 48.878017]}, "properties": {"numparc": 4934, "etat de la localisation": "autre", "ID BDGEO": "15", "horodatage": "2021-11-04 19:27:28", "distance (en metres)": 126.63, "station": "DEPOT DES LILAS SORTIE#", "marker-color": "#818181"}}, {"type": "Feature", "geometry": {"type": "Point", "coordinates": [2.430871, 48.87851]}, "properties": {"numparc": 4930, "etat de la localisation": "autre", "ID BDGEO": "44", "horodatage": "2021-11-04 19:28:06", "distance (en metres)": 212.56, "station": "LES NOYERS", "marker-color": "#818181"}}, {"type": "Feature", "geometry": {"type": "Point", "coordinates": [2.437426, 48.880802]}, "properties": {"numparc": 4930, "etat de la localisation": "autre", "ID BDGEO": "46", "horodatage": "2021-11-04 19:31:47", "distance (en metres)": 72.34, "station": "GABRIEL HUSSON", "marker-color": "#818181"}}, {"type": "Feature", "geometry": {"type": "Point", "coordinates": [2.419619, 48.872936]}, "properties": {"numparc": 4934, "etat de la localisation": "autre", "ID BDGEO": "15", "horodatage": "2021-11-04 19:35:41", "distance (en metres)": 878.11, "station": "DEPOT DES LILAS SORTIE#", "marker-color": "#818181"}}, {"type": "Feature", "geometry": {"type": "Point", "coordinates": [2.434142, 48.893944]}, "properties": {"numparc": 4940, "etat de la localisation": "autre", "ID BDGEO": "54", "horodatage": "2021-11-04 19:42:08", "distance (en metres)": 61.56, "station": "LOUISE DORY", "marker-color": "#818181"}}, {"type": "Feature", "geometry": {"type": "Point", "coordinates": [2.417036, 48.865162]}, "properties": {"numparc": 4934, "etat de la localisation": "autre", "ID BDGEO": "15", "horodatage": "2021-11-04 19:42:16", "distance (en metres)": 1718.7, "station": "DEPOT DES LILAS SORTIE#", "marker-color": "#818181"}}, {"type": "Feature", "geometry": {"type": "Point", "coordinates": [2.42711, 48.895344]}, "properties": {"numparc": 4930, "etat de la localisation": "autre", "ID BDGEO": "51", "horodatage": "2021-11-04 19:49:14", "distance (en metres)": 44.93, "station": "RAYMOND QUENEAU - ROUTE DE NOISY.", "marker-color": "#818181"}}, {"type": "Feature", "geometry": {"type": "Point", "coordinates": [2.440501, 48.844341]}, "properties": {"numparc": 4934, "etat de la localisation": "autre", "ID BDGEO": "447", "horodatage": "2021-11-04 20:09:18", "distance (en metres)": 71.28, "station": "CHATEAU DE VINCENNES#", "marker-color": "#818181"}}, {"type": "Feature", "geometry": {"type": "Point", "coordinates": [2.440501, 48.844341]}, "properties": {"numparc": 4934, "etat de la localisation": "autre", "ID BDGEO": "447", "horodatage": "2021-11-04 20:11:22", "distance (en metres)": 71.28, "station": "CHATEAU DE VINCENNES#", "marker-color": "#818181"}}, {"type": "Feature", "geometry": {"type": "Point", "coordinates": [2.431554, 48.878658]}, "properties": {"numparc": 4930, "etat de la localisation": "autre", "ID BDGEO": "64", "horodatage": "2021-11-04 20:28:04", "distance (en metres)": 59.58, "station": "LES NOYERS", "marker-color": "#818181"}}, {"type": "Feature", "geometry": {"type": "Point", "coordinates": [2.418207, 48.867004]}, "properties": {"numparc": 4934, "etat de la localisation": "autre", "ID BDGEO": "34", "horodatage": "2021-11-04 20:37:42", "distance (en metres)": 55.96, "station": "CENTRE DE SANTE", "marker-color": "#818181"}}, {"type": "Feature", "geometry": {"type": "Point", "coordinates": [2.440365, 48.844273]}, "properties": {"numparc": 4940, "etat de la localisation": "autre", "ID BDGEO": "17", "horodatage": "2021-11-04 20:38:09", "distance (en metres)": 101.52, "station": "CHATEAU DE VINCENNES", "marker-color": "#818181"}}, {"type": "Feature", "geometry": {"type": "Point", "coordinates": [2.415527, 48.868233]}, "properties": {"numparc": 4934, "etat de la localisation": "autre", "ID BDGEO": "35", "horodatage": "2021-11-04 20:40:10", "distance (en metres)": 48.32, "station": "LA POSTE", "marker-color": "#818181"}}, {"type": "Feature", "geometry": {"type": "Point", "coordinates": [2.432537, 48.878906]}, "properties": {"numparc": 4934, "etat de la localisation": "autre", "ID BDGEO": "44", "horodatage": "2021-11-04 20:49:54", "distance (en metres)": 83.02, "station": "LES NOYERS", "marker-color": "#818181"}}, {"type": "Feature", "geometry": {"type": "Point", "coordinates": [2.437469, 48.880867]}, "properties": {"numparc": 4934, "etat de la localisation": "autre", "ID BDGEO": "46", "horodatage": "2021-11-04 20:52:02", "distance (en metres)": 79.07, "station": "GABRIEL HUSSON", "marker-color": "#818181"}}, {"type": "Feature", "geometry": {"type": "Point", "coordinates": [2.427379, 48.878796]}, "properties": {"numparc": 4930, "etat de la localisation": "autre", "ID BDGEO": "15", "horodatage": "2021-11-04 21:08:51", "distance (en metres)": 47.53, "station": "DEPOT DES LILAS SORTIE#", "marker-color": "#818181"}}, {"type": "Feature", "geometry": {"type": "Point", "coordinates": [2.426792, 48.895336]}, "properties": {"numparc": 4934, "etat de la localisation": "autre", "ID BDGEO": "306", "horodatage": "2021-11-04 21:50:15", "distance (en metres)": 396.03, "station": "PADDOCK PARIS", "marker-color": "#818181"}}, {"type": "Feature", "geometry": {"type": "Point", "coordinates": [2.430886, 48.878487]}, "properties": {"numparc": 4940, "etat de la localisation": "autre", "ID BDGEO": "44", "horodatage": "2021-11-04 21:58:12", "distance (en metres)": 212.45, "station": "LES NOYERS", "marker-color": "#818181"}}, {"type": "Feature", "geometry": {"type": "Point", "coordinates": [2.437477, 48.880817]}, "properties": {"numparc": 4940, "etat de la localisation": "autre", "ID BDGEO": "46", "horodatage": "2021-11-04 22:01:34", "distance (en metres)": 76.38, "station": "GABRIEL HUSSON", "marker-color": "#818181"}}, {"type": "Feature", "geometry": {"type": "Point", "coordinates": [2.44042, 48.883362]}, "properties": {"numparc": 4940, "etat de la localisation": "autre", "ID BDGEO": "487", "horodatage": "2021-11-04 22:03:25", "distance (en metres)": 71.77, "station": "CARNOT", "marker-color": "#818181"}}, {"type": "Feature", "geometry": {"type": "Point", "coordinates": [2.435154, 48.893753]}, "properties": {"numparc": 4934, "etat de la localisation": "autre", "ID BDGEO": "19", "horodatage": "2021-11-04 22:21:54", "distance (en metres)": 290.57, "station": "CHANTALOUPS", "marker-color": "#818181"}}, {"type": "Feature", "geometry": {"type": "Point", "coordinates": [2.435111, 48.893761]}, "properties": {"numparc": 4940, "etat de la localisation": "autre", "ID BDGEO": "308", "horodatage": "2021-11-04 22:47:40", "distance (en metres)": 662.84, "station": "RAYMOND QUENEAU-RTE DE NOISY#", "marker-color": "#818181"}}, {"type": "Feature", "geometry": {"type": "Point", "coordinates": [2.434986, 48.88512]}, "properties": {"numparc": 4940, "etat de la localisation": "autre", "ID BDGEO": "15", "horodatage": "2021-11-04 22:55:23", "distance (en metres)": 882.79, "station": "DEPOT DES LILAS SORTIE#", "marker-color": "#818181"}}, {"type": "Feature", "geometry": {"type": "Point", "coordinates": [2.440371, 48.844299]}, "properties": {"numparc": 4934, "etat de la localisation": "autre", "ID BDGEO": "447", "horodatage": "2021-11-04 22:57:12", "distance (en metres)": 79.14, "station": "CHATEAU DE VINCENNES#", "marker-color": "#818181"}}, {"type": "Feature", "geometry": {"type": "Point", "coordinates": [2.440569, 48.883621]}, "properties": {"numparc": 4940, "etat de la localisation": "autre", "ID BDGEO": "15", "horodatage": "2021-11-04 22:57:29", "distance (en metres)": 1108.14, "station": "DEPOT DES LILAS SORTIE#", "marker-color": "#818181"}}, {"type": "Feature", "geometry": {"type": "Point", "coordinates": [2.440989, 48.84428]}, "properties": {"numparc": 4934, "etat de la localisation": "autre", "ID BDGEO": "44", "horodatage": "2021-11-04 23:00:57", "distance (en metres)": 3918.69, "station": "LES NOYERS", "marker-color": "#818181"}}, {"type": "Feature", "geometry": {"type": "Point", "coordinates": [2.440989, 48.84428]}, "properties": {"numparc": 4934, "etat de la localisation": "autre", "ID BDGEO": "44", "horodatage": "2021-11-04 23:01:01", "distance (en metres)": 3918.69, "station": "LES NOYERS", "marker-color": "#818181"}}, {"type": "Feature", "geometry": {"type": "Point", "coordinates": [2.427314, 48.878807]}, "properties": {"numparc": 4940, "etat de la localisation": "autre", "ID BDGEO": "15", "horodatage": "2021-11-04 23:01:59", "distance (en metres)": 43.99, "station": "DEPOT DES LILAS SORTIE#", "marker-color": "#818181"}}, {"type": "Feature", "geometry": {"type": "Point", "coordinates": [2.440989, 48.84428]}, "properties": {"numparc": 4934, "etat de la localisation": "autre", "ID BDGEO": "44", "horodatage": "2021-11-04 23:02:16", "distance (en metres)": 3918.69, "station": "LES NOYERS", "marker-color": "#818181"}}, {"type": "Feature", "geometry": {"type": "Point", "coordinates": [2.430871, 48.878471]}, "properties": {"numparc": 4934, "etat de la localisation": "autre", "ID BDGEO": "44", "horodatage": "2021-11-04 23:54:30", "distance (en metres)": 214.09, "station": "LES NOYERS", "marker-color": "#818181"}}, {"type": "Feature", "geometry": {"type": "Point", "coordinates": [2.437485, 48.880829]}, "properties": {"numparc": 4934, "etat de la localisation": "autre", "ID BDGEO": "46", "horodatage": "2021-11-04 23:58:09", "distance (en metres)": 77.56, "station": "GABRIEL HUSSON", "marker-color": "#818181"}}, {"type": "Feature", "geometry": {"type": "Point", "coordinates": [2.426586, 48.895397]}, "properties": {"numparc": 4934, "etat de la localisation": "autre", "ID BDGEO": "65", "horodatage": "2021-11-05 00:10:34", "distance (en metres)": 1925.52, "station": "FLOREAL", "marker-color": "#818181"}}, {"type": "Feature", "geometry": {"type": "Point", "coordinates": [2.43512, 48.893742]}, "properties": {"numparc": 4934, "etat de la localisation": "autre", "ID BDGEO": "65", "horodatage": "2021-11-05 00:20:53", "distance (en metres)": 1837.44, "station": "FLOREAL", "marker-color": "#818181"}}, {"type": "Feature", "geometry": {"type": "Point", "coordinates": [2.440426, 48.883575]}, "properties": {"numparc": 4934, "etat de la localisation": "autre", "ID BDGEO": "65", "horodatage": "2021-11-05 00:27:44", "distance (en metres)": 1150.67, "station": "FLOREAL", "marker-color": "#818181"}}, {"type": "Feature", "geometry": {"type": "Point", "coordinates": [2.436246, 48.880394]}, "properties": {"numparc": 4934, "etat de la localisation": "autre", "ID BDGEO": "65", "horodatage": "2021-11-05 00:29:47", "distance (en metres)": 717.19, "station": "FLOREAL", "marker-color": "#818181"}}, {"type": "Feature", "geometry": {"type": "Point", "coordinates": [2.432124, 48.878815]}, "properties": {"numparc": 4934, "etat de la localisation": "autre", "ID BDGEO": "65", "horodatage": "2021-11-05 00:30:44", "distance (en metres)": 377.04, "station": "FLOREAL", "marker-color": "#818181"}}, {"type": "Feature", "geometry": {"type": "Point", "coordinates": [2.42735, 48.878586]}, "properties": {"numparc": 4934, "etat de la localisation": "autre", "ID BDGEO": "15", "horodatage": "2021-11-05 01:05:55", "distance (en metres)": 67.48, "station": "DEPOT DES LILAS SORTIE#", "marker-color": "#818181"}}, {"type": "Feature", "geometry": {"type": "Point", "coordinates": [2.427347, 48.878826]}, "properties": {"numparc": 4934, "etat de la localisation": "autre", "ID BDGEO": "15", "horodatage": "2021-11-05 01:06:35", "distance (en metres)": 43.41, "station": "DEPOT DES LILAS SORTIE#", "marker-color": "#818181"}}, {"type": "Feature", "geometry": {"type": "Point", "coordinates": [2.427023, 48.879153]}, "properties": {"station": "DEPOT DES LILAS SORTIE#", "ID BDGEO": "15", "marker-color": "#56B3FF"}}, {"type": "Feature", "geometry": {"type": "Point", "coordinates": [2.427089, 48.878084]}, "properties": {"station": "FLOREAL", "ID BDGEO": "65", "marker-color": "#56B3FF"}}, {"type": "Feature", "geometry": {"type": "Point", "coordinates": [2.417163, 48.864691]}, "properties": {"station": "GALLIENI", "ID BDGEO": "16", "marker-color": "#56B3FF"}}, {"type": "Feature", "geometry": {"type": "Point", "coordinates": [2.441737, 48.844135]}, "properties": {"station": "CHATEAU DE VINCENNES", "ID BDGEO": "17", "marker-color": "#56B3FF"}}, {"type": "Feature", "geometry": {"type": "Point", "coordinates": [2.415982, 48.867918]}, "properties": {"station": "LA POSTE", "ID BDGEO": "35", "marker-color": "#56B3FF"}}, {"type": "Feature", "geometry": {"type": "Point", "coordinates": [2.433591, 48.879184]}, "properties": {"station": "LES NOYERS", "ID BDGEO": "44", "marker-color": "#56B3FF"}}, {"type": "Feature", "geometry": {"type": "Point", "coordinates": [2.436605, 48.88044]}, "properties": {"station": "GABRIEL HUSSON", "ID BDGEO": "46", "marker-color": "#56B3FF"}}, {"type": "Feature", "geometry": {"type": "Point", "coordinates": [2.421616, 48.872516]}, "properties": {"station": "RENE ALAZARD-SADI CARNOT", "ID BDGEO": "39", "marker-color": "#56B3FF"}}, {"type": "Feature", "geometry": {"type": "Point", "coordinates": [2.42828, 48.888984]}, "properties": {"station": "MANEYROL", "ID BDGEO": "441", "marker-color": "#56B3FF"}}, {"type": "Feature", "geometry": {"type": "Point", "coordinates": [2.417299, 48.865032]}, "properties": {"station": "GALLIENI", "ID BDGEO": "33", "marker-color": "#56B3FF"}}, {"type": "Feature", "geometry": {"type": "Point", "coordinates": [2.426533, 48.895483]}, "properties": {"station": "RAYMOND QUENEAU - ROUTE DE NOISY.", "ID BDGEO": "51", "marker-color": "#56B3FF"}}, {"type": "Feature", "geometry": {"type": "Point", "coordinates": [2.433877, 48.894022]}, "properties": {"station": "LOUISE DORY", "ID BDGEO": "53", "marker-color": "#56B3FF"}}, {"type": "Feature", "geometry": {"type": "Point", "coordinates": [2.434954, 48.893796]}, "properties": {"station": "LOUISE DORY", "ID BDGEO": "54", "marker-color": "#56B3FF"}}, {"type": "Feature", "geometry": {"type": "Point", "coordinates": [2.441423, 48.844136]}, "properties": {"station": "CHATEAU DE VINCENNES#", "ID BDGEO": "447", "marker-color": "#56B3FF"}}, {"type": "Feature", "geometry": {"type": "Point", "coordinates": [2.432336, 48.878808]}, "properties": {"station": "LES NOYERS", "ID BDGEO": "64", "marker-color": "#56B3FF"}}, {"type": "Feature", "geometry": {"type": "Point", "coordinates": [2.417725, 48.867396]}, "properties": {"station": "CENTRE DE SANTE", "ID BDGEO": "34", "marker-color": "#56B3FF"}}, {"type": "Feature", "geometry": {"type": "Point", "coordinates": [2.42834, 48.891923]}, "properties": {"station": "PADDOCK PARIS", "ID BDGEO": "306", "marker-color": "#56B3FF"}}, {"type": "Feature", "geometry": {"type": "Point", "coordinates": [2.440016, 48.882774]}, "properties": {"station": "CARNOT", "ID BDGEO": "487", "marker-color": "#56B3FF"}}, {"type": "Feature", "geometry": {"type": "Point", "coordinates": [2.437389, 48.891592]}, "properties": {"station": "CHANTALOUPS", "ID BDGEO": "19", "marker-color": "#56B3FF"}}, {"type": "Feature", "geometry": {"type": "Point", "coordinates": [2.426383, 48.895376]}, "properties": {"station": "RAYMOND QUENEAU-RTE DE NOISY#", "ID BDGEO": "308", "marker-color": "#56B3FF"}}]}