{"type": "FeatureCollection", "features": [{"type": "Feature", "geometry": {"type": "Point", "coordinates": [2.189002, 48.903084]}, "properties": {"etat de la localisation": "Hors service", "numparc": 5939, "duree": "", "horodatage": "2022-12-21 10:09:40", "marker-color": "#707070"}}, {"type": "Feature", "geometry": {"type": "Point", "coordinates": [2.1888, 48.903076]}, "properties": {"etat de la localisation": "Hors service", "numparc": 5937, "duree": "", "horodatage": "2022-12-21 10:51:01", "marker-color": "#707070"}}, {"type": "Feature", "geometry": {"type": "Point", "coordinates": [2.191391, 48.902935]}, "properties": {"etat de la localisation": "Hors service", "numparc": 5908, "duree": "", "horodatage": "2022-12-21 15:03:46", "marker-color": "#707070"}}, {"type": "Feature", "geometry": {"type": "Point", "coordinates": [2.190482, 48.902702]}, "properties": {"etat de la localisation": "Hors service", "numparc": 5921, "duree": "", "horodatage": "2022-12-21 15:07:39", "marker-color": "#707070"}}, {"type": "Feature", "geometry": {"type": "Point", "coordinates": [2.190946, 48.902996]}, "properties": {"etat de la localisation": "Delocalise", "numparc": 5921, "duree": "00:00:11", "horodatage": "2022-12-21 15:11:09", "marker-color": "#FF565E"}}, {"type": "Feature", "geometry": {"type": "Point", "coordinates": [2.189786, 48.902218]}, "properties": {"etat de la localisation": "Mission inconnue", "numparc": 5908, "duree": "", "horodatage": "2022-12-21 15:51:06", "marker-color": "#FF9F56"}}, {"type": "Feature", "geometry": {"type": "Point", "coordinates": [2.189265, 48.903164]}, "properties": {"etat de la localisation": "Mission inconnue", "numparc": 5908, "duree": "", "horodatage": "2022-12-21 15:53:41", "marker-color": "#FF9F56"}}, {"type": "Feature", "geometry": {"type": "Point", "coordinates": [2.189252, 48.903172]}, "properties": {"etat de la localisation": "Hors service", "numparc": 5908, "duree": "", "horodatage": "2022-12-21 15:54:56", "marker-color": "#707070"}}, {"type": "Feature", "geometry": {"type": "Point", "coordinates": [2.189317, 48.903183]}, "properties": {"etat de la localisation": "Hors service", "numparc": 5919, "duree": "", "horodatage": "2022-12-21 20:27:54", "marker-color": "#707070"}}, {"type": "Feature", "geometry": {"type": "Point", "coordinates": [2.189104, 48.903126]}, "properties": {"etat de la localisation": "Hors service", "numparc": 5929, "duree": "", "horodatage": "2022-12-21 20:36:03", "marker-color": "#707070"}}, {"type": "Feature", "geometry": {"type": "Point", "coordinates": [2.188204, 48.90287]}, "properties": {"etat de la localisation": "Hors service", "numparc": 5921, "duree": "", "horodatage": "2022-12-21 21:42:59", "marker-color": "#707070"}}, {"type": "Feature", "geometry": {"type": "Point", "coordinates": [2.189833, 48.902203]}, "properties": {"etat de la localisation": "Hors service", "numparc": 5920, "duree": "", "horodatage": "2022-12-21 22:12:57", "marker-color": "#707070"}}, {"type": "Feature", "geometry": {"type": "Point", "coordinates": [2.18963, 48.902321]}, "properties": {"etat de la localisation": "Mission inconnue", "numparc": 5920, "duree": "", "horodatage": "2022-12-21 22:15:49", "marker-color": "#FF9F56"}}, {"type": "Feature", "geometry": {"type": "Point", "coordinates": [2.189522, 48.902401]}, "properties": {"etat de la localisation": "Hors service", "numparc": 5920, "duree": "", "horodatage": "2022-12-21 22:18:09", "marker-color": "#707070"}}, {"type": "Feature", "geometry": {"type": "Point", "coordinates": [2.189831, 48.902187]}, "properties": {"etat de la localisation": "Hors service", "numparc": 5922, "duree": "", "horodatage": "2022-12-21 22:34:18", "marker-color": "#707070"}}, {"type": "Feature", "geometry": {"type": "Point", "coordinates": [2.189366, 48.902161]}, "properties": {"etat de la localisation": "Mission inconnue", "numparc": 5922, "duree": "", "horodatage": "2022-12-21 22:37:39", "marker-color": "#FF9F56"}}, {"type": "Feature", "geometry": {"type": "Point", "coordinates": [2.189204, 48.902203]}, "properties": {"etat de la localisation": "Hors service", "numparc": 5922, "duree": "", "horodatage": "2022-12-21 22:39:30", "marker-color": "#707070"}}]}