{"type": "FeatureCollection", "features": [{"type": "Feature", "geometry": {"type": "Point", "coordinates": [2.297285, 48.87487]}, "properties": {"etat de la localisation": "Mission inconnue", "numparc": 5686, "duree": "", "horodatage": "2021-07-10 09:22:41", "marker-color": "#FF9F56"}}, {"type": "Feature", "geometry": {"type": "Point", "coordinates": [2.297285, 48.87487]}, "properties": {"etat de la localisation": "Mission inconnue", "numparc": 5686, "duree": "", "horodatage": "2021-07-10 09:23:07", "marker-color": "#FF9F56"}}]}