{"type": "FeatureCollection", "features": [{"type": "Feature", "geometry": {"type": "Point", "coordinates": [2.239419, 48.89196]}, "properties": {"numparc": 1988, "etat de la localisation": "autre", "ID BDGEO": "156", "horodatage": "2022-04-14 14:59:21", "distance (en metres)": 112.64, "station": "LA DEFENSE", "marker-color": "#818181"}}, {"type": "Feature", "geometry": {"type": "Point", "coordinates": [2.240725, 48.891018]}, "properties": {"numparc": 1988, "etat de la localisation": "autre", "ID BDGEO": "156", "horodatage": "2022-04-14 15:01:00", "distance (en metres)": 51.24, "station": "LA DEFENSE", "marker-color": "#818181"}}, {"type": "Feature", "geometry": {"type": "Point", "coordinates": [2.240725, 48.891018]}, "properties": {"numparc": 1988, "etat de la localisation": "autre", "ID BDGEO": "156", "horodatage": "2022-04-14 15:05:38", "distance (en metres)": 51.24, "station": "LA DEFENSE", "marker-color": "#818181"}}, {"type": "Feature", "geometry": {"type": "Point", "coordinates": [2.240183, 48.895821]}, "properties": {"numparc": 1988, "etat de la localisation": "autre", "ID BDGEO": "156", "horodatage": "2022-04-14 15:11:13", "distance (en metres)": 532.98, "station": "LA DEFENSE", "marker-color": "#818181"}}, {"type": "Feature", "geometry": {"type": "Point", "coordinates": [2.240085, 48.896847]}, "properties": {"numparc": 1988, "etat de la localisation": "autre", "ID BDGEO": "156", "horodatage": "2022-04-14 15:11:53", "distance (en metres)": 646.97, "station": "LA DEFENSE", "marker-color": "#818181"}}, {"type": "Feature", "geometry": {"type": "Point", "coordinates": [2.242704, 48.898746]}, "properties": {"numparc": 1988, "etat de la localisation": "autre", "ID BDGEO": "156", "horodatage": "2022-04-14 15:14:02", "distance (en metres)": 880.27, "station": "LA DEFENSE", "marker-color": "#818181"}}, {"type": "Feature", "geometry": {"type": "Point", "coordinates": [2.246131, 48.899815]}, "properties": {"numparc": 1988, "etat de la localisation": "autre", "ID BDGEO": "156", "horodatage": "2022-04-14 15:15:05", "distance (en metres)": 1074.12, "station": "LA DEFENSE", "marker-color": "#818181"}}, {"type": "Feature", "geometry": {"type": "Point", "coordinates": [2.251156, 48.901428]}, "properties": {"numparc": 1988, "etat de la localisation": "autre", "ID BDGEO": "156", "horodatage": "2022-04-14 15:17:12", "distance (en metres)": 1414.02, "station": "LA DEFENSE", "marker-color": "#818181"}}, {"type": "Feature", "geometry": {"type": "Point", "coordinates": [2.25623, 48.903061]}, "properties": {"numparc": 1988, "etat de la localisation": "autre", "ID BDGEO": "156", "horodatage": "2022-04-14 15:19:22", "distance (en metres)": 1787.04, "station": "LA DEFENSE", "marker-color": "#818181"}}, {"type": "Feature", "geometry": {"type": "Point", "coordinates": [2.266512, 48.907497]}, "properties": {"numparc": 1988, "etat de la localisation": "autre", "ID BDGEO": "156", "horodatage": "2022-04-14 15:26:00", "distance (en metres)": 2665.02, "station": "LA DEFENSE", "marker-color": "#818181"}}, {"type": "Feature", "geometry": {"type": "Point", "coordinates": [2.269147, 48.908459]}, "properties": {"numparc": 1988, "etat de la localisation": "autre", "ID BDGEO": "156", "horodatage": "2022-04-14 15:27:21", "distance (en metres)": 2878.91, "station": "LA DEFENSE", "marker-color": "#818181"}}, {"type": "Feature", "geometry": {"type": "Point", "coordinates": [2.272477, 48.909649]}, "properties": {"numparc": 1988, "etat de la localisation": "autre", "ID BDGEO": "156", "horodatage": "2022-04-14 15:28:32", "distance (en metres)": 3148.66, "station": "LA DEFENSE", "marker-color": "#818181"}}, {"type": "Feature", "geometry": {"type": "Point", "coordinates": [2.272504, 48.912766]}, "properties": {"numparc": 1988, "etat de la localisation": "autre", "ID BDGEO": "156", "horodatage": "2022-04-14 15:30:14", "distance (en metres)": 3387.97, "station": "LA DEFENSE", "marker-color": "#818181"}}, {"type": "Feature", "geometry": {"type": "Point", "coordinates": [2.277385, 48.916538]}, "properties": {"numparc": 1988, "etat de la localisation": "autre", "ID BDGEO": "991", "horodatage": "2022-04-14 15:33:04", "distance (en metres)": 3517.36, "station": "VIEUX CHEMIN DE ST DENIS-CENTRE CO.", "marker-color": "#818181"}}, {"type": "Feature", "geometry": {"type": "Point", "coordinates": [2.279864, 48.918472]}, "properties": {"numparc": 1988, "etat de la localisation": "autre", "ID BDGEO": "991", "horodatage": "2022-04-14 15:34:37", "distance (en metres)": 3257.7, "station": "VIEUX CHEMIN DE ST DENIS-CENTRE CO.", "marker-color": "#818181"}}, {"type": "Feature", "geometry": {"type": "Point", "coordinates": [2.28278, 48.920723]}, "properties": {"numparc": 1988, "etat de la localisation": "autre", "ID BDGEO": "991", "horodatage": "2022-04-14 15:37:18", "distance (en metres)": 2958.43, "station": "VIEUX CHEMIN DE ST DENIS-CENTRE CO.", "marker-color": "#818181"}}, {"type": "Feature", "geometry": {"type": "Point", "coordinates": [2.28752, 48.923428]}, "properties": {"numparc": 1988, "etat de la localisation": "autre", "ID BDGEO": "996", "horodatage": "2022-04-14 15:39:26", "distance (en metres)": 1805.28, "station": "GENNEVILLIERS RER#", "marker-color": "#818181"}}, {"type": "Feature", "geometry": {"type": "Point", "coordinates": [2.288362, 48.924072]}, "properties": {"numparc": 1988, "etat de la localisation": "Delocalise", "ID BDGEO": "996", "horodatage": "2022-04-14 15:42:47", "distance (en metres)": 1712.55, "station": "GENNEVILLIERS RER#", "marker-color": "#FF565E"}}, {"type": "Feature", "geometry": {"type": "Point", "coordinates": [2.280889, 48.919613]}, "properties": {"numparc": 1988, "etat de la localisation": "Delocalise", "ID BDGEO": "996", "horodatage": "2022-04-14 15:52:16", "distance (en metres)": 2448.74, "station": "GENNEVILLIERS RER#", "marker-color": "#FF565E"}}, {"type": "Feature", "geometry": {"type": "Point", "coordinates": [2.279827, 48.919918]}, "properties": {"numparc": 1988, "etat de la localisation": "Delocalise", "ID BDGEO": "996", "horodatage": "2022-04-14 15:53:45", "distance (en metres)": 2488.41, "station": "GENNEVILLIERS RER#", "marker-color": "#FF565E"}}, {"type": "Feature", "geometry": {"type": "Point", "coordinates": [2.272083, 48.913681]}, "properties": {"numparc": 1988, "etat de la localisation": "autre", "ID BDGEO": "996", "horodatage": "2022-04-14 15:59:37", "distance (en metres)": 3366.06, "station": "GENNEVILLIERS RER#", "marker-color": "#818181"}}, {"type": "Feature", "geometry": {"type": "Point", "coordinates": [2.271817, 48.9095]}, "properties": {"numparc": 1988, "etat de la localisation": "autre", "ID BDGEO": "186", "horodatage": "2022-04-14 16:02:20", "distance (en metres)": 3103.58, "station": "LA DEFENSE#", "marker-color": "#818181"}}, {"type": "Feature", "geometry": {"type": "Point", "coordinates": [2.271651, 48.909451]}, "properties": {"numparc": 1988, "etat de la localisation": "autre", "ID BDGEO": "186", "horodatage": "2022-04-14 16:02:35", "distance (en metres)": 3090.84, "station": "LA DEFENSE#", "marker-color": "#818181"}}, {"type": "Feature", "geometry": {"type": "Point", "coordinates": [2.265093, 48.907307]}, "properties": {"numparc": 1988, "etat de la localisation": "autre", "ID BDGEO": "186", "horodatage": "2022-04-14 16:04:18", "distance (en metres)": 2577.82, "station": "LA DEFENSE#", "marker-color": "#818181"}}, {"type": "Feature", "geometry": {"type": "Point", "coordinates": [2.261644, 48.906475]}, "properties": {"numparc": 1988, "etat de la localisation": "Deviation programmee", "ID BDGEO": "186", "horodatage": "2022-04-14 16:06:13", "distance (en metres)": 2336.16, "station": "LA DEFENSE#", "marker-color": "#56FF93"}}, {"type": "Feature", "geometry": {"type": "Point", "coordinates": [2.256872, 48.904419]}, "properties": {"numparc": 1988, "etat de la localisation": "Deviation programmee", "ID BDGEO": "186", "horodatage": "2022-04-14 16:10:14", "distance (en metres)": 1934.46, "station": "LA DEFENSE#", "marker-color": "#56FF93"}}, {"type": "Feature", "geometry": {"type": "Point", "coordinates": [2.256015, 48.903477]}, "properties": {"numparc": 1988, "etat de la localisation": "autre", "ID BDGEO": "186", "horodatage": "2022-04-14 16:11:39", "distance (en metres)": 1813.9, "station": "LA DEFENSE#", "marker-color": "#818181"}}, {"type": "Feature", "geometry": {"type": "Point", "coordinates": [2.251943, 48.901779]}, "properties": {"numparc": 1988, "etat de la localisation": "autre", "ID BDGEO": "186", "horodatage": "2022-04-14 16:13:20", "distance (en metres)": 1481.45, "station": "LA DEFENSE#", "marker-color": "#818181"}}, {"type": "Feature", "geometry": {"type": "Point", "coordinates": [2.246668, 48.899998]}, "properties": {"numparc": 1988, "etat de la localisation": "autre", "ID BDGEO": "186", "horodatage": "2022-04-14 16:15:22", "distance (en metres)": 1111.53, "station": "LA DEFENSE#", "marker-color": "#818181"}}, {"type": "Feature", "geometry": {"type": "Point", "coordinates": [2.240196, 48.89724]}, "properties": {"numparc": 1988, "etat de la localisation": "autre", "ID BDGEO": "186", "horodatage": "2022-04-14 16:18:16", "distance (en metres)": 692.78, "station": "LA DEFENSE#", "marker-color": "#818181"}}, {"type": "Feature", "geometry": {"type": "Point", "coordinates": [2.240024, 48.891029]}, "properties": {"station": "LA DEFENSE", "ID BDGEO": "156", "marker-color": "#56B3FF"}}, {"type": "Feature", "geometry": {"type": "Point", "coordinates": [2.319809, 48.931491]}, "properties": {"station": "VIEUX CHEMIN DE ST DENIS-CENTRE CO.", "ID BDGEO": "991", "marker-color": "#56B3FF"}}, {"type": "Feature", "geometry": {"type": "Point", "coordinates": [2.306823, 48.933564]}, "properties": {"station": "GENNEVILLIERS RER#", "ID BDGEO": "996", "marker-color": "#56B3FF"}}, {"type": "Feature", "geometry": {"type": "Point", "coordinates": [2.240011, 48.891011]}, "properties": {"station": "LA DEFENSE#", "ID BDGEO": "186", "marker-color": "#56B3FF"}}]}