{"type": "FeatureCollection", "features": [{"type": "Feature", "geometry": {"type": "Point", "coordinates": [2.219026, 48.785297]}, "properties": {"etat de la localisation": "Mission inconnue", "numparc": 5830, "duree": "", "horodatage": "2021-11-08 05:53:22", "marker-color": "#FF9F56"}}, {"type": "Feature", "geometry": {"type": "Point", "coordinates": [2.219026, 48.785297]}, "properties": {"etat de la localisation": "Mission inconnue", "numparc": 5830, "duree": "", "horodatage": "2021-11-08 05:54:01", "marker-color": "#FF9F56"}}, {"type": "Feature", "geometry": {"type": "Point", "coordinates": [2.406881, 48.850151]}, "properties": {"etat de la localisation": "Mission inconnue", "numparc": 7358, "duree": "", "horodatage": "2021-11-08 08:37:02", "marker-color": "#FF9F56"}}, {"type": "Feature", "geometry": {"type": "Point", "coordinates": [2.440909, 48.844158]}, "properties": {"etat de la localisation": "Mission inconnue", "numparc": 2834, "duree": "", "horodatage": "2021-11-08 10:34:07", "marker-color": "#FF9F56"}}, {"type": "Feature", "geometry": {"type": "Point", "coordinates": [2.409638, 48.853584]}, "properties": {"etat de la localisation": "Hors service", "numparc": 7358, "duree": "", "horodatage": "2021-11-08 12:49:03", "marker-color": "#707070"}}, {"type": "Feature", "geometry": {"type": "Point", "coordinates": [2.442894, 48.772549]}, "properties": {"etat de la localisation": "Hors service", "numparc": 2834, "duree": "", "horodatage": "2021-11-08 13:58:32", "marker-color": "#707070"}}]}