{"type": "FeatureCollection", "features": [{"type": "Feature", "geometry": {"type": "Point", "coordinates": [2.371853, 48.714371]}, "properties": {"etat de la localisation": "Mission inconnue", "numparc": 7445, "duree": "", "horodatage": "2022-06-21 07:15:39", "marker-color": "#FF9F56"}}, {"type": "Feature", "geometry": {"type": "Point", "coordinates": [2.37148, 48.713215]}, "properties": {"etat de la localisation": "Delocalise", "numparc": 7461, "duree": "00:06:58", "horodatage": "2022-06-21 07:36:40", "marker-color": "#FF565E"}}, {"type": "Feature", "geometry": {"type": "Point", "coordinates": [2.353024, 48.700481]}, "properties": {"etat de la localisation": "Delocalise", "numparc": 7461, "duree": "00:01:28", "horodatage": "2022-06-21 07:44:22", "marker-color": "#FF565E"}}, {"type": "Feature", "geometry": {"type": "Point", "coordinates": [2.348505, 48.695766]}, "properties": {"etat de la localisation": "Delocalise", "numparc": 7461, "duree": "00:01:05", "horodatage": "2022-06-21 07:46:19", "marker-color": "#FF565E"}}, {"type": "Feature", "geometry": {"type": "Point", "coordinates": [2.347371, 48.692295]}, "properties": {"etat de la localisation": "Delocalise", "numparc": 7461, "duree": "00:01:05", "horodatage": "2022-06-21 07:48:04", "marker-color": "#FF565E"}}, {"type": "Feature", "geometry": {"type": "Point", "coordinates": [2.352864, 48.689968]}, "properties": {"etat de la localisation": "Delocalise", "numparc": 7461, "duree": "00:00:43", "horodatage": "2022-06-21 07:49:50", "marker-color": "#FF565E"}}, {"type": "Feature", "geometry": {"type": "Point", "coordinates": [2.358183, 48.687328]}, "properties": {"etat de la localisation": "Delocalise", "numparc": 7461, "duree": "00:04:07", "horodatage": "2022-06-21 07:52:15", "marker-color": "#FF565E"}}, {"type": "Feature", "geometry": {"type": "Point", "coordinates": [2.349038, 48.677208]}, "properties": {"etat de la localisation": "Delocalise", "numparc": 7461, "duree": "00:00:53", "horodatage": "2022-06-21 07:57:38", "marker-color": "#FF565E"}}, {"type": "Feature", "geometry": {"type": "Point", "coordinates": [2.344192, 48.680058]}, "properties": {"etat de la localisation": "Delocalise", "numparc": 7461, "duree": "00:01:09", "horodatage": "2022-06-21 07:58:59", "marker-color": "#FF565E"}}, {"type": "Feature", "geometry": {"type": "Point", "coordinates": [2.34105, 48.68169]}, "properties": {"etat de la localisation": "Delocalise", "numparc": 7461, "duree": "00:00:53", "horodatage": "2022-06-21 08:00:43", "marker-color": "#FF565E"}}, {"type": "Feature", "geometry": {"type": "Point", "coordinates": [2.33656, 48.684002]}, "properties": {"etat de la localisation": "Delocalise", "numparc": 7461, "duree": "00:01:53", "horodatage": "2022-06-21 08:02:08", "marker-color": "#FF565E"}}, {"type": "Feature", "geometry": {"type": "Point", "coordinates": [2.331218, 48.685768]}, "properties": {"etat de la localisation": "Delocalise", "numparc": 7461, "duree": "00:00:44", "horodatage": "2022-06-21 08:04:42", "marker-color": "#FF565E"}}, {"type": "Feature", "geometry": {"type": "Point", "coordinates": [2.33207, 48.688656]}, "properties": {"etat de la localisation": "Delocalise", "numparc": 7461, "duree": "00:00:34", "horodatage": "2022-06-21 08:05:48", "marker-color": "#FF565E"}}, {"type": "Feature", "geometry": {"type": "Point", "coordinates": [2.333197, 48.690392]}, "properties": {"etat de la localisation": "Delocalise", "numparc": 7461, "duree": "00:00:36", "horodatage": "2022-06-21 08:12:00", "marker-color": "#FF565E"}}, {"type": "Feature", "geometry": {"type": "Point", "coordinates": [2.331418, 48.688423]}, "properties": {"etat de la localisation": "Delocalise", "numparc": 7461, "duree": "00:01:59", "horodatage": "2022-06-21 08:12:52", "marker-color": "#FF565E"}}, {"type": "Feature", "geometry": {"type": "Point", "coordinates": [2.330855, 48.685894]}, "properties": {"etat de la localisation": "Delocalise", "numparc": 7461, "duree": "00:00:55", "horodatage": "2022-06-21 08:15:13", "marker-color": "#FF565E"}}, {"type": "Feature", "geometry": {"type": "Point", "coordinates": [2.33384, 48.68475]}, "properties": {"etat de la localisation": "Delocalise", "numparc": 7461, "duree": "00:00:00", "horodatage": "2022-06-21 08:17:12", "marker-color": "#FF565E"}}, {"type": "Feature", "geometry": {"type": "Point", "coordinates": [2.335381, 48.684387]}, "properties": {"etat de la localisation": "Delocalise", "numparc": 7461, "duree": "00:00:45", "horodatage": "2022-06-21 08:18:14", "marker-color": "#FF565E"}}, {"type": "Feature", "geometry": {"type": "Point", "coordinates": [2.338786, 48.682796]}, "properties": {"etat de la localisation": "Delocalise", "numparc": 7461, "duree": "00:00:53", "horodatage": "2022-06-21 08:19:22", "marker-color": "#FF565E"}}, {"type": "Feature", "geometry": {"type": "Point", "coordinates": [2.343548, 48.679901]}, "properties": {"etat de la localisation": "Delocalise", "numparc": 7461, "duree": "00:01:40", "horodatage": "2022-06-21 08:21:21", "marker-color": "#FF565E"}}, {"type": "Feature", "geometry": {"type": "Point", "coordinates": [2.349894, 48.676819]}, "properties": {"etat de la localisation": "Delocalise", "numparc": 7461, "duree": "00:01:53", "horodatage": "2022-06-21 08:24:38", "marker-color": "#FF565E"}}, {"type": "Feature", "geometry": {"type": "Point", "coordinates": [2.355675, 48.680645]}, "properties": {"etat de la localisation": "Delocalise", "numparc": 7461, "duree": "00:01:05", "horodatage": "2022-06-21 08:27:57", "marker-color": "#FF565E"}}, {"type": "Feature", "geometry": {"type": "Point", "coordinates": [2.360083, 48.683903]}, "properties": {"etat de la localisation": "Delocalise", "numparc": 7461, "duree": "00:01:09", "horodatage": "2022-06-21 08:30:33", "marker-color": "#FF565E"}}, {"type": "Feature", "geometry": {"type": "Point", "coordinates": [2.356231, 48.688698]}, "properties": {"etat de la localisation": "Delocalise", "numparc": 7461, "duree": "00:01:40", "horodatage": "2022-06-21 08:32:02", "marker-color": "#FF565E"}}, {"type": "Feature", "geometry": {"type": "Point", "coordinates": [2.349863, 48.676868]}, "properties": {"etat de la localisation": "Deviation programmee", "numparc": 7446, "duree": "", "horodatage": "2022-06-21 08:34:16", "marker-color": "#56FF93"}}, {"type": "Feature", "geometry": {"type": "Point", "coordinates": [2.348099, 48.69215]}, "properties": {"etat de la localisation": "Delocalise", "numparc": 7461, "duree": "00:04:34", "horodatage": "2022-06-21 08:34:25", "marker-color": "#FF565E"}}, {"type": "Feature", "geometry": {"type": "Point", "coordinates": [2.357335, 48.688087]}, "properties": {"etat de la localisation": "Deviation programmee", "numparc": 7451, "duree": "", "horodatage": "2022-06-21 08:43:51", "marker-color": "#56FF93"}}, {"type": "Feature", "geometry": {"type": "Point", "coordinates": [2.349856, 48.676865]}, "properties": {"etat de la localisation": "Deviation programmee", "numparc": 7453, "duree": "", "horodatage": "2022-06-21 08:45:47", "marker-color": "#56FF93"}}, {"type": "Feature", "geometry": {"type": "Point", "coordinates": [2.344584, 48.679745]}, "properties": {"etat de la localisation": "Delocalise", "numparc": 7451, "duree": "00:09:25", "horodatage": "2022-06-21 08:48:52", "marker-color": "#FF565E"}}, {"type": "Feature", "geometry": {"type": "Point", "coordinates": [2.373178, 48.714943]}, "properties": {"etat de la localisation": "Delocalise", "numparc": 7461, "duree": "00:24:32", "horodatage": "2022-06-21 08:50:12", "marker-color": "#FF565E"}}, {"type": "Feature", "geometry": {"type": "Point", "coordinates": [2.349836, 48.676865]}, "properties": {"etat de la localisation": "Deviation programmee", "numparc": 7447, "duree": "", "horodatage": "2022-06-21 08:51:39", "marker-color": "#56FF93"}}, {"type": "Feature", "geometry": {"type": "Point", "coordinates": [2.357282, 48.68811]}, "properties": {"etat de la localisation": "Deviation programmee", "numparc": 7444, "duree": "", "horodatage": "2022-06-21 08:55:12", "marker-color": "#56FF93"}}, {"type": "Feature", "geometry": {"type": "Point", "coordinates": [2.357606, 48.687847]}, "properties": {"etat de la localisation": "Hors service", "numparc": 7453, "duree": "", "horodatage": "2022-06-21 08:56:01", "marker-color": "#707070"}}, {"type": "Feature", "geometry": {"type": "Point", "coordinates": [2.344028, 48.680023]}, "properties": {"etat de la localisation": "Delocalise", "numparc": 7444, "duree": "00:10:14", "horodatage": "2022-06-21 09:00:45", "marker-color": "#FF565E"}}, {"type": "Feature", "geometry": {"type": "Point", "coordinates": [2.357625, 48.687851]}, "properties": {"etat de la localisation": "Hors service", "numparc": 7447, "duree": "", "horodatage": "2022-06-21 09:03:00", "marker-color": "#707070"}}, {"type": "Feature", "geometry": {"type": "Point", "coordinates": [2.357341, 48.688175]}, "properties": {"etat de la localisation": "Delocalise", "numparc": 7447, "duree": "00:00:51", "horodatage": "2022-06-21 09:03:18", "marker-color": "#FF565E"}}, {"type": "Feature", "geometry": {"type": "Point", "coordinates": [2.373347, 48.715157]}, "properties": {"etat de la localisation": "Delocalise", "numparc": 7446, "duree": "00:00:35", "horodatage": "2022-06-21 09:05:50", "marker-color": "#FF565E"}}, {"type": "Feature", "geometry": {"type": "Point", "coordinates": [2.372817, 48.714924]}, "properties": {"etat de la localisation": "Mission suivante non connue", "numparc": 7446, "duree": "", "horodatage": "2022-06-21 09:06:25", "marker-color": "#7156FF"}}, {"type": "Feature", "geometry": {"type": "Point", "coordinates": [2.357303, 48.68811]}, "properties": {"etat de la localisation": "Deviation programmee", "numparc": 7445, "duree": "", "horodatage": "2022-06-21 09:10:38", "marker-color": "#56FF93"}}, {"type": "Feature", "geometry": {"type": "Point", "coordinates": [2.372149, 48.71431]}, "properties": {"etat de la localisation": "Mission suivante non connue", "numparc": 7453, "duree": "", "horodatage": "2022-06-21 09:11:38", "marker-color": "#7156FF"}}, {"type": "Feature", "geometry": {"type": "Point", "coordinates": [2.37211, 48.714275]}, "properties": {"etat de la localisation": "Mission suivante non connue", "numparc": 7453, "duree": "", "horodatage": "2022-06-21 09:13:03", "marker-color": "#7156FF"}}, {"type": "Feature", "geometry": {"type": "Point", "coordinates": [2.386893, 48.754162]}, "properties": {"etat de la localisation": "Hors service", "numparc": 7436, "duree": "", "horodatage": "2022-06-21 09:13:23", "marker-color": "#707070"}}, {"type": "Feature", "geometry": {"type": "Point", "coordinates": [2.344082, 48.679981]}, "properties": {"etat de la localisation": "Delocalise", "numparc": 7445, "duree": "00:11:17", "horodatage": "2022-06-21 09:16:54", "marker-color": "#FF565E"}}, {"type": "Feature", "geometry": {"type": "Point", "coordinates": [2.349904, 48.67683]}, "properties": {"etat de la localisation": "Deviation programmee", "numparc": 7451, "duree": "", "horodatage": "2022-06-21 09:22:11", "marker-color": "#56FF93"}}, {"type": "Feature", "geometry": {"type": "Point", "coordinates": [2.335172, 48.691833]}, "properties": {"etat de la localisation": "Delocalise", "numparc": 7444, "duree": "00:29:11", "horodatage": "2022-06-21 09:27:07", "marker-color": "#FF565E"}}, {"type": "Feature", "geometry": {"type": "Point", "coordinates": [2.357281, 48.688076]}, "properties": {"etat de la localisation": "Deviation programmee", "numparc": 7461, "duree": "", "horodatage": "2022-06-21 09:28:15", "marker-color": "#56FF93"}}, {"type": "Feature", "geometry": {"type": "Point", "coordinates": [2.357683, 48.687851]}, "properties": {"etat de la localisation": "Hors service", "numparc": 7451, "duree": "", "horodatage": "2022-06-21 09:30:39", "marker-color": "#707070"}}, {"type": "Feature", "geometry": {"type": "Point", "coordinates": [2.343969, 48.679909]}, "properties": {"etat de la localisation": "Delocalise", "numparc": 7461, "duree": "00:05:33", "horodatage": "2022-06-21 09:32:10", "marker-color": "#FF565E"}}, {"type": "Feature", "geometry": {"type": "Point", "coordinates": [2.386953, 48.754128]}, "properties": {"etat de la localisation": "Hors service", "numparc": 7453, "duree": "", "horodatage": "2022-06-21 09:37:03", "marker-color": "#707070"}}, {"type": "Feature", "geometry": {"type": "Point", "coordinates": [2.387, 48.754242]}, "properties": {"etat de la localisation": "Hors service", "numparc": 7447, "duree": "", "horodatage": "2022-06-21 09:38:19", "marker-color": "#707070"}}, {"type": "Feature", "geometry": {"type": "Point", "coordinates": [2.349859, 48.676846]}, "properties": {"etat de la localisation": "Deviation programmee", "numparc": 7445, "duree": "", "horodatage": "2022-06-21 09:44:01", "marker-color": "#56FF93"}}, {"type": "Feature", "geometry": {"type": "Point", "coordinates": [2.357639, 48.687847]}, "properties": {"etat de la localisation": "Hors service", "numparc": 7445, "duree": "", "horodatage": "2022-06-21 09:52:20", "marker-color": "#707070"}}, {"type": "Feature", "geometry": {"type": "Point", "coordinates": [2.330778, 48.687145]}, "properties": {"etat de la localisation": "Delocalise", "numparc": 7461, "duree": "00:00:19", "horodatage": "2022-06-21 09:53:32", "marker-color": "#FF565E"}}, {"type": "Feature", "geometry": {"type": "Point", "coordinates": [2.349818, 48.676823]}, "properties": {"etat de la localisation": "Deviation programmee", "numparc": 7461, "duree": "", "horodatage": "2022-06-21 10:01:46", "marker-color": "#56FF93"}}, {"type": "Feature", "geometry": {"type": "Point", "coordinates": [2.387175, 48.754097]}, "properties": {"etat de la localisation": "Hors service", "numparc": 7451, "duree": "", "horodatage": "2022-06-21 10:05:38", "marker-color": "#707070"}}, {"type": "Feature", "geometry": {"type": "Point", "coordinates": [2.357981, 48.688145]}, "properties": {"etat de la localisation": "Delocalise", "numparc": 7461, "duree": "00:00:15", "horodatage": "2022-06-21 10:10:12", "marker-color": "#FF565E"}}, {"type": "Feature", "geometry": {"type": "Point", "coordinates": [2.357367, 48.688103]}, "properties": {"etat de la localisation": "Deviation programmee", "numparc": 7446, "duree": "", "horodatage": "2022-06-21 10:18:34", "marker-color": "#56FF93"}}, {"type": "Feature", "geometry": {"type": "Point", "coordinates": [2.349812, 48.676853]}, "properties": {"etat de la localisation": "Deviation programmee", "numparc": 7444, "duree": "", "horodatage": "2022-06-21 10:23:44", "marker-color": "#56FF93"}}, {"type": "Feature", "geometry": {"type": "Point", "coordinates": [2.344042, 48.679993]}, "properties": {"etat de la localisation": "Delocalise", "numparc": 7446, "duree": "00:00:35", "horodatage": "2022-06-21 10:24:03", "marker-color": "#FF565E"}}, {"type": "Feature", "geometry": {"type": "Point", "coordinates": [2.347405, 48.678177]}, "properties": {"etat de la localisation": "Delocalise", "numparc": 7446, "duree": "00:04:35", "horodatage": "2022-06-21 10:25:18", "marker-color": "#FF565E"}}, {"type": "Feature", "geometry": {"type": "Point", "coordinates": [2.38735, 48.753918]}, "properties": {"etat de la localisation": "Hors service", "numparc": 7445, "duree": "", "horodatage": "2022-06-21 10:28:24", "marker-color": "#707070"}}, {"type": "Feature", "geometry": {"type": "Point", "coordinates": [2.357694, 48.68787]}, "properties": {"etat de la localisation": "Hors service", "numparc": 7444, "duree": "", "horodatage": "2022-06-21 10:33:01", "marker-color": "#707070"}}, {"type": "Feature", "geometry": {"type": "Point", "coordinates": [2.38709, 48.753986]}, "properties": {"etat de la localisation": "Hors service", "numparc": 7461, "duree": "", "horodatage": "2022-06-21 10:37:19", "marker-color": "#707070"}}, {"type": "Feature", "geometry": {"type": "Point", "coordinates": [2.349943, 48.676838]}, "properties": {"etat de la localisation": "Deviation programmee", "numparc": 7446, "duree": "", "horodatage": "2022-06-21 10:57:00", "marker-color": "#56FF93"}}, {"type": "Feature", "geometry": {"type": "Point", "coordinates": [2.357738, 48.687866]}, "properties": {"etat de la localisation": "Hors service", "numparc": 7446, "duree": "", "horodatage": "2022-06-21 11:04:15", "marker-color": "#707070"}}, {"type": "Feature", "geometry": {"type": "Point", "coordinates": [2.35728, 48.68811]}, "properties": {"etat de la localisation": "Deviation programmee", "numparc": 7444, "duree": "", "horodatage": "2022-06-21 11:21:31", "marker-color": "#56FF93"}}, {"type": "Feature", "geometry": {"type": "Point", "coordinates": [2.387133, 48.754059]}, "properties": {"etat de la localisation": "Hors service", "numparc": 7445, "duree": "", "horodatage": "2022-06-21 11:24:21", "marker-color": "#707070"}}, {"type": "Feature", "geometry": {"type": "Point", "coordinates": [2.344023, 48.68]}, "properties": {"etat de la localisation": "Delocalise", "numparc": 7444, "duree": "00:07:48", "horodatage": "2022-06-21 11:28:02", "marker-color": "#FF565E"}}, {"type": "Feature", "geometry": {"type": "Point", "coordinates": [2.357372, 48.68811]}, "properties": {"etat de la localisation": "Deviation programmee", "numparc": 7446, "duree": "", "horodatage": "2022-06-21 11:51:31", "marker-color": "#56FF93"}}, {"type": "Feature", "geometry": {"type": "Point", "coordinates": [2.387131, 48.754059]}, "properties": {"etat de la localisation": "Hors service", "numparc": 7445, "duree": "", "horodatage": "2022-06-21 11:52:08", "marker-color": "#707070"}}, {"type": "Feature", "geometry": {"type": "Point", "coordinates": [2.344604, 48.679718]}, "properties": {"etat de la localisation": "Delocalise", "numparc": 7446, "duree": "00:05:49", "horodatage": "2022-06-21 11:57:45", "marker-color": "#FF565E"}}, {"type": "Feature", "geometry": {"type": "Point", "coordinates": [2.349868, 48.676861]}, "properties": {"etat de la localisation": "Deviation programmee", "numparc": 7444, "duree": "", "horodatage": "2022-06-21 11:57:55", "marker-color": "#56FF93"}}, {"type": "Feature", "geometry": {"type": "Point", "coordinates": [2.38709, 48.753986]}, "properties": {"etat de la localisation": "Mission inconnue", "numparc": 7461, "duree": "", "horodatage": "2022-06-21 12:03:02", "marker-color": "#FF9F56"}}, {"type": "Feature", "geometry": {"type": "Point", "coordinates": [2.357625, 48.687851]}, "properties": {"etat de la localisation": "Hors service", "numparc": 7444, "duree": "", "horodatage": "2022-06-21 12:07:31", "marker-color": "#707070"}}, {"type": "Feature", "geometry": {"type": "Point", "coordinates": [2.34984, 48.676872]}, "properties": {"etat de la localisation": "Deviation programmee", "numparc": 7446, "duree": "", "horodatage": "2022-06-21 12:26:46", "marker-color": "#56FF93"}}, {"type": "Feature", "geometry": {"type": "Point", "coordinates": [2.357694, 48.687866]}, "properties": {"etat de la localisation": "Hors service", "numparc": 7446, "duree": "", "horodatage": "2022-06-21 12:34:47", "marker-color": "#707070"}}, {"type": "Feature", "geometry": {"type": "Point", "coordinates": [2.387182, 48.754005]}, "properties": {"etat de la localisation": "Mission inconnue", "numparc": 7445, "duree": "", "horodatage": "2022-06-21 12:36:54", "marker-color": "#FF9F56"}}, {"type": "Feature", "geometry": {"type": "Point", "coordinates": [2.387083, 48.754063]}, "properties": {"etat de la localisation": "Hors service", "numparc": 7445, "duree": "", "horodatage": "2022-06-21 12:39:22", "marker-color": "#707070"}}, {"type": "Feature", "geometry": {"type": "Point", "coordinates": [2.387008, 48.754074]}, "properties": {"etat de la localisation": "Hors service", "numparc": 7444, "duree": "", "horodatage": "2022-06-21 12:42:02", "marker-color": "#707070"}}, {"type": "Feature", "geometry": {"type": "Point", "coordinates": [2.357356, 48.688087]}, "properties": {"etat de la localisation": "Deviation programmee", "numparc": 7461, "duree": "", "horodatage": "2022-06-21 12:45:35", "marker-color": "#56FF93"}}, {"type": "Feature", "geometry": {"type": "Point", "coordinates": [2.344557, 48.679733]}, "properties": {"etat de la localisation": "Delocalise", "numparc": 7461, "duree": "00:04:56", "horodatage": "2022-06-21 12:50:59", "marker-color": "#FF565E"}}, {"type": "Feature", "geometry": {"type": "Point", "coordinates": [2.387175, 48.754097]}, "properties": {"etat de la localisation": "Mission inconnue", "numparc": 7451, "duree": "", "horodatage": "2022-06-21 12:55:24", "marker-color": "#FF9F56"}}, {"type": "Feature", "geometry": {"type": "Point", "coordinates": [2.357303, 48.688137]}, "properties": {"etat de la localisation": "Deviation programmee", "numparc": 7446, "duree": "", "horodatage": "2022-06-21 13:17:29", "marker-color": "#56FF93"}}, {"type": "Feature", "geometry": {"type": "Point", "coordinates": [2.349885, 48.676849]}, "properties": {"etat de la localisation": "Deviation programmee", "numparc": 7461, "duree": "", "horodatage": "2022-06-21 13:20:09", "marker-color": "#56FF93"}}, {"type": "Feature", "geometry": {"type": "Point", "coordinates": [2.346388, 48.678741]}, "properties": {"etat de la localisation": "Delocalise", "numparc": 7446, "duree": "00:05:23", "horodatage": "2022-06-21 13:22:08", "marker-color": "#FF565E"}}, {"type": "Feature", "geometry": {"type": "Point", "coordinates": [2.357676, 48.68787]}, "properties": {"etat de la localisation": "Hors service", "numparc": 7461, "duree": "", "horodatage": "2022-06-21 13:27:32", "marker-color": "#707070"}}, {"type": "Feature", "geometry": {"type": "Point", "coordinates": [2.331017, 48.685947]}, "properties": {"etat de la localisation": "Delocalise", "numparc": 7446, "duree": "00:01:42", "horodatage": "2022-06-21 13:40:05", "marker-color": "#FF565E"}}, {"type": "Feature", "geometry": {"type": "Point", "coordinates": [2.357294, 48.688122]}, "properties": {"etat de la localisation": "Deviation programmee", "numparc": 7451, "duree": "", "horodatage": "2022-06-21 13:43:28", "marker-color": "#56FF93"}}, {"type": "Feature", "geometry": {"type": "Point", "coordinates": [2.344673, 48.679668]}, "properties": {"etat de la localisation": "Delocalise", "numparc": 7451, "duree": "00:06:47", "horodatage": "2022-06-21 13:48:43", "marker-color": "#FF565E"}}, {"type": "Feature", "geometry": {"type": "Point", "coordinates": [2.334124, 48.692436]}, "properties": {"etat de la localisation": "Delocalise", "numparc": 7446, "duree": "00:02:49", "horodatage": "2022-06-21 13:56:13", "marker-color": "#FF565E"}}, {"type": "Feature", "geometry": {"type": "Point", "coordinates": [2.34989, 48.676876]}, "properties": {"etat de la localisation": "Deviation programmee", "numparc": 7446, "duree": "", "horodatage": "2022-06-21 14:11:23", "marker-color": "#56FF93"}}, {"type": "Feature", "geometry": {"type": "Point", "coordinates": [2.357321, 48.688118]}, "properties": {"etat de la localisation": "Deviation programmee", "numparc": 7461, "duree": "", "horodatage": "2022-06-21 14:15:26", "marker-color": "#56FF93"}}, {"type": "Feature", "geometry": {"type": "Point", "coordinates": [2.344101, 48.680031]}, "properties": {"etat de la localisation": "Delocalise", "numparc": 7461, "duree": "00:05:48", "horodatage": "2022-06-21 14:20:24", "marker-color": "#FF565E"}}, {"type": "Feature", "geometry": {"type": "Point", "coordinates": [2.349864, 48.676853]}, "properties": {"etat de la localisation": "Deviation programmee", "numparc": 7451, "duree": "", "horodatage": "2022-06-21 14:23:31", "marker-color": "#56FF93"}}, {"type": "Feature", "geometry": {"type": "Point", "coordinates": [2.349814, 48.676857]}, "properties": {"etat de la localisation": "Deviation programmee", "numparc": 7461, "duree": "", "horodatage": "2022-06-21 15:10:53", "marker-color": "#56FF93"}}, {"type": "Feature", "geometry": {"type": "Point", "coordinates": [2.357309, 48.688133]}, "properties": {"etat de la localisation": "Deviation programmee", "numparc": 7446, "duree": "", "horodatage": "2022-06-21 15:18:16", "marker-color": "#56FF93"}}, {"type": "Feature", "geometry": {"type": "Point", "coordinates": [2.357635, 48.687843]}, "properties": {"etat de la localisation": "Hors service", "numparc": 7461, "duree": "", "horodatage": "2022-06-21 15:20:51", "marker-color": "#707070"}}, {"type": "Feature", "geometry": {"type": "Point", "coordinates": [2.346492, 48.678688]}, "properties": {"etat de la localisation": "Delocalise", "numparc": 7446, "duree": "00:05:48", "horodatage": "2022-06-21 15:23:52", "marker-color": "#FF565E"}}, {"type": "Feature", "geometry": {"type": "Point", "coordinates": [2.357294, 48.688133]}, "properties": {"etat de la localisation": "Deviation programmee", "numparc": 7451, "duree": "", "horodatage": "2022-06-21 15:32:13", "marker-color": "#56FF93"}}, {"type": "Feature", "geometry": {"type": "Point", "coordinates": [2.34464, 48.67968]}, "properties": {"etat de la localisation": "Delocalise", "numparc": 7451, "duree": "00:06:24", "horodatage": "2022-06-21 15:39:55", "marker-color": "#FF565E"}}, {"type": "Feature", "geometry": {"type": "Point", "coordinates": [2.371508, 48.713509]}, "properties": {"etat de la localisation": "Delocalise", "numparc": 7445, "duree": "00:02:40", "horodatage": "2022-06-21 15:51:03", "marker-color": "#FF565E"}}, {"type": "Feature", "geometry": {"type": "Point", "coordinates": [2.362607, 48.713093]}, "properties": {"etat de la localisation": "Delocalise", "numparc": 7445, "duree": "00:01:25", "horodatage": "2022-06-21 15:54:57", "marker-color": "#FF565E"}}, {"type": "Feature", "geometry": {"type": "Point", "coordinates": [2.358588, 48.708839]}, "properties": {"etat de la localisation": "Delocalise", "numparc": 7445, "duree": "00:02:02", "horodatage": "2022-06-21 15:56:53", "marker-color": "#FF565E"}}, {"type": "Feature", "geometry": {"type": "Point", "coordinates": [2.357302, 48.688091]}, "properties": {"etat de la localisation": "Deviation programmee", "numparc": 7447, "duree": "", "horodatage": "2022-06-21 15:56:58", "marker-color": "#56FF93"}}, {"type": "Feature", "geometry": {"type": "Point", "coordinates": [2.353857, 48.704411]}, "properties": {"etat de la localisation": "Delocalise", "numparc": 7445, "duree": "00:01:20", "horodatage": "2022-06-21 16:00:03", "marker-color": "#FF565E"}}, {"type": "Feature", "geometry": {"type": "Point", "coordinates": [2.352968, 48.70052]}, "properties": {"etat de la localisation": "Delocalise", "numparc": 7445, "duree": "00:01:29", "horodatage": "2022-06-21 16:01:50", "marker-color": "#FF565E"}}, {"type": "Feature", "geometry": {"type": "Point", "coordinates": [2.344588, 48.679707]}, "properties": {"etat de la localisation": "Delocalise", "numparc": 7447, "duree": "00:06:48", "horodatage": "2022-06-21 16:02:29", "marker-color": "#FF565E"}}, {"type": "Feature", "geometry": {"type": "Point", "coordinates": [2.348252, 48.695755]}, "properties": {"etat de la localisation": "Delocalise", "numparc": 7445, "duree": "00:01:22", "horodatage": "2022-06-21 16:03:43", "marker-color": "#FF565E"}}, {"type": "Feature", "geometry": {"type": "Point", "coordinates": [2.347234, 48.692387]}, "properties": {"etat de la localisation": "Delocalise", "numparc": 7445, "duree": "00:01:12", "horodatage": "2022-06-21 16:05:35", "marker-color": "#FF565E"}}, {"type": "Feature", "geometry": {"type": "Point", "coordinates": [2.352717, 48.69006]}, "properties": {"etat de la localisation": "Delocalise", "numparc": 7445, "duree": "00:00:36", "horodatage": "2022-06-21 16:07:18", "marker-color": "#FF565E"}}, {"type": "Feature", "geometry": {"type": "Point", "coordinates": [2.358119, 48.687515]}, "properties": {"etat de la localisation": "Delocalise", "numparc": 7445, "duree": "00:05:32", "horodatage": "2022-06-21 16:09:32", "marker-color": "#FF565E"}}, {"type": "Feature", "geometry": {"type": "Point", "coordinates": [2.349812, 48.675739]}, "properties": {"etat de la localisation": "Delocalise", "numparc": 7446, "duree": "00:01:38", "horodatage": "2022-06-21 16:12:42", "marker-color": "#FF565E"}}, {"type": "Feature", "geometry": {"type": "Point", "coordinates": [2.346468, 48.678722]}, "properties": {"etat de la localisation": "Delocalise", "numparc": 7446, "duree": "00:00:15", "horodatage": "2022-06-21 16:15:09", "marker-color": "#FF565E"}}, {"type": "Feature", "geometry": {"type": "Point", "coordinates": [2.354059, 48.679779]}, "properties": {"etat de la localisation": "Delocalise", "numparc": 7445, "duree": "00:01:13", "horodatage": "2022-06-21 16:15:29", "marker-color": "#FF565E"}}, {"type": "Feature", "geometry": {"type": "Point", "coordinates": [2.344205, 48.679962]}, "properties": {"etat de la localisation": "Delocalise", "numparc": 7446, "duree": "00:04:45", "horodatage": "2022-06-21 16:15:52", "marker-color": "#FF565E"}}, {"type": "Feature", "geometry": {"type": "Point", "coordinates": [2.34933, 48.677147]}, "properties": {"etat de la localisation": "Delocalise", "numparc": 7445, "duree": "00:00:00", "horodatage": "2022-06-21 16:18:08", "marker-color": "#FF565E"}}, {"type": "Feature", "geometry": {"type": "Point", "coordinates": [2.344254, 48.680004]}, "properties": {"etat de la localisation": "Delocalise", "numparc": 7445, "duree": "00:03:34", "horodatage": "2022-06-21 16:19:30", "marker-color": "#FF565E"}}, {"type": "Feature", "geometry": {"type": "Point", "coordinates": [2.341078, 48.681721]}, "properties": {"etat de la localisation": "Delocalise", "numparc": 7445, "duree": "00:00:58", "horodatage": "2022-06-21 16:23:40", "marker-color": "#FF565E"}}, {"type": "Feature", "geometry": {"type": "Point", "coordinates": [2.336644, 48.68399]}, "properties": {"etat de la localisation": "Delocalise", "numparc": 7445, "duree": "00:01:06", "horodatage": "2022-06-21 16:24:55", "marker-color": "#FF565E"}}, {"type": "Feature", "geometry": {"type": "Point", "coordinates": [2.331361, 48.685699]}, "properties": {"etat de la localisation": "Delocalise", "numparc": 7445, "duree": "00:01:02", "horodatage": "2022-06-21 16:26:28", "marker-color": "#FF565E"}}, {"type": "Feature", "geometry": {"type": "Point", "coordinates": [2.33202, 48.688492]}, "properties": {"etat de la localisation": "Delocalise", "numparc": 7445, "duree": "00:01:07", "horodatage": "2022-06-21 16:27:48", "marker-color": "#FF565E"}}, {"type": "Feature", "geometry": {"type": "Point", "coordinates": [2.38694, 48.754162]}, "properties": {"etat de la localisation": "Hors service", "numparc": 7451, "duree": "", "horodatage": "2022-06-21 16:28:46", "marker-color": "#707070"}}, {"type": "Feature", "geometry": {"type": "Point", "coordinates": [2.372175, 48.714581]}, "properties": {"etat de la localisation": "Mission suivante non connue", "numparc": 7446, "duree": "", "horodatage": "2022-06-21 16:38:56", "marker-color": "#7156FF"}}, {"type": "Feature", "geometry": {"type": "Point", "coordinates": [2.371877, 48.714355]}, "properties": {"etat de la localisation": "Mission inconnue", "numparc": 7446, "duree": "", "horodatage": "2022-06-21 16:40:34", "marker-color": "#FF9F56"}}, {"type": "Feature", "geometry": {"type": "Point", "coordinates": [2.335168, 48.693668]}, "properties": {"etat de la localisation": "Delocalise", "numparc": 7445, "duree": "00:02:22", "horodatage": "2022-06-21 16:41:48", "marker-color": "#FF565E"}}, {"type": "Feature", "geometry": {"type": "Point", "coordinates": [2.333085, 48.690514]}, "properties": {"etat de la localisation": "Delocalise", "numparc": 7445, "duree": "00:03:14", "horodatage": "2022-06-21 16:45:39", "marker-color": "#FF565E"}}, {"type": "Feature", "geometry": {"type": "Point", "coordinates": [2.333833, 48.684734]}, "properties": {"etat de la localisation": "Delocalise", "numparc": 7445, "duree": "00:00:00", "horodatage": "2022-06-21 16:49:53", "marker-color": "#FF565E"}}, {"type": "Feature", "geometry": {"type": "Point", "coordinates": [2.338701, 48.682888]}, "properties": {"etat de la localisation": "Delocalise", "numparc": 7445, "duree": "00:01:03", "horodatage": "2022-06-21 16:51:24", "marker-color": "#FF565E"}}, {"type": "Feature", "geometry": {"type": "Point", "coordinates": [2.343225, 48.680401]}, "properties": {"etat de la localisation": "Delocalise", "numparc": 7445, "duree": "00:00:39", "horodatage": "2022-06-21 16:53:09", "marker-color": "#FF565E"}}, {"type": "Feature", "geometry": {"type": "Point", "coordinates": [2.346199, 48.678791]}, "properties": {"etat de la localisation": "Delocalise", "numparc": 7445, "duree": "00:00:12", "horodatage": "2022-06-21 16:54:00", "marker-color": "#FF565E"}}, {"type": "Feature", "geometry": {"type": "Point", "coordinates": [2.347154, 48.678299]}, "properties": {"etat de la localisation": "Delocalise", "numparc": 7445, "duree": "00:00:39", "horodatage": "2022-06-21 16:54:47", "marker-color": "#FF565E"}}, {"type": "Feature", "geometry": {"type": "Point", "coordinates": [2.350338, 48.677319]}, "properties": {"etat de la localisation": "Delocalise", "numparc": 7445, "duree": "00:01:36", "horodatage": "2022-06-21 16:58:08", "marker-color": "#FF565E"}}, {"type": "Feature", "geometry": {"type": "Point", "coordinates": [2.356326, 48.681004]}, "properties": {"etat de la localisation": "Delocalise", "numparc": 7445, "duree": "00:01:12", "horodatage": "2022-06-21 17:00:05", "marker-color": "#FF565E"}}, {"type": "Feature", "geometry": {"type": "Point", "coordinates": [2.360129, 48.683899]}, "properties": {"etat de la localisation": "Delocalise", "numparc": 7445, "duree": "00:01:24", "horodatage": "2022-06-21 17:03:00", "marker-color": "#FF565E"}}, {"type": "Feature", "geometry": {"type": "Point", "coordinates": [2.356481, 48.688503]}, "properties": {"etat de la localisation": "Delocalise", "numparc": 7445, "duree": "00:01:42", "horodatage": "2022-06-21 17:04:58", "marker-color": "#FF565E"}}, {"type": "Feature", "geometry": {"type": "Point", "coordinates": [2.349158, 48.691658]}, "properties": {"etat de la localisation": "Delocalise", "numparc": 7445, "duree": "00:01:17", "horodatage": "2022-06-21 17:07:42", "marker-color": "#FF565E"}}, {"type": "Feature", "geometry": {"type": "Point", "coordinates": [2.350312, 48.697792]}, "properties": {"etat de la localisation": "Delocalise", "numparc": 7445, "duree": "00:02:55", "horodatage": "2022-06-21 17:10:37", "marker-color": "#FF565E"}}, {"type": "Feature", "geometry": {"type": "Point", "coordinates": [2.358575, 48.705589]}, "properties": {"etat de la localisation": "Mission inconnue", "numparc": 7446, "duree": "", "horodatage": "2022-06-21 17:40:53", "marker-color": "#FF9F56"}}, {"type": "Feature", "geometry": {"type": "Point", "coordinates": [2.387033, 48.754219]}, "properties": {"etat de la localisation": "Hors service", "numparc": 7446, "duree": "", "horodatage": "2022-06-21 18:04:26", "marker-color": "#707070"}}, {"type": "Feature", "geometry": {"type": "Point", "coordinates": [2.387117, 48.75412]}, "properties": {"etat de la localisation": "Hors service", "numparc": 7444, "duree": "", "horodatage": "2022-06-21 18:20:03", "marker-color": "#707070"}}, {"type": "Feature", "geometry": {"type": "Point", "coordinates": [2.387115, 48.754162]}, "properties": {"etat de la localisation": "Hors service", "numparc": 7461, "duree": "", "horodatage": "2022-06-21 18:53:29", "marker-color": "#707070"}}, {"type": "Feature", "geometry": {"type": "Point", "coordinates": [2.387558, 48.754234]}, "properties": {"etat de la localisation": "Hors service", "numparc": 7447, "duree": "", "horodatage": "2022-06-21 19:48:09", "marker-color": "#707070"}}, {"type": "Feature", "geometry": {"type": "Point", "coordinates": [2.373313, 48.714882]}, "properties": {"etat de la localisation": "Mission suivante non connue", "numparc": 7445, "duree": "", "horodatage": "2022-06-21 21:36:59", "marker-color": "#7156FF"}}, {"type": "Feature", "geometry": {"type": "Point", "coordinates": [2.372782, 48.716202]}, "properties": {"etat de la localisation": "Delocalise", "numparc": 7445, "duree": "00:11:04", "horodatage": "2022-06-21 21:37:17", "marker-color": "#FF565E"}}, {"type": "Feature", "geometry": {"type": "Point", "coordinates": [2.388319, 48.753834]}, "properties": {"etat de la localisation": "Hors service", "numparc": 7445, "duree": "", "horodatage": "2022-06-21 21:48:21", "marker-color": "#707070"}}, {"type": "Feature", "geometry": {"type": "Point", "coordinates": [2.38764, 48.755001]}, "properties": {"etat de la localisation": "Hors service", "numparc": 7453, "duree": "", "horodatage": "2022-06-21 22:01:39", "marker-color": "#707070"}}, {"type": "Feature", "geometry": {"type": "Point", "coordinates": [2.333225, 48.691364]}, "properties": {"etat de la localisation": "Mission suivante non connue", "numparc": 7451, "duree": "", "horodatage": "2022-06-21 22:36:08", "marker-color": "#7156FF"}}, {"type": "Feature", "geometry": {"type": "Point", "coordinates": [2.333225, 48.691364]}, "properties": {"etat de la localisation": "Mission suivante non connue", "numparc": 7451, "duree": "", "horodatage": "2022-06-21 22:36:16", "marker-color": "#7156FF"}}, {"type": "Feature", "geometry": {"type": "Point", "coordinates": [2.333225, 48.691364]}, "properties": {"etat de la localisation": "Mission inconnue", "numparc": 7451, "duree": "", "horodatage": "2022-06-21 22:36:29", "marker-color": "#FF9F56"}}, {"type": "Feature", "geometry": {"type": "Point", "coordinates": [2.332954, 48.691273]}, "properties": {"etat de la localisation": "Mission inconnue", "numparc": 7451, "duree": "", "horodatage": "2022-06-21 22:41:27", "marker-color": "#FF9F56"}}, {"type": "Feature", "geometry": {"type": "Point", "coordinates": [2.372239, 48.71471]}, "properties": {"etat de la localisation": "Mission suivante non connue", "numparc": 7451, "duree": "", "horodatage": "2022-06-21 23:07:55", "marker-color": "#7156FF"}}, {"type": "Feature", "geometry": {"type": "Point", "coordinates": [2.388463, 48.754375]}, "properties": {"etat de la localisation": "Mission inconnue", "numparc": 7445, "duree": "", "horodatage": "2022-06-21 23:23:22", "marker-color": "#FF9F56"}}, {"type": "Feature", "geometry": {"type": "Point", "coordinates": [2.387926, 48.753849]}, "properties": {"etat de la localisation": "Hors service", "numparc": 7445, "duree": "", "horodatage": "2022-06-21 23:31:18", "marker-color": "#707070"}}, {"type": "Feature", "geometry": {"type": "Point", "coordinates": [2.372675, 48.714909]}, "properties": {"etat de la localisation": "Mission inconnue", "numparc": 7451, "duree": "", "horodatage": "2022-06-22 00:16:06", "marker-color": "#FF9F56"}}, {"type": "Feature", "geometry": {"type": "Point", "coordinates": [2.387375, 48.754192]}, "properties": {"etat de la localisation": "Mission inconnue", "numparc": 7445, "duree": "", "horodatage": "2022-06-22 01:11:41", "marker-color": "#FF9F56"}}, {"type": "Feature", "geometry": {"type": "Point", "coordinates": [2.386942, 48.754036]}, "properties": {"etat de la localisation": "Hors service", "numparc": 7451, "duree": "", "horodatage": "2022-06-22 01:51:56", "marker-color": "#707070"}}]}