{"type": "FeatureCollection", "features": [{"type": "Feature", "geometry": {"type": "Point", "coordinates": [2.40758, 48.849876]}, "properties": {"etat de la localisation": "Delocalise", "numparc": 608, "duree": "00:02:33", "horodatage": "2023-04-07 05:35:44", "marker-color": "#FF565E"}}, {"type": "Feature", "geometry": {"type": "Point", "coordinates": [2.406995, 48.849846]}, "properties": {"etat de la localisation": "Delocalise", "numparc": 617, "duree": "00:05:29", "horodatage": "2023-04-07 06:10:16", "marker-color": "#FF565E"}}, {"type": "Feature", "geometry": {"type": "Point", "coordinates": [2.407089, 48.849152]}, "properties": {"etat de la localisation": "Mission inconnue", "numparc": 614, "duree": "", "horodatage": "2023-04-07 06:19:20", "marker-color": "#FF9F56"}}, {"type": "Feature", "geometry": {"type": "Point", "coordinates": [2.407367, 48.849945]}, "properties": {"etat de la localisation": "Delocalise", "numparc": 619, "duree": "00:03:18", "horodatage": "2023-04-07 07:02:29", "marker-color": "#FF565E"}}, {"type": "Feature", "geometry": {"type": "Point", "coordinates": [2.36803, 48.853344]}, "properties": {"etat de la localisation": "Delocalise", "numparc": 608, "duree": "00:04:45", "horodatage": "2023-04-07 09:08:29", "marker-color": "#FF565E"}}, {"type": "Feature", "geometry": {"type": "Point", "coordinates": [2.412139, 48.841087]}, "properties": {"etat de la localisation": "Hors service", "numparc": 619, "duree": "", "horodatage": "2023-04-07 09:34:39", "marker-color": "#707070"}}, {"type": "Feature", "geometry": {"type": "Point", "coordinates": [2.353646, 48.86282]}, "properties": {"etat de la localisation": "Deviation programmee", "numparc": 607, "duree": "", "horodatage": "2023-04-07 10:26:25", "marker-color": "#56FF93"}}, {"type": "Feature", "geometry": {"type": "Point", "coordinates": [2.324903, 48.875256]}, "properties": {"etat de la localisation": "Mission suivante non connue", "numparc": 619, "duree": "", "horodatage": "2023-04-07 10:43:30", "marker-color": "#7156FF"}}, {"type": "Feature", "geometry": {"type": "Point", "coordinates": [2.353621, 48.862926]}, "properties": {"etat de la localisation": "Deviation programmee", "numparc": 619, "duree": "", "horodatage": "2023-04-07 11:26:15", "marker-color": "#56FF93"}}, {"type": "Feature", "geometry": {"type": "Point", "coordinates": [2.353629, 48.862854]}, "properties": {"etat de la localisation": "Deviation programmee", "numparc": 608, "duree": "", "horodatage": "2023-04-07 11:39:56", "marker-color": "#56FF93"}}, {"type": "Feature", "geometry": {"type": "Point", "coordinates": [2.325311, 48.875309]}, "properties": {"etat de la localisation": "Deviation programmee", "numparc": 607, "duree": "", "horodatage": "2023-04-07 12:46:50", "marker-color": "#56FF93"}}, {"type": "Feature", "geometry": {"type": "Point", "coordinates": [2.353627, 48.862919]}, "properties": {"etat de la localisation": "Deviation programmee", "numparc": 617, "duree": "", "horodatage": "2023-04-07 12:54:33", "marker-color": "#56FF93"}}, {"type": "Feature", "geometry": {"type": "Point", "coordinates": [2.353649, 48.862843]}, "properties": {"etat de la localisation": "Deviation programmee", "numparc": 607, "duree": "", "horodatage": "2023-04-07 13:04:01", "marker-color": "#56FF93"}}, {"type": "Feature", "geometry": {"type": "Point", "coordinates": [2.325293, 48.875351]}, "properties": {"etat de la localisation": "Deviation programmee", "numparc": 619, "duree": "", "horodatage": "2023-04-07 13:25:11", "marker-color": "#56FF93"}}, {"type": "Feature", "geometry": {"type": "Point", "coordinates": [2.327831, 48.873325]}, "properties": {"etat de la localisation": "Delocalise", "numparc": 619, "duree": "00:05:30", "horodatage": "2023-04-07 13:28:54", "marker-color": "#FF565E"}}, {"type": "Feature", "geometry": {"type": "Point", "coordinates": [2.353637, 48.862804]}, "properties": {"etat de la localisation": "Deviation programmee", "numparc": 619, "duree": "", "horodatage": "2023-04-07 13:50:27", "marker-color": "#56FF93"}}, {"type": "Feature", "geometry": {"type": "Point", "coordinates": [2.353765, 48.862789]}, "properties": {"etat de la localisation": "Deviation programmee", "numparc": 608, "duree": "", "horodatage": "2023-04-07 14:11:43", "marker-color": "#56FF93"}}, {"type": "Feature", "geometry": {"type": "Point", "coordinates": [2.407074, 48.849239]}, "properties": {"etat de la localisation": "Mission inconnue", "numparc": 615, "duree": "", "horodatage": "2023-04-07 14:25:39", "marker-color": "#FF9F56"}}, {"type": "Feature", "geometry": {"type": "Point", "coordinates": [2.407392, 48.84922]}, "properties": {"etat de la localisation": "Hors service", "numparc": 619, "duree": "", "horodatage": "2023-04-07 15:03:13", "marker-color": "#707070"}}, {"type": "Feature", "geometry": {"type": "Point", "coordinates": [2.353631, 48.862812]}, "properties": {"etat de la localisation": "Deviation programmee", "numparc": 617, "duree": "", "horodatage": "2023-04-07 15:38:12", "marker-color": "#56FF93"}}, {"type": "Feature", "geometry": {"type": "Point", "coordinates": [2.353646, 48.86285]}, "properties": {"etat de la localisation": "Deviation programmee", "numparc": 608, "duree": "", "horodatage": "2023-04-07 16:47:12", "marker-color": "#56FF93"}}, {"type": "Feature", "geometry": {"type": "Point", "coordinates": [2.334373, 48.870514]}, "properties": {"etat de la localisation": "Delocalise", "numparc": 613, "duree": "00:03:01", "horodatage": "2023-04-07 20:14:32", "marker-color": "#FF565E"}}, {"type": "Feature", "geometry": {"type": "Point", "coordinates": [2.407126, 48.849747]}, "properties": {"etat de la localisation": "Hors service", "numparc": 608, "duree": "", "horodatage": "2023-04-07 20:16:51", "marker-color": "#707070"}}, {"type": "Feature", "geometry": {"type": "Point", "coordinates": [2.407516, 48.849426]}, "properties": {"etat de la localisation": "Hors service", "numparc": 614, "duree": "", "horodatage": "2023-04-07 21:20:07", "marker-color": "#707070"}}, {"type": "Feature", "geometry": {"type": "Point", "coordinates": [2.407437, 48.84903]}, "properties": {"etat de la localisation": "Hors service", "numparc": 615, "duree": "", "horodatage": "2023-04-07 22:20:35", "marker-color": "#707070"}}, {"type": "Feature", "geometry": {"type": "Point", "coordinates": [2.328095, 48.873188]}, "properties": {"etat de la localisation": "Delocalise", "numparc": 607, "duree": "00:00:18", "horodatage": "2023-04-07 22:33:17", "marker-color": "#FF565E"}}, {"type": "Feature", "geometry": {"type": "Point", "coordinates": [2.407123, 48.850304]}, "properties": {"etat de la localisation": "Hors service", "numparc": 607, "duree": "", "horodatage": "2023-04-07 22:58:40", "marker-color": "#707070"}}, {"type": "Feature", "geometry": {"type": "Point", "coordinates": [2.407411, 48.850399]}, "properties": {"etat de la localisation": "Hors service", "numparc": 617, "duree": "", "horodatage": "2023-04-07 23:31:51", "marker-color": "#707070"}}]}