{"type": "FeatureCollection", "features": [{"type": "Feature", "geometry": {"type": "Point", "coordinates": [2.660122, 48.842323]}, "properties": {"etat de la localisation": "Delocalise", "numparc": 4989, "duree": "00:12:15", "horodatage": "2022-02-10 05:22:11", "marker-color": "#FF565E"}}, {"type": "Feature", "geometry": {"type": "Point", "coordinates": [2.660639, 48.842297]}, "properties": {"etat de la localisation": "Mission inconnue", "numparc": 5896, "duree": "", "horodatage": "2022-02-10 06:01:31", "marker-color": "#FF9F56"}}, {"type": "Feature", "geometry": {"type": "Point", "coordinates": [2.658871, 48.842224]}, "properties": {"etat de la localisation": "Delocalise", "numparc": 4986, "duree": "00:02:51", "horodatage": "2022-02-10 06:18:16", "marker-color": "#FF565E"}}, {"type": "Feature", "geometry": {"type": "Point", "coordinates": [2.582795, 48.84354]}, "properties": {"etat de la localisation": "Delocalise", "numparc": 4983, "duree": "00:00:11", "horodatage": "2022-02-10 06:18:29", "marker-color": "#FF565E"}}, {"type": "Feature", "geometry": {"type": "Point", "coordinates": [2.582678, 48.843487]}, "properties": {"etat de la localisation": "Delocalise", "numparc": 5896, "duree": "00:00:12", "horodatage": "2022-02-10 07:03:07", "marker-color": "#FF565E"}}, {"type": "Feature", "geometry": {"type": "Point", "coordinates": [2.660757, 48.841984]}, "properties": {"etat de la localisation": "Delocalise", "numparc": 4984, "duree": "00:05:36", "horodatage": "2022-02-10 07:09:00", "marker-color": "#FF565E"}}, {"type": "Feature", "geometry": {"type": "Point", "coordinates": [2.582639, 48.843651]}, "properties": {"etat de la localisation": "Mission suivante non connue", "numparc": 4984, "duree": "", "horodatage": "2022-02-10 07:26:50", "marker-color": "#7156FF"}}, {"type": "Feature", "geometry": {"type": "Point", "coordinates": [2.58267, 48.843456]}, "properties": {"etat de la localisation": "Delocalise", "numparc": 4984, "duree": "00:00:13", "horodatage": "2022-02-10 07:29:28", "marker-color": "#FF565E"}}, {"type": "Feature", "geometry": {"type": "Point", "coordinates": [2.618024, 48.806599]}, "properties": {"etat de la localisation": "Mission suivante non connue", "numparc": 4984, "duree": "", "horodatage": "2022-02-10 07:48:59", "marker-color": "#7156FF"}}, {"type": "Feature", "geometry": {"type": "Point", "coordinates": [2.582882, 48.843517]}, "properties": {"etat de la localisation": "Delocalise", "numparc": 5896, "duree": "00:00:08", "horodatage": "2022-02-10 08:01:19", "marker-color": "#FF565E"}}, {"type": "Feature", "geometry": {"type": "Point", "coordinates": [2.582239, 48.843555]}, "properties": {"etat de la localisation": "Mission suivante non connue", "numparc": 5896, "duree": "", "horodatage": "2022-02-10 08:50:33", "marker-color": "#7156FF"}}, {"type": "Feature", "geometry": {"type": "Point", "coordinates": [2.582998, 48.843586]}, "properties": {"etat de la localisation": "Delocalise", "numparc": 5896, "duree": "00:01:00", "horodatage": "2022-02-10 09:05:43", "marker-color": "#FF565E"}}, {"type": "Feature", "geometry": {"type": "Point", "coordinates": [2.581934, 48.842686]}, "properties": {"etat de la localisation": "Delocalise", "numparc": 4986, "duree": "00:01:26", "horodatage": "2022-02-10 09:25:39", "marker-color": "#FF565E"}}, {"type": "Feature", "geometry": {"type": "Point", "coordinates": [2.660125, 48.842186]}, "properties": {"etat de la localisation": "Hors service", "numparc": 4986, "duree": "", "horodatage": "2022-02-10 09:38:24", "marker-color": "#707070"}}, {"type": "Feature", "geometry": {"type": "Point", "coordinates": [2.65953, 48.842979]}, "properties": {"etat de la localisation": "Hors service", "numparc": 4983, "duree": "", "horodatage": "2022-02-10 10:16:12", "marker-color": "#707070"}}, {"type": "Feature", "geometry": {"type": "Point", "coordinates": [2.58299, 48.843506]}, "properties": {"etat de la localisation": "Delocalise", "numparc": 5896, "duree": "00:00:57", "horodatage": "2022-02-10 11:05:05", "marker-color": "#FF565E"}}, {"type": "Feature", "geometry": {"type": "Point", "coordinates": [2.582706, 48.843533]}, "properties": {"etat de la localisation": "Delocalise", "numparc": 5896, "duree": "00:00:13", "horodatage": "2022-02-10 12:01:45", "marker-color": "#FF565E"}}, {"type": "Feature", "geometry": {"type": "Point", "coordinates": [2.659287, 48.84293]}, "properties": {"etat de la localisation": "Mission inconnue", "numparc": 4983, "duree": "", "horodatage": "2022-02-10 12:14:52", "marker-color": "#FF9F56"}}, {"type": "Feature", "geometry": {"type": "Point", "coordinates": [2.583164, 48.843601]}, "properties": {"etat de la localisation": "Delocalise", "numparc": 5896, "duree": "00:01:50", "horodatage": "2022-02-10 13:05:36", "marker-color": "#FF565E"}}, {"type": "Feature", "geometry": {"type": "Point", "coordinates": [2.588998, 48.831402]}, "properties": {"etat de la localisation": "Delocalise", "numparc": 5896, "duree": "00:00:37", "horodatage": "2022-02-10 13:12:03", "marker-color": "#FF565E"}}, {"type": "Feature", "geometry": {"type": "Point", "coordinates": [2.582716, 48.843548]}, "properties": {"etat de la localisation": "Delocalise", "numparc": 4989, "duree": "00:00:12", "horodatage": "2022-02-10 13:42:06", "marker-color": "#FF565E"}}, {"type": "Feature", "geometry": {"type": "Point", "coordinates": [2.618329, 48.806599]}, "properties": {"etat de la localisation": "Mission suivante non connue", "numparc": 4989, "duree": "", "horodatage": "2022-02-10 14:02:42", "marker-color": "#7156FF"}}, {"type": "Feature", "geometry": {"type": "Point", "coordinates": [2.582837, 48.843475]}, "properties": {"etat de la localisation": "Delocalise", "numparc": 5896, "duree": "00:01:46", "horodatage": "2022-02-10 14:05:12", "marker-color": "#FF565E"}}, {"type": "Feature", "geometry": {"type": "Point", "coordinates": [2.583029, 48.843552]}, "properties": {"etat de la localisation": "Delocalise", "numparc": 5896, "duree": "00:01:24", "horodatage": "2022-02-10 15:05:17", "marker-color": "#FF565E"}}, {"type": "Feature", "geometry": {"type": "Point", "coordinates": [2.582552, 48.843472]}, "properties": {"etat de la localisation": "Delocalise", "numparc": 5896, "duree": "00:00:16", "horodatage": "2022-02-10 16:04:42", "marker-color": "#FF565E"}}, {"type": "Feature", "geometry": {"type": "Point", "coordinates": [2.578133, 48.837322]}, "properties": {"etat de la localisation": "Delocalise", "numparc": 4986, "duree": "00:04:07", "horodatage": "2022-02-10 17:32:56", "marker-color": "#FF565E"}}, {"type": "Feature", "geometry": {"type": "Point", "coordinates": [2.582608, 48.843639]}, "properties": {"etat de la localisation": "Mission inconnue", "numparc": 4989, "duree": "", "horodatage": "2022-02-10 17:39:00", "marker-color": "#FF9F56"}}, {"type": "Feature", "geometry": {"type": "Point", "coordinates": [2.582212, 48.84343]}, "properties": {"etat de la localisation": "Mission inconnue", "numparc": 4979, "duree": "", "horodatage": "2022-02-10 17:52:04", "marker-color": "#FF9F56"}}, {"type": "Feature", "geometry": {"type": "Point", "coordinates": [2.582094, 48.843605]}, "properties": {"etat de la localisation": "Hors service", "numparc": 5896, "duree": "", "horodatage": "2022-02-10 17:54:10", "marker-color": "#707070"}}, {"type": "Feature", "geometry": {"type": "Point", "coordinates": [2.582093, 48.843605]}, "properties": {"etat de la localisation": "Mission inconnue", "numparc": 5896, "duree": "", "horodatage": "2022-02-10 17:54:30", "marker-color": "#FF9F56"}}, {"type": "Feature", "geometry": {"type": "Point", "coordinates": [2.581876, 48.843376]}, "properties": {"etat de la localisation": "Mission inconnue", "numparc": 4982, "duree": "", "horodatage": "2022-02-10 18:03:50", "marker-color": "#FF9F56"}}, {"type": "Feature", "geometry": {"type": "Point", "coordinates": [2.582751, 48.842674]}, "properties": {"etat de la localisation": "Mission inconnue", "numparc": 4986, "duree": "", "horodatage": "2022-02-10 18:18:28", "marker-color": "#FF9F56"}}, {"type": "Feature", "geometry": {"type": "Point", "coordinates": [2.582474, 48.842731]}, "properties": {"etat de la localisation": "Mission inconnue", "numparc": 4987, "duree": "", "horodatage": "2022-02-10 18:32:53", "marker-color": "#FF9F56"}}, {"type": "Feature", "geometry": {"type": "Point", "coordinates": [2.582475, 48.843632]}, "properties": {"etat de la localisation": "Mission inconnue", "numparc": 4978, "duree": "", "horodatage": "2022-02-10 19:20:54", "marker-color": "#FF9F56"}}, {"type": "Feature", "geometry": {"type": "Point", "coordinates": [2.660431, 48.8424]}, "properties": {"etat de la localisation": "Hors service", "numparc": 4979, "duree": "", "horodatage": "2022-02-10 20:08:53", "marker-color": "#707070"}}, {"type": "Feature", "geometry": {"type": "Point", "coordinates": [2.582553, 48.843636]}, "properties": {"etat de la localisation": "Mission inconnue", "numparc": 4982, "duree": "", "horodatage": "2022-02-10 20:49:10", "marker-color": "#FF9F56"}}, {"type": "Feature", "geometry": {"type": "Point", "coordinates": [2.659958, 48.842056]}, "properties": {"etat de la localisation": "Hors service", "numparc": 4983, "duree": "", "horodatage": "2022-02-10 20:49:42", "marker-color": "#707070"}}, {"type": "Feature", "geometry": {"type": "Point", "coordinates": [2.659341, 48.84219]}, "properties": {"etat de la localisation": "Hors service", "numparc": 4986, "duree": "", "horodatage": "2022-02-10 21:04:55", "marker-color": "#707070"}}, {"type": "Feature", "geometry": {"type": "Point", "coordinates": [2.660172, 48.842144]}, "properties": {"etat de la localisation": "Hors service", "numparc": 4991, "duree": "", "horodatage": "2022-02-10 21:13:55", "marker-color": "#707070"}}, {"type": "Feature", "geometry": {"type": "Point", "coordinates": [2.582569, 48.843517]}, "properties": {"etat de la localisation": "Mission inconnue", "numparc": 4982, "duree": "", "horodatage": "2022-02-10 21:47:34", "marker-color": "#FF9F56"}}, {"type": "Feature", "geometry": {"type": "Point", "coordinates": [2.658934, 48.842194]}, "properties": {"etat de la localisation": "Mission inconnue", "numparc": 4986, "duree": "", "horodatage": "2022-02-10 22:07:37", "marker-color": "#FF9F56"}}, {"type": "Feature", "geometry": {"type": "Point", "coordinates": [2.659025, 48.842358]}, "properties": {"etat de la localisation": "Mission inconnue", "numparc": 4986, "duree": "", "horodatage": "2022-02-10 22:11:28", "marker-color": "#FF9F56"}}, {"type": "Feature", "geometry": {"type": "Point", "coordinates": [2.659547, 48.842148]}, "properties": {"etat de la localisation": "Hors service", "numparc": 4986, "duree": "", "horodatage": "2022-02-10 22:20:26", "marker-color": "#707070"}}]}