{"type": "FeatureCollection", "features": [{"type": "Feature", "geometry": {"type": "Point", "coordinates": [2.37332, 48.75251]}, "properties": {"numparc": 5857, "etat de la localisation": "autre", "ID BDGEO": "46", "horodatage": "2023-06-10 07:20:51", "distance (en metres)": 54.09, "station": "LES ALOUETTES-PONT D'ESPAGNE", "marker-color": "#818181"}}, {"type": "Feature", "geometry": {"type": "Point", "coordinates": [2.352891, 48.741848]}, "properties": {"numparc": 5856, "etat de la localisation": "autre", "ID BDGEO": "38", "horodatage": "2023-06-10 07:35:40", "distance (en metres)": 45.36, "station": "LA FRATERNELLE", "marker-color": "#818181"}}, {"type": "Feature", "geometry": {"type": "Point", "coordinates": [2.370894, 48.759304]}, "properties": {"numparc": 5856, "etat de la localisation": "autre", "ID BDGEO": "50", "horodatage": "2023-06-10 07:46:08", "distance (en metres)": 93.03, "station": "BELLE EPINE NORD", "marker-color": "#818181"}}, {"type": "Feature", "geometry": {"type": "Point", "coordinates": [2.357046, 48.746532]}, "properties": {"numparc": 5853, "etat de la localisation": "autre", "ID BDGEO": "41", "horodatage": "2023-06-10 08:36:36", "distance (en metres)": 62.75, "station": "RUE D'ARCUEIL", "marker-color": "#818181"}}, {"type": "Feature", "geometry": {"type": "Point", "coordinates": [2.285798, 48.728527]}, "properties": {"numparc": 5856, "etat de la localisation": "autre", "ID BDGEO": "20", "horodatage": "2023-06-10 09:32:56", "distance (en metres)": 134.0, "station": "MOSCOU-ROME", "marker-color": "#818181"}}, {"type": "Feature", "geometry": {"type": "Point", "coordinates": [2.352918, 48.741791]}, "properties": {"numparc": 5856, "etat de la localisation": "autre", "ID BDGEO": "38", "horodatage": "2023-06-10 10:00:14", "distance (en metres)": 50.37, "station": "LA FRATERNELLE", "marker-color": "#818181"}}, {"type": "Feature", "geometry": {"type": "Point", "coordinates": [2.373305, 48.752514]}, "properties": {"numparc": 5856, "etat de la localisation": "autre", "ID BDGEO": "46", "horodatage": "2023-06-10 10:08:34", "distance (en metres)": 53.0, "station": "LES ALOUETTES-PONT D'ESPAGNE", "marker-color": "#818181"}}, {"type": "Feature", "geometry": {"type": "Point", "coordinates": [2.297843, 48.722343]}, "properties": {"numparc": 5859, "etat de la localisation": "autre", "ID BDGEO": "101", "horodatage": "2023-06-10 10:23:12", "distance (en metres)": 89.82, "station": "CENTRE BUS DE MASSY-SORTIE", "marker-color": "#818181"}}, {"type": "Feature", "geometry": {"type": "Point", "coordinates": [2.297843, 48.722343]}, "properties": {"numparc": 5859, "etat de la localisation": "autre", "ID BDGEO": "101", "horodatage": "2023-06-10 10:24:07", "distance (en metres)": 89.82, "station": "CENTRE BUS DE MASSY-SORTIE", "marker-color": "#818181"}}, {"type": "Feature", "geometry": {"type": "Point", "coordinates": [2.297843, 48.722343]}, "properties": {"numparc": 5859, "etat de la localisation": "autre", "ID BDGEO": "101", "horodatage": "2023-06-10 10:26:45", "distance (en metres)": 89.82, "station": "CENTRE BUS DE MASSY-SORTIE", "marker-color": "#818181"}}, {"type": "Feature", "geometry": {"type": "Point", "coordinates": [2.297479, 48.721184]}, "properties": {"numparc": 5859, "etat de la localisation": "autre", "ID BDGEO": "101", "horodatage": "2023-06-10 10:32:02", "distance (en metres)": 45.19, "station": "CENTRE BUS DE MASSY-SORTIE", "marker-color": "#818181"}}, {"type": "Feature", "geometry": {"type": "Point", "coordinates": [2.297479, 48.721184]}, "properties": {"numparc": 5859, "etat de la localisation": "autre", "ID BDGEO": "101", "horodatage": "2023-06-10 10:34:58", "distance (en metres)": 45.19, "station": "CENTRE BUS DE MASSY-SORTIE", "marker-color": "#818181"}}, {"type": "Feature", "geometry": {"type": "Point", "coordinates": [2.352954, 48.741753]}, "properties": {"numparc": 5853, "etat de la localisation": "autre", "ID BDGEO": "38", "horodatage": "2023-06-10 10:48:43", "distance (en metres)": 53.51, "station": "LA FRATERNELLE", "marker-color": "#818181"}}, {"type": "Feature", "geometry": {"type": "Point", "coordinates": [2.3733, 48.752514]}, "properties": {"numparc": 5859, "etat de la localisation": "autre", "ID BDGEO": "46", "horodatage": "2023-06-10 11:52:15", "distance (en metres)": 52.63, "station": "LES ALOUETTES-PONT D'ESPAGNE", "marker-color": "#818181"}}, {"type": "Feature", "geometry": {"type": "Point", "coordinates": [2.373301, 48.752522]}, "properties": {"numparc": 5856, "etat de la localisation": "autre", "ID BDGEO": "46", "horodatage": "2023-06-10 12:21:39", "distance (en metres)": 52.74, "station": "LES ALOUETTES-PONT D'ESPAGNE", "marker-color": "#818181"}}, {"type": "Feature", "geometry": {"type": "Point", "coordinates": [2.29797, 48.722408]}, "properties": {"numparc": 5853, "etat de la localisation": "autre", "ID BDGEO": "101", "horodatage": "2023-06-10 12:24:39", "distance (en metres)": 100.05, "station": "CENTRE BUS DE MASSY-SORTIE", "marker-color": "#818181"}}, {"type": "Feature", "geometry": {"type": "Point", "coordinates": [2.29797, 48.722404]}, "properties": {"numparc": 5853, "etat de la localisation": "autre", "ID BDGEO": "101", "horodatage": "2023-06-10 12:45:49", "distance (en metres)": 99.67, "station": "CENTRE BUS DE MASSY-SORTIE", "marker-color": "#818181"}}, {"type": "Feature", "geometry": {"type": "Point", "coordinates": [2.373302, 48.75251]}, "properties": {"numparc": 5860, "etat de la localisation": "autre", "ID BDGEO": "46", "horodatage": "2023-06-10 13:58:21", "distance (en metres)": 52.77, "station": "LES ALOUETTES-PONT D'ESPAGNE", "marker-color": "#818181"}}, {"type": "Feature", "geometry": {"type": "Point", "coordinates": [2.352918, 48.741837]}, "properties": {"numparc": 5859, "etat de la localisation": "autre", "ID BDGEO": "38", "horodatage": "2023-06-10 14:23:22", "distance (en metres)": 45.67, "station": "LA FRATERNELLE", "marker-color": "#818181"}}, {"type": "Feature", "geometry": {"type": "Point", "coordinates": [2.373296, 48.752506]}, "properties": {"numparc": 5859, "etat de la localisation": "autre", "ID BDGEO": "46", "horodatage": "2023-06-10 14:32:56", "distance (en metres)": 52.32, "station": "LES ALOUETTES-PONT D'ESPAGNE", "marker-color": "#818181"}}, {"type": "Feature", "geometry": {"type": "Point", "coordinates": [2.352905, 48.741856]}, "properties": {"numparc": 5856, "etat de la localisation": "autre", "ID BDGEO": "38", "horodatage": "2023-06-10 15:12:33", "distance (en metres)": 44.14, "station": "LA FRATERNELLE", "marker-color": "#818181"}}, {"type": "Feature", "geometry": {"type": "Point", "coordinates": [2.259865, 48.724682]}, "properties": {"numparc": 5850, "etat de la localisation": "autre", "ID BDGEO": "9", "horodatage": "2023-06-10 15:18:37", "distance (en metres)": 63.09, "station": "MASSY-PALAISEAU RER", "marker-color": "#818181"}}, {"type": "Feature", "geometry": {"type": "Point", "coordinates": [2.373324, 48.752518]}, "properties": {"numparc": 5856, "etat de la localisation": "autre", "ID BDGEO": "46", "horodatage": "2023-06-10 15:24:21", "distance (en metres)": 54.4, "station": "LES ALOUETTES-PONT D'ESPAGNE", "marker-color": "#818181"}}, {"type": "Feature", "geometry": {"type": "Point", "coordinates": [2.260846, 48.725388]}, "properties": {"numparc": 5860, "etat de la localisation": "autre", "ID BDGEO": "9", "horodatage": "2023-06-10 15:30:47", "distance (en metres)": 43.44, "station": "MASSY-PALAISEAU RER", "marker-color": "#818181"}}, {"type": "Feature", "geometry": {"type": "Point", "coordinates": [2.259841, 48.724648]}, "properties": {"numparc": 5860, "etat de la localisation": "autre", "ID BDGEO": "9", "horodatage": "2023-06-10 15:36:26", "distance (en metres)": 67.14, "station": "MASSY-PALAISEAU RER", "marker-color": "#818181"}}, {"type": "Feature", "geometry": {"type": "Point", "coordinates": [2.373267, 48.75251]}, "properties": {"numparc": 5853, "etat de la localisation": "autre", "ID BDGEO": "46", "horodatage": "2023-06-10 16:00:02", "distance (en metres)": 50.2, "station": "LES ALOUETTES-PONT D'ESPAGNE", "marker-color": "#818181"}}, {"type": "Feature", "geometry": {"type": "Point", "coordinates": [2.358228, 48.763302]}, "properties": {"numparc": 5853, "etat de la localisation": "Delocalise", "ID BDGEO": "1", "horodatage": "2023-06-10 16:09:37", "distance (en metres)": 57.32, "station": "RUNGIS-MARCHE INTERNATIONAL.", "marker-color": "#FF565E"}}, {"type": "Feature", "geometry": {"type": "Point", "coordinates": [2.373317, 48.752514]}, "properties": {"numparc": 5850, "etat de la localisation": "autre", "ID BDGEO": "46", "horodatage": "2023-06-10 16:21:27", "distance (en metres)": 53.88, "station": "LES ALOUETTES-PONT D'ESPAGNE", "marker-color": "#818181"}}, {"type": "Feature", "geometry": {"type": "Point", "coordinates": [2.373262, 48.75251]}, "properties": {"numparc": 5860, "etat de la localisation": "autre", "ID BDGEO": "46", "horodatage": "2023-06-10 16:51:35", "distance (en metres)": 49.83, "station": "LES ALOUETTES-PONT D'ESPAGNE", "marker-color": "#818181"}}, {"type": "Feature", "geometry": {"type": "Point", "coordinates": [2.292453, 48.734436]}, "properties": {"numparc": 5856, "etat de la localisation": "autre", "ID BDGEO": "24", "horodatage": "2023-06-10 17:24:15", "distance (en metres)": 160.78, "station": "BIARRITZ", "marker-color": "#818181"}}, {"type": "Feature", "geometry": {"type": "Point", "coordinates": [2.352953, 48.741783]}, "properties": {"numparc": 5856, "etat de la localisation": "autre", "ID BDGEO": "38", "horodatage": "2023-06-10 17:45:34", "distance (en metres)": 50.3, "station": "LA FRATERNELLE", "marker-color": "#818181"}}, {"type": "Feature", "geometry": {"type": "Point", "coordinates": [2.37323, 48.752495]}, "properties": {"numparc": 5853, "etat de la localisation": "autre", "ID BDGEO": "46", "horodatage": "2023-06-10 18:21:53", "distance (en metres)": 47.48, "station": "LES ALOUETTES-PONT D'ESPAGNE", "marker-color": "#818181"}}, {"type": "Feature", "geometry": {"type": "Point", "coordinates": [2.260768, 48.725418]}, "properties": {"numparc": 5856, "etat de la localisation": "autre", "ID BDGEO": "9", "horodatage": "2023-06-10 19:22:56", "distance (en metres)": 42.3, "station": "MASSY-PALAISEAU RER", "marker-color": "#818181"}}, {"type": "Feature", "geometry": {"type": "Point", "coordinates": [2.286126, 48.733383]}, "properties": {"numparc": 5863, "etat de la localisation": "autre", "ID BDGEO": "142", "horodatage": "2023-06-10 21:29:57", "distance (en metres)": 58.65, "station": "AVENUE SAINT-MARC", "marker-color": "#818181"}}, {"type": "Feature", "geometry": {"type": "Point", "coordinates": [2.372582, 48.7525]}, "properties": {"station": "LES ALOUETTES-PONT D'ESPAGNE", "ID BDGEO": "46", "marker-color": "#56B3FF"}}, {"type": "Feature", "geometry": {"type": "Point", "coordinates": [2.353169, 48.742213]}, "properties": {"station": "LA FRATERNELLE", "ID BDGEO": "38", "marker-color": "#56B3FF"}}, {"type": "Feature", "geometry": {"type": "Point", "coordinates": [2.37052, 48.758505]}, "properties": {"station": "BELLE EPINE NORD", "ID BDGEO": "50", "marker-color": "#56B3FF"}}, {"type": "Feature", "geometry": {"type": "Point", "coordinates": [2.356269, 48.746769]}, "properties": {"station": "RUE D'ARCUEIL", "ID BDGEO": "41", "marker-color": "#56B3FF"}}, {"type": "Feature", "geometry": {"type": "Point", "coordinates": [2.285231, 48.729673]}, "properties": {"station": "MOSCOU-ROME", "ID BDGEO": "20", "marker-color": "#56B3FF"}}, {"type": "Feature", "geometry": {"type": "Point", "coordinates": [2.297411, 48.721588]}, "properties": {"station": "CENTRE BUS DE MASSY-SORTIE", "ID BDGEO": "101", "marker-color": "#56B3FF"}}, {"type": "Feature", "geometry": {"type": "Point", "coordinates": [2.260428, 48.725111]}, "properties": {"station": "MASSY-PALAISEAU RER", "ID BDGEO": "9", "marker-color": "#56B3FF"}}, {"type": "Feature", "geometry": {"type": "Point", "coordinates": [2.358668, 48.762875]}, "properties": {"station": "RUNGIS-MARCHE INTERNATIONAL.", "ID BDGEO": "1", "marker-color": "#56B3FF"}}, {"type": "Feature", "geometry": {"type": "Point", "coordinates": [2.294506, 48.734943]}, "properties": {"station": "BIARRITZ", "ID BDGEO": "24", "marker-color": "#56B3FF"}}, {"type": "Feature", "geometry": {"type": "Point", "coordinates": [2.286328, 48.732873]}, "properties": {"station": "AVENUE SAINT-MARC", "ID BDGEO": "142", "marker-color": "#56B3FF"}}]}