{"type": "FeatureCollection", "features": [{"type": "Feature", "geometry": {"type": "Point", "coordinates": [2.660496, 48.842216]}, "properties": {"etat de la localisation": "Delocalise", "numparc": 5869, "duree": "00:01:16", "horodatage": "2022-02-01 04:43:44", "marker-color": "#FF565E"}}, {"type": "Feature", "geometry": {"type": "Point", "coordinates": [2.551921, 48.84087]}, "properties": {"etat de la localisation": "Delocalise", "numparc": 5869, "duree": "00:00:30", "horodatage": "2022-02-01 04:59:10", "marker-color": "#FF565E"}}, {"type": "Feature", "geometry": {"type": "Point", "coordinates": [2.660652, 48.842262]}, "properties": {"etat de la localisation": "Delocalise", "numparc": 5901, "duree": "00:05:53", "horodatage": "2022-02-01 05:08:33", "marker-color": "#FF565E"}}, {"type": "Feature", "geometry": {"type": "Point", "coordinates": [2.657234, 48.842899]}, "properties": {"etat de la localisation": "Mission inconnue", "numparc": 5901, "duree": "", "horodatage": "2022-02-01 05:15:01", "marker-color": "#FF9F56"}}, {"type": "Feature", "geometry": {"type": "Point", "coordinates": [2.659362, 48.842255]}, "properties": {"etat de la localisation": "Delocalise", "numparc": 5872, "duree": "00:06:43", "horodatage": "2022-02-01 05:19:19", "marker-color": "#FF565E"}}, {"type": "Feature", "geometry": {"type": "Point", "coordinates": [2.582345, 48.78574]}, "properties": {"etat de la localisation": "Mission suivante non connue", "numparc": 5869, "duree": "", "horodatage": "2022-02-01 05:36:21", "marker-color": "#7156FF"}}, {"type": "Feature", "geometry": {"type": "Point", "coordinates": [2.581064, 48.785778]}, "properties": {"etat de la localisation": "Mission suivante non connue", "numparc": 5901, "duree": "", "horodatage": "2022-02-01 05:38:04", "marker-color": "#7156FF"}}, {"type": "Feature", "geometry": {"type": "Point", "coordinates": [2.581064, 48.785778]}, "properties": {"etat de la localisation": "Mission inconnue", "numparc": 5901, "duree": "", "horodatage": "2022-02-01 05:38:21", "marker-color": "#FF9F56"}}, {"type": "Feature", "geometry": {"type": "Point", "coordinates": [2.551768, 48.8409]}, "properties": {"etat de la localisation": "Delocalise", "numparc": 5872, "duree": "00:03:27", "horodatage": "2022-02-01 05:40:36", "marker-color": "#FF565E"}}, {"type": "Feature", "geometry": {"type": "Point", "coordinates": [2.660254, 48.842373]}, "properties": {"etat de la localisation": "Mission inconnue", "numparc": 5888, "duree": "", "horodatage": "2022-02-01 05:41:08", "marker-color": "#FF9F56"}}, {"type": "Feature", "geometry": {"type": "Point", "coordinates": [2.659127, 48.842175]}, "properties": {"etat de la localisation": "Mission inconnue", "numparc": 5888, "duree": "", "horodatage": "2022-02-01 05:42:32", "marker-color": "#FF9F56"}}, {"type": "Feature", "geometry": {"type": "Point", "coordinates": [2.658868, 48.842083]}, "properties": {"etat de la localisation": "Delocalise", "numparc": 5879, "duree": "00:02:11", "horodatage": "2022-02-01 05:48:21", "marker-color": "#FF565E"}}, {"type": "Feature", "geometry": {"type": "Point", "coordinates": [2.573941, 48.78846]}, "properties": {"etat de la localisation": "Delocalise", "numparc": 5869, "duree": "00:01:00", "horodatage": "2022-02-01 05:57:16", "marker-color": "#FF565E"}}, {"type": "Feature", "geometry": {"type": "Point", "coordinates": [2.572765, 48.791626]}, "properties": {"etat de la localisation": "Delocalise", "numparc": 5869, "duree": "00:00:35", "horodatage": "2022-02-01 05:58:53", "marker-color": "#FF565E"}}, {"type": "Feature", "geometry": {"type": "Point", "coordinates": [2.576814, 48.791958]}, "properties": {"etat de la localisation": "Delocalise", "numparc": 5869, "duree": "00:00:18", "horodatage": "2022-02-01 06:00:05", "marker-color": "#FF565E"}}, {"type": "Feature", "geometry": {"type": "Point", "coordinates": [2.551475, 48.840893]}, "properties": {"etat de la localisation": "Delocalise", "numparc": 5879, "duree": "00:04:17", "horodatage": "2022-02-01 06:06:06", "marker-color": "#FF565E"}}, {"type": "Feature", "geometry": {"type": "Point", "coordinates": [2.577538, 48.805866]}, "properties": {"etat de la localisation": "Delocalise", "numparc": 5872, "duree": "00:01:39", "horodatage": "2022-02-01 06:06:31", "marker-color": "#FF565E"}}, {"type": "Feature", "geometry": {"type": "Point", "coordinates": [2.551426, 48.840912]}, "properties": {"etat de la localisation": "Mission suivante non connue", "numparc": 5869, "duree": "", "horodatage": "2022-02-01 06:29:12", "marker-color": "#7156FF"}}, {"type": "Feature", "geometry": {"type": "Point", "coordinates": [2.552484, 48.84063]}, "properties": {"etat de la localisation": "Hors service", "numparc": 5869, "duree": "", "horodatage": "2022-02-01 06:31:07", "marker-color": "#707070"}}, {"type": "Feature", "geometry": {"type": "Point", "coordinates": [2.658102, 48.842968]}, "properties": {"etat de la localisation": "Delocalise", "numparc": 5876, "duree": "00:25:20", "horodatage": "2022-02-01 07:01:30", "marker-color": "#FF565E"}}, {"type": "Feature", "geometry": {"type": "Point", "coordinates": [2.551645, 48.840939]}, "properties": {"etat de la localisation": "Mission suivante non connue", "numparc": 4981, "duree": "", "horodatage": "2022-02-01 07:12:41", "marker-color": "#7156FF"}}, {"type": "Feature", "geometry": {"type": "Point", "coordinates": [2.582344, 48.785824]}, "properties": {"etat de la localisation": "Mission suivante non connue", "numparc": 5869, "duree": "", "horodatage": "2022-02-01 07:12:49", "marker-color": "#7156FF"}}, {"type": "Feature", "geometry": {"type": "Point", "coordinates": [2.55236, 48.840893]}, "properties": {"etat de la localisation": "Delocalise", "numparc": 4981, "duree": "00:08:30", "horodatage": "2022-02-01 07:13:07", "marker-color": "#FF565E"}}, {"type": "Feature", "geometry": {"type": "Point", "coordinates": [2.580835, 48.785767]}, "properties": {"etat de la localisation": "Mission suivante non connue", "numparc": 5869, "duree": "", "horodatage": "2022-02-01 07:15:57", "marker-color": "#7156FF"}}, {"type": "Feature", "geometry": {"type": "Point", "coordinates": [2.544826, 48.833122]}, "properties": {"etat de la localisation": "Delocalise", "numparc": 4981, "duree": "00:00:13", "horodatage": "2022-02-01 07:23:16", "marker-color": "#FF565E"}}, {"type": "Feature", "geometry": {"type": "Point", "coordinates": [2.57324, 48.789795]}, "properties": {"etat de la localisation": "Mission inconnue", "numparc": 5869, "duree": "", "horodatage": "2022-02-01 07:24:21", "marker-color": "#FF9F56"}}, {"type": "Feature", "geometry": {"type": "Point", "coordinates": [2.545456, 48.831959]}, "properties": {"etat de la localisation": "Delocalise", "numparc": 4981, "duree": "00:00:56", "horodatage": "2022-02-01 07:24:42", "marker-color": "#FF565E"}}, {"type": "Feature", "geometry": {"type": "Point", "coordinates": [2.552384, 48.829205]}, "properties": {"etat de la localisation": "Delocalise", "numparc": 4981, "duree": "00:00:21", "horodatage": "2022-02-01 07:26:20", "marker-color": "#FF565E"}}, {"type": "Feature", "geometry": {"type": "Point", "coordinates": [2.552598, 48.827839]}, "properties": {"etat de la localisation": "Delocalise", "numparc": 4981, "duree": "00:01:05", "horodatage": "2022-02-01 07:28:15", "marker-color": "#FF565E"}}, {"type": "Feature", "geometry": {"type": "Point", "coordinates": [2.565137, 48.81427]}, "properties": {"etat de la localisation": "Mission inconnue", "numparc": 5869, "duree": "", "horodatage": "2022-02-01 07:37:30", "marker-color": "#FF9F56"}}, {"type": "Feature", "geometry": {"type": "Point", "coordinates": [2.551539, 48.840992]}, "properties": {"etat de la localisation": "Mission suivante non connue", "numparc": 5869, "duree": "", "horodatage": "2022-02-01 08:01:30", "marker-color": "#7156FF"}}, {"type": "Feature", "geometry": {"type": "Point", "coordinates": [2.552575, 48.840698]}, "properties": {"etat de la localisation": "Delocalise", "numparc": 5869, "duree": "00:00:48", "horodatage": "2022-02-01 08:04:40", "marker-color": "#FF565E"}}, {"type": "Feature", "geometry": {"type": "Point", "coordinates": [2.5823, 48.78587]}, "properties": {"etat de la localisation": "Mission suivante non connue", "numparc": 5879, "duree": "", "horodatage": "2022-02-01 08:24:16", "marker-color": "#7156FF"}}, {"type": "Feature", "geometry": {"type": "Point", "coordinates": [2.581135, 48.785828]}, "properties": {"etat de la localisation": "Mission suivante non connue", "numparc": 5879, "duree": "", "horodatage": "2022-02-01 08:25:12", "marker-color": "#7156FF"}}, {"type": "Feature", "geometry": {"type": "Point", "coordinates": [2.551574, 48.840954]}, "properties": {"etat de la localisation": "Mission suivante non connue", "numparc": 5888, "duree": "", "horodatage": "2022-02-01 08:31:33", "marker-color": "#7156FF"}}, {"type": "Feature", "geometry": {"type": "Point", "coordinates": [2.572692, 48.791622]}, "properties": {"etat de la localisation": "Delocalise", "numparc": 5879, "duree": "00:01:11", "horodatage": "2022-02-01 08:35:35", "marker-color": "#FF565E"}}, {"type": "Feature", "geometry": {"type": "Point", "coordinates": [2.576842, 48.792046]}, "properties": {"etat de la localisation": "Delocalise", "numparc": 5879, "duree": "00:00:17", "horodatage": "2022-02-01 08:37:47", "marker-color": "#FF565E"}}, {"type": "Feature", "geometry": {"type": "Point", "coordinates": [2.578241, 48.791862]}, "properties": {"etat de la localisation": "Delocalise", "numparc": 5879, "duree": "00:01:58", "horodatage": "2022-02-01 08:39:14", "marker-color": "#FF565E"}}, {"type": "Feature", "geometry": {"type": "Point", "coordinates": [2.573135, 48.805637]}, "properties": {"etat de la localisation": "Delocalise", "numparc": 5879, "duree": "00:01:15", "horodatage": "2022-02-01 08:43:32", "marker-color": "#FF565E"}}, {"type": "Feature", "geometry": {"type": "Point", "coordinates": [2.551396, 48.84095]}, "properties": {"etat de la localisation": "Mission suivante non connue", "numparc": 4981, "duree": "", "horodatage": "2022-02-01 08:44:35", "marker-color": "#7156FF"}}, {"type": "Feature", "geometry": {"type": "Point", "coordinates": [2.552269, 48.840885]}, "properties": {"etat de la localisation": "Delocalise", "numparc": 4981, "duree": "00:01:17", "horodatage": "2022-02-01 08:45:03", "marker-color": "#FF565E"}}, {"type": "Feature", "geometry": {"type": "Point", "coordinates": [2.57461, 48.808483]}, "properties": {"etat de la localisation": "Delocalise", "numparc": 5879, "duree": "00:00:41", "horodatage": "2022-02-01 08:45:39", "marker-color": "#FF565E"}}, {"type": "Feature", "geometry": {"type": "Point", "coordinates": [2.570571, 48.810097]}, "properties": {"etat de la localisation": "Delocalise", "numparc": 5879, "duree": "00:00:17", "horodatage": "2022-02-01 08:47:13", "marker-color": "#FF565E"}}, {"type": "Feature", "geometry": {"type": "Point", "coordinates": [2.660072, 48.842045]}, "properties": {"etat de la localisation": "Hors service", "numparc": 5888, "duree": "", "horodatage": "2022-02-01 08:53:03", "marker-color": "#707070"}}, {"type": "Feature", "geometry": {"type": "Point", "coordinates": [2.544752, 48.83308]}, "properties": {"etat de la localisation": "Mission inconnue", "numparc": 5872, "duree": "", "horodatage": "2022-02-01 08:55:37", "marker-color": "#FF9F56"}}, {"type": "Feature", "geometry": {"type": "Point", "coordinates": [2.660726, 48.842133]}, "properties": {"etat de la localisation": "Hors service", "numparc": 4981, "duree": "", "horodatage": "2022-02-01 08:59:56", "marker-color": "#707070"}}, {"type": "Feature", "geometry": {"type": "Point", "coordinates": [2.659565, 48.842945]}, "properties": {"etat de la localisation": "Hors service", "numparc": 5901, "duree": "", "horodatage": "2022-02-01 09:28:21", "marker-color": "#707070"}}, {"type": "Feature", "geometry": {"type": "Point", "coordinates": [2.581788, 48.785751]}, "properties": {"etat de la localisation": "Mission suivante non connue", "numparc": 5872, "duree": "", "horodatage": "2022-02-01 09:31:56", "marker-color": "#7156FF"}}, {"type": "Feature", "geometry": {"type": "Point", "coordinates": [2.551619, 48.840912]}, "properties": {"etat de la localisation": "Mission suivante non connue", "numparc": 5869, "duree": "", "horodatage": "2022-02-01 09:39:32", "marker-color": "#7156FF"}}, {"type": "Feature", "geometry": {"type": "Point", "coordinates": [2.567424, 48.811913]}, "properties": {"etat de la localisation": "Mission inconnue", "numparc": 5872, "duree": "", "horodatage": "2022-02-01 09:43:13", "marker-color": "#FF9F56"}}, {"type": "Feature", "geometry": {"type": "Point", "coordinates": [2.566181, 48.81348]}, "properties": {"etat de la localisation": "Mission inconnue", "numparc": 5872, "duree": "", "horodatage": "2022-02-01 09:44:16", "marker-color": "#FF9F56"}}, {"type": "Feature", "geometry": {"type": "Point", "coordinates": [2.658745, 48.842804]}, "properties": {"etat de la localisation": "Hors service", "numparc": 5878, "duree": "", "horodatage": "2022-02-01 10:11:41", "marker-color": "#707070"}}, {"type": "Feature", "geometry": {"type": "Point", "coordinates": [2.552206, 48.840847]}, "properties": {"etat de la localisation": "Mission inconnue", "numparc": 5872, "duree": "", "horodatage": "2022-02-01 10:14:02", "marker-color": "#FF9F56"}}, {"type": "Feature", "geometry": {"type": "Point", "coordinates": [2.553089, 48.840618]}, "properties": {"etat de la localisation": "Mission inconnue", "numparc": 5872, "duree": "", "horodatage": "2022-02-01 10:14:32", "marker-color": "#FF9F56"}}, {"type": "Feature", "geometry": {"type": "Point", "coordinates": [2.582211, 48.786026]}, "properties": {"etat de la localisation": "Mission suivante non connue", "numparc": 5869, "duree": "", "horodatage": "2022-02-01 10:24:18", "marker-color": "#7156FF"}}, {"type": "Feature", "geometry": {"type": "Point", "coordinates": [2.544052, 48.823956]}, "properties": {"etat de la localisation": "Mission suivante non connue", "numparc": 5869, "duree": "", "horodatage": "2022-02-01 10:57:36", "marker-color": "#7156FF"}}, {"type": "Feature", "geometry": {"type": "Point", "coordinates": [2.568802, 48.80991]}, "properties": {"etat de la localisation": "Mission inconnue", "numparc": 5872, "duree": "", "horodatage": "2022-02-01 11:09:35", "marker-color": "#FF9F56"}}, {"type": "Feature", "geometry": {"type": "Point", "coordinates": [2.551642, 48.840908]}, "properties": {"etat de la localisation": "Mission suivante non connue", "numparc": 5876, "duree": "", "horodatage": "2022-02-01 11:16:13", "marker-color": "#7156FF"}}, {"type": "Feature", "geometry": {"type": "Point", "coordinates": [2.582353, 48.785767]}, "properties": {"etat de la localisation": "Mission suivante non connue", "numparc": 5869, "duree": "", "horodatage": "2022-02-01 11:25:12", "marker-color": "#7156FF"}}, {"type": "Feature", "geometry": {"type": "Point", "coordinates": [2.551637, 48.840912]}, "properties": {"etat de la localisation": "Mission suivante non connue", "numparc": 5869, "duree": "", "horodatage": "2022-02-01 12:08:04", "marker-color": "#7156FF"}}, {"type": "Feature", "geometry": {"type": "Point", "coordinates": [2.582338, 48.785889]}, "properties": {"etat de la localisation": "Mission suivante non connue", "numparc": 5869, "duree": "", "horodatage": "2022-02-01 13:04:38", "marker-color": "#7156FF"}}, {"type": "Feature", "geometry": {"type": "Point", "coordinates": [2.580976, 48.785725]}, "properties": {"etat de la localisation": "Hors service", "numparc": 5869, "duree": "", "horodatage": "2022-02-01 13:06:22", "marker-color": "#707070"}}, {"type": "Feature", "geometry": {"type": "Point", "coordinates": [2.660662, 48.842323]}, "properties": {"etat de la localisation": "Delocalise", "numparc": 5871, "duree": "00:07:05", "horodatage": "2022-02-01 13:36:05", "marker-color": "#FF565E"}}, {"type": "Feature", "geometry": {"type": "Point", "coordinates": [2.551522, 48.841]}, "properties": {"etat de la localisation": "Mission suivante non connue", "numparc": 5869, "duree": "", "horodatage": "2022-02-01 13:48:29", "marker-color": "#7156FF"}}, {"type": "Feature", "geometry": {"type": "Point", "coordinates": [2.552652, 48.840714]}, "properties": {"etat de la localisation": "Delocalise", "numparc": 5869, "duree": "00:00:25", "horodatage": "2022-02-01 13:49:29", "marker-color": "#FF565E"}}, {"type": "Feature", "geometry": {"type": "Point", "coordinates": [2.582319, 48.785816]}, "properties": {"etat de la localisation": "Mission suivante non connue", "numparc": 5872, "duree": "", "horodatage": "2022-02-01 14:07:51", "marker-color": "#7156FF"}}, {"type": "Feature", "geometry": {"type": "Point", "coordinates": [2.582342, 48.785633]}, "properties": {"etat de la localisation": "Mission suivante non connue", "numparc": 5869, "duree": "", "horodatage": "2022-02-01 14:48:01", "marker-color": "#7156FF"}}, {"type": "Feature", "geometry": {"type": "Point", "coordinates": [2.582351, 48.785789]}, "properties": {"etat de la localisation": "Mission suivante non connue", "numparc": 5879, "duree": "", "horodatage": "2022-02-01 15:00:03", "marker-color": "#7156FF"}}, {"type": "Feature", "geometry": {"type": "Point", "coordinates": [2.660732, 48.842064]}, "properties": {"etat de la localisation": "Delocalise", "numparc": 5888, "duree": "00:05:38", "horodatage": "2022-02-01 15:00:20", "marker-color": "#FF565E"}}, {"type": "Feature", "geometry": {"type": "Point", "coordinates": [2.55157, 48.840935]}, "properties": {"etat de la localisation": "Mission suivante non connue", "numparc": 5869, "duree": "", "horodatage": "2022-02-01 15:28:29", "marker-color": "#7156FF"}}, {"type": "Feature", "geometry": {"type": "Point", "coordinates": [2.552706, 48.840614]}, "properties": {"etat de la localisation": "Delocalise", "numparc": 5869, "duree": "00:18:03", "horodatage": "2022-02-01 15:29:26", "marker-color": "#FF565E"}}, {"type": "Feature", "geometry": {"type": "Point", "coordinates": [2.551636, 48.840927]}, "properties": {"etat de la localisation": "Delocalise", "numparc": 5878, "duree": "00:05:13", "horodatage": "2022-02-01 15:34:01", "marker-color": "#FF565E"}}, {"type": "Feature", "geometry": {"type": "Point", "coordinates": [2.66022, 48.841953]}, "properties": {"etat de la localisation": "Delocalise", "numparc": 5901, "duree": "00:02:26", "horodatage": "2022-02-01 16:13:46", "marker-color": "#FF565E"}}, {"type": "Feature", "geometry": {"type": "Point", "coordinates": [2.582399, 48.785816]}, "properties": {"etat de la localisation": "Mission suivante non connue", "numparc": 5869, "duree": "", "horodatage": "2022-02-01 16:27:05", "marker-color": "#7156FF"}}, {"type": "Feature", "geometry": {"type": "Point", "coordinates": [2.577384, 48.805931]}, "properties": {"etat de la localisation": "Delocalise", "numparc": 5879, "duree": "00:01:52", "horodatage": "2022-02-01 16:31:45", "marker-color": "#FF565E"}}, {"type": "Feature", "geometry": {"type": "Point", "coordinates": [2.551617, 48.840919]}, "properties": {"etat de la localisation": "Delocalise", "numparc": 5901, "duree": "00:04:06", "horodatage": "2022-02-01 16:34:32", "marker-color": "#FF565E"}}, {"type": "Feature", "geometry": {"type": "Point", "coordinates": [2.581571, 48.785774]}, "properties": {"etat de la localisation": "Mission suivante non connue", "numparc": 5876, "duree": "", "horodatage": "2022-02-01 16:50:22", "marker-color": "#7156FF"}}, {"type": "Feature", "geometry": {"type": "Point", "coordinates": [2.5824, 48.785767]}, "properties": {"etat de la localisation": "Mission suivante non connue", "numparc": 5871, "duree": "", "horodatage": "2022-02-01 17:06:42", "marker-color": "#7156FF"}}, {"type": "Feature", "geometry": {"type": "Point", "coordinates": [2.551654, 48.840946]}, "properties": {"etat de la localisation": "Mission suivante non connue", "numparc": 5869, "duree": "", "horodatage": "2022-02-01 17:10:08", "marker-color": "#7156FF"}}, {"type": "Feature", "geometry": {"type": "Point", "coordinates": [2.552732, 48.840633]}, "properties": {"etat de la localisation": "Delocalise", "numparc": 5869, "duree": "00:09:53", "horodatage": "2022-02-01 17:10:57", "marker-color": "#FF565E"}}, {"type": "Feature", "geometry": {"type": "Point", "coordinates": [2.659203, 48.842812]}, "properties": {"etat de la localisation": "Hors service", "numparc": 5871, "duree": "", "horodatage": "2022-02-01 17:28:53", "marker-color": "#707070"}}, {"type": "Feature", "geometry": {"type": "Point", "coordinates": [2.551594, 48.840946]}, "properties": {"etat de la localisation": "Mission suivante non connue", "numparc": 5876, "duree": "", "horodatage": "2022-02-01 17:36:22", "marker-color": "#7156FF"}}, {"type": "Feature", "geometry": {"type": "Point", "coordinates": [2.58238, 48.785786]}, "properties": {"etat de la localisation": "Mission suivante non connue", "numparc": 5878, "duree": "", "horodatage": "2022-02-01 17:55:59", "marker-color": "#7156FF"}}, {"type": "Feature", "geometry": {"type": "Point", "coordinates": [2.551548, 48.840984]}, "properties": {"etat de la localisation": "Mission suivante non connue", "numparc": 5869, "duree": "", "horodatage": "2022-02-01 18:49:40", "marker-color": "#7156FF"}}, {"type": "Feature", "geometry": {"type": "Point", "coordinates": [2.552708, 48.840702]}, "properties": {"etat de la localisation": "Delocalise", "numparc": 5869, "duree": "00:05:42", "horodatage": "2022-02-01 18:50:27", "marker-color": "#FF565E"}}, {"type": "Feature", "geometry": {"type": "Point", "coordinates": [2.552636, 48.840675]}, "properties": {"etat de la localisation": "Delocalise", "numparc": 5879, "duree": "00:00:21", "horodatage": "2022-02-01 19:07:59", "marker-color": "#FF565E"}}, {"type": "Feature", "geometry": {"type": "Point", "coordinates": [2.552632, 48.840847]}, "properties": {"etat de la localisation": "Delocalise", "numparc": 5888, "duree": "00:02:45", "horodatage": "2022-02-01 19:31:01", "marker-color": "#FF565E"}}, {"type": "Feature", "geometry": {"type": "Point", "coordinates": [2.58235, 48.785686]}, "properties": {"etat de la localisation": "Mission suivante non connue", "numparc": 5869, "duree": "", "horodatage": "2022-02-01 19:36:41", "marker-color": "#7156FF"}}, {"type": "Feature", "geometry": {"type": "Point", "coordinates": [2.66007, 48.842236]}, "properties": {"etat de la localisation": "Hors service", "numparc": 5888, "duree": "", "horodatage": "2022-02-01 20:35:12", "marker-color": "#707070"}}, {"type": "Feature", "geometry": {"type": "Point", "coordinates": [2.659851, 48.84243]}, "properties": {"etat de la localisation": "Hors service", "numparc": 5872, "duree": "", "horodatage": "2022-02-01 20:52:32", "marker-color": "#707070"}}, {"type": "Feature", "geometry": {"type": "Point", "coordinates": [2.660272, 48.842064]}, "properties": {"etat de la localisation": "Hors service", "numparc": 5901, "duree": "", "horodatage": "2022-02-01 21:17:41", "marker-color": "#707070"}}, {"type": "Feature", "geometry": {"type": "Point", "coordinates": [2.660491, 48.842152]}, "properties": {"etat de la localisation": "Hors service", "numparc": 5878, "duree": "", "horodatage": "2022-02-01 21:20:45", "marker-color": "#707070"}}, {"type": "Feature", "geometry": {"type": "Point", "coordinates": [2.658922, 48.842587]}, "properties": {"etat de la localisation": "Mission inconnue", "numparc": 5872, "duree": "", "horodatage": "2022-02-01 21:34:48", "marker-color": "#FF9F56"}}, {"type": "Feature", "geometry": {"type": "Point", "coordinates": [2.660246, 48.842152]}, "properties": {"etat de la localisation": "Hors service", "numparc": 5879, "duree": "", "horodatage": "2022-02-01 21:44:32", "marker-color": "#707070"}}, {"type": "Feature", "geometry": {"type": "Point", "coordinates": [2.659964, 48.842068]}, "properties": {"etat de la localisation": "Hors service", "numparc": 5872, "duree": "", "horodatage": "2022-02-01 21:46:15", "marker-color": "#707070"}}, {"type": "Feature", "geometry": {"type": "Point", "coordinates": [2.65906, 48.842278]}, "properties": {"etat de la localisation": "Hors service", "numparc": 5869, "duree": "", "horodatage": "2022-02-02 00:52:31", "marker-color": "#707070"}}, {"type": "Feature", "geometry": {"type": "Point", "coordinates": [2.552311, 48.840355]}, "properties": {"etat de la localisation": "Delocalise", "numparc": 5876, "duree": "00:22:28", "horodatage": "2022-02-02 01:06:31", "marker-color": "#FF565E"}}, {"type": "Feature", "geometry": {"type": "Point", "coordinates": [2.659496, 48.843025]}, "properties": {"etat de la localisation": "Hors service", "numparc": 5864, "duree": "", "horodatage": "2022-02-02 01:14:34", "marker-color": "#707070"}}, {"type": "Feature", "geometry": {"type": "Point", "coordinates": [2.658854, 48.842346]}, "properties": {"etat de la localisation": "Hors service", "numparc": 5876, "duree": "", "horodatage": "2022-02-02 01:28:59", "marker-color": "#707070"}}]}