{"type": "FeatureCollection", "features": [{"type": "Feature", "geometry": {"type": "Point", "coordinates": [2.328257, 48.823875]}, "properties": {"numparc": 1464, "etat de la localisation": "autre", "ID BDGEO": "61", "horodatage": "2022-05-04 07:02:42", "distance (en metres)": 88.97, "station": "CENTRE BUS MONTROUGE SORTIE", "marker-color": "#818181"}}, {"type": "Feature", "geometry": {"type": "Point", "coordinates": [2.328901, 48.823818]}, "properties": {"numparc": 1464, "etat de la localisation": "autre", "ID BDGEO": "61", "horodatage": "2022-05-04 07:07:27", "distance (en metres)": 67.37, "station": "CENTRE BUS MONTROUGE SORTIE", "marker-color": "#818181"}}, {"type": "Feature", "geometry": {"type": "Point", "coordinates": [2.330265, 48.823112]}, "properties": {"numparc": 1412, "etat de la localisation": "autre", "ID BDGEO": "61", "horodatage": "2022-05-04 07:56:18", "distance (en metres)": 97.78, "station": "CENTRE BUS MONTROUGE SORTIE", "marker-color": "#818181"}}, {"type": "Feature", "geometry": {"type": "Point", "coordinates": [2.330265, 48.823112]}, "properties": {"numparc": 1412, "etat de la localisation": "autre", "ID BDGEO": "61", "horodatage": "2022-05-04 07:57:57", "distance (en metres)": 97.78, "station": "CENTRE BUS MONTROUGE SORTIE", "marker-color": "#818181"}}, {"type": "Feature", "geometry": {"type": "Point", "coordinates": [2.34393, 48.819576]}, "properties": {"numparc": 1412, "etat de la localisation": "autre", "ID BDGEO": "2", "horodatage": "2022-05-04 08:07:34", "distance (en metres)": 52.34, "station": "STADE CHARLETY-PORTE DE GENTILLY", "marker-color": "#818181"}}, {"type": "Feature", "geometry": {"type": "Point", "coordinates": [2.326405, 48.892746]}, "properties": {"numparc": 1464, "etat de la localisation": "Deviation programmee", "ID BDGEO": "878", "horodatage": "2022-05-04 08:20:24", "distance (en metres)": 71.26, "station": "GUY MOQUET", "marker-color": "#56FF93"}}, {"type": "Feature", "geometry": {"type": "Point", "coordinates": [2.32881, 48.897137]}, "properties": {"numparc": 1464, "etat de la localisation": "autre", "ID BDGEO": "880", "horodatage": "2022-05-04 08:22:33", "distance (en metres)": 94.16, "station": "PTE DE ST-OUEN", "marker-color": "#818181"}}, {"type": "Feature", "geometry": {"type": "Point", "coordinates": [2.329724, 48.899857]}, "properties": {"numparc": 1464, "etat de la localisation": "Delocalise", "ID BDGEO": "859", "horodatage": "2022-05-04 08:25:48", "distance (en metres)": 69.38, "station": "PTE ST-OUEN-HOP BICHAT", "marker-color": "#FF565E"}}, {"type": "Feature", "geometry": {"type": "Point", "coordinates": [2.329724, 48.899857]}, "properties": {"numparc": 1464, "etat de la localisation": "Delocalise", "ID BDGEO": "859", "horodatage": "2022-05-04 08:26:22", "distance (en metres)": 69.38, "station": "PTE ST-OUEN-HOP BICHAT", "marker-color": "#FF565E"}}, {"type": "Feature", "geometry": {"type": "Point", "coordinates": [2.329724, 48.899857]}, "properties": {"numparc": 1464, "etat de la localisation": "Delocalise", "ID BDGEO": "859", "horodatage": "2022-05-04 08:30:00", "distance (en metres)": 69.38, "station": "PTE ST-OUEN-HOP BICHAT", "marker-color": "#FF565E"}}, {"type": "Feature", "geometry": {"type": "Point", "coordinates": [2.328771, 48.897259]}, "properties": {"numparc": 1464, "etat de la localisation": "autre", "ID BDGEO": "860", "horodatage": "2022-05-04 08:36:38", "distance (en metres)": 80.33, "station": "PORTE DE SAINT-OUEN", "marker-color": "#818181"}}, {"type": "Feature", "geometry": {"type": "Point", "coordinates": [2.343776, 48.819592]}, "properties": {"numparc": 1374, "etat de la localisation": "autre", "ID BDGEO": "2", "horodatage": "2022-05-04 08:38:58", "distance (en metres)": 41.01, "station": "STADE CHARLETY-PORTE DE GENTILLY", "marker-color": "#818181"}}, {"type": "Feature", "geometry": {"type": "Point", "coordinates": [2.343776, 48.819592]}, "properties": {"numparc": 1374, "etat de la localisation": "autre", "ID BDGEO": "2", "horodatage": "2022-05-04 08:41:51", "distance (en metres)": 41.01, "station": "STADE CHARLETY-PORTE DE GENTILLY", "marker-color": "#818181"}}, {"type": "Feature", "geometry": {"type": "Point", "coordinates": [2.326545, 48.883114]}, "properties": {"numparc": 1464, "etat de la localisation": "Deviation programmee", "ID BDGEO": "866", "horodatage": "2022-05-04 08:47:30", "distance (en metres)": 47.55, "station": "PLACE DE CLICHY", "marker-color": "#56FF93"}}, {"type": "Feature", "geometry": {"type": "Point", "coordinates": [2.322969, 48.878555]}, "properties": {"numparc": 1464, "etat de la localisation": "Deviation programmee", "ID BDGEO": "868", "horodatage": "2022-05-04 08:50:14", "distance (en metres)": 316.14, "station": "GARE ST-LAZARE-BUDAPEST", "marker-color": "#56FF93"}}, {"type": "Feature", "geometry": {"type": "Point", "coordinates": [2.343901, 48.853008]}, "properties": {"numparc": 1412, "etat de la localisation": "autre", "ID BDGEO": "119", "horodatage": "2022-05-04 08:50:44", "distance (en metres)": 48.63, "station": "SAINT MICHEL-SAINT GERMAIN", "marker-color": "#818181"}}, {"type": "Feature", "geometry": {"type": "Point", "coordinates": [2.323744, 48.876106]}, "properties": {"numparc": 1464, "etat de la localisation": "Deviation programmee", "ID BDGEO": "869", "horodatage": "2022-05-04 08:51:38", "distance (en metres)": 251.73, "station": "GARE ST-LAZARE-HAVRE", "marker-color": "#56FF93"}}, {"type": "Feature", "geometry": {"type": "Point", "coordinates": [2.334997, 48.864033]}, "properties": {"numparc": 1464, "etat de la localisation": "autre", "ID BDGEO": "53", "horodatage": "2022-05-04 09:03:59", "distance (en metres)": 41.11, "station": "PALAIS ROYAL-COMEDIE FRANCAISE", "marker-color": "#818181"}}, {"type": "Feature", "geometry": {"type": "Point", "coordinates": [2.329783, 48.900032]}, "properties": {"numparc": 1412, "etat de la localisation": "autre", "ID BDGEO": "859", "horodatage": "2022-05-04 09:29:07", "distance (en metres)": 89.34, "station": "PTE ST-OUEN-HOP BICHAT", "marker-color": "#818181"}}, {"type": "Feature", "geometry": {"type": "Point", "coordinates": [2.325242, 48.887905]}, "properties": {"numparc": 1374, "etat de la localisation": "Deviation programmee", "ID BDGEO": "876", "horodatage": "2022-05-04 09:35:38", "distance (en metres)": 48.56, "station": "LA FOURCHE", "marker-color": "#56FF93"}}, {"type": "Feature", "geometry": {"type": "Point", "coordinates": [2.343845, 48.819622]}, "properties": {"numparc": 1464, "etat de la localisation": "autre", "ID BDGEO": "2", "horodatage": "2022-05-04 09:42:07", "distance (en metres)": 46.1, "station": "STADE CHARLETY-PORTE DE GENTILLY", "marker-color": "#818181"}}, {"type": "Feature", "geometry": {"type": "Point", "coordinates": [2.329746, 48.899872]}, "properties": {"numparc": 1374, "etat de la localisation": "autre", "ID BDGEO": "859", "horodatage": "2022-05-04 09:45:17", "distance (en metres)": 71.45, "station": "PTE ST-OUEN-HOP BICHAT", "marker-color": "#818181"}}, {"type": "Feature", "geometry": {"type": "Point", "coordinates": [2.329746, 48.899872]}, "properties": {"numparc": 1374, "etat de la localisation": "autre", "ID BDGEO": "859", "horodatage": "2022-05-04 09:48:14", "distance (en metres)": 71.45, "station": "PTE ST-OUEN-HOP BICHAT", "marker-color": "#818181"}}, {"type": "Feature", "geometry": {"type": "Point", "coordinates": [2.328834, 48.897163]}, "properties": {"numparc": 1412, "etat de la localisation": "autre", "ID BDGEO": "860", "horodatage": "2022-05-04 09:53:55", "distance (en metres)": 90.71, "station": "PORTE DE SAINT-OUEN", "marker-color": "#818181"}}, {"type": "Feature", "geometry": {"type": "Point", "coordinates": [2.326848, 48.892963]}, "properties": {"numparc": 1412, "etat de la localisation": "autre", "ID BDGEO": "862", "horodatage": "2022-05-04 09:57:25", "distance (en metres)": 44.68, "station": "GUY MOQUET", "marker-color": "#818181"}}, {"type": "Feature", "geometry": {"type": "Point", "coordinates": [2.320604, 48.89164]}, "properties": {"numparc": 1412, "etat de la localisation": "Delocalise", "ID BDGEO": "863", "horodatage": "2022-05-04 09:59:40", "distance (en metres)": 459.47, "station": "DAVY", "marker-color": "#FF565E"}}, {"type": "Feature", "geometry": {"type": "Point", "coordinates": [2.327961, 48.823681]}, "properties": {"numparc": 1464, "etat de la localisation": "Delocalise", "ID BDGEO": "61", "horodatage": "2022-05-04 10:02:23", "distance (en metres)": 88.47, "station": "CENTRE BUS MONTROUGE SORTIE", "marker-color": "#FF565E"}}, {"type": "Feature", "geometry": {"type": "Point", "coordinates": [2.329477, 48.823326]}, "properties": {"numparc": 1464, "etat de la localisation": "Delocalise", "ID BDGEO": "61", "horodatage": "2022-05-04 10:04:06", "distance (en metres)": 41.42, "station": "CENTRE BUS MONTROUGE SORTIE", "marker-color": "#FF565E"}}, {"type": "Feature", "geometry": {"type": "Point", "coordinates": [2.323785, 48.875896]}, "properties": {"numparc": 1412, "etat de la localisation": "Delocalise", "ID BDGEO": "872", "horodatage": "2022-05-04 10:08:45", "distance (en metres)": 529.75, "station": "TRINITE", "marker-color": "#FF565E"}}, {"type": "Feature", "geometry": {"type": "Point", "coordinates": [2.328786, 48.897198]}, "properties": {"numparc": 1374, "etat de la localisation": "autre", "ID BDGEO": "860", "horodatage": "2022-05-04 10:12:38", "distance (en metres)": 87.04, "station": "PORTE DE SAINT-OUEN", "marker-color": "#818181"}}, {"type": "Feature", "geometry": {"type": "Point", "coordinates": [2.324992, 48.887825]}, "properties": {"numparc": 1374, "etat de la localisation": "Delocalise", "ID BDGEO": "864", "horodatage": "2022-05-04 10:19:12", "distance (en metres)": 54.74, "station": "LA FOURCHE", "marker-color": "#FF565E"}}, {"type": "Feature", "geometry": {"type": "Point", "coordinates": [2.326409, 48.883026]}, "properties": {"numparc": 1374, "etat de la localisation": "Deviation programmee", "ID BDGEO": "866", "horodatage": "2022-05-04 10:22:58", "distance (en metres)": 55.78, "station": "PLACE DE CLICHY", "marker-color": "#56FF93"}}, {"type": "Feature", "geometry": {"type": "Point", "coordinates": [2.324821, 48.881092]}, "properties": {"numparc": 1374, "etat de la localisation": "Deviation programmee", "ID BDGEO": "867", "horodatage": "2022-05-04 10:24:09", "distance (en metres)": 172.56, "station": "LIEGE", "marker-color": "#56FF93"}}, {"type": "Feature", "geometry": {"type": "Point", "coordinates": [2.323771, 48.875828]}, "properties": {"numparc": 1374, "etat de la localisation": "Deviation programmee", "ID BDGEO": "869", "horodatage": "2022-05-04 10:26:29", "distance (en metres)": 235.92, "station": "GARE ST-LAZARE-HAVRE", "marker-color": "#56FF93"}}, {"type": "Feature", "geometry": {"type": "Point", "coordinates": [2.343919, 48.819561]}, "properties": {"numparc": 1412, "etat de la localisation": "autre", "ID BDGEO": "2", "horodatage": "2022-05-04 11:06:04", "distance (en metres)": 51.65, "station": "STADE CHARLETY-PORTE DE GENTILLY", "marker-color": "#818181"}}, {"type": "Feature", "geometry": {"type": "Point", "coordinates": [2.343875, 48.819614]}, "properties": {"numparc": 1374, "etat de la localisation": "autre", "ID BDGEO": "2", "horodatage": "2022-05-04 11:23:58", "distance (en metres)": 48.27, "station": "STADE CHARLETY-PORTE DE GENTILLY", "marker-color": "#818181"}}, {"type": "Feature", "geometry": {"type": "Point", "coordinates": [2.34397, 48.852921]}, "properties": {"numparc": 1412, "etat de la localisation": "autre", "ID BDGEO": "119", "horodatage": "2022-05-04 11:45:45", "distance (en metres)": 56.28, "station": "SAINT MICHEL-SAINT GERMAIN", "marker-color": "#818181"}}, {"type": "Feature", "geometry": {"type": "Point", "coordinates": [2.327692, 48.823997]}, "properties": {"numparc": 1464, "etat de la localisation": "autre", "ID BDGEO": "61", "horodatage": "2022-05-04 12:15:48", "distance (en metres)": 126.23, "station": "CENTRE BUS MONTROUGE SORTIE", "marker-color": "#818181"}}, {"type": "Feature", "geometry": {"type": "Point", "coordinates": [2.327788, 48.882839]}, "properties": {"numparc": 1412, "etat de la localisation": "autre", "ID BDGEO": "866", "horodatage": "2022-05-04 12:18:00", "distance (en metres)": 48.45, "station": "PLACE DE CLICHY", "marker-color": "#818181"}}, {"type": "Feature", "geometry": {"type": "Point", "coordinates": [2.325316, 48.880947]}, "properties": {"numparc": 1412, "etat de la localisation": "Delocalise", "ID BDGEO": "867", "horodatage": "2022-05-04 12:36:47", "distance (en metres)": 133.12, "station": "LIEGE", "marker-color": "#FF565E"}}, {"type": "Feature", "geometry": {"type": "Point", "coordinates": [2.325206, 48.88089]}, "properties": {"numparc": 1412, "etat de la localisation": "Delocalise", "ID BDGEO": "867", "horodatage": "2022-05-04 12:37:26", "distance (en metres)": 139.08, "station": "LIEGE", "marker-color": "#FF565E"}}, {"type": "Feature", "geometry": {"type": "Point", "coordinates": [2.343936, 48.852909]}, "properties": {"numparc": 1464, "etat de la localisation": "autre", "ID BDGEO": "119", "horodatage": "2022-05-04 12:39:31", "distance (en metres)": 58.17, "station": "SAINT MICHEL-SAINT GERMAIN", "marker-color": "#818181"}}, {"type": "Feature", "geometry": {"type": "Point", "coordinates": [2.323667, 48.876122]}, "properties": {"numparc": 1412, "etat de la localisation": "Delocalise", "ID BDGEO": "869", "horodatage": "2022-05-04 12:39:34", "distance (en metres)": 257.46, "station": "GARE ST-LAZARE-HAVRE", "marker-color": "#FF565E"}}, {"type": "Feature", "geometry": {"type": "Point", "coordinates": [2.324638, 48.875237]}, "properties": {"numparc": 1412, "etat de la localisation": "Delocalise", "ID BDGEO": "869", "horodatage": "2022-05-04 12:46:41", "distance (en metres)": 155.28, "station": "GARE ST-LAZARE-HAVRE", "marker-color": "#FF565E"}}, {"type": "Feature", "geometry": {"type": "Point", "coordinates": [2.325039, 48.887821]}, "properties": {"numparc": 1374, "etat de la localisation": "Deviation programmee", "ID BDGEO": "876", "horodatage": "2022-05-04 12:47:56", "distance (en metres)": 66.09, "station": "LA FOURCHE", "marker-color": "#56FF93"}}, {"type": "Feature", "geometry": {"type": "Point", "coordinates": [2.324826, 48.875267]}, "properties": {"numparc": 1412, "etat de la localisation": "Delocalise", "ID BDGEO": "869", "horodatage": "2022-05-04 12:47:57", "distance (en metres)": 142.54, "station": "GARE ST-LAZARE-HAVRE", "marker-color": "#FF565E"}}, {"type": "Feature", "geometry": {"type": "Point", "coordinates": [2.316318, 48.892807]}, "properties": {"numparc": 1374, "etat de la localisation": "Deviation programmee", "ID BDGEO": "877", "horodatage": "2022-05-04 12:51:13", "distance (en metres)": 799.39, "station": "DAVY", "marker-color": "#56FF93"}}, {"type": "Feature", "geometry": {"type": "Point", "coordinates": [2.328481, 48.897522]}, "properties": {"numparc": 1374, "etat de la localisation": "Deviation programmee", "ID BDGEO": "880", "horodatage": "2022-05-04 12:56:19", "distance (en metres)": 68.82, "station": "PTE DE ST-OUEN", "marker-color": "#56FF93"}}, {"type": "Feature", "geometry": {"type": "Point", "coordinates": [2.331218, 48.873264]}, "properties": {"numparc": 1464, "etat de la localisation": "autre", "ID BDGEO": "871", "horodatage": "2022-05-04 12:58:19", "distance (en metres)": 94.96, "station": "HAUSSMANN-MOGADOR", "marker-color": "#818181"}}, {"type": "Feature", "geometry": {"type": "Point", "coordinates": [2.329643, 48.899891]}, "properties": {"numparc": 1374, "etat de la localisation": "autre", "ID BDGEO": "859", "horodatage": "2022-05-04 13:00:13", "distance (en metres)": 71.79, "station": "PTE ST-OUEN-HOP BICHAT", "marker-color": "#818181"}}, {"type": "Feature", "geometry": {"type": "Point", "coordinates": [2.329644, 48.899891]}, "properties": {"numparc": 1374, "etat de la localisation": "autre", "ID BDGEO": "859", "horodatage": "2022-05-04 13:23:18", "distance (en metres)": 71.81, "station": "PTE ST-OUEN-HOP BICHAT", "marker-color": "#818181"}}, {"type": "Feature", "geometry": {"type": "Point", "coordinates": [2.328785, 48.897179]}, "properties": {"numparc": 1374, "etat de la localisation": "autre", "ID BDGEO": "860", "horodatage": "2022-05-04 13:26:50", "distance (en metres)": 89.16, "station": "PORTE DE SAINT-OUEN", "marker-color": "#818181"}}, {"type": "Feature", "geometry": {"type": "Point", "coordinates": [2.328783, 48.897156]}, "properties": {"numparc": 1374, "etat de la localisation": "autre", "ID BDGEO": "860", "horodatage": "2022-05-04 13:27:48", "distance (en metres)": 91.7, "station": "PORTE DE SAINT-OUEN", "marker-color": "#818181"}}, {"type": "Feature", "geometry": {"type": "Point", "coordinates": [2.329845, 48.90004]}, "properties": {"numparc": 1464, "etat de la localisation": "autre", "ID BDGEO": "859", "horodatage": "2022-05-04 13:32:59", "distance (en metres)": 91.41, "station": "PTE ST-OUEN-HOP BICHAT", "marker-color": "#818181"}}, {"type": "Feature", "geometry": {"type": "Point", "coordinates": [2.326472, 48.882992]}, "properties": {"numparc": 1374, "etat de la localisation": "Deviation programmee", "ID BDGEO": "866", "horodatage": "2022-05-04 13:41:19", "distance (en metres)": 51.09, "station": "PLACE DE CLICHY", "marker-color": "#56FF93"}}, {"type": "Feature", "geometry": {"type": "Point", "coordinates": [2.324723, 48.881107]}, "properties": {"numparc": 1374, "etat de la localisation": "Deviation programmee", "ID BDGEO": "867", "horodatage": "2022-05-04 13:42:51", "distance (en metres)": 179.89, "station": "LIEGE", "marker-color": "#56FF93"}}, {"type": "Feature", "geometry": {"type": "Point", "coordinates": [2.322936, 48.878471]}, "properties": {"numparc": 1374, "etat de la localisation": "Deviation programmee", "ID BDGEO": "868", "horodatage": "2022-05-04 13:44:39", "distance (en metres)": 314.58, "station": "GARE ST-LAZARE-BUDAPEST", "marker-color": "#56FF93"}}, {"type": "Feature", "geometry": {"type": "Point", "coordinates": [2.323724, 48.875862]}, "properties": {"numparc": 1374, "etat de la localisation": "Deviation programmee", "ID BDGEO": "869", "horodatage": "2022-05-04 13:47:23", "distance (en metres)": 240.62, "station": "GARE ST-LAZARE-HAVRE", "marker-color": "#56FF93"}}, {"type": "Feature", "geometry": {"type": "Point", "coordinates": [2.328781, 48.897217]}, "properties": {"numparc": 1464, "etat de la localisation": "autre", "ID BDGEO": "860", "horodatage": "2022-05-04 13:51:32", "distance (en metres)": 84.94, "station": "PORTE DE SAINT-OUEN", "marker-color": "#818181"}}, {"type": "Feature", "geometry": {"type": "Point", "coordinates": [2.325742, 48.88834]}, "properties": {"numparc": 1464, "etat de la localisation": "autre", "ID BDGEO": "864", "horodatage": "2022-05-04 13:55:39", "distance (en metres)": 53.47, "station": "LA FOURCHE", "marker-color": "#818181"}}, {"type": "Feature", "geometry": {"type": "Point", "coordinates": [2.326488, 48.883095]}, "properties": {"numparc": 1464, "etat de la localisation": "Deviation programmee", "ID BDGEO": "866", "horodatage": "2022-05-04 13:59:56", "distance (en metres)": 51.08, "station": "PLACE DE CLICHY", "marker-color": "#56FF93"}}, {"type": "Feature", "geometry": {"type": "Point", "coordinates": [2.324893, 48.881115]}, "properties": {"numparc": 1464, "etat de la localisation": "Deviation programmee", "ID BDGEO": "867", "horodatage": "2022-05-04 14:00:54", "distance (en metres)": 168.48, "station": "LIEGE", "marker-color": "#56FF93"}}, {"type": "Feature", "geometry": {"type": "Point", "coordinates": [2.324893, 48.881115]}, "properties": {"numparc": 1464, "etat de la localisation": "Deviation programmee", "ID BDGEO": "867", "horodatage": "2022-05-04 14:01:18", "distance (en metres)": 168.48, "station": "LIEGE", "marker-color": "#56FF93"}}, {"type": "Feature", "geometry": {"type": "Point", "coordinates": [2.326245, 48.875507]}, "properties": {"numparc": 1464, "etat de la localisation": "Deviation programmee", "ID BDGEO": "869", "horodatage": "2022-05-04 14:04:29", "distance (en metres)": 69.06, "station": "GARE ST-LAZARE-HAVRE", "marker-color": "#56FF93"}}, {"type": "Feature", "geometry": {"type": "Point", "coordinates": [2.346411, 48.857491]}, "properties": {"numparc": 1374, "etat de la localisation": "autre", "ID BDGEO": "121", "horodatage": "2022-05-04 14:09:27", "distance (en metres)": 168.6, "station": "RIVOLI-CHATELET", "marker-color": "#818181"}}, {"type": "Feature", "geometry": {"type": "Point", "coordinates": [2.347349, 48.858036]}, "properties": {"numparc": 1374, "etat de la localisation": "autre", "ID BDGEO": "121", "horodatage": "2022-05-04 14:12:57", "distance (en metres)": 112.29, "station": "RIVOLI-CHATELET", "marker-color": "#818181"}}, {"type": "Feature", "geometry": {"type": "Point", "coordinates": [2.347349, 48.858036]}, "properties": {"numparc": 1374, "etat de la localisation": "autre", "ID BDGEO": "121", "horodatage": "2022-05-04 14:15:41", "distance (en metres)": 112.29, "station": "RIVOLI-CHATELET", "marker-color": "#818181"}}, {"type": "Feature", "geometry": {"type": "Point", "coordinates": [2.345997, 48.857414]}, "properties": {"numparc": 1464, "etat de la localisation": "autre", "ID BDGEO": "121", "horodatage": "2022-05-04 14:19:45", "distance (en metres)": 184.46, "station": "RIVOLI-CHATELET", "marker-color": "#818181"}}, {"type": "Feature", "geometry": {"type": "Point", "coordinates": [2.347349, 48.858036]}, "properties": {"numparc": 1374, "etat de la localisation": "autre", "ID BDGEO": "121", "horodatage": "2022-05-04 14:19:59", "distance (en metres)": 112.29, "station": "RIVOLI-CHATELET", "marker-color": "#818181"}}, {"type": "Feature", "geometry": {"type": "Point", "coordinates": [2.347354, 48.858341]}, "properties": {"numparc": 1464, "etat de la localisation": "autre", "ID BDGEO": "121", "horodatage": "2022-05-04 14:22:52", "distance (en metres)": 81.5, "station": "RIVOLI-CHATELET", "marker-color": "#818181"}}, {"type": "Feature", "geometry": {"type": "Point", "coordinates": [2.347354, 48.858341]}, "properties": {"numparc": 1464, "etat de la localisation": "autre", "ID BDGEO": "121", "horodatage": "2022-05-04 14:33:21", "distance (en metres)": 81.5, "station": "RIVOLI-CHATELET", "marker-color": "#818181"}}, {"type": "Feature", "geometry": {"type": "Point", "coordinates": [2.325114, 48.887821]}, "properties": {"numparc": 1374, "etat de la localisation": "Deviation programmee", "ID BDGEO": "876", "horodatage": "2022-05-04 14:56:59", "distance (en metres)": 61.4, "station": "LA FOURCHE", "marker-color": "#56FF93"}}, {"type": "Feature", "geometry": {"type": "Point", "coordinates": [2.325124, 48.887806]}, "properties": {"numparc": 1412, "etat de la localisation": "Deviation programmee", "ID BDGEO": "876", "horodatage": "2022-05-04 15:00:39", "distance (en metres)": 61.73, "station": "LA FOURCHE", "marker-color": "#56FF93"}}, {"type": "Feature", "geometry": {"type": "Point", "coordinates": [2.32776, 48.823143]}, "properties": {"numparc": 1458, "etat de la localisation": "autre", "ID BDGEO": "107", "horodatage": "2022-05-04 15:00:48", "distance (en metres)": 1013.95, "station": "PARC MONTSOURIS", "marker-color": "#818181"}}, {"type": "Feature", "geometry": {"type": "Point", "coordinates": [2.32048, 48.8904]}, "properties": {"numparc": 1412, "etat de la localisation": "Deviation programmee", "ID BDGEO": "877", "horodatage": "2022-05-04 15:03:09", "distance (en metres)": 443.49, "station": "DAVY", "marker-color": "#56FF93"}}, {"type": "Feature", "geometry": {"type": "Point", "coordinates": [2.327676, 48.893452]}, "properties": {"numparc": 1374, "etat de la localisation": "Deviation programmee", "ID BDGEO": "878", "horodatage": "2022-05-04 15:03:44", "distance (en metres)": 73.62, "station": "GUY MOQUET", "marker-color": "#56FF93"}}, {"type": "Feature", "geometry": {"type": "Point", "coordinates": [2.327548, 48.893551]}, "properties": {"numparc": 1412, "etat de la localisation": "Deviation programmee", "ID BDGEO": "878", "horodatage": "2022-05-04 15:07:42", "distance (en metres)": 82.24, "station": "GUY MOQUET", "marker-color": "#56FF93"}}, {"type": "Feature", "geometry": {"type": "Point", "coordinates": [2.329369, 48.879475]}, "properties": {"numparc": 1464, "etat de la localisation": "autre", "ID BDGEO": "873", "horodatage": "2022-05-04 15:07:50", "distance (en metres)": 61.87, "station": "LIEGE", "marker-color": "#818181"}}, {"type": "Feature", "geometry": {"type": "Point", "coordinates": [2.329647, 48.899803]}, "properties": {"numparc": 1374, "etat de la localisation": "autre", "ID BDGEO": "859", "horodatage": "2022-05-04 15:14:12", "distance (en metres)": 62.27, "station": "PTE ST-OUEN-HOP BICHAT", "marker-color": "#818181"}}, {"type": "Feature", "geometry": {"type": "Point", "coordinates": [2.329926, 48.900082]}, "properties": {"numparc": 1412, "etat de la localisation": "Delocalise", "ID BDGEO": "859", "horodatage": "2022-05-04 15:17:05", "distance (en metres)": 97.72, "station": "PTE ST-OUEN-HOP BICHAT", "marker-color": "#FF565E"}}, {"type": "Feature", "geometry": {"type": "Point", "coordinates": [2.329983, 48.900234]}, "properties": {"numparc": 1464, "etat de la localisation": "Delocalise", "ID BDGEO": "859", "horodatage": "2022-05-04 15:22:57", "distance (en metres)": 115.11, "station": "PTE ST-OUEN-HOP BICHAT", "marker-color": "#FF565E"}}, {"type": "Feature", "geometry": {"type": "Point", "coordinates": [2.329983, 48.900234]}, "properties": {"numparc": 1464, "etat de la localisation": "Delocalise", "ID BDGEO": "859", "horodatage": "2022-05-04 15:25:43", "distance (en metres)": 115.11, "station": "PTE ST-OUEN-HOP BICHAT", "marker-color": "#FF565E"}}, {"type": "Feature", "geometry": {"type": "Point", "coordinates": [2.329896, 48.90015]}, "properties": {"numparc": 1464, "etat de la localisation": "Delocalise", "ID BDGEO": "859", "horodatage": "2022-05-04 15:26:54", "distance (en metres)": 104.26, "station": "PTE ST-OUEN-HOP BICHAT", "marker-color": "#FF565E"}}, {"type": "Feature", "geometry": {"type": "Point", "coordinates": [2.329743, 48.899986]}, "properties": {"numparc": 1374, "etat de la localisation": "autre", "ID BDGEO": "859", "horodatage": "2022-05-04 15:30:51", "distance (en metres)": 83.68, "station": "PTE ST-OUEN-HOP BICHAT", "marker-color": "#818181"}}, {"type": "Feature", "geometry": {"type": "Point", "coordinates": [2.329896, 48.90015]}, "properties": {"numparc": 1464, "etat de la localisation": "Delocalise", "ID BDGEO": "859", "horodatage": "2022-05-04 15:30:59", "distance (en metres)": 104.26, "station": "PTE ST-OUEN-HOP BICHAT", "marker-color": "#FF565E"}}, {"type": "Feature", "geometry": {"type": "Point", "coordinates": [2.329798, 48.90007]}, "properties": {"numparc": 1464, "etat de la localisation": "Delocalise", "ID BDGEO": "859", "horodatage": "2022-05-04 15:33:32", "distance (en metres)": 93.72, "station": "PTE ST-OUEN-HOP BICHAT", "marker-color": "#FF565E"}}, {"type": "Feature", "geometry": {"type": "Point", "coordinates": [2.344111, 48.853004]}, "properties": {"numparc": 1458, "etat de la localisation": "autre", "ID BDGEO": "119", "horodatage": "2022-05-04 15:35:35", "distance (en metres)": 45.36, "station": "SAINT MICHEL-SAINT GERMAIN", "marker-color": "#818181"}}, {"type": "Feature", "geometry": {"type": "Point", "coordinates": [2.329743, 48.899986]}, "properties": {"numparc": 1374, "etat de la localisation": "autre", "ID BDGEO": "859", "horodatage": "2022-05-04 15:41:12", "distance (en metres)": 83.68, "station": "PTE ST-OUEN-HOP BICHAT", "marker-color": "#818181"}}, {"type": "Feature", "geometry": {"type": "Point", "coordinates": [2.329798, 48.90007]}, "properties": {"numparc": 1464, "etat de la localisation": "Delocalise", "ID BDGEO": "859", "horodatage": "2022-05-04 15:43:16", "distance (en metres)": 93.72, "station": "PTE ST-OUEN-HOP BICHAT", "marker-color": "#FF565E"}}, {"type": "Feature", "geometry": {"type": "Point", "coordinates": [2.329743, 48.899986]}, "properties": {"numparc": 1374, "etat de la localisation": "autre", "ID BDGEO": "859", "horodatage": "2022-05-04 15:43:40", "distance (en metres)": 83.68, "station": "PTE ST-OUEN-HOP BICHAT", "marker-color": "#818181"}}, {"type": "Feature", "geometry": {"type": "Point", "coordinates": [2.329743, 48.899986]}, "properties": {"numparc": 1374, "etat de la localisation": "autre", "ID BDGEO": "859", "horodatage": "2022-05-04 15:44:15", "distance (en metres)": 83.68, "station": "PTE ST-OUEN-HOP BICHAT", "marker-color": "#818181"}}, {"type": "Feature", "geometry": {"type": "Point", "coordinates": [2.328813, 48.897156]}, "properties": {"numparc": 1374, "etat de la localisation": "autre", "ID BDGEO": "860", "horodatage": "2022-05-04 15:48:51", "distance (en metres)": 91.6, "station": "PORTE DE SAINT-OUEN", "marker-color": "#818181"}}, {"type": "Feature", "geometry": {"type": "Point", "coordinates": [2.33779, 48.861992]}, "properties": {"numparc": 1458, "etat de la localisation": "autre", "ID BDGEO": "124", "horodatage": "2022-05-04 15:54:48", "distance (en metres)": 157.08, "station": "PALAIS ROYAL-MUSEE DU LOUVRE", "marker-color": "#818181"}}, {"type": "Feature", "geometry": {"type": "Point", "coordinates": [2.324776, 48.881111]}, "properties": {"numparc": 1374, "etat de la localisation": "Deviation programmee", "ID BDGEO": "867", "horodatage": "2022-05-04 15:59:52", "distance (en metres)": 176.38, "station": "LIEGE", "marker-color": "#56FF93"}}, {"type": "Feature", "geometry": {"type": "Point", "coordinates": [2.329801, 48.900066]}, "properties": {"numparc": 1464, "etat de la localisation": "autre", "ID BDGEO": "859", "horodatage": "2022-05-04 16:03:31", "distance (en metres)": 93.37, "station": "PTE ST-OUEN-HOP BICHAT", "marker-color": "#818181"}}, {"type": "Feature", "geometry": {"type": "Point", "coordinates": [2.323697, 48.875854]}, "properties": {"numparc": 1374, "etat de la localisation": "Deviation programmee", "ID BDGEO": "869", "horodatage": "2022-05-04 16:03:32", "distance (en metres)": 242.07, "station": "GARE ST-LAZARE-HAVRE", "marker-color": "#56FF93"}}, {"type": "Feature", "geometry": {"type": "Point", "coordinates": [2.326507, 48.882984]}, "properties": {"numparc": 1412, "etat de la localisation": "Deviation programmee", "ID BDGEO": "866", "horodatage": "2022-05-04 16:05:00", "distance (en metres)": 48.54, "station": "PLACE DE CLICHY", "marker-color": "#56FF93"}}, {"type": "Feature", "geometry": {"type": "Point", "coordinates": [2.324856, 48.881111]}, "properties": {"numparc": 1412, "etat de la localisation": "Deviation programmee", "ID BDGEO": "867", "horodatage": "2022-05-04 16:07:02", "distance (en metres)": 170.87, "station": "LIEGE", "marker-color": "#56FF93"}}, {"type": "Feature", "geometry": {"type": "Point", "coordinates": [2.322947, 48.878532]}, "properties": {"numparc": 1412, "etat de la localisation": "Deviation programmee", "ID BDGEO": "868", "horodatage": "2022-05-04 16:08:48", "distance (en metres)": 316.55, "station": "GARE ST-LAZARE-BUDAPEST", "marker-color": "#56FF93"}}, {"type": "Feature", "geometry": {"type": "Point", "coordinates": [2.323789, 48.875927]}, "properties": {"numparc": 1412, "etat de la localisation": "Deviation programmee", "ID BDGEO": "869", "horodatage": "2022-05-04 16:11:08", "distance (en metres)": 239.41, "station": "GARE ST-LAZARE-HAVRE", "marker-color": "#56FF93"}}, {"type": "Feature", "geometry": {"type": "Point", "coordinates": [2.328822, 48.897182]}, "properties": {"numparc": 1464, "etat de la localisation": "autre", "ID BDGEO": "860", "horodatage": "2022-05-04 16:16:29", "distance (en metres)": 88.61, "station": "PORTE DE SAINT-OUEN", "marker-color": "#818181"}}, {"type": "Feature", "geometry": {"type": "Point", "coordinates": [2.325126, 48.887825]}, "properties": {"numparc": 1458, "etat de la localisation": "Deviation programmee", "ID BDGEO": "876", "horodatage": "2022-05-04 16:17:14", "distance (en metres)": 60.44, "station": "LA FOURCHE", "marker-color": "#56FF93"}}, {"type": "Feature", "geometry": {"type": "Point", "coordinates": [2.326487, 48.883018]}, "properties": {"numparc": 1464, "etat de la localisation": "Deviation programmee", "ID BDGEO": "866", "horodatage": "2022-05-04 16:25:53", "distance (en metres)": 50.04, "station": "PLACE DE CLICHY", "marker-color": "#56FF93"}}, {"type": "Feature", "geometry": {"type": "Point", "coordinates": [2.322939, 48.878574]}, "properties": {"numparc": 1464, "etat de la localisation": "Deviation programmee", "ID BDGEO": "868", "horodatage": "2022-05-04 16:27:35", "distance (en metres)": 319.02, "station": "GARE ST-LAZARE-BUDAPEST", "marker-color": "#56FF93"}}, {"type": "Feature", "geometry": {"type": "Point", "coordinates": [2.323748, 48.875885]}, "properties": {"numparc": 1464, "etat de la localisation": "Deviation programmee", "ID BDGEO": "869", "horodatage": "2022-05-04 16:28:28", "distance (en metres)": 240.07, "station": "GARE ST-LAZARE-HAVRE", "marker-color": "#56FF93"}}, {"type": "Feature", "geometry": {"type": "Point", "coordinates": [2.329788, 48.900059]}, "properties": {"numparc": 1458, "etat de la localisation": "autre", "ID BDGEO": "859", "horodatage": "2022-05-04 16:31:19", "distance (en metres)": 92.3, "station": "PTE ST-OUEN-HOP BICHAT", "marker-color": "#818181"}}, {"type": "Feature", "geometry": {"type": "Point", "coordinates": [2.330211, 48.872017]}, "properties": {"numparc": 1464, "etat de la localisation": "autre", "ID BDGEO": "82", "horodatage": "2022-05-04 16:37:42", "distance (en metres)": 74.09, "station": "AUBER", "marker-color": "#818181"}}, {"type": "Feature", "geometry": {"type": "Point", "coordinates": [2.328783, 48.897144]}, "properties": {"numparc": 1458, "etat de la localisation": "autre", "ID BDGEO": "860", "horodatage": "2022-05-04 16:52:20", "distance (en metres)": 92.97, "station": "PORTE DE SAINT-OUEN", "marker-color": "#818181"}}, {"type": "Feature", "geometry": {"type": "Point", "coordinates": [2.346447, 48.852428]}, "properties": {"numparc": 1374, "etat de la localisation": "Deviation programmee", "ID BDGEO": "92", "horodatage": "2022-05-04 16:52:32", "distance (en metres)": 213.45, "station": "SAINT MICHEL-SAINT GERMAIN", "marker-color": "#56FF93"}}, {"type": "Feature", "geometry": {"type": "Point", "coordinates": [2.327878, 48.89415]}, "properties": {"numparc": 1458, "etat de la localisation": "autre", "ID BDGEO": "861", "horodatage": "2022-05-04 16:54:01", "distance (en metres)": 129.84, "station": "NAVIER", "marker-color": "#818181"}}, {"type": "Feature", "geometry": {"type": "Point", "coordinates": [2.325961, 48.888241]}, "properties": {"numparc": 1458, "etat de la localisation": "autre", "ID BDGEO": "864", "horodatage": "2022-05-04 16:57:06", "distance (en metres)": 45.44, "station": "LA FOURCHE", "marker-color": "#818181"}}, {"type": "Feature", "geometry": {"type": "Point", "coordinates": [2.340482, 48.84758]}, "properties": {"numparc": 1412, "etat de la localisation": "autre", "ID BDGEO": "117", "horodatage": "2022-05-04 17:03:21", "distance (en metres)": 134.94, "station": "LUXEMBOURG", "marker-color": "#818181"}}, {"type": "Feature", "geometry": {"type": "Point", "coordinates": [2.326432, 48.883003]}, "properties": {"numparc": 1458, "etat de la localisation": "Deviation programmee", "ID BDGEO": "866", "horodatage": "2022-05-04 17:04:33", "distance (en metres)": 54.02, "station": "PLACE DE CLICHY", "marker-color": "#56FF93"}}, {"type": "Feature", "geometry": {"type": "Point", "coordinates": [2.322755, 48.878387]}, "properties": {"numparc": 1458, "etat de la localisation": "Deviation programmee", "ID BDGEO": "868", "horodatage": "2022-05-04 17:07:02", "distance (en metres)": 323.44, "station": "GARE ST-LAZARE-BUDAPEST", "marker-color": "#56FF93"}}, {"type": "Feature", "geometry": {"type": "Point", "coordinates": [2.32345, 48.876358]}, "properties": {"numparc": 1458, "etat de la localisation": "Deviation programmee", "ID BDGEO": "868", "horodatage": "2022-05-04 17:09:53", "distance (en metres)": 276.25, "station": "GARE ST-LAZARE-BUDAPEST", "marker-color": "#56FF93"}}, {"type": "Feature", "geometry": {"type": "Point", "coordinates": [2.344448, 48.831676]}, "properties": {"numparc": 1464, "etat de la localisation": "autre", "ID BDGEO": "99", "horodatage": "2022-05-04 17:23:09", "distance (en metres)": 135.01, "station": "GLACIERE-NORDMANN", "marker-color": "#818181"}}, {"type": "Feature", "geometry": {"type": "Point", "coordinates": [2.341535, 48.826458]}, "properties": {"numparc": 1464, "etat de la localisation": "autre", "ID BDGEO": "102", "horodatage": "2022-05-04 17:26:07", "distance (en metres)": 79.84, "station": "GLACIERE-TOLBIAC", "marker-color": "#818181"}}, {"type": "Feature", "geometry": {"type": "Point", "coordinates": [2.343986, 48.819546]}, "properties": {"numparc": 1464, "etat de la localisation": "autre", "ID BDGEO": "2", "horodatage": "2022-05-04 17:30:03", "distance (en metres)": 56.7, "station": "STADE CHARLETY-PORTE DE GENTILLY", "marker-color": "#818181"}}, {"type": "Feature", "geometry": {"type": "Point", "coordinates": [2.325077, 48.887783]}, "properties": {"numparc": 1412, "etat de la localisation": "Deviation programmee", "ID BDGEO": "876", "horodatage": "2022-05-04 17:56:02", "distance (en metres)": 66.01, "station": "LA FOURCHE", "marker-color": "#56FF93"}}, {"type": "Feature", "geometry": {"type": "Point", "coordinates": [2.326565, 48.892445]}, "properties": {"numparc": 1412, "etat de la localisation": "Deviation programmee", "ID BDGEO": "878", "horodatage": "2022-05-04 18:01:12", "distance (en metres)": 72.36, "station": "GUY MOQUET", "marker-color": "#56FF93"}}, {"type": "Feature", "geometry": {"type": "Point", "coordinates": [2.343999, 48.819557]}, "properties": {"numparc": 1458, "etat de la localisation": "autre", "ID BDGEO": "2", "horodatage": "2022-05-04 18:14:16", "distance (en metres)": 57.52, "station": "STADE CHARLETY-PORTE DE GENTILLY", "marker-color": "#818181"}}, {"type": "Feature", "geometry": {"type": "Point", "coordinates": [2.344074, 48.853027]}, "properties": {"numparc": 1464, "etat de la localisation": "autre", "ID BDGEO": "119", "horodatage": "2022-05-04 18:21:54", "distance (en metres)": 43.13, "station": "SAINT MICHEL-SAINT GERMAIN", "marker-color": "#818181"}}, {"type": "Feature", "geometry": {"type": "Point", "coordinates": [2.344024, 48.852909]}, "properties": {"numparc": 1458, "etat de la localisation": "autre", "ID BDGEO": "119", "horodatage": "2022-05-04 18:59:47", "distance (en metres)": 56.7, "station": "SAINT MICHEL-SAINT GERMAIN", "marker-color": "#818181"}}, {"type": "Feature", "geometry": {"type": "Point", "coordinates": [2.344024, 48.852909]}, "properties": {"numparc": 1458, "etat de la localisation": "autre", "ID BDGEO": "119", "horodatage": "2022-05-04 18:59:56", "distance (en metres)": 56.7, "station": "SAINT MICHEL-SAINT GERMAIN", "marker-color": "#818181"}}, {"type": "Feature", "geometry": {"type": "Point", "coordinates": [2.326411, 48.889591]}, "properties": {"numparc": 1464, "etat de la localisation": "Deviation programmee", "ID BDGEO": "877", "horodatage": "2022-05-04 19:03:00", "distance (en metres)": 74.85, "station": "DAVY", "marker-color": "#56FF93"}}, {"type": "Feature", "geometry": {"type": "Point", "coordinates": [2.327148, 48.891453]}, "properties": {"numparc": 1464, "etat de la localisation": "Deviation programmee", "ID BDGEO": "877", "horodatage": "2022-05-04 19:04:01", "distance (en metres)": 139.95, "station": "DAVY", "marker-color": "#56FF93"}}, {"type": "Feature", "geometry": {"type": "Point", "coordinates": [2.328919, 48.897198]}, "properties": {"numparc": 1464, "etat de la localisation": "autre", "ID BDGEO": "880", "horodatage": "2022-05-04 19:10:06", "distance (en metres)": 85.68, "station": "PTE DE ST-OUEN", "marker-color": "#818181"}}, {"type": "Feature", "geometry": {"type": "Point", "coordinates": [2.329935, 48.900043]}, "properties": {"numparc": 1464, "etat de la localisation": "autre", "ID BDGEO": "859", "horodatage": "2022-05-04 19:14:46", "distance (en metres)": 93.98, "station": "PTE ST-OUEN-HOP BICHAT", "marker-color": "#818181"}}, {"type": "Feature", "geometry": {"type": "Point", "coordinates": [2.329935, 48.900043]}, "properties": {"numparc": 1464, "etat de la localisation": "autre", "ID BDGEO": "859", "horodatage": "2022-05-04 19:36:15", "distance (en metres)": 93.98, "station": "PTE ST-OUEN-HOP BICHAT", "marker-color": "#818181"}}, {"type": "Feature", "geometry": {"type": "Point", "coordinates": [2.345906, 48.839878]}, "properties": {"numparc": 1412, "etat de la localisation": "autre", "ID BDGEO": "314", "horodatage": "2022-05-04 19:43:14", "distance (en metres)": 2233.04, "station": "CENTRE BUS MONTROUGE ENTREE", "marker-color": "#818181"}}, {"type": "Feature", "geometry": {"type": "Point", "coordinates": [2.328795, 48.897194]}, "properties": {"numparc": 1464, "etat de la localisation": "autre", "ID BDGEO": "860", "horodatage": "2022-05-04 19:46:04", "distance (en metres)": 87.42, "station": "PORTE DE SAINT-OUEN", "marker-color": "#818181"}}, {"type": "Feature", "geometry": {"type": "Point", "coordinates": [2.326467, 48.88306]}, "properties": {"numparc": 1464, "etat de la localisation": "Deviation programmee", "ID BDGEO": "866", "horodatage": "2022-05-04 19:54:46", "distance (en metres)": 51.93, "station": "PLACE DE CLICHY", "marker-color": "#56FF93"}}, {"type": "Feature", "geometry": {"type": "Point", "coordinates": [2.324944, 48.881157]}, "properties": {"numparc": 1464, "etat de la localisation": "Deviation programmee", "ID BDGEO": "867", "horodatage": "2022-05-04 19:55:51", "distance (en metres)": 166.74, "station": "LIEGE", "marker-color": "#56FF93"}}, {"type": "Feature", "geometry": {"type": "Point", "coordinates": [2.323794, 48.875912]}, "properties": {"numparc": 1464, "etat de la localisation": "Deviation programmee", "ID BDGEO": "869", "horodatage": "2022-05-04 19:59:30", "distance (en metres)": 238.34, "station": "GARE ST-LAZARE-HAVRE", "marker-color": "#56FF93"}}, {"type": "Feature", "geometry": {"type": "Point", "coordinates": [2.326106, 48.875504]}, "properties": {"numparc": 1464, "etat de la localisation": "Deviation programmee", "ID BDGEO": "869", "horodatage": "2022-05-04 20:02:06", "distance (en metres)": 74.37, "station": "GARE ST-LAZARE-HAVRE", "marker-color": "#56FF93"}}, {"type": "Feature", "geometry": {"type": "Point", "coordinates": [2.345515, 48.837418]}, "properties": {"numparc": 1410, "etat de la localisation": "autre", "ID BDGEO": "113", "horodatage": "2022-05-04 20:03:03", "distance (en metres)": 63.79, "station": "PORT ROYAL-BERTHOLLET", "marker-color": "#818181"}}, {"type": "Feature", "geometry": {"type": "Point", "coordinates": [2.345917, 48.839886]}, "properties": {"numparc": 1412, "etat de la localisation": "autre", "ID BDGEO": "314", "horodatage": "2022-05-04 20:12:32", "distance (en metres)": 2234.19, "station": "CENTRE BUS MONTROUGE ENTREE", "marker-color": "#818181"}}, {"type": "Feature", "geometry": {"type": "Point", "coordinates": [2.327978, 48.823662]}, "properties": {"numparc": 1412, "etat de la localisation": "autre", "ID BDGEO": "314", "horodatage": "2022-05-04 20:31:02", "distance (en metres)": 79.42, "station": "CENTRE BUS MONTROUGE ENTREE", "marker-color": "#818181"}}, {"type": "Feature", "geometry": {"type": "Point", "coordinates": [2.33892, 48.862267]}, "properties": {"numparc": 1458, "etat de la localisation": "autre", "ID BDGEO": "87", "horodatage": "2022-05-04 20:33:14", "distance (en metres)": 45.16, "station": "SAINT HONORE-VALOIS", "marker-color": "#818181"}}, {"type": "Feature", "geometry": {"type": "Point", "coordinates": [2.329947, 48.823227]}, "properties": {"numparc": 1412, "etat de la localisation": "autre", "ID BDGEO": "61", "horodatage": "2022-05-04 20:36:26", "distance (en metres)": 73.87, "station": "CENTRE BUS MONTROUGE SORTIE", "marker-color": "#818181"}}, {"type": "Feature", "geometry": {"type": "Point", "coordinates": [2.332083, 48.870457]}, "properties": {"numparc": 1410, "etat de la localisation": "autre", "ID BDGEO": "84", "horodatage": "2022-05-04 20:37:33", "distance (en metres)": 82.78, "station": "OPERA-4 SEPTEMBRE", "marker-color": "#818181"}}, {"type": "Feature", "geometry": {"type": "Point", "coordinates": [2.344068, 48.819496]}, "properties": {"numparc": 1464, "etat de la localisation": "autre", "ID BDGEO": "2", "horodatage": "2022-05-04 20:49:33", "distance (en metres)": 63.44, "station": "STADE CHARLETY-PORTE DE GENTILLY", "marker-color": "#818181"}}, {"type": "Feature", "geometry": {"type": "Point", "coordinates": [2.344178, 48.819546]}, "properties": {"numparc": 1410, "etat de la localisation": "autre", "ID BDGEO": "2", "horodatage": "2022-05-04 21:13:36", "distance (en metres)": 70.68, "station": "STADE CHARLETY-PORTE DE GENTILLY", "marker-color": "#818181"}}, {"type": "Feature", "geometry": {"type": "Point", "coordinates": [2.344035, 48.853024]}, "properties": {"numparc": 1464, "etat de la localisation": "autre", "ID BDGEO": "119", "horodatage": "2022-05-04 21:18:17", "distance (en metres)": 44.06, "station": "SAINT MICHEL-SAINT GERMAIN", "marker-color": "#818181"}}, {"type": "Feature", "geometry": {"type": "Point", "coordinates": [2.325242, 48.887772]}, "properties": {"numparc": 1464, "etat de la localisation": "Deviation programmee", "ID BDGEO": "876", "horodatage": "2022-05-04 21:37:50", "distance (en metres)": 57.34, "station": "LA FOURCHE", "marker-color": "#56FF93"}}, {"type": "Feature", "geometry": {"type": "Point", "coordinates": [2.320658, 48.890423]}, "properties": {"numparc": 1464, "etat de la localisation": "Deviation programmee", "ID BDGEO": "877", "horodatage": "2022-05-04 21:39:47", "distance (en metres)": 430.6, "station": "DAVY", "marker-color": "#56FF93"}}, {"type": "Feature", "geometry": {"type": "Point", "coordinates": [2.318148, 48.891857]}, "properties": {"numparc": 1464, "etat de la localisation": "Deviation programmee", "ID BDGEO": "877", "horodatage": "2022-05-04 21:42:13", "distance (en metres)": 638.93, "station": "DAVY", "marker-color": "#56FF93"}}, {"type": "Feature", "geometry": {"type": "Point", "coordinates": [2.314683, 48.89389]}, "properties": {"numparc": 1464, "etat de la localisation": "Deviation programmee", "ID BDGEO": "878", "horodatage": "2022-05-04 21:44:31", "distance (en metres)": 935.34, "station": "GUY MOQUET", "marker-color": "#56FF93"}}, {"type": "Feature", "geometry": {"type": "Point", "coordinates": [2.322789, 48.897449]}, "properties": {"numparc": 1464, "etat de la localisation": "Deviation programmee", "ID BDGEO": "879", "horodatage": "2022-05-04 21:47:44", "distance (en metres)": 440.73, "station": "NAVIER", "marker-color": "#56FF93"}}, {"type": "Feature", "geometry": {"type": "Point", "coordinates": [2.329967, 48.900021]}, "properties": {"numparc": 1464, "etat de la localisation": "autre", "ID BDGEO": "859", "horodatage": "2022-05-04 21:52:58", "distance (en metres)": 92.51, "station": "PTE ST-OUEN-HOP BICHAT", "marker-color": "#818181"}}, {"type": "Feature", "geometry": {"type": "Point", "coordinates": [2.325338, 48.887833]}, "properties": {"numparc": 1410, "etat de la localisation": "Deviation programmee", "ID BDGEO": "876", "horodatage": "2022-05-04 22:39:23", "distance (en metres)": 47.59, "station": "LA FOURCHE", "marker-color": "#56FF93"}}, {"type": "Feature", "geometry": {"type": "Point", "coordinates": [2.327745, 48.893433]}, "properties": {"numparc": 1410, "etat de la localisation": "Deviation programmee", "ID BDGEO": "878", "horodatage": "2022-05-04 22:44:34", "distance (en metres)": 73.32, "station": "GUY MOQUET", "marker-color": "#56FF93"}}, {"type": "Feature", "geometry": {"type": "Point", "coordinates": [2.329058, 48.897373]}, "properties": {"numparc": 1410, "etat de la localisation": "autre", "ID BDGEO": "880", "horodatage": "2022-05-04 22:45:57", "distance (en metres)": 64.78, "station": "PTE DE ST-OUEN", "marker-color": "#818181"}}, {"type": "Feature", "geometry": {"type": "Point", "coordinates": [2.344397, 48.819801]}, "properties": {"numparc": 1464, "etat de la localisation": "autre", "ID BDGEO": "436", "horodatage": "2022-05-04 22:52:28", "distance (en metres)": 55.65, "station": "STADE CHARLETY-PTE DE GENTILLY#", "marker-color": "#818181"}}, {"type": "Feature", "geometry": {"type": "Point", "coordinates": [2.328006, 48.823685]}, "properties": {"numparc": 1464, "etat de la localisation": "autre", "ID BDGEO": "61", "horodatage": "2022-05-04 22:57:29", "distance (en metres)": 86.08, "station": "CENTRE BUS MONTROUGE SORTIE", "marker-color": "#818181"}}, {"type": "Feature", "geometry": {"type": "Point", "coordinates": [2.328023, 48.823677]}, "properties": {"numparc": 1464, "etat de la localisation": "autre", "ID BDGEO": "61", "horodatage": "2022-05-04 22:58:31", "distance (en metres)": 84.58, "station": "CENTRE BUS MONTROUGE SORTIE", "marker-color": "#818181"}}, {"type": "Feature", "geometry": {"type": "Point", "coordinates": [2.326537, 48.883026]}, "properties": {"numparc": 1410, "etat de la localisation": "Deviation programmee", "ID BDGEO": "866", "horodatage": "2022-05-04 23:21:29", "distance (en metres)": 46.45, "station": "PLACE DE CLICHY", "marker-color": "#56FF93"}}, {"type": "Feature", "geometry": {"type": "Point", "coordinates": [2.343898, 48.819439]}, "properties": {"numparc": 1410, "etat de la localisation": "autre", "ID BDGEO": "2", "horodatage": "2022-05-05 00:05:04", "distance (en metres)": 53.04, "station": "STADE CHARLETY-PORTE DE GENTILLY", "marker-color": "#818181"}}, {"type": "Feature", "geometry": {"type": "Point", "coordinates": [2.343898, 48.819439]}, "properties": {"numparc": 1410, "etat de la localisation": "autre", "ID BDGEO": "2", "horodatage": "2022-05-05 00:11:16", "distance (en metres)": 53.04, "station": "STADE CHARLETY-PORTE DE GENTILLY", "marker-color": "#818181"}}, {"type": "Feature", "geometry": {"type": "Point", "coordinates": [2.325047, 48.887783]}, "properties": {"numparc": 1410, "etat de la localisation": "Deviation programmee", "ID BDGEO": "876", "horodatage": "2022-05-05 00:49:31", "distance (en metres)": 67.82, "station": "LA FOURCHE", "marker-color": "#56FF93"}}, {"type": "Feature", "geometry": {"type": "Point", "coordinates": [2.327934, 48.8237]}, "properties": {"numparc": 1410, "etat de la localisation": "autre", "ID BDGEO": "61", "horodatage": "2022-05-05 01:17:29", "distance (en metres)": 91.31, "station": "CENTRE BUS MONTROUGE SORTIE", "marker-color": "#818181"}}, {"type": "Feature", "geometry": {"type": "Point", "coordinates": [2.328938, 48.823213]}, "properties": {"station": "CENTRE BUS MONTROUGE SORTIE", "ID BDGEO": "61", "marker-color": "#56B3FF"}}, {"type": "Feature", "geometry": {"type": "Point", "coordinates": [2.343216, 48.8196]}, "properties": {"station": "STADE CHARLETY-PORTE DE GENTILLY", "ID BDGEO": "2", "marker-color": "#56B3FF"}}, {"type": "Feature", "geometry": {"type": "Point", "coordinates": [2.327373, 48.89282]}, "properties": {"station": "GUY MOQUET", "ID BDGEO": "878", "marker-color": "#56B3FF"}}, {"type": "Feature", "geometry": {"type": "Point", "coordinates": [2.329158, 48.897952]}, "properties": {"station": "PTE DE ST-OUEN", "ID BDGEO": "880", "marker-color": "#56B3FF"}}, {"type": "Feature", "geometry": {"type": "Point", "coordinates": [2.329471, 48.899255]}, "properties": {"station": "PTE ST-OUEN-HOP BICHAT", "ID BDGEO": "859", "marker-color": "#56B3FF"}}, {"type": "Feature", "geometry": {"type": "Point", "coordinates": [2.328858, 48.897979]}, "properties": {"station": "PORTE DE SAINT-OUEN", "ID BDGEO": "860", "marker-color": "#56B3FF"}}, {"type": "Feature", "geometry": {"type": "Point", "coordinates": [2.327171, 48.882997]}, "properties": {"station": "PLACE DE CLICHY", "ID BDGEO": "866", "marker-color": "#56B3FF"}}, {"type": "Feature", "geometry": {"type": "Point", "coordinates": [2.326899, 48.877371]}, "properties": {"station": "GARE ST-LAZARE-BUDAPEST", "ID BDGEO": "868", "marker-color": "#56B3FF"}}, {"type": "Feature", "geometry": {"type": "Point", "coordinates": [2.34416, 48.853411]}, "properties": {"station": "SAINT MICHEL-SAINT GERMAIN", "ID BDGEO": "119", "marker-color": "#56B3FF"}}, {"type": "Feature", "geometry": {"type": "Point", "coordinates": [2.326723, 48.874972]}, "properties": {"station": "GARE ST-LAZARE-HAVRE", "ID BDGEO": "869", "marker-color": "#56B3FF"}}, {"type": "Feature", "geometry": {"type": "Point", "coordinates": [2.334775, 48.863693]}, "properties": {"station": "PALAIS ROYAL-COMEDIE FRANCAISE", "ID BDGEO": "53", "marker-color": "#56B3FF"}}, {"type": "Feature", "geometry": {"type": "Point", "coordinates": [2.32582, 48.88812]}, "properties": {"station": "LA FOURCHE", "ID BDGEO": "876", "marker-color": "#56B3FF"}}, {"type": "Feature", "geometry": {"type": "Point", "coordinates": [2.327346, 48.89273]}, "properties": {"station": "GUY MOQUET", "ID BDGEO": "862", "marker-color": "#56B3FF"}}, {"type": "Feature", "geometry": {"type": "Point", "coordinates": [2.32657, 48.89034]}, "properties": {"station": "DAVY", "ID BDGEO": "863", "marker-color": "#56B3FF"}}, {"type": "Feature", "geometry": {"type": "Point", "coordinates": [2.331028, 48.875969]}, "properties": {"station": "TRINITE", "ID BDGEO": "872", "marker-color": "#56B3FF"}}, {"type": "Feature", "geometry": {"type": "Point", "coordinates": [2.325739, 48.887859]}, "properties": {"station": "LA FOURCHE", "ID BDGEO": "864", "marker-color": "#56B3FF"}}, {"type": "Feature", "geometry": {"type": "Point", "coordinates": [2.327049, 48.88058]}, "properties": {"station": "LIEGE", "ID BDGEO": "867", "marker-color": "#56B3FF"}}, {"type": "Feature", "geometry": {"type": "Point", "coordinates": [2.326542, 48.890259]}, "properties": {"station": "DAVY", "ID BDGEO": "877", "marker-color": "#56B3FF"}}, {"type": "Feature", "geometry": {"type": "Point", "coordinates": [2.331192, 48.874118]}, "properties": {"station": "HAUSSMANN-MOGADOR", "ID BDGEO": "871", "marker-color": "#56B3FF"}}, {"type": "Feature", "geometry": {"type": "Point", "coordinates": [2.346816, 48.858983]}, "properties": {"station": "RIVOLI-CHATELET", "ID BDGEO": "121", "marker-color": "#56B3FF"}}, {"type": "Feature", "geometry": {"type": "Point", "coordinates": [2.341474, 48.824417]}, "properties": {"station": "PARC MONTSOURIS", "ID BDGEO": "107", "marker-color": "#56B3FF"}}, {"type": "Feature", "geometry": {"type": "Point", "coordinates": [2.329038, 48.879987]}, "properties": {"station": "LIEGE", "ID BDGEO": "873", "marker-color": "#56B3FF"}}, {"type": "Feature", "geometry": {"type": "Point", "coordinates": [2.335824, 48.862561]}, "properties": {"station": "PALAIS ROYAL-MUSEE DU LOUVRE", "ID BDGEO": "124", "marker-color": "#56B3FF"}}, {"type": "Feature", "geometry": {"type": "Point", "coordinates": [2.329393, 48.87241]}, "properties": {"station": "AUBER", "ID BDGEO": "82", "marker-color": "#56B3FF"}}, {"type": "Feature", "geometry": {"type": "Point", "coordinates": [2.343533, 48.852521]}, "properties": {"station": "SAINT MICHEL-SAINT GERMAIN", "ID BDGEO": "92", "marker-color": "#56B3FF"}}, {"type": "Feature", "geometry": {"type": "Point", "coordinates": [2.328177, 48.895301]}, "properties": {"station": "NAVIER", "ID BDGEO": "861", "marker-color": "#56B3FF"}}, {"type": "Feature", "geometry": {"type": "Point", "coordinates": [2.340972, 48.84641]}, "properties": {"station": "LUXEMBOURG", "ID BDGEO": "117", "marker-color": "#56B3FF"}}, {"type": "Feature", "geometry": {"type": "Point", "coordinates": [2.344647, 48.832884]}, "properties": {"station": "GLACIERE-NORDMANN", "ID BDGEO": "99", "marker-color": "#56B3FF"}}, {"type": "Feature", "geometry": {"type": "Point", "coordinates": [2.341093, 48.825801]}, "properties": {"station": "GLACIERE-TOLBIAC", "ID BDGEO": "102", "marker-color": "#56B3FF"}}, {"type": "Feature", "geometry": {"type": "Point", "coordinates": [2.328843, 48.823231]}, "properties": {"station": "CENTRE BUS MONTROUGE ENTREE", "ID BDGEO": "314", "marker-color": "#56B3FF"}}, {"type": "Feature", "geometry": {"type": "Point", "coordinates": [2.345601, 48.837988]}, "properties": {"station": "PORT ROYAL-BERTHOLLET", "ID BDGEO": "113", "marker-color": "#56B3FF"}}, {"type": "Feature", "geometry": {"type": "Point", "coordinates": [2.338317, 48.862354]}, "properties": {"station": "SAINT HONORE-VALOIS", "ID BDGEO": "87", "marker-color": "#56B3FF"}}, {"type": "Feature", "geometry": {"type": "Point", "coordinates": [2.332514, 48.869768]}, "properties": {"station": "OPERA-4 SEPTEMBRE", "ID BDGEO": "84", "marker-color": "#56B3FF"}}, {"type": "Feature", "geometry": {"type": "Point", "coordinates": [2.328463, 48.89611]}, "properties": {"station": "NAVIER", "ID BDGEO": "879", "marker-color": "#56B3FF"}}, {"type": "Feature", "geometry": {"type": "Point", "coordinates": [2.34376, 48.819528]}, "properties": {"station": "STADE CHARLETY-PTE DE GENTILLY#", "ID BDGEO": "436", "marker-color": "#56B3FF"}}]}