{"type": "FeatureCollection", "features": [{"type": "Feature", "geometry": {"type": "Point", "coordinates": [2.475512, 48.877655]}, "properties": {"alarme": "VEHICULE DELOCALISE", "numparc": 2023, "type": "EXPLOITATION", "duree": "00:00:52", "horodatage": "2022-04-05 06:21:30", "statut": "start", "marker-color": "#ff0000"}}, {"type": "Feature", "geometry": {"type": "Point", "coordinates": [2.473877, 48.880302]}, "properties": {"alarme": "VEHICULE DELOCALISE", "numparc": 2018, "type": "EXPLOITATION", "duree": "00:05:53", "horodatage": "2022-04-05 06:34:19", "statut": "start", "marker-color": "#ff0000"}}, {"type": "Feature", "geometry": {"type": "Point", "coordinates": [2.473955, 48.880241]}, "properties": {"alarme": "VEHICULE DELOCALISE", "numparc": 2023, "type": "EXPLOITATION", "duree": "00:06:07", "horodatage": "2022-04-05 07:04:07", "statut": "start", "marker-color": "#ff0000"}}, {"type": "Feature", "geometry": {"type": "Point", "coordinates": [2.475539, 48.877655]}, "properties": {"alarme": "VEHICULE DELOCALISE", "numparc": 2018, "type": "EXPLOITATION", "duree": "00:03:12", "horodatage": "2022-04-05 08:38:59", "statut": "start", "marker-color": "#ff0000"}}, {"type": "Feature", "geometry": {"type": "Point", "coordinates": [2.483741, 48.880165]}, "properties": {"alarme": "VEHICULE DELOCALISE", "numparc": 2018, "type": "EXPLOITATION", "duree": "00:02:51", "horodatage": "2022-04-05 08:45:16", "statut": "start", "marker-color": "#ff0000"}}, {"type": "Feature", "geometry": {"type": "Point", "coordinates": [2.475451, 48.877541]}, "properties": {"alarme": "VEHICULE DELOCALISE", "numparc": 2023, "type": "EXPLOITATION", "duree": "00:01:21", "horodatage": "2022-04-05 08:56:22", "statut": "start", "marker-color": "#ff0000"}}, {"type": "Feature", "geometry": {"type": "Point", "coordinates": [2.473917, 48.880253]}, "properties": {"alarme": "VEHICULE DELOCALISE", "numparc": 2018, "type": "EXPLOITATION", "duree": "00:07:45", "horodatage": "2022-04-05 09:05:15", "statut": "start", "marker-color": "#ff0000"}}, {"type": "Feature", "geometry": {"type": "Point", "coordinates": [2.44081, 48.861526]}, "properties": {"alarme": "VEHICULE DELOCALISE", "numparc": 2018, "type": "EXPLOITATION", "duree": "00:01:14", "horodatage": "2022-04-05 09:29:27", "statut": "start", "marker-color": "#ff0000"}}, {"type": "Feature", "geometry": {"type": "Point", "coordinates": [2.473894, 48.880295]}, "properties": {"alarme": "VEHICULE DELOCALISE", "numparc": 2023, "type": "EXPLOITATION", "duree": "00:05:39", "horodatage": "2022-04-05 09:32:57", "statut": "start", "marker-color": "#ff0000"}}, {"type": "Feature", "geometry": {"type": "Point", "coordinates": [2.475335, 48.87759]}, "properties": {"alarme": "VEHICULE DELOCALISE", "numparc": 2018, "type": "EXPLOITATION", "duree": "00:01:45", "horodatage": "2022-04-05 11:17:07", "statut": "start", "marker-color": "#ff0000"}}, {"type": "Feature", "geometry": {"type": "Point", "coordinates": [2.475388, 48.877605]}, "properties": {"alarme": "VEHICULE DELOCALISE", "numparc": 2023, "type": "EXPLOITATION", "duree": "00:00:58", "horodatage": "2022-04-05 11:33:22", "statut": "start", "marker-color": "#ff0000"}}, {"type": "Feature", "geometry": {"type": "Point", "coordinates": [2.473871, 48.880325]}, "properties": {"alarme": "VEHICULE DELOCALISE", "numparc": 2018, "type": "EXPLOITATION", "duree": "00:07:48", "horodatage": "2022-04-05 11:54:12", "statut": "start", "marker-color": "#ff0000"}}, {"type": "Feature", "geometry": {"type": "Point", "coordinates": [2.473866, 48.880295]}, "properties": {"alarme": "VEHICULE DELOCALISE", "numparc": 2023, "type": "EXPLOITATION", "duree": "00:00:51", "horodatage": "2022-04-05 12:10:37", "statut": "start", "marker-color": "#ff0000"}}, {"type": "Feature", "geometry": {"type": "Point", "coordinates": [2.478061, 48.875267]}, "properties": {"alarme": "VEHICULE DELOCALISE", "numparc": 2023, "type": "EXPLOITATION", "duree": "00:06:59", "horodatage": "2022-04-05 12:12:32", "statut": "start", "marker-color": "#ff0000"}}, {"type": "Feature", "geometry": {"type": "Point", "coordinates": [2.475451, 48.877617]}, "properties": {"alarme": "VEHICULE DELOCALISE", "numparc": 2018, "type": "EXPLOITATION", "duree": "00:01:45", "horodatage": "2022-04-05 13:54:36", "statut": "start", "marker-color": "#ff0000"}}, {"type": "Feature", "geometry": {"type": "Point", "coordinates": [2.473871, 48.880253]}, "properties": {"alarme": "VEHICULE DELOCALISE", "numparc": 2018, "type": "EXPLOITATION", "duree": "00:06:06", "horodatage": "2022-04-05 14:28:44", "statut": "start", "marker-color": "#ff0000"}}, {"type": "Feature", "geometry": {"type": "Point", "coordinates": [2.473818, 48.880322]}, "properties": {"alarme": "VEHICULE DELOCALISE", "numparc": 2023, "type": "EXPLOITATION", "duree": "00:05:31", "horodatage": "2022-04-05 14:48:37", "statut": "start", "marker-color": "#ff0000"}}, {"type": "Feature", "geometry": {"type": "Point", "coordinates": [2.475524, 48.877621]}, "properties": {"alarme": "VEHICULE DELOCALISE", "numparc": 2018, "type": "EXPLOITATION", "duree": "00:00:19", "horodatage": "2022-04-05 16:35:27", "statut": "start", "marker-color": "#ff0000"}}, {"type": "Feature", "geometry": {"type": "Point", "coordinates": [2.477126, 48.875839]}, "properties": {"alarme": "VEHICULE DELOCALISE", "numparc": 2018, "type": "EXPLOITATION", "duree": "00:06:52", "horodatage": "2022-04-05 17:22:32", "statut": "start", "marker-color": "#ff0000"}}, {"type": "Feature", "geometry": {"type": "Point", "coordinates": [2.47581, 48.87785]}, "properties": {"alarme": "VEHICULE DELOCALISE", "numparc": 2023, "type": "EXPLOITATION", "duree": "00:02:26", "horodatage": "2022-04-05 17:26:17", "statut": "start", "marker-color": "#ff0000"}}, {"type": "Feature", "geometry": {"type": "Point", "coordinates": [2.475555, 48.877777]}, "properties": {"alarme": "VEHICULE DELOCALISE", "numparc": 2037, "type": "EXPLOITATION", "duree": "00:00:06", "horodatage": "2022-04-05 17:47:08", "statut": "start", "marker-color": "#ff0000"}}, {"type": "Feature", "geometry": {"type": "Point", "coordinates": [2.473792, 48.880402]}, "properties": {"alarme": "VEHICULE DELOCALISE", "numparc": 2023, "type": "EXPLOITATION", "duree": "00:08:52", "horodatage": "2022-04-05 18:06:59", "statut": "start", "marker-color": "#ff0000"}}, {"type": "Feature", "geometry": {"type": "Point", "coordinates": [2.473895, 48.88026]}, "properties": {"alarme": "VEHICULE DELOCALISE", "numparc": 2037, "type": "EXPLOITATION", "duree": "00:01:07", "horodatage": "2022-04-05 18:31:44", "statut": "start", "marker-color": "#ff0000"}}, {"type": "Feature", "geometry": {"type": "Point", "coordinates": [2.477817, 48.87537]}, "properties": {"alarme": "VEHICULE DELOCALISE", "numparc": 2037, "type": "EXPLOITATION", "duree": "00:09:16", "horodatage": "2022-04-05 18:34:38", "statut": "start", "marker-color": "#ff0000"}}, {"type": "Feature", "geometry": {"type": "Point", "coordinates": [2.475598, 48.877785]}, "properties": {"alarme": "VEHICULE DELOCALISE", "numparc": 2047, "type": "EXPLOITATION", "duree": "00:00:10", "horodatage": "2022-04-05 18:42:31", "statut": "start", "marker-color": "#ff0000"}}, {"type": "Feature", "geometry": {"type": "Point", "coordinates": [2.40946, 48.864746]}, "properties": {"alarme": "VEHICULE DELOCALISE", "numparc": 2023, "type": "EXPLOITATION", "duree": "00:03:49", "horodatage": "2022-04-05 18:56:17", "statut": "start", "marker-color": "#ff0000"}}, {"type": "Feature", "geometry": {"type": "Point", "coordinates": [2.473847, 48.880302]}, "properties": {"alarme": "VEHICULE DELOCALISE", "numparc": 2047, "type": "EXPLOITATION", "duree": "00:07:18", "horodatage": "2022-04-05 19:16:20", "statut": "start", "marker-color": "#ff0000"}}, {"type": "Feature", "geometry": {"type": "Point", "coordinates": [2.475402, 48.877544]}, "properties": {"alarme": "VEHICULE DELOCALISE", "numparc": 2018, "type": "EXPLOITATION", "duree": "00:01:15", "horodatage": "2022-04-05 19:32:01", "statut": "start", "marker-color": "#ff0000"}}, {"type": "Feature", "geometry": {"type": "Point", "coordinates": [2.475369, 48.877529]}, "properties": {"alarme": "VEHICULE DELOCALISE", "numparc": 2023, "type": "EXPLOITATION", "duree": "00:00:45", "horodatage": "2022-04-05 19:56:40", "statut": "start", "marker-color": "#ff0000"}}, {"type": "Feature", "geometry": {"type": "Point", "coordinates": [2.473855, 48.880337]}, "properties": {"alarme": "VEHICULE DELOCALISE", "numparc": 2018, "type": "EXPLOITATION", "duree": "00:05:26", "horodatage": "2022-04-05 20:02:54", "statut": "start", "marker-color": "#ff0000"}}, {"type": "Feature", "geometry": {"type": "Point", "coordinates": [2.47546, 48.877621]}, "properties": {"alarme": "VEHICULE DELOCALISE", "numparc": 2037, "type": "EXPLOITATION", "duree": "00:01:06", "horodatage": "2022-04-05 20:25:34", "statut": "start", "marker-color": "#ff0000"}}, {"type": "Feature", "geometry": {"type": "Point", "coordinates": [2.475783, 48.876888]}, "properties": {"alarme": "VEHICULE DELOCALISE", "numparc": 2037, "type": "EXPLOITATION", "duree": "00:07:05", "horodatage": "2022-04-05 20:59:35", "statut": "start", "marker-color": "#ff0000"}}, {"type": "Feature", "geometry": {"type": "Point", "coordinates": [2.475574, 48.877804]}, "properties": {"alarme": "VEHICULE DELOCALISE", "numparc": 2047, "type": "EXPLOITATION", "duree": "00:00:07", "horodatage": "2022-04-05 21:02:27", "statut": "start", "marker-color": "#ff0000"}}, {"type": "Feature", "geometry": {"type": "Point", "coordinates": [2.475433, 48.877544]}, "properties": {"alarme": "VEHICULE DELOCALISE", "numparc": 4937, "type": "EXPLOITATION", "duree": "00:00:54", "horodatage": "2022-04-05 21:16:53", "statut": "start", "marker-color": "#ff0000"}}, {"type": "Feature", "geometry": {"type": "Point", "coordinates": [2.47554, 48.877731]}, "properties": {"alarme": "VEHICULE DELOCALISE", "numparc": 2018, "type": "EXPLOITATION", "duree": "00:00:52", "horodatage": "2022-04-05 21:42:23", "statut": "start", "marker-color": "#ff0000"}}, {"type": "Feature", "geometry": {"type": "Point", "coordinates": [2.473924, 48.88026]}, "properties": {"alarme": "VEHICULE DELOCALISE", "numparc": 4937, "type": "EXPLOITATION", "duree": "00:06:38", "horodatage": "2022-04-05 21:56:21", "statut": "start", "marker-color": "#ff0000"}}, {"type": "Feature", "geometry": {"type": "Point", "coordinates": [2.473854, 48.880295]}, "properties": {"alarme": "VEHICULE DELOCALISE", "numparc": 2018, "type": "EXPLOITATION", "duree": "00:05:01", "horodatage": "2022-04-05 22:15:33", "statut": "start", "marker-color": "#ff0000"}}, {"type": "Feature", "geometry": {"type": "Point", "coordinates": [2.475458, 48.877468]}, "properties": {"alarme": "VEHICULE DELOCALISE", "numparc": 4937, "type": "EXPLOITATION", "duree": "00:01:00", "horodatage": "2022-04-05 23:42:11", "statut": "start", "marker-color": "#ff0000"}}, {"type": "Feature", "geometry": {"type": "Point", "coordinates": [2.474091, 48.880241]}, "properties": {"alarme": "VEHICULE DELOCALISE", "numparc": 4937, "type": "EXPLOITATION", "duree": "00:06:07", "horodatage": "2022-04-06 00:09:47", "statut": "start", "marker-color": "#ff0000"}}, {"type": "Feature", "geometry": {"type": "Point", "coordinates": [2.479611, 48.877419]}, "properties": {"alarme": "VEHICULE DELOCALISE", "numparc": 2023, "type": "EXPLOITATION", "duree": "00:00:52", "horodatage": "2022-04-05 06:22:22", "statut": "end", "marker-color": "#2fe184"}}, {"type": "Feature", "geometry": {"type": "Point", "coordinates": [2.466805, 48.876614]}, "properties": {"alarme": "VEHICULE DELOCALISE", "numparc": 2018, "type": "EXPLOITATION", "duree": "00:05:53", "horodatage": "2022-04-05 06:40:12", "statut": "end", "marker-color": "#2fe184"}}, {"type": "Feature", "geometry": {"type": "Point", "coordinates": [2.466757, 48.876644]}, "properties": {"alarme": "VEHICULE DELOCALISE", "numparc": 2023, "type": "EXPLOITATION", "duree": "00:06:07", "horodatage": "2022-04-05 07:10:14", "statut": "end", "marker-color": "#2fe184"}}, {"type": "Feature", "geometry": {"type": "Point", "coordinates": [2.483622, 48.877445]}, "properties": {"alarme": "VEHICULE DELOCALISE", "numparc": 2018, "type": "EXPLOITATION", "duree": "00:03:12", "horodatage": "2022-04-05 08:42:11", "statut": "end", "marker-color": "#2fe184"}}, {"type": "Feature", "geometry": {"type": "Point", "coordinates": [2.482202, 48.882313]}, "properties": {"alarme": "VEHICULE DELOCALISE", "numparc": 2018, "type": "EXPLOITATION", "duree": "00:02:51", "horodatage": "2022-04-05 08:48:07", "statut": "end", "marker-color": "#2fe184"}}, {"type": "Feature", "geometry": {"type": "Point", "coordinates": [2.479517, 48.877361]}, "properties": {"alarme": "VEHICULE DELOCALISE", "numparc": 2023, "type": "EXPLOITATION", "duree": "00:01:21", "horodatage": "2022-04-05 08:57:43", "statut": "end", "marker-color": "#2fe184"}}, {"type": "Feature", "geometry": {"type": "Point", "coordinates": [2.466851, 48.876545]}, "properties": {"alarme": "VEHICULE DELOCALISE", "numparc": 2018, "type": "EXPLOITATION", "duree": "00:07:45", "horodatage": "2022-04-05 09:13:00", "statut": "end", "marker-color": "#2fe184"}}, {"type": "Feature", "geometry": {"type": "Point", "coordinates": [2.437615, 48.858887]}, "properties": {"alarme": "VEHICULE DELOCALISE", "numparc": 2018, "type": "EXPLOITATION", "duree": "00:01:14", "horodatage": "2022-04-05 09:30:41", "statut": "end", "marker-color": "#2fe184"}}, {"type": "Feature", "geometry": {"type": "Point", "coordinates": [2.4669, 48.876637]}, "properties": {"alarme": "VEHICULE DELOCALISE", "numparc": 2023, "type": "EXPLOITATION", "duree": "00:05:39", "horodatage": "2022-04-05 09:38:36", "statut": "end", "marker-color": "#2fe184"}}, {"type": "Feature", "geometry": {"type": "Point", "coordinates": [2.479399, 48.877449]}, "properties": {"alarme": "VEHICULE DELOCALISE", "numparc": 2018, "type": "EXPLOITATION", "duree": "00:01:45", "horodatage": "2022-04-05 11:18:52", "statut": "end", "marker-color": "#2fe184"}}, {"type": "Feature", "geometry": {"type": "Point", "coordinates": [2.479467, 48.877426]}, "properties": {"alarme": "VEHICULE DELOCALISE", "numparc": 2023, "type": "EXPLOITATION", "duree": "00:00:58", "horodatage": "2022-04-05 11:34:20", "statut": "end", "marker-color": "#2fe184"}}, {"type": "Feature", "geometry": {"type": "Point", "coordinates": [2.466904, 48.876545]}, "properties": {"alarme": "VEHICULE DELOCALISE", "numparc": 2018, "type": "EXPLOITATION", "duree": "00:07:48", "horodatage": "2022-04-05 12:02:00", "statut": "end", "marker-color": "#2fe184"}}, {"type": "Feature", "geometry": {"type": "Point", "coordinates": [2.475567, 48.877769]}, "properties": {"alarme": "VEHICULE DELOCALISE", "numparc": 2023, "type": "EXPLOITATION", "duree": "00:00:51", "horodatage": "2022-04-05 12:11:28", "statut": "end", "marker-color": "#2fe184"}}, {"type": "Feature", "geometry": {"type": "Point", "coordinates": [2.466879, 48.876556]}, "properties": {"alarme": "VEHICULE DELOCALISE", "numparc": 2023, "type": "EXPLOITATION", "duree": "00:06:59", "horodatage": "2022-04-05 12:19:31", "statut": "end", "marker-color": "#2fe184"}}, {"type": "Feature", "geometry": {"type": "Point", "coordinates": [2.479466, 48.877445]}, "properties": {"alarme": "VEHICULE DELOCALISE", "numparc": 2018, "type": "EXPLOITATION", "duree": "00:01:45", "horodatage": "2022-04-05 13:56:21", "statut": "end", "marker-color": "#2fe184"}}, {"type": "Feature", "geometry": {"type": "Point", "coordinates": [2.466772, 48.876575]}, "properties": {"alarme": "VEHICULE DELOCALISE", "numparc": 2018, "type": "EXPLOITATION", "duree": "00:06:06", "horodatage": "2022-04-05 14:34:50", "statut": "end", "marker-color": "#2fe184"}}, {"type": "Feature", "geometry": {"type": "Point", "coordinates": [2.466754, 48.876614]}, "properties": {"alarme": "VEHICULE DELOCALISE", "numparc": 2023, "type": "EXPLOITATION", "duree": "00:05:31", "horodatage": "2022-04-05 14:54:08", "statut": "end", "marker-color": "#2fe184"}}, {"type": "Feature", "geometry": {"type": "Point", "coordinates": [2.475351, 48.877419]}, "properties": {"alarme": "VEHICULE DELOCALISE", "numparc": 2018, "type": "EXPLOITATION", "duree": "00:00:19", "horodatage": "2022-04-05 16:35:46", "statut": "end", "marker-color": "#2fe184"}}, {"type": "Feature", "geometry": {"type": "Point", "coordinates": [2.46688, 48.876564]}, "properties": {"alarme": "VEHICULE DELOCALISE", "numparc": 2018, "type": "EXPLOITATION", "duree": "00:06:52", "horodatage": "2022-04-05 17:29:24", "statut": "end", "marker-color": "#2fe184"}}, {"type": "Feature", "geometry": {"type": "Point", "coordinates": [2.479638, 48.87746]}, "properties": {"alarme": "VEHICULE DELOCALISE", "numparc": 2023, "type": "EXPLOITATION", "duree": "00:02:26", "horodatage": "2022-04-05 17:28:43", "statut": "end", "marker-color": "#2fe184"}}, {"type": "Feature", "geometry": {"type": "Point", "coordinates": [2.475555, 48.877773]}, "properties": {"alarme": "VEHICULE DELOCALISE", "numparc": 2037, "type": "EXPLOITATION", "duree": "00:00:06", "horodatage": "2022-04-05 17:47:14", "statut": "end", "marker-color": "#2fe184"}}, {"type": "Feature", "geometry": {"type": "Point", "coordinates": [2.466851, 48.876614]}, "properties": {"alarme": "VEHICULE DELOCALISE", "numparc": 2023, "type": "EXPLOITATION", "duree": "00:08:52", "horodatage": "2022-04-05 18:15:51", "statut": "end", "marker-color": "#2fe184"}}, {"type": "Feature", "geometry": {"type": "Point", "coordinates": [2.475616, 48.877941]}, "properties": {"alarme": "VEHICULE DELOCALISE", "numparc": 2037, "type": "EXPLOITATION", "duree": "00:01:07", "horodatage": "2022-04-05 18:32:51", "statut": "end", "marker-color": "#2fe184"}}, {"type": "Feature", "geometry": {"type": "Point", "coordinates": [2.466831, 48.87661]}, "properties": {"alarme": "VEHICULE DELOCALISE", "numparc": 2037, "type": "EXPLOITATION", "duree": "00:09:16", "horodatage": "2022-04-05 18:43:54", "statut": "end", "marker-color": "#2fe184"}}, {"type": "Feature", "geometry": {"type": "Point", "coordinates": [2.475593, 48.877773]}, "properties": {"alarme": "VEHICULE DELOCALISE", "numparc": 2047, "type": "EXPLOITATION", "duree": "00:00:10", "horodatage": "2022-04-05 18:42:41", "statut": "end", "marker-color": "#2fe184"}}, {"type": "Feature", "geometry": {"type": "Point", "coordinates": [2.408814, 48.864395]}, "properties": {"alarme": "VEHICULE DELOCALISE", "numparc": 2023, "type": "EXPLOITATION", "duree": "00:03:49", "horodatage": "2022-04-05 19:00:06", "statut": "end", "marker-color": "#2fe184"}}, {"type": "Feature", "geometry": {"type": "Point", "coordinates": [2.46683, 48.876614]}, "properties": {"alarme": "VEHICULE DELOCALISE", "numparc": 2047, "type": "EXPLOITATION", "duree": "00:07:18", "horodatage": "2022-04-05 19:23:38", "statut": "end", "marker-color": "#2fe184"}}, {"type": "Feature", "geometry": {"type": "Point", "coordinates": [2.478646, 48.877361]}, "properties": {"alarme": "VEHICULE DELOCALISE", "numparc": 2018, "type": "EXPLOITATION", "duree": "00:01:15", "horodatage": "2022-04-05 19:33:16", "statut": "end", "marker-color": "#2fe184"}}, {"type": "Feature", "geometry": {"type": "Point", "coordinates": [2.47945, 48.877392]}, "properties": {"alarme": "VEHICULE DELOCALISE", "numparc": 2023, "type": "EXPLOITATION", "duree": "00:00:45", "horodatage": "2022-04-05 19:57:25", "statut": "end", "marker-color": "#2fe184"}}, {"type": "Feature", "geometry": {"type": "Point", "coordinates": [2.466798, 48.876579]}, "properties": {"alarme": "VEHICULE DELOCALISE", "numparc": 2018, "type": "EXPLOITATION", "duree": "00:05:26", "horodatage": "2022-04-05 20:08:20", "statut": "end", "marker-color": "#2fe184"}}, {"type": "Feature", "geometry": {"type": "Point", "coordinates": [2.479582, 48.877388]}, "properties": {"alarme": "VEHICULE DELOCALISE", "numparc": 2037, "type": "EXPLOITATION", "duree": "00:01:06", "horodatage": "2022-04-05 20:26:40", "statut": "end", "marker-color": "#2fe184"}}, {"type": "Feature", "geometry": {"type": "Point", "coordinates": [2.462843, 48.873638]}, "properties": {"alarme": "VEHICULE DELOCALISE", "numparc": 2037, "type": "EXPLOITATION", "duree": "00:07:05", "horodatage": "2022-04-05 21:06:40", "statut": "end", "marker-color": "#2fe184"}}, {"type": "Feature", "geometry": {"type": "Point", "coordinates": [2.47557, 48.8778]}, "properties": {"alarme": "VEHICULE DELOCALISE", "numparc": 2047, "type": "EXPLOITATION", "duree": "00:00:07", "horodatage": "2022-04-05 21:02:34", "statut": "end", "marker-color": "#2fe184"}}, {"type": "Feature", "geometry": {"type": "Point", "coordinates": [2.47958, 48.877361]}, "properties": {"alarme": "VEHICULE DELOCALISE", "numparc": 4937, "type": "EXPLOITATION", "duree": "00:00:54", "horodatage": "2022-04-05 21:17:47", "statut": "end", "marker-color": "#2fe184"}}, {"type": "Feature", "geometry": {"type": "Point", "coordinates": [2.479471, 48.877426]}, "properties": {"alarme": "VEHICULE DELOCALISE", "numparc": 2018, "type": "EXPLOITATION", "duree": "00:00:52", "horodatage": "2022-04-05 21:43:15", "statut": "end", "marker-color": "#2fe184"}}, {"type": "Feature", "geometry": {"type": "Point", "coordinates": [2.466717, 48.876656]}, "properties": {"alarme": "VEHICULE DELOCALISE", "numparc": 4937, "type": "EXPLOITATION", "duree": "00:06:38", "horodatage": "2022-04-05 22:02:59", "statut": "end", "marker-color": "#2fe184"}}, {"type": "Feature", "geometry": {"type": "Point", "coordinates": [2.466776, 48.876545]}, "properties": {"alarme": "VEHICULE DELOCALISE", "numparc": 2018, "type": "EXPLOITATION", "duree": "00:05:01", "horodatage": "2022-04-05 22:20:34", "statut": "end", "marker-color": "#2fe184"}}, {"type": "Feature", "geometry": {"type": "Point", "coordinates": [2.479609, 48.877357]}, "properties": {"alarme": "VEHICULE DELOCALISE", "numparc": 4937, "type": "EXPLOITATION", "duree": "00:01:00", "horodatage": "2022-04-05 23:43:11", "statut": "end", "marker-color": "#2fe184"}}, {"type": "Feature", "geometry": {"type": "Point", "coordinates": [2.466745, 48.876633]}, "properties": {"alarme": "VEHICULE DELOCALISE", "numparc": 4937, "type": "EXPLOITATION", "duree": "00:06:07", "horodatage": "2022-04-06 00:15:54", "statut": "end", "marker-color": "#2fe184"}}]}