{"type": "FeatureCollection", "features": [{"type": "Feature", "geometry": {"type": "Point", "coordinates": [2.399519, 48.816845]}, "properties": {"alarme": "VEHICULE DELOCALISE", "numparc": 2864, "type": "EXPLOITATION", "duree": "00:04:36", "horodatage": "2022-09-21 07:05:39", "statut": "start", "marker-color": "#ff0000"}}, {"type": "Feature", "geometry": {"type": "Point", "coordinates": [2.408788, 48.804169]}, "properties": {"alarme": "VEHICULE DELOCALISE", "numparc": 2866, "type": "EXPLOITATION", "duree": "00:11:45", "horodatage": "2022-09-21 13:54:43", "statut": "start", "marker-color": "#ff0000"}}, {"type": "Feature", "geometry": {"type": "Point", "coordinates": [2.396033, 48.819786]}, "properties": {"alarme": "VEHICULE DELOCALISE", "numparc": 2866, "type": "EXPLOITATION", "duree": "00:00:22", "horodatage": "2022-09-21 14:08:23", "statut": "start", "marker-color": "#ff0000"}}, {"type": "Feature", "geometry": {"type": "Point", "coordinates": [2.393734, 48.821541]}, "properties": {"alarme": "VEHICULE DELOCALISE", "numparc": 2866, "type": "EXPLOITATION", "duree": "00:01:41", "horodatage": "2022-09-21 14:10:19", "statut": "start", "marker-color": "#ff0000"}}, {"type": "Feature", "geometry": {"type": "Point", "coordinates": [2.387763, 48.825916]}, "properties": {"alarme": "VEHICULE DELOCALISE", "numparc": 2866, "type": "EXPLOITATION", "duree": "00:03:10", "horodatage": "2022-09-21 14:13:53", "statut": "start", "marker-color": "#ff0000"}}, {"type": "Feature", "geometry": {"type": "Point", "coordinates": [2.378624, 48.828426]}, "properties": {"alarme": "VEHICULE DELOCALISE", "numparc": 2861, "type": "EXPLOITATION", "duree": "00:04:15", "horodatage": "2022-09-21 15:16:14", "statut": "start", "marker-color": "#ff0000"}}, {"type": "Feature", "geometry": {"type": "Point", "coordinates": [2.407856, 48.804977]}, "properties": {"alarme": "DEFAUT LIAISON DATA SAEIV / AIGLE", "numparc": 2865, "type": "TECHNIQUE", "duree": "00:00:34", "horodatage": "2022-09-21 18:10:18", "statut": "start", "marker-color": "#ff0000"}}, {"type": "Feature", "geometry": {"type": "Point", "coordinates": [2.398423, 48.818352]}, "properties": {"alarme": "VEHICULE DELOCALISE", "numparc": 2864, "type": "EXPLOITATION", "duree": "00:04:36", "horodatage": "2022-09-21 07:10:15", "statut": "end", "marker-color": "#2fe184"}}, {"type": "Feature", "geometry": {"type": "Point", "coordinates": [2.39836, 48.817814]}, "properties": {"alarme": "VEHICULE DELOCALISE", "numparc": 2866, "type": "EXPLOITATION", "duree": "00:11:45", "horodatage": "2022-09-21 14:06:28", "statut": "end", "marker-color": "#2fe184"}}, {"type": "Feature", "geometry": {"type": "Point", "coordinates": [2.395404, 48.820301]}, "properties": {"alarme": "VEHICULE DELOCALISE", "numparc": 2866, "type": "EXPLOITATION", "duree": "00:00:22", "horodatage": "2022-09-21 14:08:45", "statut": "end", "marker-color": "#2fe184"}}, {"type": "Feature", "geometry": {"type": "Point", "coordinates": [2.38915, 48.824802]}, "properties": {"alarme": "VEHICULE DELOCALISE", "numparc": 2866, "type": "EXPLOITATION", "duree": "00:01:41", "horodatage": "2022-09-21 14:12:00", "statut": "end", "marker-color": "#2fe184"}}, {"type": "Feature", "geometry": {"type": "Point", "coordinates": [2.379776, 48.832272]}, "properties": {"alarme": "VEHICULE DELOCALISE", "numparc": 2866, "type": "EXPLOITATION", "duree": "00:03:10", "horodatage": "2022-09-21 14:17:03", "statut": "end", "marker-color": "#2fe184"}}, {"type": "Feature", "geometry": {"type": "Point", "coordinates": [2.377, 48.830414]}, "properties": {"alarme": "VEHICULE DELOCALISE", "numparc": 2861, "type": "EXPLOITATION", "duree": "00:04:15", "horodatage": "2022-09-21 15:20:29", "statut": "end", "marker-color": "#2fe184"}}, {"type": "Feature", "geometry": {"type": "Point", "coordinates": [2.407856, 48.804977]}, "properties": {"alarme": "DEFAUT LIAISON DATA SAEIV / AIGLE", "numparc": 2865, "type": "TECHNIQUE", "duree": "00:00:34", "horodatage": "2022-09-21 18:10:52", "statut": "end", "marker-color": "#2fe184"}}]}