{"type": "FeatureCollection", "features": [{"type": "Feature", "geometry": {"type": "Point", "coordinates": [2.443167, 48.772972]}, "properties": {"etat de la localisation": "Delocalise", "numparc": 2867, "duree": "00:06:11", "horodatage": "2023-03-09 12:38:12", "marker-color": "#FF565E"}}, {"type": "Feature", "geometry": {"type": "Point", "coordinates": [2.4435, 48.771477]}, "properties": {"etat de la localisation": "Delocalise", "numparc": 2856, "duree": "00:15:01", "horodatage": "2023-03-09 12:57:43", "marker-color": "#FF565E"}}, {"type": "Feature", "geometry": {"type": "Point", "coordinates": [2.4435, 48.771477]}, "properties": {"etat de la localisation": "Hors service", "numparc": 2856, "duree": "", "horodatage": "2023-03-09 13:12:44", "marker-color": "#707070"}}, {"type": "Feature", "geometry": {"type": "Point", "coordinates": [2.4435, 48.771477]}, "properties": {"etat de la localisation": "Delocalise", "numparc": 2856, "duree": "00:00:01", "horodatage": "2023-03-09 13:17:40", "marker-color": "#FF565E"}}, {"type": "Feature", "geometry": {"type": "Point", "coordinates": [2.383701, 48.829144]}, "properties": {"etat de la localisation": "Hors service", "numparc": 2856, "duree": "", "horodatage": "2023-03-09 13:32:41", "marker-color": "#707070"}}, {"type": "Feature", "geometry": {"type": "Point", "coordinates": [2.377122, 48.830032]}, "properties": {"etat de la localisation": "Delocalise", "numparc": 2856, "duree": "00:15:03", "horodatage": "2023-03-09 13:36:04", "marker-color": "#FF565E"}}, {"type": "Feature", "geometry": {"type": "Point", "coordinates": [2.377126, 48.830032]}, "properties": {"etat de la localisation": "Hors service", "numparc": 2856, "duree": "", "horodatage": "2023-03-09 13:51:07", "marker-color": "#707070"}}, {"type": "Feature", "geometry": {"type": "Point", "coordinates": [2.377126, 48.830032]}, "properties": {"etat de la localisation": "Delocalise", "numparc": 2856, "duree": "00:01:35", "horodatage": "2023-03-09 13:51:43", "marker-color": "#FF565E"}}, {"type": "Feature", "geometry": {"type": "Point", "coordinates": [2.402189, 48.814327]}, "properties": {"etat de la localisation": "Hors service", "numparc": 2856, "duree": "", "horodatage": "2023-03-09 14:06:45", "marker-color": "#707070"}}, {"type": "Feature", "geometry": {"type": "Point", "coordinates": [2.404162, 48.808064]}, "properties": {"etat de la localisation": "Delocalise", "numparc": 2856, "duree": "00:00:03", "horodatage": "2023-03-09 14:10:48", "marker-color": "#FF565E"}}, {"type": "Feature", "geometry": {"type": "Point", "coordinates": [2.398311, 48.817902]}, "properties": {"etat de la localisation": "Hors service", "numparc": 2856, "duree": "", "horodatage": "2023-03-09 14:25:51", "marker-color": "#707070"}}, {"type": "Feature", "geometry": {"type": "Point", "coordinates": [2.377008, 48.830101]}, "properties": {"etat de la localisation": "Delocalise", "numparc": 2856, "duree": "00:08:57", "horodatage": "2023-03-09 14:37:28", "marker-color": "#FF565E"}}, {"type": "Feature", "geometry": {"type": "Point", "coordinates": [2.382005, 48.830349]}, "properties": {"etat de la localisation": "Hors service", "numparc": 2856, "duree": "", "horodatage": "2023-03-09 14:52:30", "marker-color": "#707070"}}, {"type": "Feature", "geometry": {"type": "Point", "coordinates": [2.392884, 48.822178]}, "properties": {"etat de la localisation": "Hors service", "numparc": 2856, "duree": "", "horodatage": "2023-03-09 15:19:35", "marker-color": "#707070"}}, {"type": "Feature", "geometry": {"type": "Point", "coordinates": [2.389153, 48.824833]}, "properties": {"etat de la localisation": "Delocalise", "numparc": 2856, "duree": "00:00:18", "horodatage": "2023-03-09 15:25:01", "marker-color": "#FF565E"}}, {"type": "Feature", "geometry": {"type": "Point", "coordinates": [2.378586, 48.828522]}, "properties": {"etat de la localisation": "Hors service", "numparc": 2856, "duree": "", "horodatage": "2023-03-09 15:40:04", "marker-color": "#707070"}}, {"type": "Feature", "geometry": {"type": "Point", "coordinates": [2.378732, 48.828506]}, "properties": {"etat de la localisation": "Delocalise", "numparc": 2867, "duree": "00:36:14", "horodatage": "2023-03-09 16:02:51", "marker-color": "#FF565E"}}, {"type": "Feature", "geometry": {"type": "Point", "coordinates": [2.376912, 48.830154]}, "properties": {"etat de la localisation": "Mission suivante non connue", "numparc": 2862, "duree": "", "horodatage": "2023-03-09 16:42:45", "marker-color": "#7156FF"}}, {"type": "Feature", "geometry": {"type": "Point", "coordinates": [2.442698, 48.77277]}, "properties": {"etat de la localisation": "Mission inconnue", "numparc": 2856, "duree": "", "horodatage": "2023-03-09 16:55:31", "marker-color": "#FF9F56"}}, {"type": "Feature", "geometry": {"type": "Point", "coordinates": [2.441832, 48.772293]}, "properties": {"etat de la localisation": "Mission inconnue", "numparc": 2856, "duree": "", "horodatage": "2023-03-09 16:57:56", "marker-color": "#FF9F56"}}, {"type": "Feature", "geometry": {"type": "Point", "coordinates": [2.441832, 48.772293]}, "properties": {"etat de la localisation": "Mission inconnue", "numparc": 2856, "duree": "", "horodatage": "2023-03-09 16:57:56", "marker-color": "#FF9F56"}}, {"type": "Feature", "geometry": {"type": "Point", "coordinates": [2.441832, 48.772293]}, "properties": {"etat de la localisation": "Mission inconnue", "numparc": 2856, "duree": "", "horodatage": "2023-03-09 16:57:56", "marker-color": "#FF9F56"}}, {"type": "Feature", "geometry": {"type": "Point", "coordinates": [2.441832, 48.772293]}, "properties": {"etat de la localisation": "Hors service", "numparc": 2856, "duree": "", "horodatage": "2023-03-09 16:58:55", "marker-color": "#707070"}}, {"type": "Feature", "geometry": {"type": "Point", "coordinates": [2.441922, 48.771935]}, "properties": {"etat de la localisation": "Mission inconnue", "numparc": 2856, "duree": "", "horodatage": "2023-03-09 17:49:17", "marker-color": "#FF9F56"}}, {"type": "Feature", "geometry": {"type": "Point", "coordinates": [2.441922, 48.771935]}, "properties": {"etat de la localisation": "Hors service", "numparc": 2856, "duree": "", "horodatage": "2023-03-09 18:04:23", "marker-color": "#707070"}}, {"type": "Feature", "geometry": {"type": "Point", "coordinates": [2.441682, 48.772533]}, "properties": {"etat de la localisation": "Hors service", "numparc": 2867, "duree": "", "horodatage": "2023-03-09 19:44:41", "marker-color": "#707070"}}, {"type": "Feature", "geometry": {"type": "Point", "coordinates": [2.442414, 48.772972]}, "properties": {"etat de la localisation": "Mission inconnue", "numparc": 2867, "duree": "", "horodatage": "2023-03-09 20:26:37", "marker-color": "#FF9F56"}}, {"type": "Feature", "geometry": {"type": "Point", "coordinates": [2.442414, 48.772972]}, "properties": {"etat de la localisation": "Hors service", "numparc": 2867, "duree": "", "horodatage": "2023-03-09 20:27:53", "marker-color": "#707070"}}, {"type": "Feature", "geometry": {"type": "Point", "coordinates": [2.443065, 48.771832]}, "properties": {"etat de la localisation": "Hors service", "numparc": 2861, "duree": "", "horodatage": "2023-03-09 21:00:41", "marker-color": "#707070"}}, {"type": "Feature", "geometry": {"type": "Point", "coordinates": [2.443609, 48.771584]}, "properties": {"etat de la localisation": "Hors service", "numparc": 2866, "duree": "", "horodatage": "2023-03-09 23:01:13", "marker-color": "#707070"}}, {"type": "Feature", "geometry": {"type": "Point", "coordinates": [2.442951, 48.772858]}, "properties": {"etat de la localisation": "Mission inconnue", "numparc": 2864, "duree": "", "horodatage": "2023-03-09 23:53:04", "marker-color": "#FF9F56"}}, {"type": "Feature", "geometry": {"type": "Point", "coordinates": [2.442951, 48.772858]}, "properties": {"etat de la localisation": "Hors service", "numparc": 2864, "duree": "", "horodatage": "2023-03-09 23:54:20", "marker-color": "#707070"}}]}