{"type": "FeatureCollection", "features": [{"type": "Feature", "geometry": {"type": "Point", "coordinates": [2.189189, 48.902267]}, "properties": {"numparc": 5915, "etat de la localisation": "autre", "ID BDGEO": "1328", "horodatage": "2022-11-27 02:42:14", "distance (en metres)": 59.33, "station": "SORTIE NANTERRE", "marker-color": "#818181"}}, {"type": "Feature", "geometry": {"type": "Point", "coordinates": [2.189241, 48.902302]}, "properties": {"numparc": 5790, "etat de la localisation": "autre", "ID BDGEO": "1328", "horodatage": "2022-11-27 03:07:20", "distance (en metres)": 55.61, "station": "SORTIE NANTERRE", "marker-color": "#818181"}}, {"type": "Feature", "geometry": {"type": "Point", "coordinates": [2.189189, 48.902267]}, "properties": {"numparc": 5915, "etat de la localisation": "autre", "ID BDGEO": "1328", "horodatage": "2022-11-27 05:01:29", "distance (en metres)": 59.33, "station": "SORTIE NANTERRE", "marker-color": "#818181"}}, {"type": "Feature", "geometry": {"type": "Point", "coordinates": [2.19075, 48.902832]}, "properties": {"numparc": 5915, "etat de la localisation": "autre", "ID BDGEO": "1328", "horodatage": "2022-11-27 05:05:56", "distance (en metres)": 82.76, "station": "SORTIE NANTERRE", "marker-color": "#818181"}}, {"type": "Feature", "geometry": {"type": "Point", "coordinates": [2.181866, 48.880436]}, "properties": {"numparc": 5915, "etat de la localisation": "autre", "ID BDGEO": "1263", "horodatage": "2022-11-27 05:19:40", "distance (en metres)": 47.09, "station": "RUEIL-VILLE", "marker-color": "#818181"}}, {"type": "Feature", "geometry": {"type": "Point", "coordinates": [2.118761, 48.874851]}, "properties": {"numparc": 5915, "etat de la localisation": "autre", "ID BDGEO": "1274", "horodatage": "2022-11-27 05:32:55", "distance (en metres)": 132.65, "station": "PAVILLON HALEVY", "marker-color": "#818181"}}, {"type": "Feature", "geometry": {"type": "Point", "coordinates": [2.189228, 48.902298]}, "properties": {"numparc": 5790, "etat de la localisation": "autre", "ID BDGEO": "1328", "horodatage": "2022-11-27 05:47:31", "distance (en metres)": 56.53, "station": "SORTIE NANTERRE", "marker-color": "#818181"}}, {"type": "Feature", "geometry": {"type": "Point", "coordinates": [2.190936, 48.902927]}, "properties": {"numparc": 5790, "etat de la localisation": "autre", "ID BDGEO": "1328", "horodatage": "2022-11-27 05:48:32", "distance (en metres)": 99.76, "station": "SORTIE NANTERRE", "marker-color": "#818181"}}, {"type": "Feature", "geometry": {"type": "Point", "coordinates": [2.146387, 48.868137]}, "properties": {"numparc": 5790, "etat de la localisation": "autre", "ID BDGEO": "1270", "horodatage": "2022-11-27 06:07:27", "distance (en metres)": 129.3, "station": "LA CHAUSSEE-M.TOURGUENIEV", "marker-color": "#818181"}}, {"type": "Feature", "geometry": {"type": "Point", "coordinates": [2.118796, 48.874886]}, "properties": {"numparc": 5790, "etat de la localisation": "autre", "ID BDGEO": "1274", "horodatage": "2022-11-27 06:12:46", "distance (en metres)": 134.21, "station": "PAVILLON HALEVY", "marker-color": "#818181"}}, {"type": "Feature", "geometry": {"type": "Point", "coordinates": [2.189809, 48.901878]}, "properties": {"numparc": 5778, "etat de la localisation": "autre", "ID BDGEO": "1328", "horodatage": "2022-11-27 07:22:28", "distance (en metres)": 46.17, "station": "SORTIE NANTERRE", "marker-color": "#818181"}}, {"type": "Feature", "geometry": {"type": "Point", "coordinates": [2.188209, 48.902882]}, "properties": {"numparc": 2872, "etat de la localisation": "Delocalise", "ID BDGEO": "1325", "horodatage": "2022-11-27 18:38:54", "distance (en metres)": 78.31, "station": "RENTREE NANTERRE", "marker-color": "#FF565E"}}, {"type": "Feature", "geometry": {"type": "Point", "coordinates": [2.189834, 48.902203]}, "properties": {"numparc": 2884, "etat de la localisation": "autre", "ID BDGEO": "1245", "horodatage": "2022-11-28 01:03:33", "distance (en metres)": 1456.88, "station": "NANTERRE-A.FRANCE", "marker-color": "#818181"}}, {"type": "Feature", "geometry": {"type": "Point", "coordinates": [2.184206, 48.881077]}, "properties": {"numparc": 2872, "etat de la localisation": "autre", "ID BDGEO": "1326", "horodatage": "2022-11-28 01:53:21", "distance (en metres)": 125.53, "station": "RUEIL-VILLE#", "marker-color": "#818181"}}, {"type": "Feature", "geometry": {"type": "Point", "coordinates": [2.188481, 48.902958]}, "properties": {"numparc": 2872, "etat de la localisation": "autre", "ID BDGEO": "1328", "horodatage": "2022-11-28 02:07:28", "distance (en metres)": 134.6, "station": "SORTIE NANTERRE", "marker-color": "#818181"}}, {"type": "Feature", "geometry": {"type": "Point", "coordinates": [2.190001, 48.902274]}, "properties": {"station": "SORTIE NANTERRE", "ID BDGEO": "1328", "marker-color": "#56B3FF"}}, {"type": "Feature", "geometry": {"type": "Point", "coordinates": [2.182472, 48.880578]}, "properties": {"station": "RUEIL-VILLE", "ID BDGEO": "1263", "marker-color": "#56B3FF"}}, {"type": "Feature", "geometry": {"type": "Point", "coordinates": [2.11986, 48.873902]}, "properties": {"station": "PAVILLON HALEVY", "ID BDGEO": "1274", "marker-color": "#56B3FF"}}, {"type": "Feature", "geometry": {"type": "Point", "coordinates": [2.144734, 48.867725]}, "properties": {"station": "LA CHAUSSEE-M.TOURGUENIEV", "ID BDGEO": "1270", "marker-color": "#56B3FF"}}, {"type": "Feature", "geometry": {"type": "Point", "coordinates": [2.189277, 48.902821]}, "properties": {"station": "RENTREE NANTERRE", "ID BDGEO": "1325", "marker-color": "#56B3FF"}}, {"type": "Feature", "geometry": {"type": "Point", "coordinates": [2.209702, 48.901155]}, "properties": {"station": "NANTERRE-A.FRANCE", "ID BDGEO": "1245", "marker-color": "#56B3FF"}}, {"type": "Feature", "geometry": {"type": "Point", "coordinates": [2.182622, 48.880642]}, "properties": {"station": "RUEIL-VILLE#", "ID BDGEO": "1326", "marker-color": "#56B3FF"}}]}