{"type": "FeatureCollection", "features": [{"type": "Feature", "geometry": {"type": "Point", "coordinates": [2.340826, 48.916454]}, "properties": {"etat de la localisation": "Delocalise", "numparc": 1607, "duree": "00:06:15", "horodatage": "2023-04-18 05:30:58", "marker-color": "#FF565E"}}, {"type": "Feature", "geometry": {"type": "Point", "coordinates": [2.23877, 48.891071]}, "properties": {"etat de la localisation": "Mission suivante non connue", "numparc": 1607, "duree": "", "horodatage": "2023-04-18 06:09:29", "marker-color": "#7156FF"}}, {"type": "Feature", "geometry": {"type": "Point", "coordinates": [2.256356, 48.886269]}, "properties": {"etat de la localisation": "Delocalise", "numparc": 1607, "duree": "00:01:20", "horodatage": "2023-04-18 06:38:50", "marker-color": "#FF565E"}}, {"type": "Feature", "geometry": {"type": "Point", "coordinates": [2.306086, 48.90033]}, "properties": {"etat de la localisation": "Deviation programmee", "numparc": 1607, "duree": "", "horodatage": "2023-04-18 07:38:21", "marker-color": "#56FF93"}}, {"type": "Feature", "geometry": {"type": "Point", "coordinates": [2.284076, 48.891953]}, "properties": {"etat de la localisation": "Mission suivante non connue", "numparc": 1607, "duree": "", "horodatage": "2023-04-18 09:17:33", "marker-color": "#7156FF"}}, {"type": "Feature", "geometry": {"type": "Point", "coordinates": [2.307646, 48.901089]}, "properties": {"etat de la localisation": "Deviation programmee", "numparc": 1607, "duree": "", "horodatage": "2023-04-18 11:02:51", "marker-color": "#56FF93"}}, {"type": "Feature", "geometry": {"type": "Point", "coordinates": [2.319635, 48.905029]}, "properties": {"etat de la localisation": "Hors service", "numparc": 1607, "duree": "", "horodatage": "2023-04-18 11:28:05", "marker-color": "#707070"}}, {"type": "Feature", "geometry": {"type": "Point", "coordinates": [2.341285, 48.915768]}, "properties": {"etat de la localisation": "Hors service", "numparc": 1607, "duree": "", "horodatage": "2023-04-18 13:26:34", "marker-color": "#707070"}}, {"type": "Feature", "geometry": {"type": "Point", "coordinates": [2.315181, 48.903721]}, "properties": {"etat de la localisation": "Delocalise", "numparc": 1480, "duree": "00:00:57", "horodatage": "2023-04-18 15:23:23", "marker-color": "#FF565E"}}, {"type": "Feature", "geometry": {"type": "Point", "coordinates": [2.340867, 48.915894]}, "properties": {"etat de la localisation": "Delocalise", "numparc": 1577, "duree": "00:17:21", "horodatage": "2023-04-18 15:27:10", "marker-color": "#FF565E"}}, {"type": "Feature", "geometry": {"type": "Point", "coordinates": [2.319579, 48.905022]}, "properties": {"etat de la localisation": "Mission inconnue", "numparc": 1608, "duree": "", "horodatage": "2023-04-18 15:47:44", "marker-color": "#FF9F56"}}, {"type": "Feature", "geometry": {"type": "Point", "coordinates": [2.306023, 48.900299]}, "properties": {"etat de la localisation": "Deviation programmee", "numparc": 1577, "duree": "", "horodatage": "2023-04-18 16:07:29", "marker-color": "#56FF93"}}, {"type": "Feature", "geometry": {"type": "Point", "coordinates": [2.242398, 48.890625]}, "properties": {"etat de la localisation": "Delocalise", "numparc": 1608, "duree": "00:02:12", "horodatage": "2023-04-18 17:00:51", "marker-color": "#FF565E"}}, {"type": "Feature", "geometry": {"type": "Point", "coordinates": [2.241795, 48.890247]}, "properties": {"etat de la localisation": "Delocalise", "numparc": 1481, "duree": "00:05:26", "horodatage": "2023-04-18 18:12:29", "marker-color": "#FF565E"}}, {"type": "Feature", "geometry": {"type": "Point", "coordinates": [2.241227, 48.890217]}, "properties": {"etat de la localisation": "Hors service", "numparc": 1483, "duree": "", "horodatage": "2023-04-18 18:34:51", "marker-color": "#707070"}}, {"type": "Feature", "geometry": {"type": "Point", "coordinates": [2.30772, 48.901192]}, "properties": {"etat de la localisation": "Deviation programmee", "numparc": 1481, "duree": "", "horodatage": "2023-04-18 19:03:31", "marker-color": "#56FF93"}}, {"type": "Feature", "geometry": {"type": "Point", "coordinates": [2.341307, 48.915874]}, "properties": {"etat de la localisation": "Hors service", "numparc": 1480, "duree": "", "horodatage": "2023-04-18 20:05:49", "marker-color": "#707070"}}, {"type": "Feature", "geometry": {"type": "Point", "coordinates": [2.340947, 48.916187]}, "properties": {"etat de la localisation": "Hors service", "numparc": 1480, "duree": "", "horodatage": "2023-04-18 20:08:09", "marker-color": "#707070"}}, {"type": "Feature", "geometry": {"type": "Point", "coordinates": [2.238872, 48.891109]}, "properties": {"etat de la localisation": "Mission suivante non connue", "numparc": 1483, "duree": "", "horodatage": "2023-04-18 21:05:27", "marker-color": "#7156FF"}}, {"type": "Feature", "geometry": {"type": "Point", "coordinates": [2.238872, 48.891109]}, "properties": {"etat de la localisation": "Mission inconnue", "numparc": 1483, "duree": "", "horodatage": "2023-04-18 21:05:37", "marker-color": "#FF9F56"}}, {"type": "Feature", "geometry": {"type": "Point", "coordinates": [2.341022, 48.916214]}, "properties": {"etat de la localisation": "Hors service", "numparc": 1577, "duree": "", "horodatage": "2023-04-18 21:13:31", "marker-color": "#707070"}}, {"type": "Feature", "geometry": {"type": "Point", "coordinates": [2.341035, 48.916332]}, "properties": {"etat de la localisation": "Hors service", "numparc": 1483, "duree": "", "horodatage": "2023-04-18 21:47:59", "marker-color": "#707070"}}, {"type": "Feature", "geometry": {"type": "Point", "coordinates": [2.306017, 48.900314]}, "properties": {"etat de la localisation": "Deviation programmee", "numparc": 1481, "duree": "", "horodatage": "2023-04-18 21:48:28", "marker-color": "#56FF93"}}, {"type": "Feature", "geometry": {"type": "Point", "coordinates": [2.278167, 48.891731]}, "properties": {"etat de la localisation": "Delocalise", "numparc": 1481, "duree": "00:13:29", "horodatage": "2023-04-18 22:24:54", "marker-color": "#FF565E"}}, {"type": "Feature", "geometry": {"type": "Point", "coordinates": [2.312613, 48.903412]}, "properties": {"etat de la localisation": "Mission inconnue", "numparc": 1481, "duree": "", "horodatage": "2023-04-18 22:38:23", "marker-color": "#FF9F56"}}, {"type": "Feature", "geometry": {"type": "Point", "coordinates": [2.340872, 48.916157]}, "properties": {"etat de la localisation": "Hors service", "numparc": 1608, "duree": "", "horodatage": "2023-04-18 23:09:56", "marker-color": "#707070"}}, {"type": "Feature", "geometry": {"type": "Point", "coordinates": [2.340769, 48.916386]}, "properties": {"etat de la localisation": "Hors service", "numparc": 1481, "duree": "", "horodatage": "2023-04-18 23:53:08", "marker-color": "#707070"}}]}