{"type": "FeatureCollection", "features": [{"type": "Feature", "geometry": {"type": "Point", "coordinates": [2.314818, 48.782532]}, "properties": {"alarme": "DEFAUT LIAISON DATA SAEIV / AIGLE", "numparc": 4871, "type": "TECHNIQUE", "duree": "00:00:05", "horodatage": "2021-12-18 11:05:47", "statut": "start", "marker-color": "#ff0000"}}, {"type": "Feature", "geometry": {"type": "Point", "coordinates": [2.307175, 48.759018]}, "properties": {"alarme": "VEHICULE DELOCALISE", "numparc": 4857, "type": "EXPLOITATION", "duree": "00:00:23", "horodatage": "2021-12-18 12:07:29", "statut": "start", "marker-color": "#ff0000"}}, {"type": "Feature", "geometry": {"type": "Point", "coordinates": [2.306437, 48.757114]}, "properties": {"alarme": "VEHICULE DELOCALISE", "numparc": 4857, "type": "EXPLOITATION", "duree": "00:04:21", "horodatage": "2021-12-18 12:09:15", "statut": "start", "marker-color": "#ff0000"}}, {"type": "Feature", "geometry": {"type": "Point", "coordinates": [2.304287, 48.749847]}, "properties": {"alarme": "VEHICULE DELOCALISE", "numparc": 4857, "type": "EXPLOITATION", "duree": "00:01:16", "horodatage": "2021-12-18 12:15:27", "statut": "start", "marker-color": "#ff0000"}}, {"type": "Feature", "geometry": {"type": "Point", "coordinates": [2.302527, 48.741226]}, "properties": {"alarme": "VEHICULE DELOCALISE", "numparc": 4857, "type": "EXPLOITATION", "duree": "00:00:11", "horodatage": "2021-12-18 12:17:54", "statut": "start", "marker-color": "#ff0000"}}, {"type": "Feature", "geometry": {"type": "Point", "coordinates": [2.301046, 48.739914]}, "properties": {"alarme": "VEHICULE DELOCALISE", "numparc": 4857, "type": "EXPLOITATION", "duree": "00:03:40", "horodatage": "2021-12-18 12:19:15", "statut": "start", "marker-color": "#ff0000"}}, {"type": "Feature", "geometry": {"type": "Point", "coordinates": [2.289507, 48.735134]}, "properties": {"alarme": "VEHICULE DELOCALISE", "numparc": 4857, "type": "EXPLOITATION", "duree": "00:01:56", "horodatage": "2021-12-18 12:23:42", "statut": "start", "marker-color": "#ff0000"}}, {"type": "Feature", "geometry": {"type": "Point", "coordinates": [2.305146, 48.753765]}, "properties": {"alarme": "DEFAUT LIAISON DATA SAEIV / AIGLE", "numparc": 4863, "type": "TECHNIQUE", "duree": "00:00:47", "horodatage": "2021-12-18 15:44:06", "statut": "start", "marker-color": "#ff0000"}}, {"type": "Feature", "geometry": {"type": "Point", "coordinates": [2.287148, 48.73304]}, "properties": {"alarme": "VEHICULE DELOCALISE", "numparc": 4857, "type": "EXPLOITATION", "duree": "00:01:38", "horodatage": "2021-12-18 17:00:27", "statut": "start", "marker-color": "#ff0000"}}, {"type": "Feature", "geometry": {"type": "Point", "coordinates": [2.325597, 48.822723]}, "properties": {"alarme": "VEHICULE DELOCALISE", "numparc": 4867, "type": "EXPLOITATION", "duree": "00:00:08", "horodatage": "2021-12-18 18:45:25", "statut": "start", "marker-color": "#ff0000"}}, {"type": "Feature", "geometry": {"type": "Point", "coordinates": [2.289804, 48.73473]}, "properties": {"alarme": "VEHICULE DELOCALISE", "numparc": 4869, "type": "EXPLOITATION", "duree": "00:02:08", "horodatage": "2021-12-18 18:51:10", "statut": "start", "marker-color": "#ff0000"}}, {"type": "Feature", "geometry": {"type": "Point", "coordinates": [2.326221, 48.822926]}, "properties": {"alarme": "VEHICULE DELOCALISE", "numparc": 4869, "type": "EXPLOITATION", "duree": "00:03:03", "horodatage": "2021-12-18 20:10:13", "statut": "start", "marker-color": "#ff0000"}}, {"type": "Feature", "geometry": {"type": "Point", "coordinates": [2.289747, 48.734772]}, "properties": {"alarme": "VEHICULE DELOCALISE", "numparc": 4869, "type": "EXPLOITATION", "duree": "00:01:55", "horodatage": "2021-12-18 21:50:52", "statut": "start", "marker-color": "#ff0000"}}, {"type": "Feature", "geometry": {"type": "Point", "coordinates": [2.292331, 48.735149]}, "properties": {"alarme": "VEHICULE DELOCALISE", "numparc": 4869, "type": "EXPLOITATION", "duree": "00:02:15", "horodatage": "2021-12-18 23:18:13", "statut": "start", "marker-color": "#ff0000"}}, {"type": "Feature", "geometry": {"type": "Point", "coordinates": [2.292427, 48.735153]}, "properties": {"alarme": "VEHICULE DELOCALISE", "numparc": 4869, "type": "EXPLOITATION", "duree": "00:01:32", "horodatage": "2021-12-19 00:37:07", "statut": "start", "marker-color": "#ff0000"}}, {"type": "Feature", "geometry": {"type": "Point", "coordinates": [2.314615, 48.782162]}, "properties": {"alarme": "DEFAUT LIAISON DATA SAEIV / AIGLE", "numparc": 4871, "type": "TECHNIQUE", "duree": "00:00:05", "horodatage": "2021-12-18 11:05:52", "statut": "end", "marker-color": "#2fe184"}}, {"type": "Feature", "geometry": {"type": "Point", "coordinates": [2.306853, 48.758259]}, "properties": {"alarme": "VEHICULE DELOCALISE", "numparc": 4857, "type": "EXPLOITATION", "duree": "00:00:23", "horodatage": "2021-12-18 12:07:52", "statut": "end", "marker-color": "#2fe184"}}, {"type": "Feature", "geometry": {"type": "Point", "coordinates": [2.304514, 48.751522]}, "properties": {"alarme": "VEHICULE DELOCALISE", "numparc": 4857, "type": "EXPLOITATION", "duree": "00:04:21", "horodatage": "2021-12-18 12:13:36", "statut": "end", "marker-color": "#2fe184"}}, {"type": "Feature", "geometry": {"type": "Point", "coordinates": [2.303241, 48.744686]}, "properties": {"alarme": "VEHICULE DELOCALISE", "numparc": 4857, "type": "EXPLOITATION", "duree": "00:01:16", "horodatage": "2021-12-18 12:16:43", "statut": "end", "marker-color": "#2fe184"}}, {"type": "Feature", "geometry": {"type": "Point", "coordinates": [2.30252, 48.741196]}, "properties": {"alarme": "VEHICULE DELOCALISE", "numparc": 4857, "type": "EXPLOITATION", "duree": "00:00:11", "horodatage": "2021-12-18 12:18:05", "statut": "end", "marker-color": "#2fe184"}}, {"type": "Feature", "geometry": {"type": "Point", "coordinates": [2.290513, 48.733936]}, "properties": {"alarme": "VEHICULE DELOCALISE", "numparc": 4857, "type": "EXPLOITATION", "duree": "00:03:40", "horodatage": "2021-12-18 12:22:55", "statut": "end", "marker-color": "#2fe184"}}, {"type": "Feature", "geometry": {"type": "Point", "coordinates": [2.286175, 48.733185]}, "properties": {"alarme": "VEHICULE DELOCALISE", "numparc": 4857, "type": "EXPLOITATION", "duree": "00:01:56", "horodatage": "2021-12-18 12:25:38", "statut": "end", "marker-color": "#2fe184"}}, {"type": "Feature", "geometry": {"type": "Point", "coordinates": [2.304762, 48.752869]}, "properties": {"alarme": "DEFAUT LIAISON DATA SAEIV / AIGLE", "numparc": 4863, "type": "TECHNIQUE", "duree": "00:00:47", "horodatage": "2021-12-18 15:44:53", "statut": "end", "marker-color": "#2fe184"}}, {"type": "Feature", "geometry": {"type": "Point", "coordinates": [2.290946, 48.73407]}, "properties": {"alarme": "VEHICULE DELOCALISE", "numparc": 4857, "type": "EXPLOITATION", "duree": "00:01:38", "horodatage": "2021-12-18 17:02:05", "statut": "end", "marker-color": "#2fe184"}}, {"type": "Feature", "geometry": {"type": "Point", "coordinates": [2.325597, 48.822723]}, "properties": {"alarme": "VEHICULE DELOCALISE", "numparc": 4867, "type": "EXPLOITATION", "duree": "00:00:08", "horodatage": "2021-12-18 18:45:33", "statut": "end", "marker-color": "#2fe184"}}, {"type": "Feature", "geometry": {"type": "Point", "coordinates": [2.28627, 48.7332]}, "properties": {"alarme": "VEHICULE DELOCALISE", "numparc": 4869, "type": "EXPLOITATION", "duree": "00:02:08", "horodatage": "2021-12-18 18:53:18", "statut": "end", "marker-color": "#2fe184"}}, {"type": "Feature", "geometry": {"type": "Point", "coordinates": [2.325469, 48.818527]}, "properties": {"alarme": "VEHICULE DELOCALISE", "numparc": 4869, "type": "EXPLOITATION", "duree": "00:03:03", "horodatage": "2021-12-18 20:13:16", "statut": "end", "marker-color": "#2fe184"}}, {"type": "Feature", "geometry": {"type": "Point", "coordinates": [2.286228, 48.73333]}, "properties": {"alarme": "VEHICULE DELOCALISE", "numparc": 4869, "type": "EXPLOITATION", "duree": "00:01:55", "horodatage": "2021-12-18 21:52:47", "statut": "end", "marker-color": "#2fe184"}}, {"type": "Feature", "geometry": {"type": "Point", "coordinates": [2.2867, 48.734955]}, "properties": {"alarme": "VEHICULE DELOCALISE", "numparc": 4869, "type": "EXPLOITATION", "duree": "00:02:15", "horodatage": "2021-12-18 23:20:28", "statut": "end", "marker-color": "#2fe184"}}, {"type": "Feature", "geometry": {"type": "Point", "coordinates": [2.286787, 48.73497]}, "properties": {"alarme": "VEHICULE DELOCALISE", "numparc": 4869, "type": "EXPLOITATION", "duree": "00:01:32", "horodatage": "2021-12-19 00:38:39", "statut": "end", "marker-color": "#2fe184"}}]}