{"type": "FeatureCollection", "features": [{"type": "Feature", "geometry": {"type": "Point", "coordinates": [2.453124, 48.87685]}, "properties": {"etat de la localisation": "Deviation programmee", "numparc": 1561, "duree": "", "horodatage": "2022-07-23 17:57:28", "marker-color": "#56FF93"}}, {"type": "Feature", "geometry": {"type": "Point", "coordinates": [2.453165, 48.876839]}, "properties": {"etat de la localisation": "Deviation programmee", "numparc": 1561, "duree": "", "horodatage": "2022-07-23 19:20:46", "marker-color": "#56FF93"}}, {"type": "Feature", "geometry": {"type": "Point", "coordinates": [2.453111, 48.876923]}, "properties": {"etat de la localisation": "Deviation programmee", "numparc": 1561, "duree": "", "horodatage": "2022-07-23 20:35:44", "marker-color": "#56FF93"}}, {"type": "Feature", "geometry": {"type": "Point", "coordinates": [2.427922, 48.878666]}, "properties": {"etat de la localisation": "Hors service", "numparc": 1561, "duree": "", "horodatage": "2022-07-23 21:11:36", "marker-color": "#707070"}}]}