{"type": "FeatureCollection", "features": [{"type": "Feature", "geometry": {"type": "Point", "coordinates": [2.409479, 48.877857]}, "properties": {"alarme": "VEHICULE DELOCALISE", "numparc": 5655, "type": "EXPLOITATION", "duree": "00:00:25", "horodatage": "2022-03-11 00:27:28", "statut": "start", "marker-color": "#ff0000"}}, {"type": "Feature", "geometry": {"type": "Point", "coordinates": [2.409494, 48.87809]}, "properties": {"alarme": "VEHICULE DELOCALISE", "numparc": 5655, "type": "EXPLOITATION", "duree": "00:00:25", "horodatage": "2022-03-11 00:27:53", "statut": "end", "marker-color": "#2fe184"}}]}