{"type": "FeatureCollection", "features": [{"type": "Feature", "geometry": {"type": "Point", "coordinates": [2.428064, 48.879398]}, "properties": {"numparc": 4936, "etat de la localisation": "autre", "ID BDGEO": "15", "horodatage": "2021-12-12 05:45:35", "distance (en metres)": 80.84, "station": "DEPOT DES LILAS SORTIE#", "marker-color": "#818181"}}, {"type": "Feature", "geometry": {"type": "Point", "coordinates": [2.42801, 48.879402]}, "properties": {"numparc": 4936, "etat de la localisation": "Delocalise", "ID BDGEO": "15", "horodatage": "2021-12-12 05:58:03", "distance (en metres)": 77.3, "station": "DEPOT DES LILAS SORTIE#", "marker-color": "#FF565E"}}, {"type": "Feature", "geometry": {"type": "Point", "coordinates": [2.42801, 48.879402]}, "properties": {"numparc": 4936, "etat de la localisation": "Delocalise", "ID BDGEO": "15", "horodatage": "2021-12-12 05:58:35", "distance (en metres)": 77.3, "station": "DEPOT DES LILAS SORTIE#", "marker-color": "#FF565E"}}, {"type": "Feature", "geometry": {"type": "Point", "coordinates": [2.427932, 48.879406]}, "properties": {"numparc": 4936, "etat de la localisation": "Delocalise", "ID BDGEO": "15", "horodatage": "2021-12-12 06:00:09", "distance (en metres)": 72.17, "station": "DEPOT DES LILAS SORTIE#", "marker-color": "#FF565E"}}, {"type": "Feature", "geometry": {"type": "Point", "coordinates": [2.427778, 48.878914]}, "properties": {"numparc": 6145, "etat de la localisation": "autre", "ID BDGEO": "15", "horodatage": "2021-12-12 06:15:15", "distance (en metres)": 61.29, "station": "DEPOT DES LILAS SORTIE#", "marker-color": "#818181"}}, {"type": "Feature", "geometry": {"type": "Point", "coordinates": [2.440681, 48.844269]}, "properties": {"numparc": 6145, "etat de la localisation": "autre", "ID BDGEO": "17", "horodatage": "2021-12-12 06:53:10", "distance (en metres)": 78.67, "station": "CHATEAU DE VINCENNES", "marker-color": "#818181"}}, {"type": "Feature", "geometry": {"type": "Point", "coordinates": [2.430871, 48.87849]}, "properties": {"numparc": 6145, "etat de la localisation": "autre", "ID BDGEO": "44", "horodatage": "2021-12-12 07:27:50", "distance (en metres)": 213.34, "station": "LES NOYERS", "marker-color": "#818181"}}, {"type": "Feature", "geometry": {"type": "Point", "coordinates": [2.434763, 48.879639]}, "properties": {"numparc": 4936, "etat de la localisation": "autre", "ID BDGEO": "63", "horodatage": "2021-12-12 07:33:54", "distance (en metres)": 139.87, "station": "GABRIEL HUSSON", "marker-color": "#818181"}}, {"type": "Feature", "geometry": {"type": "Point", "coordinates": [2.440614, 48.844234]}, "properties": {"numparc": 4936, "etat de la localisation": "autre", "ID BDGEO": "17", "horodatage": "2021-12-12 08:03:09", "distance (en metres)": 82.88, "station": "CHATEAU DE VINCENNES", "marker-color": "#818181"}}, {"type": "Feature", "geometry": {"type": "Point", "coordinates": [2.44066, 48.84425]}, "properties": {"numparc": 6145, "etat de la localisation": "autre", "ID BDGEO": "17", "horodatage": "2021-12-12 08:30:55", "distance (en metres)": 79.81, "station": "CHATEAU DE VINCENNES", "marker-color": "#818181"}}, {"type": "Feature", "geometry": {"type": "Point", "coordinates": [2.430857, 48.878494]}, "properties": {"numparc": 4936, "etat de la localisation": "autre", "ID BDGEO": "44", "horodatage": "2021-12-12 08:39:02", "distance (en metres)": 214.13, "station": "LES NOYERS", "marker-color": "#818181"}}, {"type": "Feature", "geometry": {"type": "Point", "coordinates": [2.437488, 48.88081]}, "properties": {"numparc": 4936, "etat de la localisation": "autre", "ID BDGEO": "46", "horodatage": "2021-12-12 08:42:33", "distance (en metres)": 76.6, "station": "GABRIEL HUSSON", "marker-color": "#818181"}}, {"type": "Feature", "geometry": {"type": "Point", "coordinates": [2.440525, 48.883549]}, "properties": {"numparc": 4936, "etat de la localisation": "autre", "ID BDGEO": "487", "horodatage": "2021-12-12 08:44:54", "distance (en metres)": 93.92, "station": "CARNOT", "marker-color": "#818181"}}, {"type": "Feature", "geometry": {"type": "Point", "coordinates": [2.43741, 48.88081]}, "properties": {"numparc": 6145, "etat de la localisation": "autre", "ID BDGEO": "46", "horodatage": "2021-12-12 09:19:12", "distance (en metres)": 71.86, "station": "GABRIEL HUSSON", "marker-color": "#818181"}}, {"type": "Feature", "geometry": {"type": "Point", "coordinates": [2.440671, 48.844254]}, "properties": {"numparc": 4936, "etat de la localisation": "autre", "ID BDGEO": "17", "horodatage": "2021-12-12 09:51:52", "distance (en metres)": 79.09, "station": "CHATEAU DE VINCENNES", "marker-color": "#818181"}}, {"type": "Feature", "geometry": {"type": "Point", "coordinates": [2.415556, 48.868229]}, "properties": {"numparc": 4936, "etat de la localisation": "autre", "ID BDGEO": "35", "horodatage": "2021-12-12 10:30:46", "distance (en metres)": 46.58, "station": "LA POSTE", "marker-color": "#818181"}}, {"type": "Feature", "geometry": {"type": "Point", "coordinates": [2.421803, 48.872856]}, "properties": {"numparc": 4936, "etat de la localisation": "autre", "ID BDGEO": "39", "horodatage": "2021-12-12 10:35:03", "distance (en metres)": 40.24, "station": "RENE ALAZARD-SADI CARNOT", "marker-color": "#818181"}}, {"type": "Feature", "geometry": {"type": "Point", "coordinates": [2.440667, 48.844254]}, "properties": {"numparc": 6145, "etat de la localisation": "autre", "ID BDGEO": "17", "horodatage": "2021-12-12 10:35:34", "distance (en metres)": 79.38, "station": "CHATEAU DE VINCENNES", "marker-color": "#818181"}}, {"type": "Feature", "geometry": {"type": "Point", "coordinates": [2.43747, 48.880821]}, "properties": {"numparc": 4936, "etat de la localisation": "autre", "ID BDGEO": "46", "horodatage": "2021-12-12 10:41:47", "distance (en metres)": 76.17, "station": "GABRIEL HUSSON", "marker-color": "#818181"}}, {"type": "Feature", "geometry": {"type": "Point", "coordinates": [2.437464, 48.880821]}, "properties": {"numparc": 6145, "etat de la localisation": "autre", "ID BDGEO": "46", "horodatage": "2021-12-12 11:28:02", "distance (en metres)": 75.8, "station": "GABRIEL HUSSON", "marker-color": "#818181"}}, {"type": "Feature", "geometry": {"type": "Point", "coordinates": [2.440452, 48.844257]}, "properties": {"numparc": 4936, "etat de la localisation": "autre", "ID BDGEO": "17", "horodatage": "2021-12-12 11:58:16", "distance (en metres)": 94.98, "station": "CHATEAU DE VINCENNES", "marker-color": "#818181"}}, {"type": "Feature", "geometry": {"type": "Point", "coordinates": [2.415641, 48.86824]}, "properties": {"numparc": 4936, "etat de la localisation": "autre", "ID BDGEO": "35", "horodatage": "2021-12-12 12:37:25", "distance (en metres)": 43.66, "station": "LA POSTE", "marker-color": "#818181"}}, {"type": "Feature", "geometry": {"type": "Point", "coordinates": [2.430866, 48.878483]}, "properties": {"numparc": 4936, "etat de la localisation": "autre", "ID BDGEO": "44", "horodatage": "2021-12-12 12:52:34", "distance (en metres)": 213.96, "station": "LES NOYERS", "marker-color": "#818181"}}, {"type": "Feature", "geometry": {"type": "Point", "coordinates": [2.43752, 48.880844]}, "properties": {"numparc": 4936, "etat de la localisation": "autre", "ID BDGEO": "46", "horodatage": "2021-12-12 12:55:49", "distance (en metres)": 80.63, "station": "GABRIEL HUSSON", "marker-color": "#818181"}}, {"type": "Feature", "geometry": {"type": "Point", "coordinates": [2.440427, 48.844261]}, "properties": {"numparc": 6145, "etat de la localisation": "autre", "ID BDGEO": "17", "horodatage": "2021-12-12 13:00:42", "distance (en metres)": 96.85, "station": "CHATEAU DE VINCENNES", "marker-color": "#818181"}}, {"type": "Feature", "geometry": {"type": "Point", "coordinates": [2.427026, 48.89072]}, "properties": {"numparc": 4936, "etat de la localisation": "autre", "ID BDGEO": "56", "horodatage": "2021-12-12 13:31:34", "distance (en metres)": 50.68, "station": "BRETAGNES", "marker-color": "#818181"}}, {"type": "Feature", "geometry": {"type": "Point", "coordinates": [2.415518, 48.868214]}, "properties": {"numparc": 6145, "etat de la localisation": "autre", "ID BDGEO": "35", "horodatage": "2021-12-12 13:38:16", "distance (en metres)": 47.3, "station": "LA POSTE", "marker-color": "#818181"}}, {"type": "Feature", "geometry": {"type": "Point", "coordinates": [2.421809, 48.872864]}, "properties": {"numparc": 6145, "etat de la localisation": "autre", "ID BDGEO": "39", "horodatage": "2021-12-12 13:43:04", "distance (en metres)": 41.23, "station": "RENE ALAZARD-SADI CARNOT", "marker-color": "#818181"}}, {"type": "Feature", "geometry": {"type": "Point", "coordinates": [2.430877, 48.878471]}, "properties": {"numparc": 6145, "etat de la localisation": "autre", "ID BDGEO": "44", "horodatage": "2021-12-12 13:48:10", "distance (en metres)": 213.71, "station": "LES NOYERS", "marker-color": "#818181"}}, {"type": "Feature", "geometry": {"type": "Point", "coordinates": [2.437524, 48.880806]}, "properties": {"numparc": 6145, "etat de la localisation": "autre", "ID BDGEO": "46", "horodatage": "2021-12-12 13:51:37", "distance (en metres)": 78.6, "station": "GABRIEL HUSSON", "marker-color": "#818181"}}, {"type": "Feature", "geometry": {"type": "Point", "coordinates": [2.440538, 48.84425]}, "properties": {"numparc": 4936, "etat de la localisation": "autre", "ID BDGEO": "17", "horodatage": "2021-12-12 14:18:05", "distance (en metres)": 88.64, "station": "CHATEAU DE VINCENNES", "marker-color": "#818181"}}, {"type": "Feature", "geometry": {"type": "Point", "coordinates": [2.42179, 48.872952]}, "properties": {"numparc": 4936, "etat de la localisation": "autre", "ID BDGEO": "39", "horodatage": "2021-12-12 14:58:49", "distance (en metres)": 50.16, "station": "RENE ALAZARD-SADI CARNOT", "marker-color": "#818181"}}, {"type": "Feature", "geometry": {"type": "Point", "coordinates": [2.430882, 48.878502]}, "properties": {"numparc": 4936, "etat de la localisation": "autre", "ID BDGEO": "44", "horodatage": "2021-12-12 15:04:27", "distance (en metres)": 212.11, "station": "LES NOYERS", "marker-color": "#818181"}}, {"type": "Feature", "geometry": {"type": "Point", "coordinates": [2.437509, 48.880867]}, "properties": {"numparc": 4936, "etat de la localisation": "autre", "ID BDGEO": "46", "horodatage": "2021-12-12 15:07:24", "distance (en metres)": 81.43, "station": "GABRIEL HUSSON", "marker-color": "#818181"}}, {"type": "Feature", "geometry": {"type": "Point", "coordinates": [2.440667, 48.844238]}, "properties": {"numparc": 6145, "etat de la localisation": "autre", "ID BDGEO": "17", "horodatage": "2021-12-12 15:14:14", "distance (en metres)": 79.1, "station": "CHATEAU DE VINCENNES", "marker-color": "#818181"}}, {"type": "Feature", "geometry": {"type": "Point", "coordinates": [2.437763, 48.844791]}, "properties": {"numparc": 6145, "etat de la localisation": "autre", "ID BDGEO": "20", "horodatage": "2021-12-12 15:25:32", "distance (en metres)": 41.08, "station": "AVENUE DU CHATEAU", "marker-color": "#818181"}}, {"type": "Feature", "geometry": {"type": "Point", "coordinates": [2.415508, 48.868164]}, "properties": {"numparc": 6145, "etat de la localisation": "autre", "ID BDGEO": "35", "horodatage": "2021-12-12 15:51:21", "distance (en metres)": 44.19, "station": "LA POSTE", "marker-color": "#818181"}}, {"type": "Feature", "geometry": {"type": "Point", "coordinates": [2.430866, 48.878475]}, "properties": {"numparc": 6145, "etat de la localisation": "autre", "ID BDGEO": "44", "horodatage": "2021-12-12 16:01:10", "distance (en metres)": 214.29, "station": "LES NOYERS", "marker-color": "#818181"}}, {"type": "Feature", "geometry": {"type": "Point", "coordinates": [2.437534, 48.880848]}, "properties": {"numparc": 6145, "etat de la localisation": "autre", "ID BDGEO": "46", "horodatage": "2021-12-12 16:05:23", "distance (en metres)": 81.73, "station": "GABRIEL HUSSON", "marker-color": "#818181"}}, {"type": "Feature", "geometry": {"type": "Point", "coordinates": [2.417225, 48.865089]}, "properties": {"numparc": 4936, "etat de la localisation": "autre", "ID BDGEO": "16", "horodatage": "2021-12-12 16:19:03", "distance (en metres)": 44.52, "station": "GALLIENI", "marker-color": "#818181"}}, {"type": "Feature", "geometry": {"type": "Point", "coordinates": [2.427181, 48.895355]}, "properties": {"numparc": 6145, "etat de la localisation": "autre", "ID BDGEO": "51", "horodatage": "2021-12-12 16:23:22", "distance (en metres)": 49.46, "station": "RAYMOND QUENEAU - ROUTE DE NOISY.", "marker-color": "#818181"}}, {"type": "Feature", "geometry": {"type": "Point", "coordinates": [2.440517, 48.844284]}, "properties": {"numparc": 4936, "etat de la localisation": "autre", "ID BDGEO": "17", "horodatage": "2021-12-12 16:48:02", "distance (en metres)": 90.77, "station": "CHATEAU DE VINCENNES", "marker-color": "#818181"}}, {"type": "Feature", "geometry": {"type": "Point", "coordinates": [2.415535, 48.868191]}, "properties": {"numparc": 4936, "etat de la localisation": "autre", "ID BDGEO": "35", "horodatage": "2021-12-12 17:26:14", "distance (en metres)": 44.64, "station": "LA POSTE", "marker-color": "#818181"}}, {"type": "Feature", "geometry": {"type": "Point", "coordinates": [2.421818, 48.872856]}, "properties": {"numparc": 4936, "etat de la localisation": "autre", "ID BDGEO": "39", "horodatage": "2021-12-12 17:33:36", "distance (en metres)": 40.62, "station": "RENE ALAZARD-SADI CARNOT", "marker-color": "#818181"}}, {"type": "Feature", "geometry": {"type": "Point", "coordinates": [2.430874, 48.878494]}, "properties": {"numparc": 6145, "etat de la localisation": "autre", "ID BDGEO": "44", "horodatage": "2021-12-12 17:40:19", "distance (en metres)": 212.97, "station": "LES NOYERS", "marker-color": "#818181"}}, {"type": "Feature", "geometry": {"type": "Point", "coordinates": [2.437441, 48.880821]}, "properties": {"numparc": 6145, "etat de la localisation": "autre", "ID BDGEO": "46", "horodatage": "2021-12-12 17:42:46", "distance (en metres)": 74.42, "station": "GABRIEL HUSSON", "marker-color": "#818181"}}, {"type": "Feature", "geometry": {"type": "Point", "coordinates": [2.430898, 48.878502]}, "properties": {"numparc": 4936, "etat de la localisation": "autre", "ID BDGEO": "44", "horodatage": "2021-12-12 17:43:28", "distance (en metres)": 211.02, "station": "LES NOYERS", "marker-color": "#818181"}}, {"type": "Feature", "geometry": {"type": "Point", "coordinates": [2.437517, 48.880836]}, "properties": {"numparc": 4936, "etat de la localisation": "autre", "ID BDGEO": "46", "horodatage": "2021-12-12 17:47:36", "distance (en metres)": 79.95, "station": "GABRIEL HUSSON", "marker-color": "#818181"}}, {"type": "Feature", "geometry": {"type": "Point", "coordinates": [2.427281, 48.878666]}, "properties": {"numparc": 4943, "etat de la localisation": "autre", "ID BDGEO": "43", "horodatage": "2021-12-12 18:26:04", "distance (en metres)": 81.96, "station": "FLOREAL", "marker-color": "#818181"}}, {"type": "Feature", "geometry": {"type": "Point", "coordinates": [2.427314, 48.878689]}, "properties": {"numparc": 4943, "etat de la localisation": "autre", "ID BDGEO": "43", "horodatage": "2021-12-12 18:29:09", "distance (en metres)": 85.16, "station": "FLOREAL", "marker-color": "#818181"}}, {"type": "Feature", "geometry": {"type": "Point", "coordinates": [2.427896, 48.878746]}, "properties": {"numparc": 4943, "etat de la localisation": "autre", "ID BDGEO": "43", "horodatage": "2021-12-12 19:14:10", "distance (en metres)": 111.98, "station": "FLOREAL", "marker-color": "#818181"}}, {"type": "Feature", "geometry": {"type": "Point", "coordinates": [2.434283, 48.845112]}, "properties": {"numparc": 6145, "etat de la localisation": "autre", "ID BDGEO": "464", "horodatage": "2021-12-12 19:19:51", "distance (en metres)": 170.07, "station": "VIGNERONS", "marker-color": "#818181"}}, {"type": "Feature", "geometry": {"type": "Point", "coordinates": [2.440649, 48.84425]}, "properties": {"numparc": 6145, "etat de la localisation": "autre", "ID BDGEO": "17", "horodatage": "2021-12-12 19:23:08", "distance (en metres)": 80.61, "station": "CHATEAU DE VINCENNES", "marker-color": "#818181"}}, {"type": "Feature", "geometry": {"type": "Point", "coordinates": [2.428551, 48.845844]}, "properties": {"numparc": 4936, "etat de la localisation": "autre", "ID BDGEO": "81", "horodatage": "2021-12-12 19:23:50", "distance (en metres)": 93.2, "station": "VINCENNES RER", "marker-color": "#818181"}}, {"type": "Feature", "geometry": {"type": "Point", "coordinates": [2.440466, 48.844265]}, "properties": {"numparc": 4936, "etat de la localisation": "autre", "ID BDGEO": "17", "horodatage": "2021-12-12 19:27:57", "distance (en metres)": 94.1, "station": "CHATEAU DE VINCENNES", "marker-color": "#818181"}}, {"type": "Feature", "geometry": {"type": "Point", "coordinates": [2.415591, 48.868217]}, "properties": {"numparc": 6145, "etat de la localisation": "autre", "ID BDGEO": "35", "horodatage": "2021-12-12 19:57:22", "distance (en metres)": 43.88, "station": "LA POSTE", "marker-color": "#818181"}}, {"type": "Feature", "geometry": {"type": "Point", "coordinates": [2.421811, 48.87286]}, "properties": {"numparc": 6145, "etat de la localisation": "autre", "ID BDGEO": "39", "horodatage": "2021-12-12 20:02:50", "distance (en metres)": 40.86, "station": "RENE ALAZARD-SADI CARNOT", "marker-color": "#818181"}}, {"type": "Feature", "geometry": {"type": "Point", "coordinates": [2.430872, 48.878479]}, "properties": {"numparc": 6145, "etat de la localisation": "autre", "ID BDGEO": "44", "horodatage": "2021-12-12 20:08:35", "distance (en metres)": 213.72, "station": "LES NOYERS", "marker-color": "#818181"}}, {"type": "Feature", "geometry": {"type": "Point", "coordinates": [2.437508, 48.880848]}, "properties": {"numparc": 6145, "etat de la localisation": "autre", "ID BDGEO": "46", "horodatage": "2021-12-12 20:12:25", "distance (en metres)": 80.15, "station": "GABRIEL HUSSON", "marker-color": "#818181"}}, {"type": "Feature", "geometry": {"type": "Point", "coordinates": [2.430897, 48.878464]}, "properties": {"numparc": 4936, "etat de la localisation": "autre", "ID BDGEO": "44", "horodatage": "2021-12-12 20:51:33", "distance (en metres)": 212.64, "station": "LES NOYERS", "marker-color": "#818181"}}, {"type": "Feature", "geometry": {"type": "Point", "coordinates": [2.437529, 48.880825]}, "properties": {"numparc": 4936, "etat de la localisation": "autre", "ID BDGEO": "46", "horodatage": "2021-12-12 20:54:03", "distance (en metres)": 80.03, "station": "GABRIEL HUSSON", "marker-color": "#818181"}}, {"type": "Feature", "geometry": {"type": "Point", "coordinates": [2.422658, 48.856747]}, "properties": {"numparc": 6145, "etat de la localisation": "autre", "ID BDGEO": "29", "horodatage": "2021-12-12 21:44:25", "distance (en metres)": 104.65, "station": "ROBESPIERRE-METRO", "marker-color": "#818181"}}, {"type": "Feature", "geometry": {"type": "Point", "coordinates": [2.426314, 48.876591]}, "properties": {"numparc": 6145, "etat de la localisation": "autre", "ID BDGEO": "150", "horodatage": "2021-12-12 21:58:27", "distance (en metres)": 77.04, "station": "CIMETIERE DE BAGNOLET", "marker-color": "#818181"}}, {"type": "Feature", "geometry": {"type": "Point", "coordinates": [2.4309, 48.878487]}, "properties": {"numparc": 6145, "etat de la localisation": "autre", "ID BDGEO": "44", "horodatage": "2021-12-12 22:01:01", "distance (en metres)": 211.48, "station": "LES NOYERS", "marker-color": "#818181"}}, {"type": "Feature", "geometry": {"type": "Point", "coordinates": [2.440481, 48.844265]}, "properties": {"numparc": 4936, "etat de la localisation": "autre", "ID BDGEO": "17", "horodatage": "2021-12-12 22:01:54", "distance (en metres)": 93.01, "station": "CHATEAU DE VINCENNES", "marker-color": "#818181"}}, {"type": "Feature", "geometry": {"type": "Point", "coordinates": [2.437527, 48.880852]}, "properties": {"numparc": 6145, "etat de la localisation": "autre", "ID BDGEO": "46", "horodatage": "2021-12-12 22:04:25", "distance (en metres)": 81.55, "station": "GABRIEL HUSSON", "marker-color": "#818181"}}, {"type": "Feature", "geometry": {"type": "Point", "coordinates": [2.437547, 48.880852]}, "properties": {"numparc": 4936, "etat de la localisation": "autre", "ID BDGEO": "46", "horodatage": "2021-12-12 22:49:22", "distance (en metres)": 82.77, "station": "GABRIEL HUSSON", "marker-color": "#818181"}}, {"type": "Feature", "geometry": {"type": "Point", "coordinates": [2.422824, 48.855896]}, "properties": {"numparc": 6145, "etat de la localisation": "autre", "ID BDGEO": "76", "horodatage": "2021-12-12 23:08:28", "distance (en metres)": 40.93, "station": "ROBESPIERRE-METRO", "marker-color": "#818181"}}, {"type": "Feature", "geometry": {"type": "Point", "coordinates": [2.427359, 48.878796]}, "properties": {"numparc": 4936, "etat de la localisation": "autre", "ID BDGEO": "15", "horodatage": "2021-12-12 23:13:06", "distance (en metres)": 46.71, "station": "DEPOT DES LILAS SORTIE#", "marker-color": "#818181"}}, {"type": "Feature", "geometry": {"type": "Point", "coordinates": [2.42726, 48.878822]}, "properties": {"numparc": 6145, "etat de la localisation": "autre", "ID BDGEO": "15", "horodatage": "2021-12-12 23:44:17", "distance (en metres)": 40.71, "station": "DEPOT DES LILAS SORTIE#", "marker-color": "#818181"}}, {"type": "Feature", "geometry": {"type": "Point", "coordinates": [2.427023, 48.879153]}, "properties": {"station": "DEPOT DES LILAS SORTIE#", "ID BDGEO": "15", "marker-color": "#56B3FF"}}, {"type": "Feature", "geometry": {"type": "Point", "coordinates": [2.441737, 48.844135]}, "properties": {"station": "CHATEAU DE VINCENNES", "ID BDGEO": "17", "marker-color": "#56B3FF"}}, {"type": "Feature", "geometry": {"type": "Point", "coordinates": [2.433591, 48.879184]}, "properties": {"station": "LES NOYERS", "ID BDGEO": "44", "marker-color": "#56B3FF"}}, {"type": "Feature", "geometry": {"type": "Point", "coordinates": [2.436359, 48.880332]}, "properties": {"station": "GABRIEL HUSSON", "ID BDGEO": "63", "marker-color": "#56B3FF"}}, {"type": "Feature", "geometry": {"type": "Point", "coordinates": [2.436605, 48.88044]}, "properties": {"station": "GABRIEL HUSSON", "ID BDGEO": "46", "marker-color": "#56B3FF"}}, {"type": "Feature", "geometry": {"type": "Point", "coordinates": [2.440016, 48.882774]}, "properties": {"station": "CARNOT", "ID BDGEO": "487", "marker-color": "#56B3FF"}}, {"type": "Feature", "geometry": {"type": "Point", "coordinates": [2.415982, 48.867918]}, "properties": {"station": "LA POSTE", "ID BDGEO": "35", "marker-color": "#56B3FF"}}, {"type": "Feature", "geometry": {"type": "Point", "coordinates": [2.421616, 48.872516]}, "properties": {"station": "RENE ALAZARD-SADI CARNOT", "ID BDGEO": "39", "marker-color": "#56B3FF"}}, {"type": "Feature", "geometry": {"type": "Point", "coordinates": [2.426389, 48.8909]}, "properties": {"station": "BRETAGNES", "ID BDGEO": "56", "marker-color": "#56B3FF"}}, {"type": "Feature", "geometry": {"type": "Point", "coordinates": [2.437217, 48.844705]}, "properties": {"station": "AVENUE DU CHATEAU", "ID BDGEO": "20", "marker-color": "#56B3FF"}}, {"type": "Feature", "geometry": {"type": "Point", "coordinates": [2.417163, 48.864691]}, "properties": {"station": "GALLIENI", "ID BDGEO": "16", "marker-color": "#56B3FF"}}, {"type": "Feature", "geometry": {"type": "Point", "coordinates": [2.426533, 48.895483]}, "properties": {"station": "RAYMOND QUENEAU - ROUTE DE NOISY.", "ID BDGEO": "51", "marker-color": "#56B3FF"}}, {"type": "Feature", "geometry": {"type": "Point", "coordinates": [2.426926, 48.877967]}, "properties": {"station": "FLOREAL", "ID BDGEO": "43", "marker-color": "#56B3FF"}}, {"type": "Feature", "geometry": {"type": "Point", "coordinates": [2.431962, 48.845186]}, "properties": {"station": "VIGNERONS", "ID BDGEO": "464", "marker-color": "#56B3FF"}}, {"type": "Feature", "geometry": {"type": "Point", "coordinates": [2.428097, 48.846627]}, "properties": {"station": "VINCENNES RER", "ID BDGEO": "81", "marker-color": "#56B3FF"}}, {"type": "Feature", "geometry": {"type": "Point", "coordinates": [2.422869, 48.855816]}, "properties": {"station": "ROBESPIERRE-METRO", "ID BDGEO": "29", "marker-color": "#56B3FF"}}, {"type": "Feature", "geometry": {"type": "Point", "coordinates": [2.425546, 48.876117]}, "properties": {"station": "CIMETIERE DE BAGNOLET", "ID BDGEO": "150", "marker-color": "#56B3FF"}}, {"type": "Feature", "geometry": {"type": "Point", "coordinates": [2.422951, 48.855537]}, "properties": {"station": "ROBESPIERRE-METRO", "ID BDGEO": "76", "marker-color": "#56B3FF"}}]}