{"type": "FeatureCollection", "features": [{"type": "Feature", "geometry": {"type": "Point", "coordinates": [2.427819, 48.879211]}, "properties": {"numparc": 1500, "etat de la localisation": "autre", "ID BDGEO": "771", "horodatage": "2021-11-07 06:44:39", "distance (en metres)": 93.24, "station": "DEPOT LES LILAS (S)", "marker-color": "#818181"}}, {"type": "Feature", "geometry": {"type": "Point", "coordinates": [2.427675, 48.879162]}, "properties": {"numparc": 1500, "etat de la localisation": "autre", "ID BDGEO": "771", "horodatage": "2021-11-07 06:46:09", "distance (en metres)": 103.09, "station": "DEPOT LES LILAS (S)", "marker-color": "#818181"}}, {"type": "Feature", "geometry": {"type": "Point", "coordinates": [2.426866, 48.879063]}, "properties": {"numparc": 1499, "etat de la localisation": "autre", "ID BDGEO": "771", "horodatage": "2021-11-07 06:54:21", "distance (en metres)": 161.96, "station": "DEPOT LES LILAS (S)", "marker-color": "#818181"}}, {"type": "Feature", "geometry": {"type": "Point", "coordinates": [2.427004, 48.879238]}, "properties": {"numparc": 1499, "etat de la localisation": "autre", "ID BDGEO": "771", "horodatage": "2021-11-07 06:58:55", "distance (en metres)": 152.74, "station": "DEPOT LES LILAS (S)", "marker-color": "#818181"}}, {"type": "Feature", "geometry": {"type": "Point", "coordinates": [2.408525, 48.87719]}, "properties": {"numparc": 1500, "etat de la localisation": "autre", "ID BDGEO": "502", "horodatage": "2021-11-07 07:50:41", "distance (en metres)": 100.16, "station": "PORTE DES LILAS-METRO", "marker-color": "#818181"}}, {"type": "Feature", "geometry": {"type": "Point", "coordinates": [2.440653, 48.844246]}, "properties": {"numparc": 1500, "etat de la localisation": "autre", "ID BDGEO": "503", "horodatage": "2021-11-07 08:30:32", "distance (en metres)": 58.67, "station": "CHATEAU DE VINCENNES", "marker-color": "#818181"}}, {"type": "Feature", "geometry": {"type": "Point", "coordinates": [2.408566, 48.877197]}, "properties": {"numparc": 1500, "etat de la localisation": "autre", "ID BDGEO": "502", "horodatage": "2021-11-07 09:28:02", "distance (en metres)": 102.64, "station": "PORTE DES LILAS-METRO", "marker-color": "#818181"}}, {"type": "Feature", "geometry": {"type": "Point", "coordinates": [2.440301, 48.844303]}, "properties": {"numparc": 1500, "etat de la localisation": "autre", "ID BDGEO": "503", "horodatage": "2021-11-07 10:14:19", "distance (en metres)": 85.19, "station": "CHATEAU DE VINCENNES", "marker-color": "#818181"}}, {"type": "Feature", "geometry": {"type": "Point", "coordinates": [2.408407, 48.877293]}, "properties": {"numparc": 1500, "etat de la localisation": "autre", "ID BDGEO": "502", "horodatage": "2021-11-07 10:59:59", "distance (en metres)": 104.82, "station": "PORTE DES LILAS-METRO", "marker-color": "#818181"}}, {"type": "Feature", "geometry": {"type": "Point", "coordinates": [2.42698, 48.879097]}, "properties": {"numparc": 1499, "etat de la localisation": "autre", "ID BDGEO": "771", "horodatage": "2021-11-07 11:34:20", "distance (en metres)": 153.6, "station": "DEPOT LES LILAS (S)", "marker-color": "#818181"}}, {"type": "Feature", "geometry": {"type": "Point", "coordinates": [2.42664, 48.878895]}, "properties": {"numparc": 1499, "etat de la localisation": "autre", "ID BDGEO": "771", "horodatage": "2021-11-07 11:38:55", "distance (en metres)": 179.75, "station": "DEPOT LES LILAS (S)", "marker-color": "#818181"}}, {"type": "Feature", "geometry": {"type": "Point", "coordinates": [2.426617, 48.87888]}, "properties": {"numparc": 1499, "etat de la localisation": "Delocalise", "ID BDGEO": "511", "horodatage": "2021-11-07 11:41:57", "distance (en metres)": 448.08, "station": "GIRARDOT", "marker-color": "#FF565E"}}, {"type": "Feature", "geometry": {"type": "Point", "coordinates": [2.440445, 48.844276]}, "properties": {"numparc": 1500, "etat de la localisation": "autre", "ID BDGEO": "503", "horodatage": "2021-11-07 11:49:23", "distance (en metres)": 74.26, "station": "CHATEAU DE VINCENNES", "marker-color": "#818181"}}, {"type": "Feature", "geometry": {"type": "Point", "coordinates": [2.407909, 48.87645]}, "properties": {"numparc": 1499, "etat de la localisation": "autre", "ID BDGEO": "682", "horodatage": "2021-11-07 11:52:09", "distance (en metres)": 88.21, "station": "PORTE DES LILAS-METRO.", "marker-color": "#818181"}}, {"type": "Feature", "geometry": {"type": "Point", "coordinates": [2.407945, 48.876461]}, "properties": {"numparc": 1499, "etat de la localisation": "autre", "ID BDGEO": "682", "horodatage": "2021-11-07 11:53:48", "distance (en metres)": 86.28, "station": "PORTE DES LILAS-METRO.", "marker-color": "#818181"}}, {"type": "Feature", "geometry": {"type": "Point", "coordinates": [2.413077, 48.876511]}, "properties": {"numparc": 1499, "etat de la localisation": "autre", "ID BDGEO": "648", "horodatage": "2021-11-07 11:58:35", "distance (en metres)": 54.33, "station": "CHASSAGNOLE", "marker-color": "#818181"}}, {"type": "Feature", "geometry": {"type": "Point", "coordinates": [2.418059, 48.876053]}, "properties": {"numparc": 1499, "etat de la localisation": "autre", "ID BDGEO": "629", "horodatage": "2021-11-07 12:00:26", "distance (en metres)": 102.15, "station": "RUE DE NOISY LE SEC", "marker-color": "#818181"}}, {"type": "Feature", "geometry": {"type": "Point", "coordinates": [2.424465, 48.875202]}, "properties": {"numparc": 1499, "etat de la localisation": "autre", "ID BDGEO": "615", "horodatage": "2021-11-07 12:03:59", "distance (en metres)": 80.07, "station": "GIRARDOT", "marker-color": "#818181"}}, {"type": "Feature", "geometry": {"type": "Point", "coordinates": [2.42528, 48.872242]}, "properties": {"numparc": 1499, "etat de la localisation": "autre", "ID BDGEO": "614", "horodatage": "2021-11-07 12:05:34", "distance (en metres)": 65.0, "station": "LES MALASSIS", "marker-color": "#818181"}}, {"type": "Feature", "geometry": {"type": "Point", "coordinates": [2.440941, 48.861763]}, "properties": {"numparc": 1499, "etat de la localisation": "autre", "ID BDGEO": "608", "horodatage": "2021-11-07 12:15:22", "distance (en metres)": 125.65, "station": "MAIRIE DE MONTREUIL-PASTEUR", "marker-color": "#818181"}}, {"type": "Feature", "geometry": {"type": "Point", "coordinates": [2.439989, 48.857193]}, "properties": {"numparc": 1499, "etat de la localisation": "autre", "ID BDGEO": "609", "horodatage": "2021-11-07 12:19:46", "distance (en metres)": 49.47, "station": "WILSON-GABRIEL PERI", "marker-color": "#818181"}}, {"type": "Feature", "geometry": {"type": "Point", "coordinates": [2.433163, 48.848602]}, "properties": {"numparc": 1499, "etat de la localisation": "autre", "ID BDGEO": "590", "horodatage": "2021-11-07 12:27:28", "distance (en metres)": 220.64, "station": "RUE DE MONTREUIL", "marker-color": "#818181"}}, {"type": "Feature", "geometry": {"type": "Point", "coordinates": [2.436843, 48.84737]}, "properties": {"numparc": 1499, "etat de la localisation": "autre", "ID BDGEO": "589", "horodatage": "2021-11-07 12:31:07", "distance (en metres)": 44.45, "station": "VINCENNES RER", "marker-color": "#818181"}}, {"type": "Feature", "geometry": {"type": "Point", "coordinates": [2.408573, 48.877182]}, "properties": {"numparc": 1500, "etat de la localisation": "autre", "ID BDGEO": "502", "horodatage": "2021-11-07 12:33:21", "distance (en metres)": 101.67, "station": "PORTE DES LILAS-METRO", "marker-color": "#818181"}}, {"type": "Feature", "geometry": {"type": "Point", "coordinates": [2.440332, 48.844315]}, "properties": {"numparc": 1499, "etat de la localisation": "autre", "ID BDGEO": "503", "horodatage": "2021-11-07 12:35:18", "distance (en metres)": 83.29, "station": "CHATEAU DE VINCENNES", "marker-color": "#818181"}}, {"type": "Feature", "geometry": {"type": "Point", "coordinates": [2.42276, 48.876133]}, "properties": {"numparc": 1500, "etat de la localisation": "autre", "ID BDGEO": "510", "horodatage": "2021-11-07 12:58:15", "distance (en metres)": 78.42, "station": "RUE DE PANTIN", "marker-color": "#818181"}}, {"type": "Feature", "geometry": {"type": "Point", "coordinates": [2.408478, 48.877361]}, "properties": {"numparc": 1499, "etat de la localisation": "autre", "ID BDGEO": "502", "horodatage": "2021-11-07 13:22:30", "distance (en metres)": 113.97, "station": "PORTE DES LILAS-METRO", "marker-color": "#818181"}}, {"type": "Feature", "geometry": {"type": "Point", "coordinates": [2.440336, 48.84428]}, "properties": {"numparc": 1500, "etat de la localisation": "autre", "ID BDGEO": "503", "horodatage": "2021-11-07 13:29:19", "distance (en metres)": 82.16, "station": "CHATEAU DE VINCENNES", "marker-color": "#818181"}}, {"type": "Feature", "geometry": {"type": "Point", "coordinates": [2.413052, 48.876579]}, "properties": {"numparc": 1499, "etat de la localisation": "autre", "ID BDGEO": "648", "horodatage": "2021-11-07 13:41:14", "distance (en metres)": 58.2, "station": "CHASSAGNOLE", "marker-color": "#818181"}}, {"type": "Feature", "geometry": {"type": "Point", "coordinates": [2.418034, 48.876087]}, "properties": {"numparc": 1499, "etat de la localisation": "autre", "ID BDGEO": "629", "horodatage": "2021-11-07 13:42:31", "distance (en metres)": 100.32, "station": "RUE DE NOISY LE SEC", "marker-color": "#818181"}}, {"type": "Feature", "geometry": {"type": "Point", "coordinates": [2.424455, 48.875229]}, "properties": {"numparc": 1499, "etat de la localisation": "autre", "ID BDGEO": "615", "horodatage": "2021-11-07 13:45:56", "distance (en metres)": 77.19, "station": "GIRARDOT", "marker-color": "#818181"}}, {"type": "Feature", "geometry": {"type": "Point", "coordinates": [2.42528, 48.872215]}, "properties": {"numparc": 1499, "etat de la localisation": "autre", "ID BDGEO": "614", "horodatage": "2021-11-07 13:48:03", "distance (en metres)": 67.22, "station": "LES MALASSIS", "marker-color": "#818181"}}, {"type": "Feature", "geometry": {"type": "Point", "coordinates": [2.440943, 48.861832]}, "properties": {"numparc": 1499, "etat de la localisation": "autre", "ID BDGEO": "608", "horodatage": "2021-11-07 13:59:07", "distance (en metres)": 118.03, "station": "MAIRIE DE MONTREUIL-PASTEUR", "marker-color": "#818181"}}, {"type": "Feature", "geometry": {"type": "Point", "coordinates": [2.438936, 48.86005]}, "properties": {"numparc": 1499, "etat de la localisation": "autre", "ID BDGEO": "594", "horodatage": "2021-11-07 14:00:18", "distance (en metres)": 90.98, "station": "VICTOR HUGO", "marker-color": "#818181"}}, {"type": "Feature", "geometry": {"type": "Point", "coordinates": [2.440013, 48.857159]}, "properties": {"numparc": 1499, "etat de la localisation": "autre", "ID BDGEO": "609", "horodatage": "2021-11-07 14:03:58", "distance (en metres)": 53.46, "station": "WILSON-GABRIEL PERI", "marker-color": "#818181"}}, {"type": "Feature", "geometry": {"type": "Point", "coordinates": [2.434214, 48.84977]}, "properties": {"numparc": 1499, "etat de la localisation": "autre", "ID BDGEO": "590", "horodatage": "2021-11-07 14:08:53", "distance (en metres)": 73.26, "station": "RUE DE MONTREUIL", "marker-color": "#818181"}}, {"type": "Feature", "geometry": {"type": "Point", "coordinates": [2.433032, 48.848511]}, "properties": {"numparc": 1499, "etat de la localisation": "autre", "ID BDGEO": "590", "horodatage": "2021-11-07 14:10:15", "distance (en metres)": 234.51, "station": "RUE DE MONTREUIL", "marker-color": "#818181"}}, {"type": "Feature", "geometry": {"type": "Point", "coordinates": [2.436863, 48.847435]}, "properties": {"numparc": 1499, "etat de la localisation": "autre", "ID BDGEO": "589", "horodatage": "2021-11-07 14:13:09", "distance (en metres)": 51.64, "station": "VINCENNES RER", "marker-color": "#818181"}}, {"type": "Feature", "geometry": {"type": "Point", "coordinates": [2.408546, 48.877144]}, "properties": {"numparc": 1500, "etat de la localisation": "autre", "ID BDGEO": "502", "horodatage": "2021-11-07 14:14:38", "distance (en metres)": 97.17, "station": "PORTE DES LILAS-METRO", "marker-color": "#818181"}}, {"type": "Feature", "geometry": {"type": "Point", "coordinates": [2.408546, 48.877144]}, "properties": {"numparc": 1500, "etat de la localisation": "autre", "ID BDGEO": "502", "horodatage": "2021-11-07 14:15:00", "distance (en metres)": 97.17, "station": "PORTE DES LILAS-METRO", "marker-color": "#818181"}}, {"type": "Feature", "geometry": {"type": "Point", "coordinates": [2.440437, 48.844292]}, "properties": {"numparc": 1499, "etat de la localisation": "autre", "ID BDGEO": "503", "horodatage": "2021-11-07 14:15:45", "distance (en metres)": 75.22, "station": "CHATEAU DE VINCENNES", "marker-color": "#818181"}}, {"type": "Feature", "geometry": {"type": "Point", "coordinates": [2.435095, 48.850174]}, "properties": {"numparc": 1499, "etat de la localisation": "autre", "ID BDGEO": "554", "horodatage": "2021-11-07 14:28:49", "distance (en metres)": 84.03, "station": "RUE DE MONTREUIL", "marker-color": "#818181"}}, {"type": "Feature", "geometry": {"type": "Point", "coordinates": [2.438917, 48.853336]}, "properties": {"numparc": 1499, "etat de la localisation": "autre", "ID BDGEO": "553", "horodatage": "2021-11-07 14:30:27", "distance (en metres)": 52.49, "station": "SOLIDARITE", "marker-color": "#818181"}}, {"type": "Feature", "geometry": {"type": "Point", "coordinates": [2.439965, 48.86079]}, "properties": {"numparc": 1499, "etat de la localisation": "autre", "ID BDGEO": "549", "horodatage": "2021-11-07 14:36:17", "distance (en metres)": 100.07, "station": "VICTOR HUGO", "marker-color": "#818181"}}, {"type": "Feature", "geometry": {"type": "Point", "coordinates": [2.424822, 48.872654]}, "properties": {"numparc": 1499, "etat de la localisation": "autre", "ID BDGEO": "512", "horodatage": "2021-11-07 14:47:51", "distance (en metres)": 44.23, "station": "LES MALASSIS", "marker-color": "#818181"}}, {"type": "Feature", "geometry": {"type": "Point", "coordinates": [2.424162, 48.875721]}, "properties": {"numparc": 1499, "etat de la localisation": "autre", "ID BDGEO": "511", "horodatage": "2021-11-07 14:50:13", "distance (en metres)": 69.32, "station": "GIRARDOT", "marker-color": "#818181"}}, {"type": "Feature", "geometry": {"type": "Point", "coordinates": [2.422295, 48.876186]}, "properties": {"numparc": 1499, "etat de la localisation": "autre", "ID BDGEO": "510", "horodatage": "2021-11-07 14:51:08", "distance (en metres)": 44.22, "station": "RUE DE PANTIN", "marker-color": "#818181"}}, {"type": "Feature", "geometry": {"type": "Point", "coordinates": [2.417012, 48.876068]}, "properties": {"numparc": 1499, "etat de la localisation": "autre", "ID BDGEO": "509", "horodatage": "2021-11-07 14:53:09", "distance (en metres)": 78.17, "station": "RUE DE NOISY LE SEC", "marker-color": "#818181"}}, {"type": "Feature", "geometry": {"type": "Point", "coordinates": [2.408556, 48.877167]}, "properties": {"numparc": 1499, "etat de la localisation": "autre", "ID BDGEO": "502", "horodatage": "2021-11-07 14:57:10", "distance (en metres)": 99.59, "station": "PORTE DES LILAS-METRO", "marker-color": "#818181"}}, {"type": "Feature", "geometry": {"type": "Point", "coordinates": [2.440305, 48.844303]}, "properties": {"numparc": 1500, "etat de la localisation": "autre", "ID BDGEO": "503", "horodatage": "2021-11-07 15:04:38", "distance (en metres)": 84.91, "station": "CHATEAU DE VINCENNES", "marker-color": "#818181"}}, {"type": "Feature", "geometry": {"type": "Point", "coordinates": [2.41312, 48.87656]}, "properties": {"numparc": 1499, "etat de la localisation": "autre", "ID BDGEO": "648", "horodatage": "2021-11-07 15:11:52", "distance (en metres)": 52.8, "station": "CHASSAGNOLE", "marker-color": "#818181"}}, {"type": "Feature", "geometry": {"type": "Point", "coordinates": [2.417983, 48.876091]}, "properties": {"numparc": 1499, "etat de la localisation": "autre", "ID BDGEO": "629", "horodatage": "2021-11-07 15:13:34", "distance (en metres)": 96.61, "station": "RUE DE NOISY LE SEC", "marker-color": "#818181"}}, {"type": "Feature", "geometry": {"type": "Point", "coordinates": [2.424415, 48.875214]}, "properties": {"numparc": 1499, "etat de la localisation": "autre", "ID BDGEO": "615", "horodatage": "2021-11-07 15:16:09", "distance (en metres)": 76.92, "station": "GIRARDOT", "marker-color": "#818181"}}, {"type": "Feature", "geometry": {"type": "Point", "coordinates": [2.425231, 48.872269]}, "properties": {"numparc": 1499, "etat de la localisation": "autre", "ID BDGEO": "614", "horodatage": "2021-11-07 15:18:08", "distance (en metres)": 60.36, "station": "LES MALASSIS", "marker-color": "#818181"}}, {"type": "Feature", "geometry": {"type": "Point", "coordinates": [2.440938, 48.861805]}, "properties": {"numparc": 1499, "etat de la localisation": "autre", "ID BDGEO": "608", "horodatage": "2021-11-07 15:29:05", "distance (en metres)": 121.05, "station": "MAIRIE DE MONTREUIL-PASTEUR", "marker-color": "#818181"}}, {"type": "Feature", "geometry": {"type": "Point", "coordinates": [2.438864, 48.860077]}, "properties": {"numparc": 1499, "etat de la localisation": "autre", "ID BDGEO": "594", "horodatage": "2021-11-07 15:30:16", "distance (en metres)": 92.29, "station": "VICTOR HUGO", "marker-color": "#818181"}}, {"type": "Feature", "geometry": {"type": "Point", "coordinates": [2.44, 48.857128]}, "properties": {"numparc": 1499, "etat de la localisation": "autre", "ID BDGEO": "609", "horodatage": "2021-11-07 15:34:29", "distance (en metres)": 55.49, "station": "WILSON-GABRIEL PERI", "marker-color": "#818181"}}, {"type": "Feature", "geometry": {"type": "Point", "coordinates": [2.433133, 48.848537]}, "properties": {"numparc": 1499, "etat de la localisation": "autre", "ID BDGEO": "590", "horodatage": "2021-11-07 15:38:13", "distance (en metres)": 227.72, "station": "RUE DE MONTREUIL", "marker-color": "#818181"}}, {"type": "Feature", "geometry": {"type": "Point", "coordinates": [2.436868, 48.847366]}, "properties": {"numparc": 1499, "etat de la localisation": "autre", "ID BDGEO": "589", "horodatage": "2021-11-07 15:40:04", "distance (en metres)": 43.97, "station": "VINCENNES RER", "marker-color": "#818181"}}, {"type": "Feature", "geometry": {"type": "Point", "coordinates": [2.440302, 48.844303]}, "properties": {"numparc": 1499, "etat de la localisation": "autre", "ID BDGEO": "503", "horodatage": "2021-11-07 15:43:06", "distance (en metres)": 85.12, "station": "CHATEAU DE VINCENNES", "marker-color": "#818181"}}, {"type": "Feature", "geometry": {"type": "Point", "coordinates": [2.408544, 48.877174]}, "properties": {"numparc": 1500, "etat de la localisation": "autre", "ID BDGEO": "502", "horodatage": "2021-11-07 15:44:01", "distance (en metres)": 99.63, "station": "PORTE DES LILAS-METRO", "marker-color": "#818181"}}, {"type": "Feature", "geometry": {"type": "Point", "coordinates": [2.422271, 48.876171]}, "properties": {"numparc": 1499, "etat de la localisation": "autre", "ID BDGEO": "510", "horodatage": "2021-11-07 16:26:47", "distance (en metres)": 42.48, "station": "RUE DE PANTIN", "marker-color": "#818181"}}, {"type": "Feature", "geometry": {"type": "Point", "coordinates": [2.417066, 48.876022]}, "properties": {"numparc": 1499, "etat de la localisation": "autre", "ID BDGEO": "509", "horodatage": "2021-11-07 16:28:29", "distance (en metres)": 74.12, "station": "RUE DE NOISY LE SEC", "marker-color": "#818181"}}, {"type": "Feature", "geometry": {"type": "Point", "coordinates": [2.440243, 48.844296]}, "properties": {"numparc": 1500, "etat de la localisation": "autre", "ID BDGEO": "503", "horodatage": "2021-11-07 16:33:15", "distance (en metres)": 89.18, "station": "CHATEAU DE VINCENNES", "marker-color": "#818181"}}, {"type": "Feature", "geometry": {"type": "Point", "coordinates": [2.40859, 48.877163]}, "properties": {"numparc": 1499, "etat de la localisation": "autre", "ID BDGEO": "502", "horodatage": "2021-11-07 16:34:30", "distance (en metres)": 100.86, "station": "PORTE DES LILAS-METRO", "marker-color": "#818181"}}, {"type": "Feature", "geometry": {"type": "Point", "coordinates": [2.413091, 48.876518]}, "properties": {"numparc": 1499, "etat de la localisation": "autre", "ID BDGEO": "648", "horodatage": "2021-11-07 16:50:46", "distance (en metres)": 53.51, "station": "CHASSAGNOLE", "marker-color": "#818181"}}, {"type": "Feature", "geometry": {"type": "Point", "coordinates": [2.418066, 48.876045]}, "properties": {"numparc": 1499, "etat de la localisation": "autre", "ID BDGEO": "629", "horodatage": "2021-11-07 16:52:30", "distance (en metres)": 102.68, "station": "RUE DE NOISY LE SEC", "marker-color": "#818181"}}, {"type": "Feature", "geometry": {"type": "Point", "coordinates": [2.424458, 48.875198]}, "properties": {"numparc": 1499, "etat de la localisation": "autre", "ID BDGEO": "615", "horodatage": "2021-11-07 16:56:16", "distance (en metres)": 80.15, "station": "GIRARDOT", "marker-color": "#818181"}}, {"type": "Feature", "geometry": {"type": "Point", "coordinates": [2.440005, 48.857147]}, "properties": {"numparc": 1499, "etat de la localisation": "autre", "ID BDGEO": "609", "horodatage": "2021-11-07 17:12:26", "distance (en metres)": 54.09, "station": "WILSON-GABRIEL PERI", "marker-color": "#818181"}}, {"type": "Feature", "geometry": {"type": "Point", "coordinates": [2.440004, 48.857147]}, "properties": {"numparc": 1499, "etat de la localisation": "autre", "ID BDGEO": "609", "horodatage": "2021-11-07 17:12:48", "distance (en metres)": 54.04, "station": "WILSON-GABRIEL PERI", "marker-color": "#818181"}}, {"type": "Feature", "geometry": {"type": "Point", "coordinates": [2.434323, 48.849945]}, "properties": {"numparc": 1499, "etat de la localisation": "autre", "ID BDGEO": "590", "horodatage": "2021-11-07 17:16:40", "distance (en metres)": 56.08, "station": "RUE DE MONTREUIL", "marker-color": "#818181"}}, {"type": "Feature", "geometry": {"type": "Point", "coordinates": [2.433214, 48.848694]}, "properties": {"numparc": 1499, "etat de la localisation": "autre", "ID BDGEO": "590", "horodatage": "2021-11-07 17:18:15", "distance (en metres)": 210.29, "station": "RUE DE MONTREUIL", "marker-color": "#818181"}}, {"type": "Feature", "geometry": {"type": "Point", "coordinates": [2.436903, 48.847466]}, "properties": {"numparc": 1499, "etat de la localisation": "autre", "ID BDGEO": "589", "horodatage": "2021-11-07 17:20:46", "distance (en metres)": 55.15, "station": "VINCENNES RER", "marker-color": "#818181"}}, {"type": "Feature", "geometry": {"type": "Point", "coordinates": [2.44028, 48.844337]}, "properties": {"numparc": 1499, "etat de la localisation": "autre", "ID BDGEO": "503", "horodatage": "2021-11-07 17:23:19", "distance (en metres)": 87.58, "station": "CHATEAU DE VINCENNES", "marker-color": "#818181"}}, {"type": "Feature", "geometry": {"type": "Point", "coordinates": [2.40854, 48.877151]}, "properties": {"numparc": 1500, "etat de la localisation": "autre", "ID BDGEO": "502", "horodatage": "2021-11-07 17:26:46", "distance (en metres)": 97.48, "station": "PORTE DES LILAS-METRO", "marker-color": "#818181"}}, {"type": "Feature", "geometry": {"type": "Point", "coordinates": [2.440186, 48.844269]}, "properties": {"numparc": 1499, "etat de la localisation": "autre", "ID BDGEO": "503", "horodatage": "2021-11-07 17:32:54", "distance (en metres)": 92.74, "station": "CHATEAU DE VINCENNES", "marker-color": "#818181"}}, {"type": "Feature", "geometry": {"type": "Point", "coordinates": [2.427505, 48.872276]}, "properties": {"numparc": 1499, "etat de la localisation": "autre", "ID BDGEO": "613", "horodatage": "2021-11-07 17:58:55", "distance (en metres)": 59.25, "station": "STALINGRAD", "marker-color": "#818181"}}, {"type": "Feature", "geometry": {"type": "Point", "coordinates": [2.427171, 48.872265]}, "properties": {"numparc": 1499, "etat de la localisation": "autre", "ID BDGEO": "613", "horodatage": "2021-11-07 18:01:18", "distance (en metres)": 83.62, "station": "STALINGRAD", "marker-color": "#818181"}}, {"type": "Feature", "geometry": {"type": "Point", "coordinates": [2.424865, 48.872662]}, "properties": {"numparc": 1499, "etat de la localisation": "autre", "ID BDGEO": "512", "horodatage": "2021-11-07 18:07:23", "distance (en metres)": 43.75, "station": "LES MALASSIS", "marker-color": "#818181"}}, {"type": "Feature", "geometry": {"type": "Point", "coordinates": [2.43644, 48.845116]}, "properties": {"numparc": 1500, "etat de la localisation": "autre", "ID BDGEO": "570", "horodatage": "2021-11-07 18:09:02", "distance (en metres)": 68.44, "station": "AVENUE DU CHATEAU", "marker-color": "#818181"}}, {"type": "Feature", "geometry": {"type": "Point", "coordinates": [2.424122, 48.875763]}, "properties": {"numparc": 1499, "etat de la localisation": "autre", "ID BDGEO": "511", "horodatage": "2021-11-07 18:09:48", "distance (en metres)": 74.62, "station": "GIRARDOT", "marker-color": "#818181"}}, {"type": "Feature", "geometry": {"type": "Point", "coordinates": [2.422246, 48.876205]}, "properties": {"numparc": 1499, "etat de la localisation": "autre", "ID BDGEO": "510", "horodatage": "2021-11-07 18:11:37", "distance (en metres)": 40.71, "station": "RUE DE PANTIN", "marker-color": "#818181"}}, {"type": "Feature", "geometry": {"type": "Point", "coordinates": [2.440479, 48.844273]}, "properties": {"numparc": 1500, "etat de la localisation": "autre", "ID BDGEO": "503", "horodatage": "2021-11-07 18:11:50", "distance (en metres)": 71.76, "station": "CHATEAU DE VINCENNES", "marker-color": "#818181"}}, {"type": "Feature", "geometry": {"type": "Point", "coordinates": [2.417048, 48.876057]}, "properties": {"numparc": 1499, "etat de la localisation": "autre", "ID BDGEO": "509", "horodatage": "2021-11-07 18:13:13", "distance (en metres)": 75.48, "station": "RUE DE NOISY LE SEC", "marker-color": "#818181"}}, {"type": "Feature", "geometry": {"type": "Point", "coordinates": [2.414084, 48.876408]}, "properties": {"numparc": 1499, "etat de la localisation": "autre", "ID BDGEO": "508", "horodatage": "2021-11-07 18:14:07", "distance (en metres)": 71.17, "station": "CHASSAGNOLE", "marker-color": "#818181"}}, {"type": "Feature", "geometry": {"type": "Point", "coordinates": [2.408576, 48.877186]}, "properties": {"numparc": 1499, "etat de la localisation": "autre", "ID BDGEO": "502", "horodatage": "2021-11-07 18:17:06", "distance (en metres)": 102.15, "station": "PORTE DES LILAS-METRO", "marker-color": "#818181"}}, {"type": "Feature", "geometry": {"type": "Point", "coordinates": [2.413136, 48.876545]}, "properties": {"numparc": 1499, "etat de la localisation": "autre", "ID BDGEO": "648", "horodatage": "2021-11-07 18:25:10", "distance (en metres)": 51.16, "station": "CHASSAGNOLE", "marker-color": "#818181"}}, {"type": "Feature", "geometry": {"type": "Point", "coordinates": [2.418085, 48.876057]}, "properties": {"numparc": 1499, "etat de la localisation": "autre", "ID BDGEO": "629", "horodatage": "2021-11-07 18:26:39", "distance (en metres)": 104.04, "station": "RUE DE NOISY LE SEC", "marker-color": "#818181"}}, {"type": "Feature", "geometry": {"type": "Point", "coordinates": [2.424426, 48.875195]}, "properties": {"numparc": 1499, "etat de la localisation": "autre", "ID BDGEO": "615", "horodatage": "2021-11-07 18:29:13", "distance (en metres)": 79.14, "station": "GIRARDOT", "marker-color": "#818181"}}, {"type": "Feature", "geometry": {"type": "Point", "coordinates": [2.425168, 48.872234]}, "properties": {"numparc": 1499, "etat de la localisation": "autre", "ID BDGEO": "614", "horodatage": "2021-11-07 18:30:55", "distance (en metres)": 60.37, "station": "LES MALASSIS", "marker-color": "#818181"}}, {"type": "Feature", "geometry": {"type": "Point", "coordinates": [2.440973, 48.861774]}, "properties": {"numparc": 1499, "etat de la localisation": "autre", "ID BDGEO": "608", "horodatage": "2021-11-07 18:41:27", "distance (en metres)": 124.16, "station": "MAIRIE DE MONTREUIL-PASTEUR", "marker-color": "#818181"}}, {"type": "Feature", "geometry": {"type": "Point", "coordinates": [2.438956, 48.860046]}, "properties": {"numparc": 1499, "etat de la localisation": "autre", "ID BDGEO": "594", "horodatage": "2021-11-07 18:42:16", "distance (en metres)": 90.38, "station": "VICTOR HUGO", "marker-color": "#818181"}}, {"type": "Feature", "geometry": {"type": "Point", "coordinates": [2.439967, 48.857182]}, "properties": {"numparc": 1499, "etat de la localisation": "autre", "ID BDGEO": "609", "horodatage": "2021-11-07 18:45:57", "distance (en metres)": 49.32, "station": "WILSON-GABRIEL PERI", "marker-color": "#818181"}}, {"type": "Feature", "geometry": {"type": "Point", "coordinates": [2.434247, 48.849747]}, "properties": {"numparc": 1499, "etat de la localisation": "autre", "ID BDGEO": "590", "horodatage": "2021-11-07 18:48:30", "distance (en metres)": 72.99, "station": "RUE DE MONTREUIL", "marker-color": "#818181"}}, {"type": "Feature", "geometry": {"type": "Point", "coordinates": [2.433009, 48.848522]}, "properties": {"numparc": 1499, "etat de la localisation": "autre", "ID BDGEO": "590", "horodatage": "2021-11-07 18:50:03", "distance (en metres)": 234.6, "station": "RUE DE MONTREUIL", "marker-color": "#818181"}}, {"type": "Feature", "geometry": {"type": "Point", "coordinates": [2.436848, 48.847397]}, "properties": {"numparc": 1499, "etat de la localisation": "autre", "ID BDGEO": "589", "horodatage": "2021-11-07 18:52:12", "distance (en metres)": 47.44, "station": "VINCENNES RER", "marker-color": "#818181"}}, {"type": "Feature", "geometry": {"type": "Point", "coordinates": [2.440287, 48.844303]}, "properties": {"numparc": 1499, "etat de la localisation": "autre", "ID BDGEO": "503", "horodatage": "2021-11-07 18:54:00", "distance (en metres)": 86.19, "station": "CHATEAU DE VINCENNES", "marker-color": "#818181"}}, {"type": "Feature", "geometry": {"type": "Point", "coordinates": [2.408548, 48.877159]}, "properties": {"numparc": 1500, "etat de la localisation": "autre", "ID BDGEO": "502", "horodatage": "2021-11-07 18:57:20", "distance (en metres)": 98.54, "station": "PORTE DES LILAS-METRO", "marker-color": "#818181"}}, {"type": "Feature", "geometry": {"type": "Point", "coordinates": [2.424087, 48.875763]}, "properties": {"numparc": 1499, "etat de la localisation": "autre", "ID BDGEO": "511", "horodatage": "2021-11-07 19:30:44", "distance (en metres)": 75.39, "station": "GIRARDOT", "marker-color": "#818181"}}, {"type": "Feature", "geometry": {"type": "Point", "coordinates": [2.422251, 48.876186]}, "properties": {"numparc": 1499, "etat de la localisation": "autre", "ID BDGEO": "510", "horodatage": "2021-11-07 19:31:32", "distance (en metres)": 41.0, "station": "RUE DE PANTIN", "marker-color": "#818181"}}, {"type": "Feature", "geometry": {"type": "Point", "coordinates": [2.416992, 48.876083]}, "properties": {"numparc": 1499, "etat de la localisation": "autre", "ID BDGEO": "509", "horodatage": "2021-11-07 19:33:09", "distance (en metres)": 79.73, "station": "RUE DE NOISY LE SEC", "marker-color": "#818181"}}, {"type": "Feature", "geometry": {"type": "Point", "coordinates": [2.408561, 48.877209]}, "properties": {"numparc": 1499, "etat de la localisation": "autre", "ID BDGEO": "502", "horodatage": "2021-11-07 19:37:07", "distance (en metres)": 103.45, "station": "PORTE DES LILAS-METRO", "marker-color": "#818181"}}, {"type": "Feature", "geometry": {"type": "Point", "coordinates": [2.44021, 48.844349]}, "properties": {"numparc": 1500, "etat de la localisation": "autre", "ID BDGEO": "503", "horodatage": "2021-11-07 19:42:58", "distance (en metres)": 92.88, "station": "CHATEAU DE VINCENNES", "marker-color": "#818181"}}, {"type": "Feature", "geometry": {"type": "Point", "coordinates": [2.413199, 48.876617]}, "properties": {"numparc": 1499, "etat de la localisation": "autre", "ID BDGEO": "648", "horodatage": "2021-11-07 19:55:38", "distance (en metres)": 50.06, "station": "CHASSAGNOLE", "marker-color": "#818181"}}, {"type": "Feature", "geometry": {"type": "Point", "coordinates": [2.41811, 48.876072]}, "properties": {"numparc": 1499, "etat de la localisation": "autre", "ID BDGEO": "629", "horodatage": "2021-11-07 19:56:51", "distance (en metres)": 105.86, "station": "RUE DE NOISY LE SEC", "marker-color": "#818181"}}, {"type": "Feature", "geometry": {"type": "Point", "coordinates": [2.424341, 48.875195]}, "properties": {"numparc": 1499, "etat de la localisation": "autre", "ID BDGEO": "615", "horodatage": "2021-11-07 19:59:12", "distance (en metres)": 75.97, "station": "GIRARDOT", "marker-color": "#818181"}}, {"type": "Feature", "geometry": {"type": "Point", "coordinates": [2.440964, 48.861778]}, "properties": {"numparc": 1499, "etat de la localisation": "autre", "ID BDGEO": "608", "horodatage": "2021-11-07 20:07:36", "distance (en metres)": 123.79, "station": "MAIRIE DE MONTREUIL-PASTEUR", "marker-color": "#818181"}}, {"type": "Feature", "geometry": {"type": "Point", "coordinates": [2.438952, 48.860065]}, "properties": {"numparc": 1499, "etat de la localisation": "autre", "ID BDGEO": "594", "horodatage": "2021-11-07 20:08:18", "distance (en metres)": 88.95, "station": "VICTOR HUGO", "marker-color": "#818181"}}, {"type": "Feature", "geometry": {"type": "Point", "coordinates": [2.440017, 48.857189]}, "properties": {"numparc": 1499, "etat de la localisation": "autre", "ID BDGEO": "609", "horodatage": "2021-11-07 20:11:09", "distance (en metres)": 51.2, "station": "WILSON-GABRIEL PERI", "marker-color": "#818181"}}, {"type": "Feature", "geometry": {"type": "Point", "coordinates": [2.436929, 48.847401]}, "properties": {"numparc": 1499, "etat de la localisation": "autre", "ID BDGEO": "589", "horodatage": "2021-11-07 20:15:39", "distance (en metres)": 48.07, "station": "VINCENNES RER", "marker-color": "#818181"}}, {"type": "Feature", "geometry": {"type": "Point", "coordinates": [2.440647, 48.844261]}, "properties": {"numparc": 1499, "etat de la localisation": "autre", "ID BDGEO": "503", "horodatage": "2021-11-07 20:17:54", "distance (en metres)": 59.47, "station": "CHATEAU DE VINCENNES", "marker-color": "#818181"}}, {"type": "Feature", "geometry": {"type": "Point", "coordinates": [2.40866, 48.877312]}, "properties": {"numparc": 1500, "etat de la localisation": "autre", "ID BDGEO": "502", "horodatage": "2021-11-07 20:26:46", "distance (en metres)": 116.93, "station": "PORTE DES LILAS-METRO", "marker-color": "#818181"}}, {"type": "Feature", "geometry": {"type": "Point", "coordinates": [2.416983, 48.876057]}, "properties": {"numparc": 1499, "etat de la localisation": "autre", "ID BDGEO": "509", "horodatage": "2021-11-07 20:51:31", "distance (en metres)": 80.23, "station": "RUE DE NOISY LE SEC", "marker-color": "#818181"}}, {"type": "Feature", "geometry": {"type": "Point", "coordinates": [2.414112, 48.876415]}, "properties": {"numparc": 1499, "etat de la localisation": "autre", "ID BDGEO": "508", "horodatage": "2021-11-07 20:52:13", "distance (en metres)": 73.01, "station": "CHASSAGNOLE", "marker-color": "#818181"}}, {"type": "Feature", "geometry": {"type": "Point", "coordinates": [2.40856, 48.877193]}, "properties": {"numparc": 1499, "etat de la localisation": "autre", "ID BDGEO": "502", "horodatage": "2021-11-07 20:55:44", "distance (en metres)": 102.01, "station": "PORTE DES LILAS-METRO", "marker-color": "#818181"}}, {"type": "Feature", "geometry": {"type": "Point", "coordinates": [2.440561, 48.844276]}, "properties": {"numparc": 1500, "etat de la localisation": "autre", "ID BDGEO": "503", "horodatage": "2021-11-07 21:04:18", "distance (en metres)": 65.98, "station": "CHATEAU DE VINCENNES", "marker-color": "#818181"}}, {"type": "Feature", "geometry": {"type": "Point", "coordinates": [2.425323, 48.872223]}, "properties": {"numparc": 1499, "etat de la localisation": "autre", "ID BDGEO": "614", "horodatage": "2021-11-07 21:18:02", "distance (en metres)": 68.71, "station": "LES MALASSIS", "marker-color": "#818181"}}, {"type": "Feature", "geometry": {"type": "Point", "coordinates": [2.438785, 48.852879]}, "properties": {"numparc": 1499, "etat de la localisation": "autre", "ID BDGEO": "591", "horodatage": "2021-11-07 21:28:24", "distance (en metres)": 41.97, "station": "SOLIDARITE", "marker-color": "#818181"}}, {"type": "Feature", "geometry": {"type": "Point", "coordinates": [2.433043, 48.848499]}, "properties": {"numparc": 1499, "etat de la localisation": "autre", "ID BDGEO": "590", "horodatage": "2021-11-07 21:32:41", "distance (en metres)": 235.08, "station": "RUE DE MONTREUIL", "marker-color": "#818181"}}, {"type": "Feature", "geometry": {"type": "Point", "coordinates": [2.440453, 48.844376]}, "properties": {"numparc": 1499, "etat de la localisation": "autre", "ID BDGEO": "503", "horodatage": "2021-11-07 21:36:39", "distance (en metres)": 76.81, "station": "CHATEAU DE VINCENNES", "marker-color": "#818181"}}, {"type": "Feature", "geometry": {"type": "Point", "coordinates": [2.408537, 48.87719]}, "properties": {"numparc": 1500, "etat de la localisation": "autre", "ID BDGEO": "502", "horodatage": "2021-11-07 21:39:46", "distance (en metres)": 100.71, "station": "PORTE DES LILAS-METRO", "marker-color": "#818181"}}, {"type": "Feature", "geometry": {"type": "Point", "coordinates": [2.436911, 48.847023]}, "properties": {"numparc": 1499, "etat de la localisation": "autre", "ID BDGEO": "569", "horodatage": "2021-11-07 21:53:22", "distance (en metres)": 41.18, "station": "VINCENNES RER", "marker-color": "#818181"}}, {"type": "Feature", "geometry": {"type": "Point", "coordinates": [2.439282, 48.857567]}, "properties": {"numparc": 1499, "etat de la localisation": "autre", "ID BDGEO": "551", "horodatage": "2021-11-07 21:58:19", "distance (en metres)": 73.01, "station": "WILSON-GABRIEL PERI", "marker-color": "#818181"}}, {"type": "Feature", "geometry": {"type": "Point", "coordinates": [2.424084, 48.875721]}, "properties": {"numparc": 1499, "etat de la localisation": "autre", "ID BDGEO": "511", "horodatage": "2021-11-07 22:09:40", "distance (en metres)": 71.05, "station": "GIRARDOT", "marker-color": "#818181"}}, {"type": "Feature", "geometry": {"type": "Point", "coordinates": [2.417013, 48.876026]}, "properties": {"numparc": 1499, "etat de la localisation": "autre", "ID BDGEO": "509", "horodatage": "2021-11-07 22:11:44", "distance (en metres)": 77.99, "station": "RUE DE NOISY LE SEC", "marker-color": "#818181"}}, {"type": "Feature", "geometry": {"type": "Point", "coordinates": [2.408419, 48.87735]}, "properties": {"numparc": 1499, "etat de la localisation": "autre", "ID BDGEO": "502", "horodatage": "2021-11-07 22:15:16", "distance (en metres)": 110.76, "station": "PORTE DES LILAS-METRO", "marker-color": "#818181"}}, {"type": "Feature", "geometry": {"type": "Point", "coordinates": [2.408521, 48.877254]}, "properties": {"numparc": 1499, "etat de la localisation": "autre", "ID BDGEO": "502", "horodatage": "2021-11-07 22:25:53", "distance (en metres)": 105.7, "station": "PORTE DES LILAS-METRO", "marker-color": "#818181"}}, {"type": "Feature", "geometry": {"type": "Point", "coordinates": [2.440995, 48.861801]}, "properties": {"numparc": 1499, "etat de la localisation": "autre", "ID BDGEO": "608", "horodatage": "2021-11-07 22:43:44", "distance (en metres)": 121.0, "station": "MAIRIE DE MONTREUIL-PASTEUR", "marker-color": "#818181"}}, {"type": "Feature", "geometry": {"type": "Point", "coordinates": [2.40853, 48.877163]}, "properties": {"numparc": 1500, "etat de la localisation": "autre", "ID BDGEO": "502", "horodatage": "2021-11-07 22:55:23", "distance (en metres)": 98.04, "station": "PORTE DES LILAS-METRO", "marker-color": "#818181"}}, {"type": "Feature", "geometry": {"type": "Point", "coordinates": [2.440465, 48.844353]}, "properties": {"numparc": 1499, "etat de la localisation": "autre", "ID BDGEO": "503", "horodatage": "2021-11-07 22:55:32", "distance (en metres)": 75.13, "station": "CHATEAU DE VINCENNES", "marker-color": "#818181"}}, {"type": "Feature", "geometry": {"type": "Point", "coordinates": [2.43509, 48.850189]}, "properties": {"numparc": 1499, "etat de la localisation": "autre", "ID BDGEO": "554", "horodatage": "2021-11-07 23:14:03", "distance (en metres)": 84.84, "station": "RUE DE MONTREUIL", "marker-color": "#818181"}}, {"type": "Feature", "geometry": {"type": "Point", "coordinates": [2.436465, 48.8451]}, "properties": {"numparc": 1500, "etat de la localisation": "autre", "ID BDGEO": "570", "horodatage": "2021-11-07 23:37:43", "distance (en metres)": 65.89, "station": "AVENUE DU CHATEAU", "marker-color": "#818181"}}, {"type": "Feature", "geometry": {"type": "Point", "coordinates": [2.424459, 48.875229]}, "properties": {"numparc": 1499, "etat de la localisation": "autre", "ID BDGEO": "615", "horodatage": "2021-11-07 23:54:54", "distance (en metres)": 77.36, "station": "GIRARDOT", "marker-color": "#818181"}}, {"type": "Feature", "geometry": {"type": "Point", "coordinates": [2.408581, 48.877182]}, "properties": {"numparc": 1500, "etat de la localisation": "autre", "ID BDGEO": "502", "horodatage": "2021-11-08 00:12:24", "distance (en metres)": 102.04, "station": "PORTE DES LILAS-METRO", "marker-color": "#818181"}}, {"type": "Feature", "geometry": {"type": "Point", "coordinates": [2.4416, 48.844193]}, "properties": {"numparc": 1499, "etat de la localisation": "autre", "ID BDGEO": "501", "horodatage": "2021-11-08 00:28:42", "distance (en metres)": 73.91, "station": "CHATEAU DE VINCENNES.", "marker-color": "#818181"}}, {"type": "Feature", "geometry": {"type": "Point", "coordinates": [2.441603, 48.844189]}, "properties": {"numparc": 1499, "etat de la localisation": "autre", "ID BDGEO": "501", "horodatage": "2021-11-08 00:29:01", "distance (en metres)": 74.16, "station": "CHATEAU DE VINCENNES.", "marker-color": "#818181"}}, {"type": "Feature", "geometry": {"type": "Point", "coordinates": [2.435075, 48.850185]}, "properties": {"numparc": 1499, "etat de la localisation": "autre", "ID BDGEO": "564", "horodatage": "2021-11-08 00:33:22", "distance (en metres)": 2905.76, "station": "GIRARDOT#", "marker-color": "#818181"}}, {"type": "Feature", "geometry": {"type": "Point", "coordinates": [2.438927, 48.85339]}, "properties": {"numparc": 1499, "etat de la localisation": "autre", "ID BDGEO": "564", "horodatage": "2021-11-08 00:34:24", "distance (en metres)": 2664.77, "station": "GIRARDOT#", "marker-color": "#818181"}}, {"type": "Feature", "geometry": {"type": "Point", "coordinates": [2.441285, 48.862846]}, "properties": {"numparc": 1499, "etat de la localisation": "autre", "ID BDGEO": "564", "horodatage": "2021-11-08 00:37:46", "distance (en metres)": 1863.78, "station": "GIRARDOT#", "marker-color": "#818181"}}, {"type": "Feature", "geometry": {"type": "Point", "coordinates": [2.42861, 48.872471]}, "properties": {"numparc": 1499, "etat de la localisation": "autre", "ID BDGEO": "564", "horodatage": "2021-11-08 00:41:48", "distance (en metres)": 448.58, "station": "GIRARDOT#", "marker-color": "#818181"}}, {"type": "Feature", "geometry": {"type": "Point", "coordinates": [2.427349, 48.878651]}, "properties": {"numparc": 1499, "etat de la localisation": "autre", "ID BDGEO": "771", "horodatage": "2021-11-08 00:54:25", "distance (en metres)": 135.65, "station": "DEPOT LES LILAS (S)", "marker-color": "#818181"}}, {"type": "Feature", "geometry": {"type": "Point", "coordinates": [2.427348, 48.878651]}, "properties": {"numparc": 1499, "etat de la localisation": "autre", "ID BDGEO": "771", "horodatage": "2021-11-08 00:54:40", "distance (en metres)": 135.71, "station": "DEPOT LES LILAS (S)", "marker-color": "#818181"}}, {"type": "Feature", "geometry": {"type": "Point", "coordinates": [2.427356, 48.878681]}, "properties": {"numparc": 1499, "etat de la localisation": "autre", "ID BDGEO": "771", "horodatage": "2021-11-08 00:55:25", "distance (en metres)": 134.01, "station": "DEPOT LES LILAS (S)", "marker-color": "#818181"}}, {"type": "Feature", "geometry": {"type": "Point", "coordinates": [2.427366, 48.878738]}, "properties": {"numparc": 1500, "etat de la localisation": "Delocalise", "ID BDGEO": "771", "horodatage": "2021-11-08 01:07:14", "distance (en metres)": 131.29, "station": "DEPOT LES LILAS (S)", "marker-color": "#FF565E"}}, {"type": "Feature", "geometry": {"type": "Point", "coordinates": [2.427091, 48.879219]}, "properties": {"numparc": 1500, "etat de la localisation": "Delocalise", "ID BDGEO": "771", "horodatage": "2021-11-08 01:11:54", "distance (en metres)": 146.2, "station": "DEPOT LES LILAS (S)", "marker-color": "#FF565E"}}, {"type": "Feature", "geometry": {"type": "Point", "coordinates": [2.42707, 48.879219]}, "properties": {"numparc": 1500, "etat de la localisation": "Delocalise", "ID BDGEO": "771", "horodatage": "2021-11-08 01:12:43", "distance (en metres)": 147.72, "station": "DEPOT LES LILAS (S)", "marker-color": "#FF565E"}}, {"type": "Feature", "geometry": {"type": "Point", "coordinates": [2.426719, 48.879467]}, "properties": {"numparc": 1500, "etat de la localisation": "Delocalise", "ID BDGEO": "771", "horodatage": "2021-11-08 01:12:57", "distance (en metres)": 177.72, "station": "DEPOT LES LILAS (S)", "marker-color": "#FF565E"}}, {"type": "Feature", "geometry": {"type": "Point", "coordinates": [2.427149, 48.879486]}, "properties": {"numparc": 1500, "etat de la localisation": "Delocalise", "ID BDGEO": "771", "horodatage": "2021-11-08 01:14:32", "distance (en metres)": 147.98, "station": "DEPOT LES LILAS (S)", "marker-color": "#FF565E"}}, {"type": "Feature", "geometry": {"type": "Point", "coordinates": [2.427253, 48.878452]}, "properties": {"numparc": 1500, "etat de la localisation": "autre", "ID BDGEO": "771", "horodatage": "2021-11-08 01:27:40", "distance (en metres)": 151.23, "station": "DEPOT LES LILAS (S)", "marker-color": "#818181"}}, {"type": "Feature", "geometry": {"type": "Point", "coordinates": [2.42908, 48.879089]}, "properties": {"station": "DEPOT LES LILAS (S)", "ID BDGEO": "771", "marker-color": "#56B3FF"}}, {"type": "Feature", "geometry": {"type": "Point", "coordinates": [2.407684, 48.876479]}, "properties": {"station": "PORTE DES LILAS-METRO", "ID BDGEO": "502", "marker-color": "#56B3FF"}}, {"type": "Feature", "geometry": {"type": "Point", "coordinates": [2.441437, 48.844136]}, "properties": {"station": "CHATEAU DE VINCENNES", "ID BDGEO": "503", "marker-color": "#56B3FF"}}, {"type": "Feature", "geometry": {"type": "Point", "coordinates": [2.424414, 48.87512]}, "properties": {"station": "GIRARDOT", "ID BDGEO": "511", "marker-color": "#56B3FF"}}, {"type": "Feature", "geometry": {"type": "Point", "coordinates": [2.408271, 48.877207]}, "properties": {"station": "PORTE DES LILAS-METRO.", "ID BDGEO": "682", "marker-color": "#56B3FF"}}, {"type": "Feature", "geometry": {"type": "Point", "coordinates": [2.413802, 48.876403]}, "properties": {"station": "CHASSAGNOLE", "ID BDGEO": "648", "marker-color": "#56B3FF"}}, {"type": "Feature", "geometry": {"type": "Point", "coordinates": [2.416662, 48.876069]}, "properties": {"station": "RUE DE NOISY LE SEC", "ID BDGEO": "629", "marker-color": "#56B3FF"}}, {"type": "Feature", "geometry": {"type": "Point", "coordinates": [2.423842, 48.875794]}, "properties": {"station": "GIRARDOT", "ID BDGEO": "615", "marker-color": "#56B3FF"}}, {"type": "Feature", "geometry": {"type": "Point", "coordinates": [2.424668, 48.872666]}, "properties": {"station": "LES MALASSIS", "ID BDGEO": "614", "marker-color": "#56B3FF"}}, {"type": "Feature", "geometry": {"type": "Point", "coordinates": [2.441161, 48.862884]}, "properties": {"station": "MAIRIE DE MONTREUIL-PASTEUR", "ID BDGEO": "608", "marker-color": "#56B3FF"}}, {"type": "Feature", "geometry": {"type": "Point", "coordinates": [2.43953, 48.85752]}, "properties": {"station": "WILSON-GABRIEL PERI", "ID BDGEO": "609", "marker-color": "#56B3FF"}}, {"type": "Feature", "geometry": {"type": "Point", "coordinates": [2.435008, 48.850172]}, "properties": {"station": "RUE DE MONTREUIL", "ID BDGEO": "590", "marker-color": "#56B3FF"}}, {"type": "Feature", "geometry": {"type": "Point", "coordinates": [2.436867, 48.846971]}, "properties": {"station": "VINCENNES RER", "ID BDGEO": "589", "marker-color": "#56B3FF"}}, {"type": "Feature", "geometry": {"type": "Point", "coordinates": [2.42169, 48.876182]}, "properties": {"station": "RUE DE PANTIN", "ID BDGEO": "510", "marker-color": "#56B3FF"}}, {"type": "Feature", "geometry": {"type": "Point", "coordinates": [2.43974, 48.860674]}, "properties": {"station": "VICTOR HUGO", "ID BDGEO": "594", "marker-color": "#56B3FF"}}, {"type": "Feature", "geometry": {"type": "Point", "coordinates": [2.434217, 48.849687]}, "properties": {"station": "RUE DE MONTREUIL", "ID BDGEO": "554", "marker-color": "#56B3FF"}}, {"type": "Feature", "geometry": {"type": "Point", "coordinates": [2.438772, 48.852874]}, "properties": {"station": "SOLIDARITE", "ID BDGEO": "553", "marker-color": "#56B3FF"}}, {"type": "Feature", "geometry": {"type": "Point", "coordinates": [2.439072, 48.860108]}, "properties": {"station": "VICTOR HUGO", "ID BDGEO": "549", "marker-color": "#56B3FF"}}, {"type": "Feature", "geometry": {"type": "Point", "coordinates": [2.42509, 48.872297]}, "properties": {"station": "LES MALASSIS", "ID BDGEO": "512", "marker-color": "#56B3FF"}}, {"type": "Feature", "geometry": {"type": "Point", "coordinates": [2.418079, 48.876032]}, "properties": {"station": "RUE DE NOISY LE SEC", "ID BDGEO": "509", "marker-color": "#56B3FF"}}, {"type": "Feature", "geometry": {"type": "Point", "coordinates": [2.428305, 48.872358]}, "properties": {"station": "STALINGRAD", "ID BDGEO": "613", "marker-color": "#56B3FF"}}, {"type": "Feature", "geometry": {"type": "Point", "coordinates": [2.437149, 48.844714]}, "properties": {"station": "AVENUE DU CHATEAU", "ID BDGEO": "570", "marker-color": "#56B3FF"}}, {"type": "Feature", "geometry": {"type": "Point", "coordinates": [2.413134, 48.876548]}, "properties": {"station": "CHASSAGNOLE", "ID BDGEO": "508", "marker-color": "#56B3FF"}}, {"type": "Feature", "geometry": {"type": "Point", "coordinates": [2.438881, 48.853251]}, "properties": {"station": "SOLIDARITE", "ID BDGEO": "591", "marker-color": "#56B3FF"}}, {"type": "Feature", "geometry": {"type": "Point", "coordinates": [2.436936, 48.847393]}, "properties": {"station": "VINCENNES RER", "ID BDGEO": "569", "marker-color": "#56B3FF"}}, {"type": "Feature", "geometry": {"type": "Point", "coordinates": [2.439978, 48.857097]}, "properties": {"station": "WILSON-GABRIEL PERI", "ID BDGEO": "551", "marker-color": "#56B3FF"}}, {"type": "Feature", "geometry": {"type": "Point", "coordinates": [2.440593, 48.844244]}, "properties": {"station": "CHATEAU DE VINCENNES.", "ID BDGEO": "501", "marker-color": "#56B3FF"}}, {"type": "Feature", "geometry": {"type": "Point", "coordinates": [2.424291, 48.875336]}, "properties": {"station": "GIRARDOT#", "ID BDGEO": "564", "marker-color": "#56B3FF"}}]}