{"type": "FeatureCollection", "features": [{"type": "Feature", "geometry": {"type": "Point", "coordinates": [2.427437, 48.879261]}, "properties": {"etat de la localisation": "Hors service", "numparc": 4948, "duree": "", "horodatage": "2022-11-20 05:20:23", "marker-color": "#707070"}}, {"type": "Feature", "geometry": {"type": "Point", "coordinates": [2.427437, 48.879261]}, "properties": {"etat de la localisation": "Delocalise", "numparc": 4948, "duree": "00:04:13", "horodatage": "2022-11-20 23:24:15", "marker-color": "#FF565E"}}, {"type": "Feature", "geometry": {"type": "Point", "coordinates": [2.427245, 48.87851]}, "properties": {"etat de la localisation": "Hors service", "numparc": 4948, "duree": "", "horodatage": "2022-11-20 23:28:28", "marker-color": "#707070"}}, {"type": "Feature", "geometry": {"type": "Point", "coordinates": [2.427127, 48.87851]}, "properties": {"etat de la localisation": "Mission inconnue", "numparc": 4950, "duree": "", "horodatage": "2022-11-21 00:42:24", "marker-color": "#FF9F56"}}, {"type": "Feature", "geometry": {"type": "Point", "coordinates": [2.428023, 48.879372]}, "properties": {"etat de la localisation": "Mission inconnue", "numparc": 1519, "duree": "", "horodatage": "2022-11-21 00:46:56", "marker-color": "#FF9F56"}}, {"type": "Feature", "geometry": {"type": "Point", "coordinates": [2.428023, 48.879372]}, "properties": {"etat de la localisation": "Hors service", "numparc": 1519, "duree": "", "horodatage": "2022-11-21 00:47:17", "marker-color": "#707070"}}, {"type": "Feature", "geometry": {"type": "Point", "coordinates": [2.428023, 48.879372]}, "properties": {"etat de la localisation": "Mission inconnue", "numparc": 1519, "duree": "", "horodatage": "2022-11-21 00:48:24", "marker-color": "#FF9F56"}}, {"type": "Feature", "geometry": {"type": "Point", "coordinates": [2.428023, 48.879372]}, "properties": {"etat de la localisation": "Hors service", "numparc": 1519, "duree": "", "horodatage": "2022-11-21 00:48:54", "marker-color": "#707070"}}, {"type": "Feature", "geometry": {"type": "Point", "coordinates": [2.428023, 48.879372]}, "properties": {"etat de la localisation": "Mission inconnue", "numparc": 1519, "duree": "", "horodatage": "2022-11-21 00:57:29", "marker-color": "#FF9F56"}}, {"type": "Feature", "geometry": {"type": "Point", "coordinates": [2.428023, 48.879372]}, "properties": {"etat de la localisation": "Hors service", "numparc": 1519, "duree": "", "horodatage": "2022-11-21 00:59:35", "marker-color": "#707070"}}, {"type": "Feature", "geometry": {"type": "Point", "coordinates": [2.427808, 48.878574]}, "properties": {"etat de la localisation": "Mission inconnue", "numparc": 1578, "duree": "", "horodatage": "2022-11-21 01:53:07", "marker-color": "#FF9F56"}}, {"type": "Feature", "geometry": {"type": "Point", "coordinates": [2.427808, 48.878574]}, "properties": {"etat de la localisation": "Hors service", "numparc": 1578, "duree": "", "horodatage": "2022-11-21 01:54:19", "marker-color": "#707070"}}, {"type": "Feature", "geometry": {"type": "Point", "coordinates": [2.427808, 48.878574]}, "properties": {"etat de la localisation": "Mission inconnue", "numparc": 1578, "duree": "", "horodatage": "2022-11-21 01:55:32", "marker-color": "#FF9F56"}}, {"type": "Feature", "geometry": {"type": "Point", "coordinates": [2.427808, 48.878574]}, "properties": {"etat de la localisation": "Hors service", "numparc": 1578, "duree": "", "horodatage": "2022-11-21 01:56:08", "marker-color": "#707070"}}, {"type": "Feature", "geometry": {"type": "Point", "coordinates": [2.427598, 48.878567]}, "properties": {"etat de la localisation": "Mission inconnue", "numparc": 1568, "duree": "", "horodatage": "2022-11-21 02:06:43", "marker-color": "#FF9F56"}}, {"type": "Feature", "geometry": {"type": "Point", "coordinates": [2.427598, 48.878567]}, "properties": {"etat de la localisation": "Hors service", "numparc": 1568, "duree": "", "horodatage": "2022-11-21 02:07:01", "marker-color": "#707070"}}, {"type": "Feature", "geometry": {"type": "Point", "coordinates": [2.427598, 48.878567]}, "properties": {"etat de la localisation": "Mission inconnue", "numparc": 1568, "duree": "", "horodatage": "2022-11-21 02:09:32", "marker-color": "#FF9F56"}}, {"type": "Feature", "geometry": {"type": "Point", "coordinates": [2.427598, 48.878567]}, "properties": {"etat de la localisation": "Hors service", "numparc": 1568, "duree": "", "horodatage": "2022-11-21 02:09:48", "marker-color": "#707070"}}]}