{"type": "FeatureCollection", "features": [{"type": "Feature", "geometry": {"type": "Point", "coordinates": [2.395925, 48.86813]}, "properties": {"etat de la localisation": "Delocalise", "numparc": 4948, "duree": "00:05:29", "horodatage": "2022-08-16 05:47:16", "marker-color": "#FF565E"}}, {"type": "Feature", "geometry": {"type": "Point", "coordinates": [2.404663, 48.872078]}, "properties": {"etat de la localisation": "Deviation programmee", "numparc": 1510, "duree": "", "horodatage": "2022-08-16 06:54:12", "marker-color": "#56FF93"}}, {"type": "Feature", "geometry": {"type": "Point", "coordinates": [2.404529, 48.872089]}, "properties": {"etat de la localisation": "Deviation programmee", "numparc": 1548, "duree": "", "horodatage": "2022-08-16 07:18:35", "marker-color": "#56FF93"}}, {"type": "Feature", "geometry": {"type": "Point", "coordinates": [2.405986, 48.875896]}, "properties": {"etat de la localisation": "Hors service", "numparc": 4948, "duree": "", "horodatage": "2022-08-16 07:28:40", "marker-color": "#707070"}}, {"type": "Feature", "geometry": {"type": "Point", "coordinates": [2.40446, 48.872082]}, "properties": {"etat de la localisation": "Deviation programmee", "numparc": 4948, "duree": "", "horodatage": "2022-08-16 07:38:37", "marker-color": "#56FF93"}}, {"type": "Feature", "geometry": {"type": "Point", "coordinates": [2.406141, 48.875977]}, "properties": {"etat de la localisation": "Hors service", "numparc": 1510, "duree": "", "horodatage": "2022-08-16 08:42:28", "marker-color": "#707070"}}, {"type": "Feature", "geometry": {"type": "Point", "coordinates": [2.404587, 48.872063]}, "properties": {"etat de la localisation": "Deviation programmee", "numparc": 1510, "duree": "", "horodatage": "2022-08-16 08:49:28", "marker-color": "#56FF93"}}, {"type": "Feature", "geometry": {"type": "Point", "coordinates": [2.37095, 48.864086]}, "properties": {"etat de la localisation": "Mission suivante non connue", "numparc": 4948, "duree": "", "horodatage": "2022-08-16 09:14:22", "marker-color": "#7156FF"}}, {"type": "Feature", "geometry": {"type": "Point", "coordinates": [2.37095, 48.864086]}, "properties": {"etat de la localisation": "Mission inconnue", "numparc": 4948, "duree": "", "horodatage": "2022-08-16 09:14:56", "marker-color": "#FF9F56"}}, {"type": "Feature", "geometry": {"type": "Point", "coordinates": [2.404651, 48.872086]}, "properties": {"etat de la localisation": "Deviation programmee", "numparc": 1548, "duree": "", "horodatage": "2022-08-16 09:21:21", "marker-color": "#56FF93"}}, {"type": "Feature", "geometry": {"type": "Point", "coordinates": [2.322432, 48.843521]}, "properties": {"etat de la localisation": "Delocalise", "numparc": 4948, "duree": "00:02:13", "horodatage": "2022-08-16 09:45:42", "marker-color": "#FF565E"}}, {"type": "Feature", "geometry": {"type": "Point", "coordinates": [2.349837, 48.856361]}, "properties": {"etat de la localisation": "Mission inconnue", "numparc": 1510, "duree": "", "horodatage": "2022-08-16 10:15:29", "marker-color": "#FF9F56"}}, {"type": "Feature", "geometry": {"type": "Point", "coordinates": [2.321002, 48.842216]}, "properties": {"etat de la localisation": "Hors service", "numparc": 4948, "duree": "", "horodatage": "2022-08-16 10:16:19", "marker-color": "#707070"}}, {"type": "Feature", "geometry": {"type": "Point", "coordinates": [2.320338, 48.841957]}, "properties": {"etat de la localisation": "Hors service", "numparc": 1548, "duree": "", "horodatage": "2022-08-16 10:33:08", "marker-color": "#707070"}}, {"type": "Feature", "geometry": {"type": "Point", "coordinates": [2.320239, 48.841946]}, "properties": {"etat de la localisation": "Mission suivante non connue", "numparc": 1510, "duree": "", "horodatage": "2022-08-16 10:37:45", "marker-color": "#7156FF"}}, {"type": "Feature", "geometry": {"type": "Point", "coordinates": [2.320287, 48.841908]}, "properties": {"etat de la localisation": "Hors service", "numparc": 1510, "duree": "", "horodatage": "2022-08-16 10:49:34", "marker-color": "#707070"}}, {"type": "Feature", "geometry": {"type": "Point", "coordinates": [2.349958, 48.856281]}, "properties": {"etat de la localisation": "Mission inconnue", "numparc": 1548, "duree": "", "horodatage": "2022-08-16 10:58:38", "marker-color": "#FF9F56"}}, {"type": "Feature", "geometry": {"type": "Point", "coordinates": [2.320744, 48.842049]}, "properties": {"etat de la localisation": "Hors service", "numparc": 1510, "duree": "", "horodatage": "2022-08-16 11:11:47", "marker-color": "#707070"}}, {"type": "Feature", "geometry": {"type": "Point", "coordinates": [2.347937, 48.85762]}, "properties": {"etat de la localisation": "Delocalise", "numparc": 1548, "duree": "00:02:57", "horodatage": "2022-08-16 11:12:02", "marker-color": "#FF565E"}}, {"type": "Feature", "geometry": {"type": "Point", "coordinates": [2.320386, 48.841892]}, "properties": {"etat de la localisation": "Mission suivante non connue", "numparc": 1548, "duree": "", "horodatage": "2022-08-16 11:30:18", "marker-color": "#7156FF"}}, {"type": "Feature", "geometry": {"type": "Point", "coordinates": [2.320386, 48.841892]}, "properties": {"etat de la localisation": "Mission inconnue", "numparc": 1548, "duree": "", "horodatage": "2022-08-16 11:30:40", "marker-color": "#FF9F56"}}, {"type": "Feature", "geometry": {"type": "Point", "coordinates": [2.404501, 48.872101]}, "properties": {"etat de la localisation": "Deviation programmee", "numparc": 4948, "duree": "", "horodatage": "2022-08-16 12:00:22", "marker-color": "#56FF93"}}, {"type": "Feature", "geometry": {"type": "Point", "coordinates": [2.405967, 48.875862]}, "properties": {"etat de la localisation": "Hors service", "numparc": 1510, "duree": "", "horodatage": "2022-08-16 12:19:50", "marker-color": "#707070"}}, {"type": "Feature", "geometry": {"type": "Point", "coordinates": [2.40464, 48.872093]}, "properties": {"etat de la localisation": "Deviation programmee", "numparc": 1510, "duree": "", "horodatage": "2022-08-16 12:45:20", "marker-color": "#56FF93"}}, {"type": "Feature", "geometry": {"type": "Point", "coordinates": [2.335146, 48.82119]}, "properties": {"etat de la localisation": "Mission inconnue", "numparc": 1598, "duree": "", "horodatage": "2022-08-16 12:46:40", "marker-color": "#FF9F56"}}, {"type": "Feature", "geometry": {"type": "Point", "coordinates": [2.405912, 48.875797]}, "properties": {"etat de la localisation": "Hors service", "numparc": 1548, "duree": "", "horodatage": "2022-08-16 12:49:34", "marker-color": "#707070"}}, {"type": "Feature", "geometry": {"type": "Point", "coordinates": [2.406018, 48.875816]}, "properties": {"etat de la localisation": "Mission suivante non connue", "numparc": 1598, "duree": "", "horodatage": "2022-08-16 13:55:23", "marker-color": "#7156FF"}}, {"type": "Feature", "geometry": {"type": "Point", "coordinates": [2.426988, 48.878178]}, "properties": {"etat de la localisation": "Delocalise", "numparc": 1500, "duree": "00:10:55", "horodatage": "2022-08-16 13:59:59", "marker-color": "#FF565E"}}, {"type": "Feature", "geometry": {"type": "Point", "coordinates": [2.406043, 48.875843]}, "properties": {"etat de la localisation": "Hors service", "numparc": 1598, "duree": "", "horodatage": "2022-08-16 14:12:53", "marker-color": "#707070"}}, {"type": "Feature", "geometry": {"type": "Point", "coordinates": [2.404463, 48.872063]}, "properties": {"etat de la localisation": "Deviation programmee", "numparc": 1500, "duree": "", "horodatage": "2022-08-16 14:17:39", "marker-color": "#56FF93"}}, {"type": "Feature", "geometry": {"type": "Point", "coordinates": [2.406276, 48.876457]}, "properties": {"etat de la localisation": "Hors service", "numparc": 4948, "duree": "", "horodatage": "2022-08-16 14:27:52", "marker-color": "#707070"}}, {"type": "Feature", "geometry": {"type": "Point", "coordinates": [2.404464, 48.872105]}, "properties": {"etat de la localisation": "Deviation programmee", "numparc": 1598, "duree": "", "horodatage": "2022-08-16 14:29:36", "marker-color": "#56FF93"}}, {"type": "Feature", "geometry": {"type": "Point", "coordinates": [2.404108, 48.872341]}, "properties": {"etat de la localisation": "Deviation programmee", "numparc": 4948, "duree": "", "horodatage": "2022-08-16 14:42:34", "marker-color": "#56FF93"}}, {"type": "Feature", "geometry": {"type": "Point", "coordinates": [2.40614, 48.876343]}, "properties": {"etat de la localisation": "Hors service", "numparc": 1510, "duree": "", "horodatage": "2022-08-16 15:07:59", "marker-color": "#707070"}}, {"type": "Feature", "geometry": {"type": "Point", "coordinates": [2.406158, 48.876465]}, "properties": {"etat de la localisation": "Hors service", "numparc": 1500, "duree": "", "horodatage": "2022-08-16 16:31:59", "marker-color": "#707070"}}, {"type": "Feature", "geometry": {"type": "Point", "coordinates": [2.404413, 48.872097]}, "properties": {"etat de la localisation": "Deviation programmee", "numparc": 1500, "duree": "", "horodatage": "2022-08-16 16:52:01", "marker-color": "#56FF93"}}, {"type": "Feature", "geometry": {"type": "Point", "coordinates": [2.42688, 48.878716]}, "properties": {"etat de la localisation": "Hors service", "numparc": 4948, "duree": "", "horodatage": "2022-08-16 17:05:58", "marker-color": "#707070"}}, {"type": "Feature", "geometry": {"type": "Point", "coordinates": [2.404413, 48.872112]}, "properties": {"etat de la localisation": "Deviation programmee", "numparc": 1598, "duree": "", "horodatage": "2022-08-16 17:10:43", "marker-color": "#56FF93"}}, {"type": "Feature", "geometry": {"type": "Point", "coordinates": [2.320839, 48.84214]}, "properties": {"etat de la localisation": "Hors service", "numparc": 1500, "duree": "", "horodatage": "2022-08-16 17:58:40", "marker-color": "#707070"}}, {"type": "Feature", "geometry": {"type": "Point", "coordinates": [2.406096, 48.876251]}, "properties": {"etat de la localisation": "Mission suivante non connue", "numparc": 1598, "duree": "", "horodatage": "2022-08-16 18:45:35", "marker-color": "#7156FF"}}, {"type": "Feature", "geometry": {"type": "Point", "coordinates": [2.427267, 48.878773]}, "properties": {"etat de la localisation": "Hors service", "numparc": 1598, "duree": "", "horodatage": "2022-08-16 18:58:21", "marker-color": "#707070"}}, {"type": "Feature", "geometry": {"type": "Point", "coordinates": [2.406119, 48.875904]}, "properties": {"etat de la localisation": "Mission inconnue", "numparc": 1521, "duree": "", "horodatage": "2022-08-16 22:54:37", "marker-color": "#FF9F56"}}, {"type": "Feature", "geometry": {"type": "Point", "coordinates": [2.40238, 48.86948]}, "properties": {"etat de la localisation": "Delocalise", "numparc": 1521, "duree": "00:06:48", "horodatage": "2022-08-16 23:12:29", "marker-color": "#FF565E"}}, {"type": "Feature", "geometry": {"type": "Point", "coordinates": [2.402464, 48.869259]}, "properties": {"etat de la localisation": "Delocalise", "numparc": 1490, "duree": "00:04:57", "horodatage": "2022-08-16 23:33:34", "marker-color": "#FF565E"}}, {"type": "Feature", "geometry": {"type": "Point", "coordinates": [2.320052, 48.841995]}, "properties": {"etat de la localisation": "Mission suivante non connue", "numparc": 1521, "duree": "", "horodatage": "2022-08-16 23:49:48", "marker-color": "#7156FF"}}, {"type": "Feature", "geometry": {"type": "Point", "coordinates": [2.427264, 48.879242]}, "properties": {"etat de la localisation": "Hors service", "numparc": 1490, "duree": "", "horodatage": "2022-08-17 00:57:45", "marker-color": "#707070"}}, {"type": "Feature", "geometry": {"type": "Point", "coordinates": [2.406226, 48.876244]}, "properties": {"etat de la localisation": "Mission suivante non connue", "numparc": 1521, "duree": "", "horodatage": "2022-08-17 01:02:23", "marker-color": "#7156FF"}}, {"type": "Feature", "geometry": {"type": "Point", "coordinates": [2.428274, 48.879337]}, "properties": {"etat de la localisation": "Hors service", "numparc": 1521, "duree": "", "horodatage": "2022-08-17 01:23:18", "marker-color": "#707070"}}]}