{"type": "FeatureCollection", "features": [{"type": "Feature", "geometry": {"type": "Point", "coordinates": [2.374694, 48.841236]}, "properties": {"alarme": "VEHICULE DELOCALISE", "numparc": 2837, "type": "EXPLOITATION", "duree": "00:08:55", "horodatage": "2022-09-21 03:06:22", "statut": "start", "marker-color": "#ff0000"}}, {"type": "Feature", "geometry": {"type": "Point", "coordinates": [2.368676, 48.845238]}, "properties": {"alarme": "VEHICULE DELOCALISE", "numparc": 2837, "type": "EXPLOITATION", "duree": "00:06:55", "horodatage": "2022-09-21 03:18:05", "statut": "start", "marker-color": "#ff0000"}}, {"type": "Feature", "geometry": {"type": "Point", "coordinates": [2.378279, 48.840061]}, "properties": {"alarme": "VEHICULE DELOCALISE", "numparc": 2791, "type": "EXPLOITATION", "duree": "00:18:30", "horodatage": "2022-09-21 03:33:43", "statut": "start", "marker-color": "#ff0000"}}, {"type": "Feature", "geometry": {"type": "Point", "coordinates": [2.508119, 48.759693]}, "properties": {"alarme": "VEHICULE DELOCALISE", "numparc": 2801, "type": "EXPLOITATION", "duree": "00:04:42", "horodatage": "2022-09-21 03:46:11", "statut": "start", "marker-color": "#ff0000"}}, {"type": "Feature", "geometry": {"type": "Point", "coordinates": [2.50379, 48.773396]}, "properties": {"alarme": "VEHICULE DELOCALISE", "numparc": 2801, "type": "EXPLOITATION", "duree": "00:01:00", "horodatage": "2022-09-21 03:51:10", "statut": "start", "marker-color": "#ff0000"}}, {"type": "Feature", "geometry": {"type": "Point", "coordinates": [2.383696, 48.836597]}, "properties": {"alarme": "VEHICULE DELOCALISE", "numparc": 2791, "type": "EXPLOITATION", "duree": "00:01:12", "horodatage": "2022-09-21 03:52:40", "statut": "start", "marker-color": "#ff0000"}}, {"type": "Feature", "geometry": {"type": "Point", "coordinates": [2.387782, 48.834839]}, "properties": {"alarme": "VEHICULE DELOCALISE", "numparc": 2791, "type": "EXPLOITATION", "duree": "00:06:07", "horodatage": "2022-09-21 03:54:25", "statut": "start", "marker-color": "#ff0000"}}, {"type": "Feature", "geometry": {"type": "Point", "coordinates": [2.377918, 48.839855]}, "properties": {"alarme": "VEHICULE DELOCALISE", "numparc": 2841, "type": "EXPLOITATION", "duree": "00:19:40", "horodatage": "2022-09-21 04:04:35", "statut": "start", "marker-color": "#ff0000"}}, {"type": "Feature", "geometry": {"type": "Point", "coordinates": [2.383722, 48.836605]}, "properties": {"alarme": "VEHICULE DELOCALISE", "numparc": 2841, "type": "EXPLOITATION", "duree": "00:00:15", "horodatage": "2022-09-21 04:24:46", "statut": "start", "marker-color": "#ff0000"}}, {"type": "Feature", "geometry": {"type": "Point", "coordinates": [2.378213, 48.84]}, "properties": {"alarme": "VEHICULE DELOCALISE", "numparc": 2801, "type": "EXPLOITATION", "duree": "00:01:03", "horodatage": "2022-09-21 04:35:29", "statut": "start", "marker-color": "#ff0000"}}, {"type": "Feature", "geometry": {"type": "Point", "coordinates": [2.378296, 48.840096]}, "properties": {"alarme": "VEHICULE DELOCALISE", "numparc": 2837, "type": "EXPLOITATION", "duree": "00:05:19", "horodatage": "2022-09-21 05:05:32", "statut": "start", "marker-color": "#ff0000"}}, {"type": "Feature", "geometry": {"type": "Point", "coordinates": [2.377899, 48.839752]}, "properties": {"alarme": "VEHICULE DELOCALISE", "numparc": 2808, "type": "EXPLOITATION", "duree": "00:00:04", "horodatage": "2022-09-22 00:32:51", "statut": "start", "marker-color": "#ff0000"}}, {"type": "Feature", "geometry": {"type": "Point", "coordinates": [2.377964, 48.839901]}, "properties": {"alarme": "VEHICULE DELOCALISE", "numparc": 2801, "type": "EXPLOITATION", "duree": "00:04:43", "horodatage": "2022-09-22 01:02:51", "statut": "start", "marker-color": "#ff0000"}}, {"type": "Feature", "geometry": {"type": "Point", "coordinates": [2.387722, 48.836468]}, "properties": {"alarme": "VEHICULE DELOCALISE", "numparc": 2801, "type": "EXPLOITATION", "duree": "00:05:28", "horodatage": "2022-09-22 01:28:17", "statut": "start", "marker-color": "#ff0000"}}, {"type": "Feature", "geometry": {"type": "Point", "coordinates": [2.378168, 48.840023]}, "properties": {"alarme": "VEHICULE DELOCALISE", "numparc": 2841, "type": "EXPLOITATION", "duree": "00:27:38", "horodatage": "2022-09-22 01:34:36", "statut": "start", "marker-color": "#ff0000"}}, {"type": "Feature", "geometry": {"type": "Point", "coordinates": [2.508127, 48.759777]}, "properties": {"alarme": "VEHICULE DELOCALISE", "numparc": 2808, "type": "EXPLOITATION", "duree": "00:05:57", "horodatage": "2022-09-22 01:46:40", "statut": "start", "marker-color": "#ff0000"}}, {"type": "Feature", "geometry": {"type": "Point", "coordinates": [2.383758, 48.836529]}, "properties": {"alarme": "VEHICULE DELOCALISE", "numparc": 2841, "type": "EXPLOITATION", "duree": "00:15:48", "horodatage": "2022-09-22 02:03:03", "statut": "start", "marker-color": "#ff0000"}}, {"type": "Feature", "geometry": {"type": "Point", "coordinates": [2.436579, 48.807961]}, "properties": {"alarme": "VEHICULE DELOCALISE", "numparc": 2841, "type": "EXPLOITATION", "duree": "00:05:37", "horodatage": "2022-09-22 02:19:08", "statut": "start", "marker-color": "#ff0000"}}, {"type": "Feature", "geometry": {"type": "Point", "coordinates": [2.371971, 48.843941]}, "properties": {"alarme": "VEHICULE DELOCALISE", "numparc": 2837, "type": "EXPLOITATION", "duree": "00:08:55", "horodatage": "2022-09-21 03:15:17", "statut": "end", "marker-color": "#2fe184"}}, {"type": "Feature", "geometry": {"type": "Point", "coordinates": [2.385206, 48.83543]}, "properties": {"alarme": "VEHICULE DELOCALISE", "numparc": 2837, "type": "EXPLOITATION", "duree": "00:06:55", "horodatage": "2022-09-21 03:25:00", "statut": "end", "marker-color": "#2fe184"}}, {"type": "Feature", "geometry": {"type": "Point", "coordinates": [2.382075, 48.837883]}, "properties": {"alarme": "VEHICULE DELOCALISE", "numparc": 2791, "type": "EXPLOITATION", "duree": "00:18:30", "horodatage": "2022-09-21 03:52:13", "statut": "end", "marker-color": "#2fe184"}}, {"type": "Feature", "geometry": {"type": "Point", "coordinates": [2.505241, 48.773712]}, "properties": {"alarme": "VEHICULE DELOCALISE", "numparc": 2801, "type": "EXPLOITATION", "duree": "00:04:42", "horodatage": "2022-09-21 03:50:53", "statut": "end", "marker-color": "#2fe184"}}, {"type": "Feature", "geometry": {"type": "Point", "coordinates": [2.495725, 48.773212]}, "properties": {"alarme": "VEHICULE DELOCALISE", "numparc": 2801, "type": "EXPLOITATION", "duree": "00:01:00", "horodatage": "2022-09-21 03:52:10", "statut": "end", "marker-color": "#2fe184"}}, {"type": "Feature", "geometry": {"type": "Point", "coordinates": [2.386026, 48.835613]}, "properties": {"alarme": "VEHICULE DELOCALISE", "numparc": 2791, "type": "EXPLOITATION", "duree": "00:01:12", "horodatage": "2022-09-21 03:53:52", "statut": "end", "marker-color": "#2fe184"}}, {"type": "Feature", "geometry": {"type": "Point", "coordinates": [2.409922, 48.818623]}, "properties": {"alarme": "VEHICULE DELOCALISE", "numparc": 2791, "type": "EXPLOITATION", "duree": "00:06:07", "horodatage": "2022-09-21 04:00:32", "statut": "end", "marker-color": "#2fe184"}}, {"type": "Feature", "geometry": {"type": "Point", "coordinates": [2.382093, 48.837898]}, "properties": {"alarme": "VEHICULE DELOCALISE", "numparc": 2841, "type": "EXPLOITATION", "duree": "00:19:40", "horodatage": "2022-09-21 04:24:15", "statut": "end", "marker-color": "#2fe184"}}, {"type": "Feature", "geometry": {"type": "Point", "coordinates": [2.38431, 48.836109]}, "properties": {"alarme": "VEHICULE DELOCALISE", "numparc": 2841, "type": "EXPLOITATION", "duree": "00:00:15", "horodatage": "2022-09-21 04:25:01", "statut": "end", "marker-color": "#2fe184"}}, {"type": "Feature", "geometry": {"type": "Point", "coordinates": [2.373021, 48.84161]}, "properties": {"alarme": "VEHICULE DELOCALISE", "numparc": 2801, "type": "EXPLOITATION", "duree": "00:01:03", "horodatage": "2022-09-21 04:36:32", "statut": "end", "marker-color": "#2fe184"}}, {"type": "Feature", "geometry": {"type": "Point", "coordinates": [2.372121, 48.844124]}, "properties": {"alarme": "VEHICULE DELOCALISE", "numparc": 2837, "type": "EXPLOITATION", "duree": "00:05:19", "horodatage": "2022-09-21 05:10:51", "statut": "end", "marker-color": "#2fe184"}}, {"type": "Feature", "geometry": {"type": "Point", "coordinates": [2.377373, 48.839462]}, "properties": {"alarme": "VEHICULE DELOCALISE", "numparc": 2808, "type": "EXPLOITATION", "duree": "00:00:04", "horodatage": "2022-09-22 00:32:55", "statut": "end", "marker-color": "#2fe184"}}, {"type": "Feature", "geometry": {"type": "Point", "coordinates": [2.371562, 48.84375]}, "properties": {"alarme": "VEHICULE DELOCALISE", "numparc": 2801, "type": "EXPLOITATION", "duree": "00:04:43", "horodatage": "2022-09-22 01:07:34", "statut": "end", "marker-color": "#2fe184"}}, {"type": "Feature", "geometry": {"type": "Point", "coordinates": [2.39977, 48.821529]}, "properties": {"alarme": "VEHICULE DELOCALISE", "numparc": 2801, "type": "EXPLOITATION", "duree": "00:05:28", "horodatage": "2022-09-22 01:33:45", "statut": "end", "marker-color": "#2fe184"}}, {"type": "Feature", "geometry": {"type": "Point", "coordinates": [2.382049, 48.837914]}, "properties": {"alarme": "VEHICULE DELOCALISE", "numparc": 2841, "type": "EXPLOITATION", "duree": "00:27:38", "horodatage": "2022-09-22 02:02:14", "statut": "end", "marker-color": "#2fe184"}}, {"type": "Feature", "geometry": {"type": "Point", "coordinates": [2.495785, 48.773209]}, "properties": {"alarme": "VEHICULE DELOCALISE", "numparc": 2808, "type": "EXPLOITATION", "duree": "00:05:57", "horodatage": "2022-09-22 01:52:37", "statut": "end", "marker-color": "#2fe184"}}, {"type": "Feature", "geometry": {"type": "Point", "coordinates": [2.435101, 48.808754]}, "properties": {"alarme": "VEHICULE DELOCALISE", "numparc": 2841, "type": "EXPLOITATION", "duree": "00:15:48", "horodatage": "2022-09-22 02:18:51", "statut": "end", "marker-color": "#2fe184"}}, {"type": "Feature", "geometry": {"type": "Point", "coordinates": [2.457482, 48.796535]}, "properties": {"alarme": "VEHICULE DELOCALISE", "numparc": 2841, "type": "EXPLOITATION", "duree": "00:05:37", "horodatage": "2022-09-22 02:24:45", "statut": "end", "marker-color": "#2fe184"}}, {"type": "Feature", "geometry": {"type": "Point", "coordinates": [2.378201, 48.840054]}, "properties": {"alarme": "VEHICULE DELOCALISE", "numparc": 2791, "type": "EXPLOITATION", "duree": "24:00:00", "horodatage": "2022-09-22 02:04:39", "statut": "start", "marker-color": "#000000"}}]}