{"type": "FeatureCollection", "features": [{"type": "Feature", "geometry": {"type": "Point", "coordinates": [2.387294, 48.755646]}, "properties": {"numparc": 7431, "etat de la localisation": "autre", "ID BDGEO": "149", "horodatage": "2023-04-17 05:16:20", "distance (en metres)": 58.67, "station": "DEPOT THIAIS SORTIE", "marker-color": "#818181"}}, {"type": "Feature", "geometry": {"type": "Point", "coordinates": [2.377162, 48.691071]}, "properties": {"numparc": 7431, "etat de la localisation": "autre", "ID BDGEO": "127", "horodatage": "2023-04-17 09:15:43", "distance (en metres)": 884.67, "station": "CIMETIERE", "marker-color": "#818181"}}, {"type": "Feature", "geometry": {"type": "Point", "coordinates": [2.3826, 48.691498]}, "properties": {"numparc": 7431, "etat de la localisation": "autre", "ID BDGEO": "135", "horodatage": "2023-04-17 09:18:18", "distance (en metres)": 1073.59, "station": "PYRAMIDE DE JUVISY", "marker-color": "#818181"}}, {"type": "Feature", "geometry": {"type": "Point", "coordinates": [2.382818, 48.691189]}, "properties": {"numparc": 7431, "etat de la localisation": "autre", "ID BDGEO": "135", "horodatage": "2023-04-17 09:31:39", "distance (en metres)": 1109.33, "station": "PYRAMIDE DE JUVISY", "marker-color": "#818181"}}, {"type": "Feature", "geometry": {"type": "Point", "coordinates": [2.37688, 48.694992]}, "properties": {"numparc": 7431, "etat de la localisation": "autre", "ID BDGEO": "135", "horodatage": "2023-04-17 10:11:28", "distance (en metres)": 502.67, "station": "PYRAMIDE DE JUVISY", "marker-color": "#818181"}}, {"type": "Feature", "geometry": {"type": "Point", "coordinates": [2.377161, 48.691044]}, "properties": {"numparc": 7431, "etat de la localisation": "autre", "ID BDGEO": "151", "horodatage": "2023-04-17 10:13:18", "distance (en metres)": 114.95, "station": "MARCHE DE JUVISY", "marker-color": "#818181"}}, {"type": "Feature", "geometry": {"type": "Point", "coordinates": [2.377162, 48.691139]}, "properties": {"numparc": 7431, "etat de la localisation": "autre", "ID BDGEO": "799", "horodatage": "2023-04-17 11:38:43", "distance (en metres)": 874.17, "station": "PYRAMIDE DE JUVISY#", "marker-color": "#818181"}}, {"type": "Feature", "geometry": {"type": "Point", "coordinates": [2.382562, 48.691544]}, "properties": {"numparc": 7431, "etat de la localisation": "autre", "ID BDGEO": "799", "horodatage": "2023-04-17 11:41:17", "distance (en metres)": 1071.65, "station": "PYRAMIDE DE JUVISY#", "marker-color": "#818181"}}, {"type": "Feature", "geometry": {"type": "Point", "coordinates": [2.382562, 48.691544]}, "properties": {"numparc": 7431, "etat de la localisation": "autre", "ID BDGEO": "799", "horodatage": "2023-04-17 11:41:20", "distance (en metres)": 1071.65, "station": "PYRAMIDE DE JUVISY#", "marker-color": "#818181"}}, {"type": "Feature", "geometry": {"type": "Point", "coordinates": [2.382658, 48.691536]}, "properties": {"numparc": 7431, "etat de la localisation": "autre", "ID BDGEO": "799", "horodatage": "2023-04-17 11:42:37", "distance (en metres)": 1077.32, "station": "PYRAMIDE DE JUVISY#", "marker-color": "#818181"}}, {"type": "Feature", "geometry": {"type": "Point", "coordinates": [2.37147, 48.704388]}, "properties": {"numparc": 5718, "etat de la localisation": "autre", "ID BDGEO": "126", "horodatage": "2023-04-17 11:46:07", "distance (en metres)": 713.87, "station": "PYRAMIDE DE JUVISY", "marker-color": "#818181"}}, {"type": "Feature", "geometry": {"type": "Point", "coordinates": [2.37147, 48.704388]}, "properties": {"numparc": 5718, "etat de la localisation": "autre", "ID BDGEO": "126", "horodatage": "2023-04-17 11:49:08", "distance (en metres)": 713.87, "station": "PYRAMIDE DE JUVISY", "marker-color": "#818181"}}, {"type": "Feature", "geometry": {"type": "Point", "coordinates": [2.387414, 48.753941]}, "properties": {"numparc": 7431, "etat de la localisation": "autre", "ID BDGEO": "135", "horodatage": "2023-04-17 12:01:53", "distance (en metres)": 6279.58, "station": "PYRAMIDE DE JUVISY", "marker-color": "#818181"}}, {"type": "Feature", "geometry": {"type": "Point", "coordinates": [2.387681, 48.754032]}, "properties": {"numparc": 7431, "etat de la localisation": "autre", "ID BDGEO": "135", "horodatage": "2023-04-17 12:05:23", "distance (en metres)": 6293.08, "station": "PYRAMIDE DE JUVISY", "marker-color": "#818181"}}, {"type": "Feature", "geometry": {"type": "Point", "coordinates": [2.387686, 48.755409]}, "properties": {"numparc": 7431, "etat de la localisation": "autre", "ID BDGEO": "135", "horodatage": "2023-04-17 12:07:01", "distance (en metres)": 6443.84, "station": "PYRAMIDE DE JUVISY", "marker-color": "#818181"}}, {"type": "Feature", "geometry": {"type": "Point", "coordinates": [2.388818, 48.754162]}, "properties": {"numparc": 7431, "etat de la localisation": "autre", "ID BDGEO": "135", "horodatage": "2023-04-17 12:10:33", "distance (en metres)": 6322.72, "station": "PYRAMIDE DE JUVISY", "marker-color": "#818181"}}, {"type": "Feature", "geometry": {"type": "Point", "coordinates": [2.388333, 48.754005]}, "properties": {"numparc": 7431, "etat de la localisation": "autre", "ID BDGEO": "135", "horodatage": "2023-04-17 12:20:04", "distance (en metres)": 6298.91, "station": "PYRAMIDE DE JUVISY", "marker-color": "#818181"}}, {"type": "Feature", "geometry": {"type": "Point", "coordinates": [2.377176, 48.691082]}, "properties": {"numparc": 5718, "etat de la localisation": "autre", "ID BDGEO": "151", "horodatage": "2023-04-17 12:57:36", "distance (en metres)": 111.23, "station": "MARCHE DE JUVISY", "marker-color": "#818181"}}, {"type": "Feature", "geometry": {"type": "Point", "coordinates": [2.331047, 48.669628]}, "properties": {"numparc": 5718, "etat de la localisation": "autre", "ID BDGEO": "141", "horodatage": "2023-04-17 13:47:41", "distance (en metres)": 48.47, "station": "EPINAY-SUR-ORGE RER C", "marker-color": "#818181"}}, {"type": "Feature", "geometry": {"type": "Point", "coordinates": [2.377138, 48.691032]}, "properties": {"numparc": 5718, "etat de la localisation": "autre", "ID BDGEO": "151", "horodatage": "2023-04-17 14:27:47", "distance (en metres)": 115.69, "station": "MARCHE DE JUVISY", "marker-color": "#818181"}}, {"type": "Feature", "geometry": {"type": "Point", "coordinates": [2.371579, 48.697983]}, "properties": {"numparc": 5718, "etat de la localisation": "autre", "ID BDGEO": "135", "horodatage": "2023-04-17 16:07:08", "distance (en metres)": 67.18, "station": "PYRAMIDE DE JUVISY", "marker-color": "#818181"}}, {"type": "Feature", "geometry": {"type": "Point", "coordinates": [2.37719, 48.691032]}, "properties": {"numparc": 5718, "etat de la localisation": "autre", "ID BDGEO": "151", "horodatage": "2023-04-17 16:15:47", "distance (en metres)": 116.79, "station": "MARCHE DE JUVISY", "marker-color": "#818181"}}, {"type": "Feature", "geometry": {"type": "Point", "coordinates": [2.382618, 48.691563]}, "properties": {"numparc": 5718, "etat de la localisation": "autre", "ID BDGEO": "799", "horodatage": "2023-04-17 17:54:24", "distance (en metres)": 1073.14, "station": "PYRAMIDE DE JUVISY#", "marker-color": "#818181"}}, {"type": "Feature", "geometry": {"type": "Point", "coordinates": [2.388269, 48.753918]}, "properties": {"numparc": 7431, "etat de la localisation": "autre", "ID BDGEO": "135", "horodatage": "2023-04-17 17:55:06", "distance (en metres)": 6288.45, "station": "PYRAMIDE DE JUVISY", "marker-color": "#818181"}}, {"type": "Feature", "geometry": {"type": "Point", "coordinates": [2.388238, 48.754005]}, "properties": {"numparc": 7431, "etat de la localisation": "autre", "ID BDGEO": "135", "horodatage": "2023-04-17 17:59:48", "distance (en metres)": 6297.61, "station": "PYRAMIDE DE JUVISY", "marker-color": "#818181"}}, {"type": "Feature", "geometry": {"type": "Point", "coordinates": [2.387445, 48.753967]}, "properties": {"numparc": 5718, "etat de la localisation": "autre", "ID BDGEO": "135", "horodatage": "2023-04-17 18:16:07", "distance (en metres)": 6282.9, "station": "PYRAMIDE DE JUVISY", "marker-color": "#818181"}}, {"type": "Feature", "geometry": {"type": "Point", "coordinates": [2.387043, 48.755527]}, "properties": {"numparc": 5718, "etat de la localisation": "autre", "ID BDGEO": "135", "horodatage": "2023-04-17 18:23:22", "distance (en metres)": 6448.72, "station": "PYRAMIDE DE JUVISY", "marker-color": "#818181"}}, {"type": "Feature", "geometry": {"type": "Point", "coordinates": [2.338437, 48.676113]}, "properties": {"numparc": 5714, "etat de la localisation": "autre", "ID BDGEO": "861", "horodatage": "2023-04-17 18:31:33", "distance (en metres)": 3670.71, "station": "JUVISY-RER#", "marker-color": "#818181"}}, {"type": "Feature", "geometry": {"type": "Point", "coordinates": [2.338411, 48.676033]}, "properties": {"numparc": 5714, "etat de la localisation": "autre", "ID BDGEO": "861", "horodatage": "2023-04-17 18:33:26", "distance (en metres)": 3676.58, "station": "JUVISY-RER#", "marker-color": "#818181"}}, {"type": "Feature", "geometry": {"type": "Point", "coordinates": [2.338778, 48.674]}, "properties": {"numparc": 5714, "etat de la localisation": "autre", "ID BDGEO": "861", "horodatage": "2023-04-17 18:43:49", "distance (en metres)": 3765.23, "station": "JUVISY-RER#", "marker-color": "#818181"}}, {"type": "Feature", "geometry": {"type": "Point", "coordinates": [2.341033, 48.672821]}, "properties": {"numparc": 5714, "etat de la localisation": "autre", "ID BDGEO": "861", "horodatage": "2023-04-17 18:45:12", "distance (en metres)": 3697.21, "station": "JUVISY-RER#", "marker-color": "#818181"}}, {"type": "Feature", "geometry": {"type": "Point", "coordinates": [2.381786, 48.690281]}, "properties": {"numparc": 7431, "etat de la localisation": "autre", "ID BDGEO": "984", "horodatage": "2023-04-17 18:45:39", "distance (en metres)": 158.4, "station": "JUVISY RER", "marker-color": "#818181"}}, {"type": "Feature", "geometry": {"type": "Point", "coordinates": [2.350969, 48.6758]}, "properties": {"numparc": 5714, "etat de la localisation": "autre", "ID BDGEO": "861", "horodatage": "2023-04-17 18:49:49", "distance (en metres)": 2911.32, "station": "JUVISY-RER#", "marker-color": "#818181"}}, {"type": "Feature", "geometry": {"type": "Point", "coordinates": [2.345147, 48.679482]}, "properties": {"numparc": 5714, "etat de la localisation": "autre", "ID BDGEO": "861", "horodatage": "2023-04-17 18:53:13", "distance (en metres)": 3061.56, "station": "JUVISY-RER#", "marker-color": "#818181"}}, {"type": "Feature", "geometry": {"type": "Point", "coordinates": [2.342904, 48.681217]}, "properties": {"numparc": 5714, "etat de la localisation": "autre", "ID BDGEO": "861", "horodatage": "2023-04-17 18:57:05", "distance (en metres)": 3134.14, "station": "JUVISY-RER#", "marker-color": "#818181"}}, {"type": "Feature", "geometry": {"type": "Point", "coordinates": [2.345047, 48.683655]}, "properties": {"numparc": 5714, "etat de la localisation": "autre", "ID BDGEO": "861", "horodatage": "2023-04-17 18:58:25", "distance (en metres)": 2894.57, "station": "JUVISY-RER#", "marker-color": "#818181"}}, {"type": "Feature", "geometry": {"type": "Point", "coordinates": [2.347122, 48.685562]}, "properties": {"numparc": 5714, "etat de la localisation": "autre", "ID BDGEO": "861", "horodatage": "2023-04-17 19:00:07", "distance (en metres)": 2689.3, "station": "JUVISY-RER#", "marker-color": "#818181"}}, {"type": "Feature", "geometry": {"type": "Point", "coordinates": [2.353875, 48.687035]}, "properties": {"numparc": 5714, "etat de la localisation": "autre", "ID BDGEO": "861", "horodatage": "2023-04-17 19:02:46", "distance (en metres)": 2168.68, "station": "JUVISY-RER#", "marker-color": "#818181"}}, {"type": "Feature", "geometry": {"type": "Point", "coordinates": [2.359029, 48.688713]}, "properties": {"numparc": 5714, "etat de la localisation": "autre", "ID BDGEO": "861", "horodatage": "2023-04-17 19:04:07", "distance (en metres)": 1759.65, "station": "JUVISY-RER#", "marker-color": "#818181"}}, {"type": "Feature", "geometry": {"type": "Point", "coordinates": [2.362481, 48.691158]}, "properties": {"numparc": 5714, "etat de la localisation": "autre", "ID BDGEO": "861", "horodatage": "2023-04-17 19:05:30", "distance (en metres)": 1477.66, "station": "JUVISY-RER#", "marker-color": "#818181"}}, {"type": "Feature", "geometry": {"type": "Point", "coordinates": [2.372034, 48.698494]}, "properties": {"numparc": 5714, "etat de la localisation": "autre", "ID BDGEO": "126", "horodatage": "2023-04-17 19:10:35", "distance (en metres)": 70.44, "station": "PYRAMIDE DE JUVISY", "marker-color": "#818181"}}, {"type": "Feature", "geometry": {"type": "Point", "coordinates": [2.371903, 48.700336]}, "properties": {"numparc": 5714, "etat de la localisation": "autre", "ID BDGEO": "145", "horodatage": "2023-04-17 19:12:12", "distance (en metres)": 254.94, "station": "PYRAMIDE DE JUVISY#", "marker-color": "#818181"}}, {"type": "Feature", "geometry": {"type": "Point", "coordinates": [2.387414, 48.754097]}, "properties": {"numparc": 5714, "etat de la localisation": "autre", "ID BDGEO": "149", "horodatage": "2023-04-17 19:30:07", "distance (en metres)": 134.69, "station": "DEPOT THIAIS SORTIE", "marker-color": "#818181"}}, {"type": "Feature", "geometry": {"type": "Point", "coordinates": [2.387264, 48.755634]}, "properties": {"numparc": 5714, "etat de la localisation": "autre", "ID BDGEO": "149", "horodatage": "2023-04-17 19:36:23", "distance (en metres)": 56.31, "station": "DEPOT THIAIS SORTIE", "marker-color": "#818181"}}, {"type": "Feature", "geometry": {"type": "Point", "coordinates": [2.387264, 48.755634]}, "properties": {"numparc": 5714, "etat de la localisation": "autre", "ID BDGEO": "149", "horodatage": "2023-04-17 19:36:38", "distance (en metres)": 56.31, "station": "DEPOT THIAIS SORTIE", "marker-color": "#818181"}}, {"type": "Feature", "geometry": {"type": "Point", "coordinates": [2.377157, 48.691071]}, "properties": {"numparc": 7431, "etat de la localisation": "autre", "ID BDGEO": "151", "horodatage": "2023-04-17 19:54:42", "distance (en metres)": 112.01, "station": "MARCHE DE JUVISY", "marker-color": "#818181"}}, {"type": "Feature", "geometry": {"type": "Point", "coordinates": [2.381808, 48.69062]}, "properties": {"numparc": 7431, "etat de la localisation": "autre", "ID BDGEO": "984", "horodatage": "2023-04-17 19:56:32", "distance (en metres)": 125.16, "station": "JUVISY RER", "marker-color": "#818181"}}, {"type": "Feature", "geometry": {"type": "Point", "coordinates": [2.381784, 48.6903]}, "properties": {"numparc": 7431, "etat de la localisation": "autre", "ID BDGEO": "984", "horodatage": "2023-04-17 21:37:21", "distance (en metres)": 156.6, "station": "JUVISY RER", "marker-color": "#818181"}}, {"type": "Feature", "geometry": {"type": "Point", "coordinates": [2.338196, 48.676189]}, "properties": {"numparc": 7431, "etat de la localisation": "autre", "ID BDGEO": "861", "horodatage": "2023-04-17 23:57:18", "distance (en metres)": 3682.4, "station": "JUVISY-RER#", "marker-color": "#818181"}}, {"type": "Feature", "geometry": {"type": "Point", "coordinates": [2.338334, 48.676079]}, "properties": {"numparc": 7431, "etat de la localisation": "autre", "ID BDGEO": "861", "horodatage": "2023-04-17 23:58:41", "distance (en metres)": 3679.18, "station": "JUVISY-RER#", "marker-color": "#818181"}}, {"type": "Feature", "geometry": {"type": "Point", "coordinates": [2.350929, 48.675781]}, "properties": {"numparc": 7431, "etat de la localisation": "autre", "ID BDGEO": "861", "horodatage": "2023-04-18 00:03:59", "distance (en metres)": 2914.94, "station": "JUVISY-RER#", "marker-color": "#818181"}}, {"type": "Feature", "geometry": {"type": "Point", "coordinates": [2.342872, 48.681198]}, "properties": {"numparc": 7431, "etat de la localisation": "autre", "ID BDGEO": "861", "horodatage": "2023-04-18 00:08:18", "distance (en metres)": 3137.12, "station": "JUVISY-RER#", "marker-color": "#818181"}}, {"type": "Feature", "geometry": {"type": "Point", "coordinates": [2.347135, 48.685574]}, "properties": {"numparc": 7431, "etat de la localisation": "autre", "ID BDGEO": "861", "horodatage": "2023-04-18 00:09:38", "distance (en metres)": 2688.05, "station": "JUVISY-RER#", "marker-color": "#818181"}}, {"type": "Feature", "geometry": {"type": "Point", "coordinates": [2.359014, 48.688698]}, "properties": {"numparc": 7431, "etat de la localisation": "autre", "ID BDGEO": "861", "horodatage": "2023-04-18 00:11:19", "distance (en metres)": 1761.04, "station": "JUVISY-RER#", "marker-color": "#818181"}}, {"type": "Feature", "geometry": {"type": "Point", "coordinates": [2.362441, 48.691166]}, "properties": {"numparc": 7431, "etat de la localisation": "autre", "ID BDGEO": "861", "horodatage": "2023-04-18 00:12:08", "distance (en metres)": 1480.57, "station": "JUVISY-RER#", "marker-color": "#818181"}}, {"type": "Feature", "geometry": {"type": "Point", "coordinates": [2.387435, 48.753929]}, "properties": {"numparc": 7431, "etat de la localisation": "autre", "ID BDGEO": "149", "horodatage": "2023-04-18 00:26:46", "distance (en metres)": 152.84, "station": "DEPOT THIAIS SORTIE", "marker-color": "#818181"}}, {"type": "Feature", "geometry": {"type": "Point", "coordinates": [2.387417, 48.753922]}, "properties": {"numparc": 7431, "etat de la localisation": "autre", "ID BDGEO": "149", "horodatage": "2023-04-18 00:27:13", "distance (en metres)": 153.24, "station": "DEPOT THIAIS SORTIE", "marker-color": "#818181"}}, {"type": "Feature", "geometry": {"type": "Point", "coordinates": [2.387211, 48.754467]}, "properties": {"numparc": 7431, "etat de la localisation": "autre", "ID BDGEO": "149", "horodatage": "2023-04-18 00:37:27", "distance (en metres)": 90.94, "station": "DEPOT THIAIS SORTIE", "marker-color": "#818181"}}, {"type": "Feature", "geometry": {"type": "Point", "coordinates": [2.38679, 48.755236]}, "properties": {"station": "DEPOT THIAIS SORTIE", "ID BDGEO": "149", "marker-color": "#56B3FF"}}, {"type": "Feature", "geometry": {"type": "Point", "coordinates": [2.366216, 48.694401]}, "properties": {"station": "CIMETIERE", "ID BDGEO": "127", "marker-color": "#56B3FF"}}, {"type": "Feature", "geometry": {"type": "Point", "coordinates": [2.372301, 48.698354]}, "properties": {"station": "PYRAMIDE DE JUVISY", "ID BDGEO": "135", "marker-color": "#56B3FF"}}, {"type": "Feature", "geometry": {"type": "Point", "coordinates": [2.37671, 48.692034]}, "properties": {"station": "MARCHE DE JUVISY", "ID BDGEO": "151", "marker-color": "#56B3FF"}}, {"type": "Feature", "geometry": {"type": "Point", "coordinates": [2.37207, 48.698246]}, "properties": {"station": "PYRAMIDE DE JUVISY#", "ID BDGEO": "799", "marker-color": "#56B3FF"}}, {"type": "Feature", "geometry": {"type": "Point", "coordinates": [2.3715, 48.697968]}, "properties": {"station": "PYRAMIDE DE JUVISY", "ID BDGEO": "126", "marker-color": "#56B3FF"}}, {"type": "Feature", "geometry": {"type": "Point", "coordinates": [2.331704, 48.669586]}, "properties": {"station": "EPINAY-SUR-ORGE RER C", "ID BDGEO": "141", "marker-color": "#56B3FF"}}, {"type": "Feature", "geometry": {"type": "Point", "coordinates": [2.382602, 48.691591]}, "properties": {"station": "JUVISY-RER#", "ID BDGEO": "861", "marker-color": "#56B3FF"}}, {"type": "Feature", "geometry": {"type": "Point", "coordinates": [2.382778, 48.691546]}, "properties": {"station": "JUVISY RER", "ID BDGEO": "984", "marker-color": "#56B3FF"}}, {"type": "Feature", "geometry": {"type": "Point", "coordinates": [2.371676, 48.698049]}, "properties": {"station": "PYRAMIDE DE JUVISY#", "ID BDGEO": "145", "marker-color": "#56B3FF"}}]}