{"type": "FeatureCollection", "features": [{"type": "Feature", "geometry": {"type": "Point", "coordinates": [2.106403, 48.884296]}, "properties": {"alarme": "VEHICULE DELOCALISE", "numparc": 2873, "type": "EXPLOITATION", "duree": "00:01:07", "horodatage": "2023-03-15 17:06:35", "statut": "start", "marker-color": "#ff0000"}}, {"type": "Feature", "geometry": {"type": "Point", "coordinates": [2.213229, 48.890934]}, "properties": {"alarme": "VEHICULE DELOCALISE", "numparc": 2881, "type": "EXPLOITATION", "duree": "00:02:06", "horodatage": "2023-03-15 20:19:42", "statut": "start", "marker-color": "#ff0000"}}, {"type": "Feature", "geometry": {"type": "Point", "coordinates": [2.099155, 48.886944]}, "properties": {"alarme": "VEHICULE DELOCALISE", "numparc": 2873, "type": "EXPLOITATION", "duree": "00:01:07", "horodatage": "2023-03-15 17:07:42", "statut": "end", "marker-color": "#2fe184"}}, {"type": "Feature", "geometry": {"type": "Point", "coordinates": [2.212638, 48.893993]}, "properties": {"alarme": "VEHICULE DELOCALISE", "numparc": 2881, "type": "EXPLOITATION", "duree": "00:02:06", "horodatage": "2023-03-15 20:21:48", "statut": "end", "marker-color": "#2fe184"}}]}