{"type": "FeatureCollection", "features": [{"type": "Feature", "geometry": {"type": "Point", "coordinates": [2.188644, 48.902725]}, "properties": {"alarme": "DEFAUT LIAISON DATA SAEIV / AIGLE", "numparc": 8964, "type": "TECHNIQUE", "duree": "04:06:17", "horodatage": "2022-01-21 04:53:54", "statut": "start", "marker-color": "#ff0000"}}, {"type": "Feature", "geometry": {"type": "Point", "coordinates": [2.201484, 48.946232]}, "properties": {"alarme": "VEHICULE DELOCALISE", "numparc": 8969, "type": "EXPLOITATION", "duree": "00:00:30", "horodatage": "2022-01-21 09:04:55", "statut": "start", "marker-color": "#ff0000"}}, {"type": "Feature", "geometry": {"type": "Point", "coordinates": [2.207196, 48.937801]}, "properties": {"alarme": "VEHICULE DELOCALISE", "numparc": 8932, "type": "EXPLOITATION", "duree": "00:00:37", "horodatage": "2022-01-21 09:27:17", "statut": "start", "marker-color": "#ff0000"}}, {"type": "Feature", "geometry": {"type": "Point", "coordinates": [2.248396, 48.946392]}, "properties": {"alarme": "VEHICULE DELOCALISE", "numparc": 8958, "type": "EXPLOITATION", "duree": "00:01:51", "horodatage": "2022-01-21 09:50:34", "statut": "start", "marker-color": "#ff0000"}}, {"type": "Feature", "geometry": {"type": "Point", "coordinates": [2.18977, 48.902542]}, "properties": {"alarme": "VEHICULE DELOCALISE", "numparc": 8973, "type": "EXPLOITATION", "duree": "00:01:20", "horodatage": "2022-01-21 10:03:01", "statut": "start", "marker-color": "#ff0000"}}, {"type": "Feature", "geometry": {"type": "Point", "coordinates": [2.255067, 48.94389]}, "properties": {"alarme": "DEFAUT LIAISON DATA SAEIV / AIGLE", "numparc": 8951, "type": "TECHNIQUE", "duree": "00:00:12", "horodatage": "2022-01-21 10:10:08", "statut": "start", "marker-color": "#ff0000"}}, {"type": "Feature", "geometry": {"type": "Point", "coordinates": [2.164133, 48.932926]}, "properties": {"alarme": "VEHICULE DELOCALISE", "numparc": 8959, "type": "EXPLOITATION", "duree": "00:13:26", "horodatage": "2022-01-21 10:23:25", "statut": "start", "marker-color": "#ff0000"}}, {"type": "Feature", "geometry": {"type": "Point", "coordinates": [2.158168, 48.937721]}, "properties": {"alarme": "VEHICULE DELOCALISE", "numparc": 8959, "type": "EXPLOITATION", "duree": "00:00:22", "horodatage": "2022-01-21 10:38:50", "statut": "start", "marker-color": "#ff0000"}}, {"type": "Feature", "geometry": {"type": "Point", "coordinates": [2.204965, 48.941441]}, "properties": {"alarme": "DEFAUT LIAISON DATA SAEIV / AIGLE", "numparc": 8957, "type": "TECHNIQUE", "duree": "00:00:25", "horodatage": "2022-01-21 11:01:51", "statut": "start", "marker-color": "#ff0000"}}, {"type": "Feature", "geometry": {"type": "Point", "coordinates": [2.248389, 48.946415]}, "properties": {"alarme": "VEHICULE DELOCALISE", "numparc": 8960, "type": "EXPLOITATION", "duree": "00:00:26", "horodatage": "2022-01-21 11:19:33", "statut": "start", "marker-color": "#ff0000"}}, {"type": "Feature", "geometry": {"type": "Point", "coordinates": [2.206763, 48.94091]}, "properties": {"alarme": "DEFAUT LIAISON DATA SAEIV / AIGLE", "numparc": 8957, "type": "TECHNIQUE", "duree": "00:00:39", "horodatage": "2022-01-21 12:04:54", "statut": "start", "marker-color": "#ff0000"}}, {"type": "Feature", "geometry": {"type": "Point", "coordinates": [2.257705, 48.946239]}, "properties": {"alarme": "DEFAUT LIAISON DATA SAEIV / AIGLE", "numparc": 8968, "type": "TECHNIQUE", "duree": "00:04:43", "horodatage": "2022-01-21 12:46:30", "statut": "start", "marker-color": "#ff0000"}}, {"type": "Feature", "geometry": {"type": "Point", "coordinates": [2.206879, 48.941216]}, "properties": {"alarme": "DEFAUT LIAISON DATA SAEIV / AIGLE", "numparc": 8957, "type": "TECHNIQUE", "duree": "00:01:03", "horodatage": "2022-01-21 13:20:14", "statut": "start", "marker-color": "#ff0000"}}, {"type": "Feature", "geometry": {"type": "Point", "coordinates": [2.206693, 48.941406]}, "properties": {"alarme": "DEFAUT LIAISON DATA SAEIV / AIGLE", "numparc": 8968, "type": "TECHNIQUE", "duree": "00:02:30", "horodatage": "2022-01-21 13:23:01", "statut": "start", "marker-color": "#ff0000"}}, {"type": "Feature", "geometry": {"type": "Point", "coordinates": [2.19319, 48.942703]}, "properties": {"alarme": "DEFAUT LIAISON DATA SAEIV / AIGLE", "numparc": 8968, "type": "TECHNIQUE", "duree": "00:00:18", "horodatage": "2022-01-21 13:33:51", "statut": "start", "marker-color": "#ff0000"}}, {"type": "Feature", "geometry": {"type": "Point", "coordinates": [2.184964, 48.943974]}, "properties": {"alarme": "DEFAUT LIAISON DATA SAEIV / AIGLE", "numparc": 8968, "type": "TECHNIQUE", "duree": "00:00:08", "horodatage": "2022-01-21 13:36:04", "statut": "start", "marker-color": "#ff0000"}}, {"type": "Feature", "geometry": {"type": "Point", "coordinates": [2.192518, 48.942749]}, "properties": {"alarme": "DEFAUT LIAISON DATA SAEIV / AIGLE", "numparc": 8968, "type": "TECHNIQUE", "duree": "00:02:01", "horodatage": "2022-01-21 14:19:25", "statut": "start", "marker-color": "#ff0000"}}, {"type": "Feature", "geometry": {"type": "Point", "coordinates": [2.199366, 48.946243]}, "properties": {"alarme": "DEFAUT LIAISON DATA SAEIV / AIGLE", "numparc": 8968, "type": "TECHNIQUE", "duree": "00:00:40", "horodatage": "2022-01-21 14:22:41", "statut": "start", "marker-color": "#ff0000"}}, {"type": "Feature", "geometry": {"type": "Point", "coordinates": [2.205971, 48.941357]}, "properties": {"alarme": "DEFAUT LIAISON DATA SAEIV / AIGLE", "numparc": 8968, "type": "TECHNIQUE", "duree": "00:02:07", "horodatage": "2022-01-21 14:27:35", "statut": "start", "marker-color": "#ff0000"}}, {"type": "Feature", "geometry": {"type": "Point", "coordinates": [2.244582, 48.941193]}, "properties": {"alarme": "DEFAUT LIAISON DATA SAEIV / AIGLE", "numparc": 8968, "type": "TECHNIQUE", "duree": "00:01:23", "horodatage": "2022-01-21 15:22:20", "statut": "start", "marker-color": "#ff0000"}}, {"type": "Feature", "geometry": {"type": "Point", "coordinates": [2.204825, 48.94146]}, "properties": {"alarme": "DEFAUT LIAISON DATA SAEIV / AIGLE", "numparc": 8968, "type": "TECHNIQUE", "duree": "00:02:29", "horodatage": "2022-01-21 15:46:49", "statut": "start", "marker-color": "#ff0000"}}, {"type": "Feature", "geometry": {"type": "Point", "coordinates": [2.195796, 48.942421]}, "properties": {"alarme": "DEFAUT LIAISON DATA SAEIV / AIGLE", "numparc": 8968, "type": "TECHNIQUE", "duree": "00:03:57", "horodatage": "2022-01-21 15:53:43", "statut": "start", "marker-color": "#ff0000"}}, {"type": "Feature", "geometry": {"type": "Point", "coordinates": [2.204217, 48.942951]}, "properties": {"alarme": "VEHICULE DELOCALISE", "numparc": 8969, "type": "EXPLOITATION", "duree": "00:00:26", "horodatage": "2022-01-21 16:09:41", "statut": "start", "marker-color": "#ff0000"}}, {"type": "Feature", "geometry": {"type": "Point", "coordinates": [2.190631, 48.942993]}, "properties": {"alarme": "DEFAUT LIAISON DATA SAEIV / AIGLE", "numparc": 8968, "type": "TECHNIQUE", "duree": "00:00:25", "horodatage": "2022-01-21 16:42:30", "statut": "start", "marker-color": "#ff0000"}}, {"type": "Feature", "geometry": {"type": "Point", "coordinates": [2.195761, 48.942345]}, "properties": {"alarme": "DEFAUT LIAISON DATA SAEIV / AIGLE", "numparc": 8968, "type": "TECHNIQUE", "duree": "00:00:32", "horodatage": "2022-01-21 16:44:11", "statut": "start", "marker-color": "#ff0000"}}, {"type": "Feature", "geometry": {"type": "Point", "coordinates": [2.205801, 48.941391]}, "properties": {"alarme": "DEFAUT LIAISON DATA SAEIV / AIGLE", "numparc": 8968, "type": "TECHNIQUE", "duree": "00:02:10", "horodatage": "2022-01-21 16:53:08", "statut": "start", "marker-color": "#ff0000"}}, {"type": "Feature", "geometry": {"type": "Point", "coordinates": [2.248412, 48.946423]}, "properties": {"alarme": "VEHICULE DELOCALISE", "numparc": 8961, "type": "EXPLOITATION", "duree": "00:01:29", "horodatage": "2022-01-21 17:09:06", "statut": "start", "marker-color": "#ff0000"}}, {"type": "Feature", "geometry": {"type": "Point", "coordinates": [2.257686, 48.945858]}, "properties": {"alarme": "DEFAUT LIAISON DATA SAEIV / AIGLE", "numparc": 8968, "type": "TECHNIQUE", "duree": "00:01:24", "horodatage": "2022-01-21 17:28:57", "statut": "start", "marker-color": "#ff0000"}}, {"type": "Feature", "geometry": {"type": "Point", "coordinates": [2.256381, 48.947735]}, "properties": {"alarme": "DEFAUT LIAISON DATA SAEIV / AIGLE", "numparc": 8968, "type": "TECHNIQUE", "duree": "00:01:23", "horodatage": "2022-01-21 17:36:12", "statut": "start", "marker-color": "#ff0000"}}, {"type": "Feature", "geometry": {"type": "Point", "coordinates": [2.245117, 48.944244]}, "properties": {"alarme": "DEFAUT LIAISON DATA SAEIV / AIGLE", "numparc": 8968, "type": "TECHNIQUE", "duree": "00:00:07", "horodatage": "2022-01-21 17:41:53", "statut": "start", "marker-color": "#ff0000"}}, {"type": "Feature", "geometry": {"type": "Point", "coordinates": [2.20481, 48.941422]}, "properties": {"alarme": "DEFAUT LIAISON DATA SAEIV / AIGLE", "numparc": 8968, "type": "TECHNIQUE", "duree": "00:02:03", "horodatage": "2022-01-21 18:11:08", "statut": "start", "marker-color": "#ff0000"}}, {"type": "Feature", "geometry": {"type": "Point", "coordinates": [2.197543, 48.94244]}, "properties": {"alarme": "DEFAUT LIAISON DATA SAEIV / AIGLE", "numparc": 8968, "type": "TECHNIQUE", "duree": "00:01:24", "horodatage": "2022-01-21 18:18:53", "statut": "start", "marker-color": "#ff0000"}}, {"type": "Feature", "geometry": {"type": "Point", "coordinates": [2.199006, 48.942112]}, "properties": {"alarme": "VEHICULE DELOCALISE", "numparc": 8960, "type": "EXPLOITATION", "duree": "00:00:24", "horodatage": "2022-01-21 18:42:03", "statut": "start", "marker-color": "#ff0000"}}, {"type": "Feature", "geometry": {"type": "Point", "coordinates": [2.192603, 48.942749]}, "properties": {"alarme": "DEFAUT LIAISON DATA SAEIV / AIGLE", "numparc": 8968, "type": "TECHNIQUE", "duree": "00:00:06", "horodatage": "2022-01-21 19:07:52", "statut": "start", "marker-color": "#ff0000"}}, {"type": "Feature", "geometry": {"type": "Point", "coordinates": [2.1972, 48.942211]}, "properties": {"alarme": "DEFAUT LIAISON DATA SAEIV / AIGLE", "numparc": 8968, "type": "TECHNIQUE", "duree": "00:02:07", "horodatage": "2022-01-21 19:09:39", "statut": "start", "marker-color": "#ff0000"}}, {"type": "Feature", "geometry": {"type": "Point", "coordinates": [2.206725, 48.941021]}, "properties": {"alarme": "DEFAUT LIAISON DATA SAEIV / AIGLE", "numparc": 8968, "type": "TECHNIQUE", "duree": "00:00:47", "horodatage": "2022-01-21 19:18:06", "statut": "start", "marker-color": "#ff0000"}}, {"type": "Feature", "geometry": {"type": "Point", "coordinates": [2.257884, 48.945751]}, "properties": {"alarme": "VEHICULE DELOCALISE", "numparc": 8963, "type": "EXPLOITATION", "duree": "00:00:32", "horodatage": "2022-01-21 19:25:31", "statut": "start", "marker-color": "#ff0000"}}, {"type": "Feature", "geometry": {"type": "Point", "coordinates": [2.253183, 48.948708]}, "properties": {"alarme": "DEFAUT LIAISON DATA SAEIV / AIGLE", "numparc": 8968, "type": "TECHNIQUE", "duree": "00:00:11", "horodatage": "2022-01-21 19:48:18", "statut": "start", "marker-color": "#ff0000"}}, {"type": "Feature", "geometry": {"type": "Point", "coordinates": [2.207009, 48.938782]}, "properties": {"alarme": "DEFAUT LIAISON DATA SAEIV / AIGLE", "numparc": 8968, "type": "TECHNIQUE", "duree": "00:04:54", "horodatage": "2022-01-21 20:28:10", "statut": "start", "marker-color": "#ff0000"}}, {"type": "Feature", "geometry": {"type": "Point", "coordinates": [2.254687, 48.94474]}, "properties": {"alarme": "VEHICULE DELOCALISE", "numparc": 8951, "type": "EXPLOITATION", "duree": "00:00:37", "horodatage": "2022-01-21 20:29:28", "statut": "start", "marker-color": "#ff0000"}}, {"type": "Feature", "geometry": {"type": "Point", "coordinates": [2.193123, 48.942688]}, "properties": {"alarme": "DEFAUT LIAISON DATA SAEIV / AIGLE", "numparc": 8968, "type": "TECHNIQUE", "duree": "00:00:15", "horodatage": "2022-01-21 20:38:14", "statut": "start", "marker-color": "#ff0000"}}, {"type": "Feature", "geometry": {"type": "Point", "coordinates": [2.248319, 48.946392]}, "properties": {"alarme": "VEHICULE DELOCALISE", "numparc": 8964, "type": "EXPLOITATION", "duree": "00:01:32", "horodatage": "2022-01-21 20:49:11", "statut": "start", "marker-color": "#ff0000"}}, {"type": "Feature", "geometry": {"type": "Point", "coordinates": [2.245948, 48.937836]}, "properties": {"alarme": "VEHICULE DELOCALISE", "numparc": 8964, "type": "EXPLOITATION", "duree": "00:05:33", "horodatage": "2022-01-21 20:52:55", "statut": "start", "marker-color": "#ff0000"}}, {"type": "Feature", "geometry": {"type": "Point", "coordinates": [2.195213, 48.925282]}, "properties": {"alarme": "DEFAUT LIAISON DATA SAEIV / AIGLE", "numparc": 8968, "type": "TECHNIQUE", "duree": "00:03:22", "horodatage": "2022-01-21 21:00:23", "statut": "start", "marker-color": "#ff0000"}}, {"type": "Feature", "geometry": {"type": "Point", "coordinates": [2.189802, 48.902245]}, "properties": {"alarme": "DEFAUT LIAISON DATA SAEIV / AIGLE", "numparc": 8968, "type": "TECHNIQUE", "duree": "00:02:15", "horodatage": "2022-01-21 21:14:19", "statut": "start", "marker-color": "#ff0000"}}, {"type": "Feature", "geometry": {"type": "Point", "coordinates": [2.172887, 48.944942]}, "properties": {"alarme": "VEHICULE DELOCALISE", "numparc": 8962, "type": "EXPLOITATION", "duree": "00:02:48", "horodatage": "2022-01-21 22:27:14", "statut": "start", "marker-color": "#ff0000"}}, {"type": "Feature", "geometry": {"type": "Point", "coordinates": [2.182578, 48.944714]}, "properties": {"alarme": "VEHICULE DELOCALISE", "numparc": 8962, "type": "EXPLOITATION", "duree": "00:04:13", "horodatage": "2022-01-21 22:30:28", "statut": "start", "marker-color": "#ff0000"}}, {"type": "Feature", "geometry": {"type": "Point", "coordinates": [2.198515, 48.944412]}, "properties": {"alarme": "VEHICULE DELOCALISE", "numparc": 8962, "type": "EXPLOITATION", "duree": "00:01:01", "horodatage": "2022-01-21 22:35:23", "statut": "start", "marker-color": "#ff0000"}}, {"type": "Feature", "geometry": {"type": "Point", "coordinates": [2.20558, 48.945938]}, "properties": {"alarme": "VEHICULE DELOCALISE", "numparc": 8962, "type": "EXPLOITATION", "duree": "00:03:46", "horodatage": "2022-01-21 22:37:29", "statut": "start", "marker-color": "#ff0000"}}, {"type": "Feature", "geometry": {"type": "Point", "coordinates": [2.208061, 48.935333]}, "properties": {"alarme": "VEHICULE DELOCALISE", "numparc": 8962, "type": "EXPLOITATION", "duree": "00:03:25", "horodatage": "2022-01-21 22:42:32", "statut": "start", "marker-color": "#ff0000"}}, {"type": "Feature", "geometry": {"type": "Point", "coordinates": [2.21706, 48.92548]}, "properties": {"alarme": "VEHICULE DELOCALISE", "numparc": 8962, "type": "EXPLOITATION", "duree": "00:00:57", "horodatage": "2022-01-21 22:47:25", "statut": "start", "marker-color": "#ff0000"}}, {"type": "Feature", "geometry": {"type": "Point", "coordinates": [2.168798, 48.93935]}, "properties": {"alarme": "VEHICULE DELOCALISE", "numparc": 8955, "type": "EXPLOITATION", "duree": "00:00:14", "horodatage": "2022-01-22 02:12:28", "statut": "start", "marker-color": "#ff0000"}}, {"type": "Feature", "geometry": {"type": "Point", "coordinates": [2.199419, 48.946289]}, "properties": {"alarme": "DEFAUT LIAISON DATA SAEIV / AIGLE", "numparc": 8964, "type": "TECHNIQUE", "duree": "04:06:17", "horodatage": "2022-01-21 09:00:11", "statut": "end", "marker-color": "#2fe184"}}, {"type": "Feature", "geometry": {"type": "Point", "coordinates": [2.201484, 48.946232]}, "properties": {"alarme": "VEHICULE DELOCALISE", "numparc": 8969, "type": "EXPLOITATION", "duree": "00:00:30", "horodatage": "2022-01-21 09:05:25", "statut": "end", "marker-color": "#2fe184"}}, {"type": "Feature", "geometry": {"type": "Point", "coordinates": [2.207196, 48.937801]}, "properties": {"alarme": "VEHICULE DELOCALISE", "numparc": 8932, "type": "EXPLOITATION", "duree": "00:00:37", "horodatage": "2022-01-21 09:27:54", "statut": "end", "marker-color": "#2fe184"}}, {"type": "Feature", "geometry": {"type": "Point", "coordinates": [2.243444, 48.942329]}, "properties": {"alarme": "VEHICULE DELOCALISE", "numparc": 8958, "type": "EXPLOITATION", "duree": "00:01:51", "horodatage": "2022-01-21 09:52:25", "statut": "end", "marker-color": "#2fe184"}}, {"type": "Feature", "geometry": {"type": "Point", "coordinates": [2.189769, 48.902538]}, "properties": {"alarme": "VEHICULE DELOCALISE", "numparc": 8973, "type": "EXPLOITATION", "duree": "00:01:20", "horodatage": "2022-01-21 10:04:21", "statut": "end", "marker-color": "#2fe184"}}, {"type": "Feature", "geometry": {"type": "Point", "coordinates": [2.25519, 48.943489]}, "properties": {"alarme": "DEFAUT LIAISON DATA SAEIV / AIGLE", "numparc": 8951, "type": "TECHNIQUE", "duree": "00:00:12", "horodatage": "2022-01-21 10:10:20", "statut": "end", "marker-color": "#2fe184"}}, {"type": "Feature", "geometry": {"type": "Point", "coordinates": [2.157068, 48.938046]}, "properties": {"alarme": "VEHICULE DELOCALISE", "numparc": 8959, "type": "EXPLOITATION", "duree": "00:13:26", "horodatage": "2022-01-21 10:36:51", "statut": "end", "marker-color": "#2fe184"}}, {"type": "Feature", "geometry": {"type": "Point", "coordinates": [2.157608, 48.938145]}, "properties": {"alarme": "VEHICULE DELOCALISE", "numparc": 8959, "type": "EXPLOITATION", "duree": "00:00:22", "horodatage": "2022-01-21 10:39:12", "statut": "end", "marker-color": "#2fe184"}}, {"type": "Feature", "geometry": {"type": "Point", "coordinates": [2.204166, 48.94146]}, "properties": {"alarme": "DEFAUT LIAISON DATA SAEIV / AIGLE", "numparc": 8957, "type": "TECHNIQUE", "duree": "00:00:25", "horodatage": "2022-01-21 11:02:16", "statut": "end", "marker-color": "#2fe184"}}, {"type": "Feature", "geometry": {"type": "Point", "coordinates": [2.247085, 48.945629]}, "properties": {"alarme": "VEHICULE DELOCALISE", "numparc": 8960, "type": "EXPLOITATION", "duree": "00:00:26", "horodatage": "2022-01-21 11:19:59", "statut": "end", "marker-color": "#2fe184"}}, {"type": "Feature", "geometry": {"type": "Point", "coordinates": [2.207001, 48.938148]}, "properties": {"alarme": "DEFAUT LIAISON DATA SAEIV / AIGLE", "numparc": 8957, "type": "TECHNIQUE", "duree": "00:00:39", "horodatage": "2022-01-21 12:05:33", "statut": "end", "marker-color": "#2fe184"}}, {"type": "Feature", "geometry": {"type": "Point", "coordinates": [2.257724, 48.946312]}, "properties": {"alarme": "DEFAUT LIAISON DATA SAEIV / AIGLE", "numparc": 8968, "type": "TECHNIQUE", "duree": "00:04:43", "horodatage": "2022-01-21 12:51:13", "statut": "end", "marker-color": "#2fe184"}}, {"type": "Feature", "geometry": {"type": "Point", "coordinates": [2.203447, 48.941521]}, "properties": {"alarme": "DEFAUT LIAISON DATA SAEIV / AIGLE", "numparc": 8957, "type": "TECHNIQUE", "duree": "00:01:03", "horodatage": "2022-01-21 13:21:17", "statut": "end", "marker-color": "#2fe184"}}, {"type": "Feature", "geometry": {"type": "Point", "coordinates": [2.20239, 48.942368]}, "properties": {"alarme": "DEFAUT LIAISON DATA SAEIV / AIGLE", "numparc": 8968, "type": "TECHNIQUE", "duree": "00:02:30", "horodatage": "2022-01-21 13:25:31", "statut": "end", "marker-color": "#2fe184"}}, {"type": "Feature", "geometry": {"type": "Point", "coordinates": [2.191937, 48.942863]}, "properties": {"alarme": "DEFAUT LIAISON DATA SAEIV / AIGLE", "numparc": 8968, "type": "TECHNIQUE", "duree": "00:00:18", "horodatage": "2022-01-21 13:34:09", "statut": "end", "marker-color": "#2fe184"}}, {"type": "Feature", "geometry": {"type": "Point", "coordinates": [2.18465, 48.944016]}, "properties": {"alarme": "DEFAUT LIAISON DATA SAEIV / AIGLE", "numparc": 8968, "type": "TECHNIQUE", "duree": "00:00:08", "horodatage": "2022-01-21 13:36:12", "statut": "end", "marker-color": "#2fe184"}}, {"type": "Feature", "geometry": {"type": "Point", "coordinates": [2.1976, 48.94244]}, "properties": {"alarme": "DEFAUT LIAISON DATA SAEIV / AIGLE", "numparc": 8968, "type": "TECHNIQUE", "duree": "00:02:01", "horodatage": "2022-01-21 14:21:26", "statut": "end", "marker-color": "#2fe184"}}, {"type": "Feature", "geometry": {"type": "Point", "coordinates": [2.201496, 48.94622]}, "properties": {"alarme": "DEFAUT LIAISON DATA SAEIV / AIGLE", "numparc": 8968, "type": "TECHNIQUE", "duree": "00:00:40", "horodatage": "2022-01-21 14:23:21", "statut": "end", "marker-color": "#2fe184"}}, {"type": "Feature", "geometry": {"type": "Point", "coordinates": [2.207061, 48.937569]}, "properties": {"alarme": "DEFAUT LIAISON DATA SAEIV / AIGLE", "numparc": 8968, "type": "TECHNIQUE", "duree": "00:02:07", "horodatage": "2022-01-21 14:29:42", "statut": "end", "marker-color": "#2fe184"}}, {"type": "Feature", "geometry": {"type": "Point", "coordinates": [2.243635, 48.939205]}, "properties": {"alarme": "DEFAUT LIAISON DATA SAEIV / AIGLE", "numparc": 8968, "type": "TECHNIQUE", "duree": "00:01:23", "horodatage": "2022-01-21 15:23:43", "statut": "end", "marker-color": "#2fe184"}}, {"type": "Feature", "geometry": {"type": "Point", "coordinates": [2.20585, 48.94389]}, "properties": {"alarme": "DEFAUT LIAISON DATA SAEIV / AIGLE", "numparc": 8968, "type": "TECHNIQUE", "duree": "00:02:29", "horodatage": "2022-01-21 15:49:18", "statut": "end", "marker-color": "#2fe184"}}, {"type": "Feature", "geometry": {"type": "Point", "coordinates": [2.183966, 48.94429]}, "properties": {"alarme": "DEFAUT LIAISON DATA SAEIV / AIGLE", "numparc": 8968, "type": "TECHNIQUE", "duree": "00:03:57", "horodatage": "2022-01-21 15:57:40", "statut": "end", "marker-color": "#2fe184"}}, {"type": "Feature", "geometry": {"type": "Point", "coordinates": [2.204217, 48.942951]}, "properties": {"alarme": "VEHICULE DELOCALISE", "numparc": 8969, "type": "EXPLOITATION", "duree": "00:00:26", "horodatage": "2022-01-21 16:10:07", "statut": "end", "marker-color": "#2fe184"}}, {"type": "Feature", "geometry": {"type": "Point", "coordinates": [2.193047, 48.942673]}, "properties": {"alarme": "DEFAUT LIAISON DATA SAEIV / AIGLE", "numparc": 8968, "type": "TECHNIQUE", "duree": "00:00:25", "horodatage": "2022-01-21 16:42:55", "statut": "end", "marker-color": "#2fe184"}}, {"type": "Feature", "geometry": {"type": "Point", "coordinates": [2.197188, 48.942207]}, "properties": {"alarme": "DEFAUT LIAISON DATA SAEIV / AIGLE", "numparc": 8968, "type": "TECHNIQUE", "duree": "00:00:32", "horodatage": "2022-01-21 16:44:43", "statut": "end", "marker-color": "#2fe184"}}, {"type": "Feature", "geometry": {"type": "Point", "coordinates": [2.206981, 48.937851]}, "properties": {"alarme": "DEFAUT LIAISON DATA SAEIV / AIGLE", "numparc": 8968, "type": "TECHNIQUE", "duree": "00:02:10", "horodatage": "2022-01-21 16:55:18", "statut": "end", "marker-color": "#2fe184"}}, {"type": "Feature", "geometry": {"type": "Point", "coordinates": [2.24703, 48.94561]}, "properties": {"alarme": "VEHICULE DELOCALISE", "numparc": 8961, "type": "EXPLOITATION", "duree": "00:01:29", "horodatage": "2022-01-21 17:10:35", "statut": "end", "marker-color": "#2fe184"}}, {"type": "Feature", "geometry": {"type": "Point", "coordinates": [2.257746, 48.946281]}, "properties": {"alarme": "DEFAUT LIAISON DATA SAEIV / AIGLE", "numparc": 8968, "type": "TECHNIQUE", "duree": "00:01:24", "horodatage": "2022-01-21 17:30:21", "statut": "end", "marker-color": "#2fe184"}}, {"type": "Feature", "geometry": {"type": "Point", "coordinates": [2.252325, 48.948441]}, "properties": {"alarme": "DEFAUT LIAISON DATA SAEIV / AIGLE", "numparc": 8968, "type": "TECHNIQUE", "duree": "00:01:23", "horodatage": "2022-01-21 17:37:35", "statut": "end", "marker-color": "#2fe184"}}, {"type": "Feature", "geometry": {"type": "Point", "coordinates": [2.244876, 48.944084]}, "properties": {"alarme": "DEFAUT LIAISON DATA SAEIV / AIGLE", "numparc": 8968, "type": "TECHNIQUE", "duree": "00:00:07", "horodatage": "2022-01-21 17:42:00", "statut": "end", "marker-color": "#2fe184"}}, {"type": "Feature", "geometry": {"type": "Point", "coordinates": [2.20238, 48.942375]}, "properties": {"alarme": "DEFAUT LIAISON DATA SAEIV / AIGLE", "numparc": 8968, "type": "TECHNIQUE", "duree": "00:02:03", "horodatage": "2022-01-21 18:13:11", "statut": "end", "marker-color": "#2fe184"}}, {"type": "Feature", "geometry": {"type": "Point", "coordinates": [2.193206, 48.942673]}, "properties": {"alarme": "DEFAUT LIAISON DATA SAEIV / AIGLE", "numparc": 8968, "type": "TECHNIQUE", "duree": "00:01:24", "horodatage": "2022-01-21 18:20:17", "statut": "end", "marker-color": "#2fe184"}}, {"type": "Feature", "geometry": {"type": "Point", "coordinates": [2.197815, 48.942219]}, "properties": {"alarme": "VEHICULE DELOCALISE", "numparc": 8960, "type": "EXPLOITATION", "duree": "00:00:24", "horodatage": "2022-01-21 18:42:27", "statut": "end", "marker-color": "#2fe184"}}, {"type": "Feature", "geometry": {"type": "Point", "coordinates": [2.192857, 48.942715]}, "properties": {"alarme": "DEFAUT LIAISON DATA SAEIV / AIGLE", "numparc": 8968, "type": "TECHNIQUE", "duree": "00:00:06", "horodatage": "2022-01-21 19:07:58", "statut": "end", "marker-color": "#2fe184"}}, {"type": "Feature", "geometry": {"type": "Point", "coordinates": [2.198645, 48.944767]}, "properties": {"alarme": "DEFAUT LIAISON DATA SAEIV / AIGLE", "numparc": 8968, "type": "TECHNIQUE", "duree": "00:02:07", "horodatage": "2022-01-21 19:11:46", "statut": "end", "marker-color": "#2fe184"}}, {"type": "Feature", "geometry": {"type": "Point", "coordinates": [2.20688, 48.939289]}, "properties": {"alarme": "DEFAUT LIAISON DATA SAEIV / AIGLE", "numparc": 8968, "type": "TECHNIQUE", "duree": "00:00:47", "horodatage": "2022-01-21 19:18:53", "statut": "end", "marker-color": "#2fe184"}}, {"type": "Feature", "geometry": {"type": "Point", "coordinates": [2.257918, 48.946064]}, "properties": {"alarme": "VEHICULE DELOCALISE", "numparc": 8963, "type": "EXPLOITATION", "duree": "00:00:32", "horodatage": "2022-01-21 19:26:03", "statut": "end", "marker-color": "#2fe184"}}, {"type": "Feature", "geometry": {"type": "Point", "coordinates": [2.253429, 48.94878]}, "properties": {"alarme": "DEFAUT LIAISON DATA SAEIV / AIGLE", "numparc": 8968, "type": "TECHNIQUE", "duree": "00:00:11", "horodatage": "2022-01-21 19:48:29", "statut": "end", "marker-color": "#2fe184"}}, {"type": "Feature", "geometry": {"type": "Point", "coordinates": [2.205119, 48.94619]}, "properties": {"alarme": "DEFAUT LIAISON DATA SAEIV / AIGLE", "numparc": 8968, "type": "TECHNIQUE", "duree": "00:04:54", "horodatage": "2022-01-21 20:33:04", "statut": "end", "marker-color": "#2fe184"}}, {"type": "Feature", "geometry": {"type": "Point", "coordinates": [2.254784, 48.943039]}, "properties": {"alarme": "VEHICULE DELOCALISE", "numparc": 8951, "type": "EXPLOITATION", "duree": "00:00:37", "horodatage": "2022-01-21 20:30:05", "statut": "end", "marker-color": "#2fe184"}}, {"type": "Feature", "geometry": {"type": "Point", "coordinates": [2.192214, 48.942814]}, "properties": {"alarme": "DEFAUT LIAISON DATA SAEIV / AIGLE", "numparc": 8968, "type": "TECHNIQUE", "duree": "00:00:15", "horodatage": "2022-01-21 20:38:29", "statut": "end", "marker-color": "#2fe184"}}, {"type": "Feature", "geometry": {"type": "Point", "coordinates": [2.2433, 48.94297]}, "properties": {"alarme": "VEHICULE DELOCALISE", "numparc": 8964, "type": "EXPLOITATION", "duree": "00:01:32", "horodatage": "2022-01-21 20:50:43", "statut": "end", "marker-color": "#2fe184"}}, {"type": "Feature", "geometry": {"type": "Point", "coordinates": [2.219667, 48.920998]}, "properties": {"alarme": "VEHICULE DELOCALISE", "numparc": 8964, "type": "EXPLOITATION", "duree": "00:05:33", "horodatage": "2022-01-21 20:58:28", "statut": "end", "marker-color": "#2fe184"}}, {"type": "Feature", "geometry": {"type": "Point", "coordinates": [2.210412, 48.923393]}, "properties": {"alarme": "DEFAUT LIAISON DATA SAEIV / AIGLE", "numparc": 8968, "type": "TECHNIQUE", "duree": "00:03:22", "horodatage": "2022-01-21 21:03:45", "statut": "end", "marker-color": "#2fe184"}}, {"type": "Feature", "geometry": {"type": "Point", "coordinates": [2.189399, 48.902195]}, "properties": {"alarme": "DEFAUT LIAISON DATA SAEIV / AIGLE", "numparc": 8968, "type": "TECHNIQUE", "duree": "00:02:15", "horodatage": "2022-01-21 21:16:34", "statut": "end", "marker-color": "#2fe184"}}, {"type": "Feature", "geometry": {"type": "Point", "coordinates": [2.180883, 48.944786]}, "properties": {"alarme": "VEHICULE DELOCALISE", "numparc": 8962, "type": "EXPLOITATION", "duree": "00:02:48", "horodatage": "2022-01-21 22:30:02", "statut": "end", "marker-color": "#2fe184"}}, {"type": "Feature", "geometry": {"type": "Point", "coordinates": [2.197677, 48.942558]}, "properties": {"alarme": "VEHICULE DELOCALISE", "numparc": 8962, "type": "EXPLOITATION", "duree": "00:04:13", "horodatage": "2022-01-21 22:34:41", "statut": "end", "marker-color": "#2fe184"}}, {"type": "Feature", "geometry": {"type": "Point", "coordinates": [2.201496, 48.946232]}, "properties": {"alarme": "VEHICULE DELOCALISE", "numparc": 8962, "type": "EXPLOITATION", "duree": "00:01:01", "horodatage": "2022-01-21 22:36:24", "statut": "end", "marker-color": "#2fe184"}}, {"type": "Feature", "geometry": {"type": "Point", "coordinates": [2.206988, 48.937866]}, "properties": {"alarme": "VEHICULE DELOCALISE", "numparc": 8962, "type": "EXPLOITATION", "duree": "00:03:46", "horodatage": "2022-01-21 22:41:15", "statut": "end", "marker-color": "#2fe184"}}, {"type": "Feature", "geometry": {"type": "Point", "coordinates": [2.215575, 48.927578]}, "properties": {"alarme": "VEHICULE DELOCALISE", "numparc": 8962, "type": "EXPLOITATION", "duree": "00:03:25", "horodatage": "2022-01-21 22:45:57", "statut": "end", "marker-color": "#2fe184"}}, {"type": "Feature", "geometry": {"type": "Point", "coordinates": [2.217751, 48.923023]}, "properties": {"alarme": "VEHICULE DELOCALISE", "numparc": 8962, "type": "EXPLOITATION", "duree": "00:00:57", "horodatage": "2022-01-21 22:48:22", "statut": "end", "marker-color": "#2fe184"}}, {"type": "Feature", "geometry": {"type": "Point", "coordinates": [2.167397, 48.940086]}, "properties": {"alarme": "VEHICULE DELOCALISE", "numparc": 8955, "type": "EXPLOITATION", "duree": "00:00:14", "horodatage": "2022-01-22 02:12:42", "statut": "end", "marker-color": "#2fe184"}}, {"type": "Feature", "geometry": {"type": "Point", "coordinates": [2.254687, 48.944683]}, "properties": {"alarme": "VEHICULE DELOCALISE", "numparc": 8962, "type": "EXPLOITATION", "duree": "24:00:00", "horodatage": "2022-01-22 02:23:18", "statut": "start", "marker-color": "#000000"}}]}