{"type": "FeatureCollection", "features": [{"type": "Feature", "geometry": {"type": "Point", "coordinates": [2.420685, 48.768791]}, "properties": {"numparc": 9531, "etat de la localisation": "autre", "ID BDGEO": "122", "horodatage": "2021-07-10 05:29:48", "distance (en metres)": 89.78, "station": "MARCELLIN BERTHELOT", "marker-color": "#818181"}}, {"type": "Feature", "geometry": {"type": "Point", "coordinates": [2.447145, 48.76981]}, "properties": {"numparc": 9531, "etat de la localisation": "autre", "ID BDGEO": "133", "horodatage": "2021-07-10 05:34:54", "distance (en metres)": 52.91, "station": "VAL POMPADOUR", "marker-color": "#818181"}}, {"type": "Feature", "geometry": {"type": "Point", "coordinates": [2.447145, 48.76981]}, "properties": {"numparc": 9531, "etat de la localisation": "autre", "ID BDGEO": "133", "horodatage": "2021-07-10 05:36:04", "distance (en metres)": 52.91, "station": "VAL POMPADOUR", "marker-color": "#818181"}}, {"type": "Feature", "geometry": {"type": "Point", "coordinates": [2.449891, 48.768433]}, "properties": {"numparc": 9531, "etat de la localisation": "autre", "ID BDGEO": "133", "horodatage": "2021-07-10 05:37:14", "distance (en metres)": 223.78, "station": "VAL POMPADOUR", "marker-color": "#818181"}}, {"type": "Feature", "geometry": {"type": "Point", "coordinates": [2.480567, 48.765316]}, "properties": {"numparc": 9531, "etat de la localisation": "autre", "ID BDGEO": "144", "horodatage": "2021-07-10 05:39:03", "distance (en metres)": 60.13, "station": "STADE DE BONNEUIL", "marker-color": "#818181"}}, {"type": "Feature", "geometry": {"type": "Point", "coordinates": [2.482737, 48.765537]}, "properties": {"numparc": 9531, "etat de la localisation": "Delocalise", "ID BDGEO": "144", "horodatage": "2021-07-10 05:40:25", "distance (en metres)": 105.87, "station": "STADE DE BONNEUIL", "marker-color": "#FF565E"}}, {"type": "Feature", "geometry": {"type": "Point", "coordinates": [2.484048, 48.765972]}, "properties": {"numparc": 9531, "etat de la localisation": "Delocalise", "ID BDGEO": "144", "horodatage": "2021-07-10 05:43:55", "distance (en metres)": 206.84, "station": "STADE DE BONNEUIL", "marker-color": "#FF565E"}}, {"type": "Feature", "geometry": {"type": "Point", "coordinates": [2.484048, 48.765972]}, "properties": {"numparc": 9531, "etat de la localisation": "Delocalise", "ID BDGEO": "144", "horodatage": "2021-07-10 05:45:44", "distance (en metres)": 206.84, "station": "STADE DE BONNEUIL", "marker-color": "#FF565E"}}, {"type": "Feature", "geometry": {"type": "Point", "coordinates": [2.484048, 48.765972]}, "properties": {"numparc": 9531, "etat de la localisation": "Delocalise", "ID BDGEO": "144", "horodatage": "2021-07-10 05:46:16", "distance (en metres)": 206.84, "station": "STADE DE BONNEUIL", "marker-color": "#FF565E"}}, {"type": "Feature", "geometry": {"type": "Point", "coordinates": [2.408486, 48.765362]}, "properties": {"numparc": 9539, "etat de la localisation": "autre", "ID BDGEO": "118", "horodatage": "2021-07-10 05:50:32", "distance (en metres)": 41.99, "station": "CHOISY-LE-ROI RER", "marker-color": "#818181"}}, {"type": "Feature", "geometry": {"type": "Point", "coordinates": [2.435077, 48.773098]}, "properties": {"numparc": 9528, "etat de la localisation": "autre", "ID BDGEO": "127", "horodatage": "2021-07-10 05:51:05", "distance (en metres)": 43.04, "station": "POMPADOUR", "marker-color": "#818181"}}, {"type": "Feature", "geometry": {"type": "Point", "coordinates": [2.491476, 48.773232]}, "properties": {"numparc": 9531, "etat de la localisation": "Delocalise", "ID BDGEO": "151", "horodatage": "2021-07-10 06:09:31", "distance (en metres)": 163.5, "station": "RHIN ET DANUBE", "marker-color": "#FF565E"}}, {"type": "Feature", "geometry": {"type": "Point", "coordinates": [2.491476, 48.773232]}, "properties": {"numparc": 9531, "etat de la localisation": "Delocalise", "ID BDGEO": "151", "horodatage": "2021-07-10 06:11:26", "distance (en metres)": 163.5, "station": "RHIN ET DANUBE", "marker-color": "#FF565E"}}, {"type": "Feature", "geometry": {"type": "Point", "coordinates": [2.491476, 48.773232]}, "properties": {"numparc": 9531, "etat de la localisation": "Delocalise", "ID BDGEO": "151", "horodatage": "2021-07-10 06:12:50", "distance (en metres)": 163.5, "station": "RHIN ET DANUBE", "marker-color": "#FF565E"}}, {"type": "Feature", "geometry": {"type": "Point", "coordinates": [2.472942, 48.766701]}, "properties": {"numparc": 9531, "etat de la localisation": "Delocalise", "ID BDGEO": "138", "horodatage": "2021-07-10 06:14:50", "distance (en metres)": 154.32, "station": "EUROPARC", "marker-color": "#FF565E"}}, {"type": "Feature", "geometry": {"type": "Point", "coordinates": [2.472942, 48.766701]}, "properties": {"numparc": 9531, "etat de la localisation": "Delocalise", "ID BDGEO": "138", "horodatage": "2021-07-10 06:15:00", "distance (en metres)": 154.32, "station": "EUROPARC", "marker-color": "#FF565E"}}, {"type": "Feature", "geometry": {"type": "Point", "coordinates": [2.395362, 48.759064]}, "properties": {"numparc": 9531, "etat de la localisation": "Delocalise", "ID BDGEO": "111", "horodatage": "2021-07-10 06:34:38", "distance (en metres)": 157.91, "station": "VICTOR BASCH", "marker-color": "#FF565E"}}, {"type": "Feature", "geometry": {"type": "Point", "coordinates": [2.392082, 48.75787]}, "properties": {"numparc": 9531, "etat de la localisation": "autre", "ID BDGEO": "111", "horodatage": "2021-07-10 06:39:50", "distance (en metres)": 117.9, "station": "VICTOR BASCH", "marker-color": "#818181"}}, {"type": "Feature", "geometry": {"type": "Point", "coordinates": [2.392082, 48.75787]}, "properties": {"numparc": 9531, "etat de la localisation": "autre", "ID BDGEO": "111", "horodatage": "2021-07-10 06:42:40", "distance (en metres)": 117.9, "station": "VICTOR BASCH", "marker-color": "#818181"}}, {"type": "Feature", "geometry": {"type": "Point", "coordinates": [2.392082, 48.75787]}, "properties": {"numparc": 9531, "etat de la localisation": "autre", "ID BDGEO": "111", "horodatage": "2021-07-10 06:43:33", "distance (en metres)": 117.9, "station": "VICTOR BASCH", "marker-color": "#818181"}}, {"type": "Feature", "geometry": {"type": "Point", "coordinates": [2.392082, 48.75787]}, "properties": {"numparc": 9531, "etat de la localisation": "autre", "ID BDGEO": "111", "horodatage": "2021-07-10 06:45:26", "distance (en metres)": 117.9, "station": "VICTOR BASCH", "marker-color": "#818181"}}, {"type": "Feature", "geometry": {"type": "Point", "coordinates": [2.392082, 48.75787]}, "properties": {"numparc": 9531, "etat de la localisation": "autre", "ID BDGEO": "111", "horodatage": "2021-07-10 06:45:57", "distance (en metres)": 117.9, "station": "VICTOR BASCH", "marker-color": "#818181"}}, {"type": "Feature", "geometry": {"type": "Point", "coordinates": [2.392082, 48.75787]}, "properties": {"numparc": 9531, "etat de la localisation": "autre", "ID BDGEO": "111", "horodatage": "2021-07-10 06:47:37", "distance (en metres)": 117.9, "station": "VICTOR BASCH", "marker-color": "#818181"}}, {"type": "Feature", "geometry": {"type": "Point", "coordinates": [2.392082, 48.75787]}, "properties": {"numparc": 9531, "etat de la localisation": "autre", "ID BDGEO": "111", "horodatage": "2021-07-10 06:48:38", "distance (en metres)": 117.9, "station": "VICTOR BASCH", "marker-color": "#818181"}}, {"type": "Feature", "geometry": {"type": "Point", "coordinates": [2.433034, 48.772514]}, "properties": {"numparc": 9531, "etat de la localisation": "autre", "ID BDGEO": "127", "horodatage": "2021-07-10 06:51:15", "distance (en metres)": 120.73, "station": "POMPADOUR", "marker-color": "#818181"}}, {"type": "Feature", "geometry": {"type": "Point", "coordinates": [2.433034, 48.772514]}, "properties": {"numparc": 9531, "etat de la localisation": "autre", "ID BDGEO": "127", "horodatage": "2021-07-10 06:57:40", "distance (en metres)": 120.73, "station": "POMPADOUR", "marker-color": "#818181"}}, {"type": "Feature", "geometry": {"type": "Point", "coordinates": [2.433034, 48.772514]}, "properties": {"numparc": 9531, "etat de la localisation": "autre", "ID BDGEO": "127", "horodatage": "2021-07-10 06:58:57", "distance (en metres)": 120.73, "station": "POMPADOUR", "marker-color": "#818181"}}, {"type": "Feature", "geometry": {"type": "Point", "coordinates": [2.42159, 48.769066]}, "properties": {"numparc": 9528, "etat de la localisation": "autre", "ID BDGEO": "123", "horodatage": "2021-07-10 07:08:30", "distance (en metres)": 42.05, "station": "MARCELLIN BERTHELOT", "marker-color": "#818181"}}, {"type": "Feature", "geometry": {"type": "Point", "coordinates": [2.408513, 48.76535]}, "properties": {"numparc": 9539, "etat de la localisation": "autre", "ID BDGEO": "118", "horodatage": "2021-07-10 07:08:38", "distance (en metres)": 40.91, "station": "CHOISY-LE-ROI RER", "marker-color": "#818181"}}, {"type": "Feature", "geometry": {"type": "Point", "coordinates": [2.49674, 48.77306]}, "properties": {"numparc": 9531, "etat de la localisation": "autre", "ID BDGEO": "152", "horodatage": "2021-07-10 07:27:42", "distance (en metres)": 60.29, "station": "PETITS CARREAUX", "marker-color": "#818181"}}, {"type": "Feature", "geometry": {"type": "Point", "coordinates": [2.49674, 48.77306]}, "properties": {"numparc": 9531, "etat de la localisation": "autre", "ID BDGEO": "152", "horodatage": "2021-07-10 07:29:16", "distance (en metres)": 60.29, "station": "PETITS CARREAUX", "marker-color": "#818181"}}, {"type": "Feature", "geometry": {"type": "Point", "coordinates": [2.47285, 48.76672]}, "properties": {"numparc": 9531, "etat de la localisation": "autre", "ID BDGEO": "141", "horodatage": "2021-07-10 07:31:13", "distance (en metres)": 173.28, "station": "EUROPARC", "marker-color": "#818181"}}, {"type": "Feature", "geometry": {"type": "Point", "coordinates": [2.47285, 48.76672]}, "properties": {"numparc": 9531, "etat de la localisation": "autre", "ID BDGEO": "141", "horodatage": "2021-07-10 07:32:24", "distance (en metres)": 173.28, "station": "EUROPARC", "marker-color": "#818181"}}, {"type": "Feature", "geometry": {"type": "Point", "coordinates": [2.47285, 48.76672]}, "properties": {"numparc": 9531, "etat de la localisation": "autre", "ID BDGEO": "141", "horodatage": "2021-07-10 07:33:36", "distance (en metres)": 173.28, "station": "EUROPARC", "marker-color": "#818181"}}, {"type": "Feature", "geometry": {"type": "Point", "coordinates": [2.47285, 48.76672]}, "properties": {"numparc": 9531, "etat de la localisation": "autre", "ID BDGEO": "141", "horodatage": "2021-07-10 07:35:22", "distance (en metres)": 173.28, "station": "EUROPARC", "marker-color": "#818181"}}, {"type": "Feature", "geometry": {"type": "Point", "coordinates": [2.435201, 48.773102]}, "properties": {"numparc": 9531, "etat de la localisation": "autre", "ID BDGEO": "127", "horodatage": "2021-07-10 07:45:52", "distance (en metres)": 51.19, "station": "POMPADOUR", "marker-color": "#818181"}}, {"type": "Feature", "geometry": {"type": "Point", "coordinates": [2.435201, 48.773102]}, "properties": {"numparc": 9531, "etat de la localisation": "autre", "ID BDGEO": "127", "horodatage": "2021-07-10 07:49:38", "distance (en metres)": 51.19, "station": "POMPADOUR", "marker-color": "#818181"}}, {"type": "Feature", "geometry": {"type": "Point", "coordinates": [2.435201, 48.773102]}, "properties": {"numparc": 9531, "etat de la localisation": "autre", "ID BDGEO": "127", "horodatage": "2021-07-10 07:59:30", "distance (en metres)": 51.19, "station": "POMPADOUR", "marker-color": "#818181"}}, {"type": "Feature", "geometry": {"type": "Point", "coordinates": [2.435201, 48.773102]}, "properties": {"numparc": 9531, "etat de la localisation": "autre", "ID BDGEO": "127", "horodatage": "2021-07-10 08:01:22", "distance (en metres)": 51.19, "station": "POMPADOUR", "marker-color": "#818181"}}, {"type": "Feature", "geometry": {"type": "Point", "coordinates": [2.435201, 48.773102]}, "properties": {"numparc": 9531, "etat de la localisation": "autre", "ID BDGEO": "127", "horodatage": "2021-07-10 08:03:14", "distance (en metres)": 51.19, "station": "POMPADOUR", "marker-color": "#818181"}}, {"type": "Feature", "geometry": {"type": "Point", "coordinates": [2.435201, 48.773102]}, "properties": {"numparc": 9531, "etat de la localisation": "autre", "ID BDGEO": "127", "horodatage": "2021-07-10 08:04:39", "distance (en metres)": 51.19, "station": "POMPADOUR", "marker-color": "#818181"}}, {"type": "Feature", "geometry": {"type": "Point", "coordinates": [2.435201, 48.773102]}, "properties": {"numparc": 9531, "etat de la localisation": "autre", "ID BDGEO": "127", "horodatage": "2021-07-10 08:05:25", "distance (en metres)": 51.19, "station": "POMPADOUR", "marker-color": "#818181"}}, {"type": "Feature", "geometry": {"type": "Point", "coordinates": [2.435201, 48.773102]}, "properties": {"numparc": 9531, "etat de la localisation": "autre", "ID BDGEO": "127", "horodatage": "2021-07-10 08:05:53", "distance (en metres)": 51.19, "station": "POMPADOUR", "marker-color": "#818181"}}, {"type": "Feature", "geometry": {"type": "Point", "coordinates": [2.435201, 48.773102]}, "properties": {"numparc": 9531, "etat de la localisation": "autre", "ID BDGEO": "127", "horodatage": "2021-07-10 08:07:47", "distance (en metres)": 51.19, "station": "POMPADOUR", "marker-color": "#818181"}}, {"type": "Feature", "geometry": {"type": "Point", "coordinates": [2.487105, 48.768002]}, "properties": {"numparc": 9531, "etat de la localisation": "autre", "ID BDGEO": "126", "horodatage": "2021-07-10 08:26:36", "distance (en metres)": 3888.42, "station": "POMPADOUR", "marker-color": "#818181"}}, {"type": "Feature", "geometry": {"type": "Point", "coordinates": [2.408497, 48.765358]}, "properties": {"numparc": 9539, "etat de la localisation": "autre", "ID BDGEO": "118", "horodatage": "2021-07-10 08:27:07", "distance (en metres)": 41.48, "station": "CHOISY-LE-ROI RER", "marker-color": "#818181"}}, {"type": "Feature", "geometry": {"type": "Point", "coordinates": [2.487105, 48.768002]}, "properties": {"numparc": 9531, "etat de la localisation": "autre", "ID BDGEO": "126", "horodatage": "2021-07-10 08:28:08", "distance (en metres)": 3888.42, "station": "POMPADOUR", "marker-color": "#818181"}}, {"type": "Feature", "geometry": {"type": "Point", "coordinates": [2.487105, 48.768002]}, "properties": {"numparc": 9531, "etat de la localisation": "autre", "ID BDGEO": "126", "horodatage": "2021-07-10 08:30:42", "distance (en metres)": 3888.42, "station": "POMPADOUR", "marker-color": "#818181"}}, {"type": "Feature", "geometry": {"type": "Point", "coordinates": [2.411718, 48.766254]}, "properties": {"numparc": 9531, "etat de la localisation": "autre", "ID BDGEO": "119", "horodatage": "2021-07-10 09:05:47", "distance (en metres)": 245.73, "station": "CHOISY-LE-ROI RER", "marker-color": "#818181"}}, {"type": "Feature", "geometry": {"type": "Point", "coordinates": [2.411718, 48.766254]}, "properties": {"numparc": 9531, "etat de la localisation": "autre", "ID BDGEO": "119", "horodatage": "2021-07-10 09:07:10", "distance (en metres)": 245.73, "station": "CHOISY-LE-ROI RER", "marker-color": "#818181"}}, {"type": "Feature", "geometry": {"type": "Point", "coordinates": [2.411718, 48.766254]}, "properties": {"numparc": 9531, "etat de la localisation": "autre", "ID BDGEO": "119", "horodatage": "2021-07-10 09:08:18", "distance (en metres)": 245.73, "station": "CHOISY-LE-ROI RER", "marker-color": "#818181"}}, {"type": "Feature", "geometry": {"type": "Point", "coordinates": [2.411718, 48.766254]}, "properties": {"numparc": 9531, "etat de la localisation": "autre", "ID BDGEO": "119", "horodatage": "2021-07-10 09:10:55", "distance (en metres)": 245.73, "station": "CHOISY-LE-ROI RER", "marker-color": "#818181"}}, {"type": "Feature", "geometry": {"type": "Point", "coordinates": [2.411718, 48.766254]}, "properties": {"numparc": 9531, "etat de la localisation": "autre", "ID BDGEO": "119", "horodatage": "2021-07-10 09:11:49", "distance (en metres)": 245.73, "station": "CHOISY-LE-ROI RER", "marker-color": "#818181"}}, {"type": "Feature", "geometry": {"type": "Point", "coordinates": [2.411718, 48.766254]}, "properties": {"numparc": 9531, "etat de la localisation": "autre", "ID BDGEO": "119", "horodatage": "2021-07-10 09:20:03", "distance (en metres)": 245.73, "station": "CHOISY-LE-ROI RER", "marker-color": "#818181"}}, {"type": "Feature", "geometry": {"type": "Point", "coordinates": [2.396242, 48.759308]}, "properties": {"numparc": 9531, "etat de la localisation": "autre", "ID BDGEO": "111", "horodatage": "2021-07-10 09:22:53", "distance (en metres)": 227.88, "station": "VICTOR BASCH", "marker-color": "#818181"}}, {"type": "Feature", "geometry": {"type": "Point", "coordinates": [2.396242, 48.759308]}, "properties": {"numparc": 9531, "etat de la localisation": "autre", "ID BDGEO": "111", "horodatage": "2021-07-10 09:24:00", "distance (en metres)": 227.88, "station": "VICTOR BASCH", "marker-color": "#818181"}}, {"type": "Feature", "geometry": {"type": "Point", "coordinates": [2.396242, 48.759308]}, "properties": {"numparc": 9531, "etat de la localisation": "autre", "ID BDGEO": "111", "horodatage": "2021-07-10 09:24:54", "distance (en metres)": 227.88, "station": "VICTOR BASCH", "marker-color": "#818181"}}, {"type": "Feature", "geometry": {"type": "Point", "coordinates": [2.396242, 48.759308]}, "properties": {"numparc": 9531, "etat de la localisation": "autre", "ID BDGEO": "111", "horodatage": "2021-07-10 09:26:19", "distance (en metres)": 227.88, "station": "VICTOR BASCH", "marker-color": "#818181"}}, {"type": "Feature", "geometry": {"type": "Point", "coordinates": [2.396242, 48.759308]}, "properties": {"numparc": 9531, "etat de la localisation": "autre", "ID BDGEO": "111", "horodatage": "2021-07-10 09:28:37", "distance (en metres)": 227.88, "station": "VICTOR BASCH", "marker-color": "#818181"}}, {"type": "Feature", "geometry": {"type": "Point", "coordinates": [2.396242, 48.759308]}, "properties": {"numparc": 9531, "etat de la localisation": "autre", "ID BDGEO": "111", "horodatage": "2021-07-10 09:29:44", "distance (en metres)": 227.88, "station": "VICTOR BASCH", "marker-color": "#818181"}}, {"type": "Feature", "geometry": {"type": "Point", "coordinates": [2.396242, 48.759308]}, "properties": {"numparc": 9531, "etat de la localisation": "autre", "ID BDGEO": "111", "horodatage": "2021-07-10 09:32:04", "distance (en metres)": 227.88, "station": "VICTOR BASCH", "marker-color": "#818181"}}, {"type": "Feature", "geometry": {"type": "Point", "coordinates": [2.435066, 48.773098]}, "properties": {"numparc": 9539, "etat de la localisation": "autre", "ID BDGEO": "127", "horodatage": "2021-07-10 10:11:44", "distance (en metres)": 42.36, "station": "POMPADOUR", "marker-color": "#818181"}}, {"type": "Feature", "geometry": {"type": "Point", "coordinates": [2.448063, 48.767624]}, "properties": {"numparc": 9531, "etat de la localisation": "autre", "ID BDGEO": "131", "horodatage": "2021-07-10 10:16:55", "distance (en metres)": 182.09, "station": "VAL POMPADOUR", "marker-color": "#818181"}}, {"type": "Feature", "geometry": {"type": "Point", "coordinates": [2.448063, 48.767624]}, "properties": {"numparc": 9531, "etat de la localisation": "autre", "ID BDGEO": "131", "horodatage": "2021-07-10 10:17:17", "distance (en metres)": 182.09, "station": "VAL POMPADOUR", "marker-color": "#818181"}}, {"type": "Feature", "geometry": {"type": "Point", "coordinates": [2.448063, 48.767624]}, "properties": {"numparc": 9531, "etat de la localisation": "autre", "ID BDGEO": "131", "horodatage": "2021-07-10 10:18:46", "distance (en metres)": 182.09, "station": "VAL POMPADOUR", "marker-color": "#818181"}}, {"type": "Feature", "geometry": {"type": "Point", "coordinates": [2.448063, 48.767624]}, "properties": {"numparc": 9531, "etat de la localisation": "autre", "ID BDGEO": "131", "horodatage": "2021-07-10 10:20:47", "distance (en metres)": 182.09, "station": "VAL POMPADOUR", "marker-color": "#818181"}}, {"type": "Feature", "geometry": {"type": "Point", "coordinates": [2.448063, 48.767624]}, "properties": {"numparc": 9531, "etat de la localisation": "autre", "ID BDGEO": "131", "horodatage": "2021-07-10 10:22:46", "distance (en metres)": 182.09, "station": "VAL POMPADOUR", "marker-color": "#818181"}}, {"type": "Feature", "geometry": {"type": "Point", "coordinates": [2.448063, 48.767624]}, "properties": {"numparc": 9531, "etat de la localisation": "autre", "ID BDGEO": "131", "horodatage": "2021-07-10 10:24:24", "distance (en metres)": 182.09, "station": "VAL POMPADOUR", "marker-color": "#818181"}}, {"type": "Feature", "geometry": {"type": "Point", "coordinates": [2.448063, 48.767624]}, "properties": {"numparc": 9531, "etat de la localisation": "autre", "ID BDGEO": "131", "horodatage": "2021-07-10 10:25:43", "distance (en metres)": 182.09, "station": "VAL POMPADOUR", "marker-color": "#818181"}}, {"type": "Feature", "geometry": {"type": "Point", "coordinates": [2.41047, 48.76593]}, "properties": {"numparc": 9531, "etat de la localisation": "Delocalise", "ID BDGEO": "119", "horodatage": "2021-07-10 10:28:13", "distance (en metres)": 147.61, "station": "CHOISY-LE-ROI RER", "marker-color": "#FF565E"}}, {"type": "Feature", "geometry": {"type": "Point", "coordinates": [2.41047, 48.76593]}, "properties": {"numparc": 9531, "etat de la localisation": "Delocalise", "ID BDGEO": "119", "horodatage": "2021-07-10 10:30:23", "distance (en metres)": 147.61, "station": "CHOISY-LE-ROI RER", "marker-color": "#FF565E"}}, {"type": "Feature", "geometry": {"type": "Point", "coordinates": [2.41047, 48.76593]}, "properties": {"numparc": 9531, "etat de la localisation": "Delocalise", "ID BDGEO": "119", "horodatage": "2021-07-10 10:31:37", "distance (en metres)": 147.61, "station": "CHOISY-LE-ROI RER", "marker-color": "#FF565E"}}, {"type": "Feature", "geometry": {"type": "Point", "coordinates": [2.41047, 48.76593]}, "properties": {"numparc": 9531, "etat de la localisation": "Delocalise", "ID BDGEO": "119", "horodatage": "2021-07-10 10:33:32", "distance (en metres)": 147.61, "station": "CHOISY-LE-ROI RER", "marker-color": "#FF565E"}}, {"type": "Feature", "geometry": {"type": "Point", "coordinates": [2.41047, 48.76593]}, "properties": {"numparc": 9531, "etat de la localisation": "autre", "ID BDGEO": "119", "horodatage": "2021-07-10 10:36:12", "distance (en metres)": 147.61, "station": "CHOISY-LE-ROI RER", "marker-color": "#818181"}}, {"type": "Feature", "geometry": {"type": "Point", "coordinates": [2.41047, 48.76593]}, "properties": {"numparc": 9531, "etat de la localisation": "autre", "ID BDGEO": "119", "horodatage": "2021-07-10 10:41:57", "distance (en metres)": 147.61, "station": "CHOISY-LE-ROI RER", "marker-color": "#818181"}}, {"type": "Feature", "geometry": {"type": "Point", "coordinates": [2.41047, 48.76593]}, "properties": {"numparc": 9531, "etat de la localisation": "autre", "ID BDGEO": "119", "horodatage": "2021-07-10 10:42:19", "distance (en metres)": 147.61, "station": "CHOISY-LE-ROI RER", "marker-color": "#818181"}}, {"type": "Feature", "geometry": {"type": "Point", "coordinates": [2.41047, 48.76593]}, "properties": {"numparc": 9531, "etat de la localisation": "autre", "ID BDGEO": "119", "horodatage": "2021-07-10 10:43:06", "distance (en metres)": 147.61, "station": "CHOISY-LE-ROI RER", "marker-color": "#818181"}}, {"type": "Feature", "geometry": {"type": "Point", "coordinates": [2.41047, 48.76593]}, "properties": {"numparc": 9531, "etat de la localisation": "autre", "ID BDGEO": "119", "horodatage": "2021-07-10 10:44:34", "distance (en metres)": 147.61, "station": "CHOISY-LE-ROI RER", "marker-color": "#818181"}}, {"type": "Feature", "geometry": {"type": "Point", "coordinates": [2.41047, 48.76593]}, "properties": {"numparc": 9531, "etat de la localisation": "autre", "ID BDGEO": "119", "horodatage": "2021-07-10 10:45:33", "distance (en metres)": 147.61, "station": "CHOISY-LE-ROI RER", "marker-color": "#818181"}}, {"type": "Feature", "geometry": {"type": "Point", "coordinates": [2.41047, 48.76593]}, "properties": {"numparc": 9531, "etat de la localisation": "autre", "ID BDGEO": "119", "horodatage": "2021-07-10 10:46:32", "distance (en metres)": 147.61, "station": "CHOISY-LE-ROI RER", "marker-color": "#818181"}}, {"type": "Feature", "geometry": {"type": "Point", "coordinates": [2.41047, 48.76593]}, "properties": {"numparc": 9531, "etat de la localisation": "autre", "ID BDGEO": "119", "horodatage": "2021-07-10 10:48:51", "distance (en metres)": 147.61, "station": "CHOISY-LE-ROI RER", "marker-color": "#818181"}}, {"type": "Feature", "geometry": {"type": "Point", "coordinates": [2.41047, 48.76593]}, "properties": {"numparc": 9531, "etat de la localisation": "autre", "ID BDGEO": "119", "horodatage": "2021-07-10 10:56:06", "distance (en metres)": 147.61, "station": "CHOISY-LE-ROI RER", "marker-color": "#818181"}}, {"type": "Feature", "geometry": {"type": "Point", "coordinates": [2.41047, 48.76593]}, "properties": {"numparc": 9531, "etat de la localisation": "autre", "ID BDGEO": "119", "horodatage": "2021-07-10 10:58:23", "distance (en metres)": 147.61, "station": "CHOISY-LE-ROI RER", "marker-color": "#818181"}}, {"type": "Feature", "geometry": {"type": "Point", "coordinates": [2.444606, 48.773212]}, "properties": {"numparc": 9532, "etat de la localisation": "autre", "ID BDGEO": "129", "horodatage": "2021-07-10 11:56:36", "distance (en metres)": 260.34, "station": "BASSE QUINTE", "marker-color": "#818181"}}, {"type": "Feature", "geometry": {"type": "Point", "coordinates": [2.408505, 48.76535]}, "properties": {"numparc": 9539, "etat de la localisation": "autre", "ID BDGEO": "118", "horodatage": "2021-07-10 12:28:27", "distance (en metres)": 41.42, "station": "CHOISY-LE-ROI RER", "marker-color": "#818181"}}, {"type": "Feature", "geometry": {"type": "Point", "coordinates": [2.408509, 48.765362]}, "properties": {"numparc": 9532, "etat de la localisation": "autre", "ID BDGEO": "118", "horodatage": "2021-07-10 12:45:24", "distance (en metres)": 40.51, "station": "CHOISY-LE-ROI RER", "marker-color": "#818181"}}, {"type": "Feature", "geometry": {"type": "Point", "coordinates": [2.40935, 48.76556]}, "properties": {"numparc": 9539, "etat de la localisation": "autre", "ID BDGEO": "119", "horodatage": "2021-07-10 12:47:20", "distance (en metres)": 55.79, "station": "CHOISY-LE-ROI RER", "marker-color": "#818181"}}, {"type": "Feature", "geometry": {"type": "Point", "coordinates": [2.422542, 48.769386]}, "properties": {"numparc": 9531, "etat de la localisation": "autre", "ID BDGEO": "123", "horodatage": "2021-07-10 13:07:59", "distance (en metres)": 120.25, "station": "MARCELLIN BERTHELOT", "marker-color": "#818181"}}, {"type": "Feature", "geometry": {"type": "Point", "coordinates": [2.422542, 48.769386]}, "properties": {"numparc": 9531, "etat de la localisation": "autre", "ID BDGEO": "123", "horodatage": "2021-07-10 13:09:05", "distance (en metres)": 120.25, "station": "MARCELLIN BERTHELOT", "marker-color": "#818181"}}, {"type": "Feature", "geometry": {"type": "Point", "coordinates": [2.422542, 48.769386]}, "properties": {"numparc": 9531, "etat de la localisation": "autre", "ID BDGEO": "123", "horodatage": "2021-07-10 13:11:39", "distance (en metres)": 120.25, "station": "MARCELLIN BERTHELOT", "marker-color": "#818181"}}, {"type": "Feature", "geometry": {"type": "Point", "coordinates": [2.422542, 48.769386]}, "properties": {"numparc": 9531, "etat de la localisation": "autre", "ID BDGEO": "123", "horodatage": "2021-07-10 13:14:32", "distance (en metres)": 120.25, "station": "MARCELLIN BERTHELOT", "marker-color": "#818181"}}, {"type": "Feature", "geometry": {"type": "Point", "coordinates": [2.422542, 48.769386]}, "properties": {"numparc": 9531, "etat de la localisation": "autre", "ID BDGEO": "123", "horodatage": "2021-07-10 13:15:42", "distance (en metres)": 120.25, "station": "MARCELLIN BERTHELOT", "marker-color": "#818181"}}, {"type": "Feature", "geometry": {"type": "Point", "coordinates": [2.422542, 48.769386]}, "properties": {"numparc": 9531, "etat de la localisation": "autre", "ID BDGEO": "123", "horodatage": "2021-07-10 13:17:06", "distance (en metres)": 120.25, "station": "MARCELLIN BERTHELOT", "marker-color": "#818181"}}, {"type": "Feature", "geometry": {"type": "Point", "coordinates": [2.443411, 48.774967]}, "properties": {"numparc": 9532, "etat de la localisation": "autre", "ID BDGEO": "129", "horodatage": "2021-07-10 13:18:27", "distance (en metres)": 46.56, "station": "BASSE QUINTE", "marker-color": "#818181"}}, {"type": "Feature", "geometry": {"type": "Point", "coordinates": [2.444627, 48.773338]}, "properties": {"numparc": 9528, "etat de la localisation": "autre", "ID BDGEO": "804", "horodatage": "2021-07-10 13:18:54", "distance (en metres)": 259.38, "station": "BASSE QUINTE", "marker-color": "#818181"}}, {"type": "Feature", "geometry": {"type": "Point", "coordinates": [2.422542, 48.769386]}, "properties": {"numparc": 9531, "etat de la localisation": "autre", "ID BDGEO": "123", "horodatage": "2021-07-10 13:18:55", "distance (en metres)": 120.25, "station": "MARCELLIN BERTHELOT", "marker-color": "#818181"}}, {"type": "Feature", "geometry": {"type": "Point", "coordinates": [2.444611, 48.77319]}, "properties": {"numparc": 9532, "etat de la localisation": "autre", "ID BDGEO": "129", "horodatage": "2021-07-10 13:19:25", "distance (en metres)": 262.83, "station": "BASSE QUINTE", "marker-color": "#818181"}}, {"type": "Feature", "geometry": {"type": "Point", "coordinates": [2.422542, 48.769386]}, "properties": {"numparc": 9531, "etat de la localisation": "autre", "ID BDGEO": "123", "horodatage": "2021-07-10 13:19:41", "distance (en metres)": 120.25, "station": "MARCELLIN BERTHELOT", "marker-color": "#818181"}}, {"type": "Feature", "geometry": {"type": "Point", "coordinates": [2.443119, 48.772064]}, "properties": {"numparc": 9525, "etat de la localisation": "autre", "ID BDGEO": "208", "horodatage": "2021-07-10 13:22:22", "distance (en metres)": 56.29, "station": "DEPOT CRETEIL SORTIE", "marker-color": "#818181"}}, {"type": "Feature", "geometry": {"type": "Point", "coordinates": [2.422542, 48.769386]}, "properties": {"numparc": 9531, "etat de la localisation": "autre", "ID BDGEO": "123", "horodatage": "2021-07-10 13:24:35", "distance (en metres)": 120.25, "station": "MARCELLIN BERTHELOT", "marker-color": "#818181"}}, {"type": "Feature", "geometry": {"type": "Point", "coordinates": [2.422542, 48.769386]}, "properties": {"numparc": 9531, "etat de la localisation": "autre", "ID BDGEO": "123", "horodatage": "2021-07-10 13:26:00", "distance (en metres)": 120.25, "station": "MARCELLIN BERTHELOT", "marker-color": "#818181"}}, {"type": "Feature", "geometry": {"type": "Point", "coordinates": [2.422542, 48.769386]}, "properties": {"numparc": 9531, "etat de la localisation": "autre", "ID BDGEO": "123", "horodatage": "2021-07-10 13:27:57", "distance (en metres)": 120.25, "station": "MARCELLIN BERTHELOT", "marker-color": "#818181"}}, {"type": "Feature", "geometry": {"type": "Point", "coordinates": [2.422542, 48.769386]}, "properties": {"numparc": 9531, "etat de la localisation": "autre", "ID BDGEO": "123", "horodatage": "2021-07-10 13:29:03", "distance (en metres)": 120.25, "station": "MARCELLIN BERTHELOT", "marker-color": "#818181"}}, {"type": "Feature", "geometry": {"type": "Point", "coordinates": [2.422542, 48.769386]}, "properties": {"numparc": 9531, "etat de la localisation": "autre", "ID BDGEO": "123", "horodatage": "2021-07-10 13:30:05", "distance (en metres)": 120.25, "station": "MARCELLIN BERTHELOT", "marker-color": "#818181"}}, {"type": "Feature", "geometry": {"type": "Point", "coordinates": [2.405123, 48.764248]}, "properties": {"numparc": 9531, "etat de la localisation": "autre", "ID BDGEO": "1029", "horodatage": "2021-07-10 13:32:37", "distance (en metres)": 3822.68, "station": "FACULTE DES SPORTS.", "marker-color": "#818181"}}, {"type": "Feature", "geometry": {"type": "Point", "coordinates": [2.405123, 48.764248]}, "properties": {"numparc": 9531, "etat de la localisation": "autre", "ID BDGEO": "1029", "horodatage": "2021-07-10 13:34:33", "distance (en metres)": 3822.68, "station": "FACULTE DES SPORTS.", "marker-color": "#818181"}}, {"type": "Feature", "geometry": {"type": "Point", "coordinates": [2.405123, 48.764248]}, "properties": {"numparc": 9531, "etat de la localisation": "autre", "ID BDGEO": "1029", "horodatage": "2021-07-10 13:35:33", "distance (en metres)": 3822.68, "station": "FACULTE DES SPORTS.", "marker-color": "#818181"}}, {"type": "Feature", "geometry": {"type": "Point", "coordinates": [2.405123, 48.764248]}, "properties": {"numparc": 9531, "etat de la localisation": "autre", "ID BDGEO": "1029", "horodatage": "2021-07-10 13:37:42", "distance (en metres)": 3822.68, "station": "FACULTE DES SPORTS.", "marker-color": "#818181"}}, {"type": "Feature", "geometry": {"type": "Point", "coordinates": [2.405123, 48.764248]}, "properties": {"numparc": 9531, "etat de la localisation": "autre", "ID BDGEO": "1029", "horodatage": "2021-07-10 13:43:31", "distance (en metres)": 3822.68, "station": "FACULTE DES SPORTS.", "marker-color": "#818181"}}, {"type": "Feature", "geometry": {"type": "Point", "coordinates": [2.405123, 48.764248]}, "properties": {"numparc": 9531, "etat de la localisation": "autre", "ID BDGEO": "1029", "horodatage": "2021-07-10 13:44:42", "distance (en metres)": 3822.68, "station": "FACULTE DES SPORTS.", "marker-color": "#818181"}}, {"type": "Feature", "geometry": {"type": "Point", "coordinates": [2.405123, 48.764248]}, "properties": {"numparc": 9531, "etat de la localisation": "autre", "ID BDGEO": "1029", "horodatage": "2021-07-10 13:46:05", "distance (en metres)": 3822.68, "station": "FACULTE DES SPORTS.", "marker-color": "#818181"}}, {"type": "Feature", "geometry": {"type": "Point", "coordinates": [2.405123, 48.764248]}, "properties": {"numparc": 9531, "etat de la localisation": "autre", "ID BDGEO": "1029", "horodatage": "2021-07-10 13:48:30", "distance (en metres)": 3822.68, "station": "FACULTE DES SPORTS.", "marker-color": "#818181"}}, {"type": "Feature", "geometry": {"type": "Point", "coordinates": [2.405123, 48.764248]}, "properties": {"numparc": 9531, "etat de la localisation": "autre", "ID BDGEO": "1029", "horodatage": "2021-07-10 13:49:39", "distance (en metres)": 3822.68, "station": "FACULTE DES SPORTS.", "marker-color": "#818181"}}, {"type": "Feature", "geometry": {"type": "Point", "coordinates": [2.405123, 48.764248]}, "properties": {"numparc": 9531, "etat de la localisation": "autre", "ID BDGEO": "1029", "horodatage": "2021-07-10 13:52:15", "distance (en metres)": 3822.68, "station": "FACULTE DES SPORTS.", "marker-color": "#818181"}}, {"type": "Feature", "geometry": {"type": "Point", "coordinates": [2.405123, 48.764248]}, "properties": {"numparc": 9531, "etat de la localisation": "autre", "ID BDGEO": "1029", "horodatage": "2021-07-10 13:53:32", "distance (en metres)": 3822.68, "station": "FACULTE DES SPORTS.", "marker-color": "#818181"}}, {"type": "Feature", "geometry": {"type": "Point", "coordinates": [2.405123, 48.764248]}, "properties": {"numparc": 9531, "etat de la localisation": "autre", "ID BDGEO": "1029", "horodatage": "2021-07-10 13:55:37", "distance (en metres)": 3822.68, "station": "FACULTE DES SPORTS.", "marker-color": "#818181"}}, {"type": "Feature", "geometry": {"type": "Point", "coordinates": [2.405123, 48.764248]}, "properties": {"numparc": 9531, "etat de la localisation": "autre", "ID BDGEO": "1029", "horodatage": "2021-07-10 13:58:53", "distance (en metres)": 3822.68, "station": "FACULTE DES SPORTS.", "marker-color": "#818181"}}, {"type": "Feature", "geometry": {"type": "Point", "coordinates": [2.405123, 48.764248]}, "properties": {"numparc": 9531, "etat de la localisation": "autre", "ID BDGEO": "1029", "horodatage": "2021-07-10 14:00:47", "distance (en metres)": 3822.68, "station": "FACULTE DES SPORTS.", "marker-color": "#818181"}}, {"type": "Feature", "geometry": {"type": "Point", "coordinates": [2.405123, 48.764248]}, "properties": {"numparc": 9531, "etat de la localisation": "autre", "ID BDGEO": "1029", "horodatage": "2021-07-10 14:02:09", "distance (en metres)": 3822.68, "station": "FACULTE DES SPORTS.", "marker-color": "#818181"}}, {"type": "Feature", "geometry": {"type": "Point", "coordinates": [2.405123, 48.764248]}, "properties": {"numparc": 9531, "etat de la localisation": "autre", "ID BDGEO": "1029", "horodatage": "2021-07-10 14:04:09", "distance (en metres)": 3822.68, "station": "FACULTE DES SPORTS.", "marker-color": "#818181"}}, {"type": "Feature", "geometry": {"type": "Point", "coordinates": [2.405123, 48.764248]}, "properties": {"numparc": 9531, "etat de la localisation": "autre", "ID BDGEO": "1029", "horodatage": "2021-07-10 14:05:49", "distance (en metres)": 3822.68, "station": "FACULTE DES SPORTS.", "marker-color": "#818181"}}, {"type": "Feature", "geometry": {"type": "Point", "coordinates": [2.405123, 48.764248]}, "properties": {"numparc": 9531, "etat de la localisation": "autre", "ID BDGEO": "1029", "horodatage": "2021-07-10 14:07:33", "distance (en metres)": 3822.68, "station": "FACULTE DES SPORTS.", "marker-color": "#818181"}}, {"type": "Feature", "geometry": {"type": "Point", "coordinates": [2.405123, 48.764248]}, "properties": {"numparc": 9531, "etat de la localisation": "autre", "ID BDGEO": "1029", "horodatage": "2021-07-10 14:08:51", "distance (en metres)": 3822.68, "station": "FACULTE DES SPORTS.", "marker-color": "#818181"}}, {"type": "Feature", "geometry": {"type": "Point", "coordinates": [2.405123, 48.764248]}, "properties": {"numparc": 9531, "etat de la localisation": "autre", "ID BDGEO": "1029", "horodatage": "2021-07-10 14:10:35", "distance (en metres)": 3822.68, "station": "FACULTE DES SPORTS.", "marker-color": "#818181"}}, {"type": "Feature", "geometry": {"type": "Point", "coordinates": [2.409367, 48.765579]}, "properties": {"numparc": 9539, "etat de la localisation": "autre", "ID BDGEO": "119", "horodatage": "2021-07-10 14:10:51", "distance (en metres)": 57.85, "station": "CHOISY-LE-ROI RER", "marker-color": "#818181"}}, {"type": "Feature", "geometry": {"type": "Point", "coordinates": [2.405123, 48.764248]}, "properties": {"numparc": 9531, "etat de la localisation": "autre", "ID BDGEO": "1029", "horodatage": "2021-07-10 14:13:16", "distance (en metres)": 3822.68, "station": "FACULTE DES SPORTS.", "marker-color": "#818181"}}, {"type": "Feature", "geometry": {"type": "Point", "coordinates": [2.435066, 48.77309]}, "properties": {"numparc": 9531, "etat de la localisation": "autre", "ID BDGEO": "1029", "horodatage": "2021-07-10 14:15:13", "distance (en metres)": 1685.44, "station": "FACULTE DES SPORTS.", "marker-color": "#818181"}}, {"type": "Feature", "geometry": {"type": "Point", "coordinates": [2.435066, 48.77309]}, "properties": {"numparc": 9531, "etat de la localisation": "autre", "ID BDGEO": "1029", "horodatage": "2021-07-10 14:18:07", "distance (en metres)": 1685.44, "station": "FACULTE DES SPORTS.", "marker-color": "#818181"}}, {"type": "Feature", "geometry": {"type": "Point", "coordinates": [2.435066, 48.77309]}, "properties": {"numparc": 9531, "etat de la localisation": "autre", "ID BDGEO": "1029", "horodatage": "2021-07-10 14:19:49", "distance (en metres)": 1685.44, "station": "FACULTE DES SPORTS.", "marker-color": "#818181"}}, {"type": "Feature", "geometry": {"type": "Point", "coordinates": [2.40598, 48.764545]}, "properties": {"numparc": 9531, "etat de la localisation": "autre", "ID BDGEO": "1029", "horodatage": "2021-07-10 14:21:44", "distance (en metres)": 3756.44, "station": "FACULTE DES SPORTS.", "marker-color": "#818181"}}, {"type": "Feature", "geometry": {"type": "Point", "coordinates": [2.40598, 48.764545]}, "properties": {"numparc": 9531, "etat de la localisation": "autre", "ID BDGEO": "1029", "horodatage": "2021-07-10 14:22:56", "distance (en metres)": 3756.44, "station": "FACULTE DES SPORTS.", "marker-color": "#818181"}}, {"type": "Feature", "geometry": {"type": "Point", "coordinates": [2.444588, 48.773376]}, "properties": {"numparc": 9525, "etat de la localisation": "autre", "ID BDGEO": "804", "horodatage": "2021-07-10 14:27:14", "distance (en metres)": 254.33, "station": "BASSE QUINTE", "marker-color": "#818181"}}, {"type": "Feature", "geometry": {"type": "Point", "coordinates": [2.40598, 48.764545]}, "properties": {"numparc": 9531, "etat de la localisation": "autre", "ID BDGEO": "1029", "horodatage": "2021-07-10 14:27:34", "distance (en metres)": 3756.44, "station": "FACULTE DES SPORTS.", "marker-color": "#818181"}}, {"type": "Feature", "geometry": {"type": "Point", "coordinates": [2.40598, 48.764545]}, "properties": {"numparc": 9531, "etat de la localisation": "autre", "ID BDGEO": "1029", "horodatage": "2021-07-10 14:28:23", "distance (en metres)": 3756.44, "station": "FACULTE DES SPORTS.", "marker-color": "#818181"}}, {"type": "Feature", "geometry": {"type": "Point", "coordinates": [2.43517, 48.773102]}, "properties": {"numparc": 9532, "etat de la localisation": "autre", "ID BDGEO": "127", "horodatage": "2021-07-10 14:29:20", "distance (en metres)": 49.17, "station": "POMPADOUR", "marker-color": "#818181"}}, {"type": "Feature", "geometry": {"type": "Point", "coordinates": [2.40598, 48.764545]}, "properties": {"numparc": 9531, "etat de la localisation": "autre", "ID BDGEO": "1029", "horodatage": "2021-07-10 14:35:14", "distance (en metres)": 3756.44, "station": "FACULTE DES SPORTS.", "marker-color": "#818181"}}, {"type": "Feature", "geometry": {"type": "Point", "coordinates": [2.40598, 48.764545]}, "properties": {"numparc": 9531, "etat de la localisation": "autre", "ID BDGEO": "1029", "horodatage": "2021-07-10 14:37:36", "distance (en metres)": 3756.44, "station": "FACULTE DES SPORTS.", "marker-color": "#818181"}}, {"type": "Feature", "geometry": {"type": "Point", "coordinates": [2.40598, 48.764545]}, "properties": {"numparc": 9531, "etat de la localisation": "autre", "ID BDGEO": "1029", "horodatage": "2021-07-10 14:40:03", "distance (en metres)": 3756.44, "station": "FACULTE DES SPORTS.", "marker-color": "#818181"}}, {"type": "Feature", "geometry": {"type": "Point", "coordinates": [2.40598, 48.764545]}, "properties": {"numparc": 9531, "etat de la localisation": "autre", "ID BDGEO": "1029", "horodatage": "2021-07-10 14:41:06", "distance (en metres)": 3756.44, "station": "FACULTE DES SPORTS.", "marker-color": "#818181"}}, {"type": "Feature", "geometry": {"type": "Point", "coordinates": [2.443177, 48.772018]}, "properties": {"numparc": 9523, "etat de la localisation": "autre", "ID BDGEO": "208", "horodatage": "2021-07-10 14:41:24", "distance (en metres)": 60.86, "station": "DEPOT CRETEIL SORTIE", "marker-color": "#818181"}}, {"type": "Feature", "geometry": {"type": "Point", "coordinates": [2.40598, 48.764545]}, "properties": {"numparc": 9531, "etat de la localisation": "autre", "ID BDGEO": "1029", "horodatage": "2021-07-10 14:42:13", "distance (en metres)": 3756.44, "station": "FACULTE DES SPORTS.", "marker-color": "#818181"}}, {"type": "Feature", "geometry": {"type": "Point", "coordinates": [2.40598, 48.764545]}, "properties": {"numparc": 9531, "etat de la localisation": "autre", "ID BDGEO": "1029", "horodatage": "2021-07-10 14:43:29", "distance (en metres)": 3756.44, "station": "FACULTE DES SPORTS.", "marker-color": "#818181"}}, {"type": "Feature", "geometry": {"type": "Point", "coordinates": [2.40598, 48.764545]}, "properties": {"numparc": 9531, "etat de la localisation": "autre", "ID BDGEO": "1029", "horodatage": "2021-07-10 14:45:22", "distance (en metres)": 3756.44, "station": "FACULTE DES SPORTS.", "marker-color": "#818181"}}, {"type": "Feature", "geometry": {"type": "Point", "coordinates": [2.40598, 48.764545]}, "properties": {"numparc": 9531, "etat de la localisation": "autre", "ID BDGEO": "1029", "horodatage": "2021-07-10 14:47:30", "distance (en metres)": 3756.44, "station": "FACULTE DES SPORTS.", "marker-color": "#818181"}}, {"type": "Feature", "geometry": {"type": "Point", "coordinates": [2.40598, 48.764545]}, "properties": {"numparc": 9531, "etat de la localisation": "autre", "ID BDGEO": "1029", "horodatage": "2021-07-10 14:48:49", "distance (en metres)": 3756.44, "station": "FACULTE DES SPORTS.", "marker-color": "#818181"}}, {"type": "Feature", "geometry": {"type": "Point", "coordinates": [2.40598, 48.764545]}, "properties": {"numparc": 9531, "etat de la localisation": "autre", "ID BDGEO": "1029", "horodatage": "2021-07-10 14:50:47", "distance (en metres)": 3756.44, "station": "FACULTE DES SPORTS.", "marker-color": "#818181"}}, {"type": "Feature", "geometry": {"type": "Point", "coordinates": [2.40598, 48.764545]}, "properties": {"numparc": 9531, "etat de la localisation": "autre", "ID BDGEO": "1029", "horodatage": "2021-07-10 14:53:52", "distance (en metres)": 3756.44, "station": "FACULTE DES SPORTS.", "marker-color": "#818181"}}, {"type": "Feature", "geometry": {"type": "Point", "coordinates": [2.40598, 48.764545]}, "properties": {"numparc": 9531, "etat de la localisation": "autre", "ID BDGEO": "1029", "horodatage": "2021-07-10 14:55:05", "distance (en metres)": 3756.44, "station": "FACULTE DES SPORTS.", "marker-color": "#818181"}}, {"type": "Feature", "geometry": {"type": "Point", "coordinates": [2.40598, 48.764545]}, "properties": {"numparc": 9531, "etat de la localisation": "autre", "ID BDGEO": "1029", "horodatage": "2021-07-10 14:56:35", "distance (en metres)": 3756.44, "station": "FACULTE DES SPORTS.", "marker-color": "#818181"}}, {"type": "Feature", "geometry": {"type": "Point", "coordinates": [2.40598, 48.764545]}, "properties": {"numparc": 9531, "etat de la localisation": "autre", "ID BDGEO": "1029", "horodatage": "2021-07-10 14:58:19", "distance (en metres)": 3756.44, "station": "FACULTE DES SPORTS.", "marker-color": "#818181"}}, {"type": "Feature", "geometry": {"type": "Point", "coordinates": [2.40598, 48.764545]}, "properties": {"numparc": 9531, "etat de la localisation": "autre", "ID BDGEO": "1029", "horodatage": "2021-07-10 14:59:33", "distance (en metres)": 3756.44, "station": "FACULTE DES SPORTS.", "marker-color": "#818181"}}, {"type": "Feature", "geometry": {"type": "Point", "coordinates": [2.40598, 48.764545]}, "properties": {"numparc": 9531, "etat de la localisation": "autre", "ID BDGEO": "1029", "horodatage": "2021-07-10 15:01:14", "distance (en metres)": 3756.44, "station": "FACULTE DES SPORTS.", "marker-color": "#818181"}}, {"type": "Feature", "geometry": {"type": "Point", "coordinates": [2.40598, 48.764545]}, "properties": {"numparc": 9531, "etat de la localisation": "autre", "ID BDGEO": "1029", "horodatage": "2021-07-10 15:01:24", "distance (en metres)": 3756.44, "station": "FACULTE DES SPORTS.", "marker-color": "#818181"}}, {"type": "Feature", "geometry": {"type": "Point", "coordinates": [2.40598, 48.764545]}, "properties": {"numparc": 9531, "etat de la localisation": "autre", "ID BDGEO": "1029", "horodatage": "2021-07-10 15:02:46", "distance (en metres)": 3756.44, "station": "FACULTE DES SPORTS.", "marker-color": "#818181"}}, {"type": "Feature", "geometry": {"type": "Point", "coordinates": [2.40598, 48.764545]}, "properties": {"numparc": 9531, "etat de la localisation": "autre", "ID BDGEO": "1029", "horodatage": "2021-07-10 15:04:41", "distance (en metres)": 3756.44, "station": "FACULTE DES SPORTS.", "marker-color": "#818181"}}, {"type": "Feature", "geometry": {"type": "Point", "coordinates": [2.408526, 48.765343]}, "properties": {"numparc": 9539, "etat de la localisation": "autre", "ID BDGEO": "118", "horodatage": "2021-07-10 15:10:25", "distance (en metres)": 40.57, "station": "CHOISY-LE-ROI RER", "marker-color": "#818181"}}, {"type": "Feature", "geometry": {"type": "Point", "coordinates": [2.40598, 48.764545]}, "properties": {"numparc": 9531, "etat de la localisation": "autre", "ID BDGEO": "117", "horodatage": "2021-07-10 15:31:42", "distance (en metres)": 91.68, "station": "ROUGET DE LISLE", "marker-color": "#818181"}}, {"type": "Feature", "geometry": {"type": "Point", "coordinates": [2.40598, 48.764545]}, "properties": {"numparc": 9531, "etat de la localisation": "autre", "ID BDGEO": "117", "horodatage": "2021-07-10 15:34:07", "distance (en metres)": 91.68, "station": "ROUGET DE LISLE", "marker-color": "#818181"}}, {"type": "Feature", "geometry": {"type": "Point", "coordinates": [2.40598, 48.764545]}, "properties": {"numparc": 9531, "etat de la localisation": "autre", "ID BDGEO": "117", "horodatage": "2021-07-10 15:35:35", "distance (en metres)": 91.68, "station": "ROUGET DE LISLE", "marker-color": "#818181"}}, {"type": "Feature", "geometry": {"type": "Point", "coordinates": [2.40598, 48.764545]}, "properties": {"numparc": 9531, "etat de la localisation": "autre", "ID BDGEO": "117", "horodatage": "2021-07-10 15:36:59", "distance (en metres)": 91.68, "station": "ROUGET DE LISLE", "marker-color": "#818181"}}, {"type": "Feature", "geometry": {"type": "Point", "coordinates": [2.40598, 48.764545]}, "properties": {"numparc": 9531, "etat de la localisation": "autre", "ID BDGEO": "117", "horodatage": "2021-07-10 15:38:45", "distance (en metres)": 91.68, "station": "ROUGET DE LISLE", "marker-color": "#818181"}}, {"type": "Feature", "geometry": {"type": "Point", "coordinates": [2.40598, 48.764545]}, "properties": {"numparc": 9531, "etat de la localisation": "autre", "ID BDGEO": "117", "horodatage": "2021-07-10 15:40:38", "distance (en metres)": 91.68, "station": "ROUGET DE LISLE", "marker-color": "#818181"}}, {"type": "Feature", "geometry": {"type": "Point", "coordinates": [2.40598, 48.764545]}, "properties": {"numparc": 9531, "etat de la localisation": "autre", "ID BDGEO": "117", "horodatage": "2021-07-10 15:41:58", "distance (en metres)": 91.68, "station": "ROUGET DE LISLE", "marker-color": "#818181"}}, {"type": "Feature", "geometry": {"type": "Point", "coordinates": [2.40598, 48.764545]}, "properties": {"numparc": 9531, "etat de la localisation": "autre", "ID BDGEO": "117", "horodatage": "2021-07-10 15:43:29", "distance (en metres)": 91.68, "station": "ROUGET DE LISLE", "marker-color": "#818181"}}, {"type": "Feature", "geometry": {"type": "Point", "coordinates": [2.408516, 48.765362]}, "properties": {"numparc": 9523, "etat de la localisation": "autre", "ID BDGEO": "118", "horodatage": "2021-07-10 15:48:33", "distance (en metres)": 40.08, "station": "CHOISY-LE-ROI RER", "marker-color": "#818181"}}, {"type": "Feature", "geometry": {"type": "Point", "coordinates": [2.409382, 48.76561]}, "properties": {"numparc": 9523, "etat de la localisation": "autre", "ID BDGEO": "119", "horodatage": "2021-07-10 16:08:03", "distance (en metres)": 60.42, "station": "CHOISY-LE-ROI RER", "marker-color": "#818181"}}, {"type": "Feature", "geometry": {"type": "Point", "coordinates": [2.506667, 48.772354]}, "properties": {"numparc": 9532, "etat de la localisation": "autre", "ID BDGEO": "291", "horodatage": "2021-07-10 16:15:14", "distance (en metres)": 45.89, "station": "SUCY-BONNEUIL RER", "marker-color": "#818181"}}, {"type": "Feature", "geometry": {"type": "Point", "coordinates": [2.408471, 48.76535]}, "properties": {"numparc": 9528, "etat de la localisation": "autre", "ID BDGEO": "118", "horodatage": "2021-07-10 16:26:54", "distance (en metres)": 43.56, "station": "CHOISY-LE-ROI RER", "marker-color": "#818181"}}, {"type": "Feature", "geometry": {"type": "Point", "coordinates": [2.505327, 48.773518]}, "properties": {"numparc": 9532, "etat de la localisation": "autre", "ID BDGEO": "291", "horodatage": "2021-07-10 16:32:01", "distance (en metres)": 202.43, "station": "SUCY-BONNEUIL RER", "marker-color": "#818181"}}, {"type": "Feature", "geometry": {"type": "Point", "coordinates": [2.38954, 48.75737]}, "properties": {"numparc": 9532, "etat de la localisation": "autre", "ID BDGEO": "109", "horodatage": "2021-07-10 17:03:43", "distance (en metres)": 41.42, "station": "CARREFOUR RESISTANCE", "marker-color": "#818181"}}, {"type": "Feature", "geometry": {"type": "Point", "coordinates": [2.506348, 48.773659]}, "properties": {"numparc": 9525, "etat de la localisation": "autre", "ID BDGEO": "291", "horodatage": "2021-07-10 17:13:57", "distance (en metres)": 192.7, "station": "SUCY-BONNEUIL RER", "marker-color": "#818181"}}, {"type": "Feature", "geometry": {"type": "Point", "coordinates": [2.490048, 48.770233]}, "properties": {"numparc": 9525, "etat de la localisation": "autre", "ID BDGEO": "150", "horodatage": "2021-07-10 17:17:04", "distance (en metres)": 175.84, "station": "RHIN ET DANUBE", "marker-color": "#818181"}}, {"type": "Feature", "geometry": {"type": "Point", "coordinates": [2.435174, 48.773113]}, "properties": {"numparc": 9532, "etat de la localisation": "autre", "ID BDGEO": "127", "horodatage": "2021-07-10 17:26:12", "distance (en metres)": 50.04, "station": "POMPADOUR", "marker-color": "#818181"}}, {"type": "Feature", "geometry": {"type": "Point", "coordinates": [2.408501, 48.765366]}, "properties": {"numparc": 9525, "etat de la localisation": "autre", "ID BDGEO": "118", "horodatage": "2021-07-10 17:37:11", "distance (en metres)": 40.82, "station": "CHOISY-LE-ROI RER", "marker-color": "#818181"}}, {"type": "Feature", "geometry": {"type": "Point", "coordinates": [2.408486, 48.765354]}, "properties": {"numparc": 9528, "etat de la localisation": "autre", "ID BDGEO": "118", "horodatage": "2021-07-10 17:53:55", "distance (en metres)": 42.4, "station": "CHOISY-LE-ROI RER", "marker-color": "#818181"}}, {"type": "Feature", "geometry": {"type": "Point", "coordinates": [2.435079, 48.77309]}, "properties": {"numparc": 9532, "etat de la localisation": "autre", "ID BDGEO": "127", "horodatage": "2021-07-10 18:45:28", "distance (en metres)": 42.74, "station": "POMPADOUR", "marker-color": "#818181"}}, {"type": "Feature", "geometry": {"type": "Point", "coordinates": [2.441726, 48.772102]}, "properties": {"numparc": 9528, "etat de la localisation": "autre", "ID BDGEO": "208", "horodatage": "2021-07-10 19:07:15", "distance (en metres)": 122.13, "station": "DEPOT CRETEIL SORTIE", "marker-color": "#818181"}}, {"type": "Feature", "geometry": {"type": "Point", "coordinates": [2.443069, 48.772446]}, "properties": {"numparc": 9531, "etat de la localisation": "autre", "ID BDGEO": "129", "horodatage": "2021-07-10 19:09:42", "distance (en metres)": 324.13, "station": "BASSE QUINTE", "marker-color": "#818181"}}, {"type": "Feature", "geometry": {"type": "Point", "coordinates": [2.40848, 48.765354]}, "properties": {"numparc": 9525, "etat de la localisation": "autre", "ID BDGEO": "118", "horodatage": "2021-07-10 19:11:58", "distance (en metres)": 42.78, "station": "CHOISY-LE-ROI RER", "marker-color": "#818181"}}, {"type": "Feature", "geometry": {"type": "Point", "coordinates": [2.439727, 48.77327]}, "properties": {"numparc": 9531, "etat de la localisation": "autre", "ID BDGEO": "129", "horodatage": "2021-07-10 19:18:58", "distance (en metres)": 344.06, "station": "BASSE QUINTE", "marker-color": "#818181"}}, {"type": "Feature", "geometry": {"type": "Point", "coordinates": [2.439727, 48.77327]}, "properties": {"numparc": 9531, "etat de la localisation": "autre", "ID BDGEO": "804", "horodatage": "2021-07-10 19:21:38", "distance (en metres)": 347.32, "station": "BASSE QUINTE", "marker-color": "#818181"}}, {"type": "Feature", "geometry": {"type": "Point", "coordinates": [2.439727, 48.77327]}, "properties": {"numparc": 9531, "etat de la localisation": "autre", "ID BDGEO": "804", "horodatage": "2021-07-10 19:23:20", "distance (en metres)": 347.32, "station": "BASSE QUINTE", "marker-color": "#818181"}}, {"type": "Feature", "geometry": {"type": "Point", "coordinates": [2.439727, 48.77327]}, "properties": {"numparc": 9531, "etat de la localisation": "autre", "ID BDGEO": "804", "horodatage": "2021-07-10 19:24:36", "distance (en metres)": 347.32, "station": "BASSE QUINTE", "marker-color": "#818181"}}, {"type": "Feature", "geometry": {"type": "Point", "coordinates": [2.439727, 48.77327]}, "properties": {"numparc": 9531, "etat de la localisation": "autre", "ID BDGEO": "804", "horodatage": "2021-07-10 19:25:59", "distance (en metres)": 347.32, "station": "BASSE QUINTE", "marker-color": "#818181"}}, {"type": "Feature", "geometry": {"type": "Point", "coordinates": [2.480271, 48.765285]}, "properties": {"numparc": 9531, "etat de la localisation": "autre", "ID BDGEO": "144", "horodatage": "2021-07-10 19:29:04", "distance (en metres)": 81.22, "station": "STADE DE BONNEUIL", "marker-color": "#818181"}}, {"type": "Feature", "geometry": {"type": "Point", "coordinates": [2.480271, 48.765285]}, "properties": {"numparc": 9531, "etat de la localisation": "autre", "ID BDGEO": "144", "horodatage": "2021-07-10 19:30:41", "distance (en metres)": 81.22, "station": "STADE DE BONNEUIL", "marker-color": "#818181"}}, {"type": "Feature", "geometry": {"type": "Point", "coordinates": [2.480271, 48.765285]}, "properties": {"numparc": 9531, "etat de la localisation": "autre", "ID BDGEO": "144", "horodatage": "2021-07-10 19:32:32", "distance (en metres)": 81.22, "station": "STADE DE BONNEUIL", "marker-color": "#818181"}}, {"type": "Feature", "geometry": {"type": "Point", "coordinates": [2.480271, 48.765285]}, "properties": {"numparc": 9531, "etat de la localisation": "autre", "ID BDGEO": "144", "horodatage": "2021-07-10 19:34:14", "distance (en metres)": 81.22, "station": "STADE DE BONNEUIL", "marker-color": "#818181"}}, {"type": "Feature", "geometry": {"type": "Point", "coordinates": [2.488203, 48.76857]}, "properties": {"numparc": 9531, "etat de la localisation": "Delocalise", "ID BDGEO": "148", "horodatage": "2021-07-10 19:57:44", "distance (en metres)": 131.01, "station": "MESSIDOR LIBERTES", "marker-color": "#FF565E"}}, {"type": "Feature", "geometry": {"type": "Point", "coordinates": [2.488203, 48.76857]}, "properties": {"numparc": 9531, "etat de la localisation": "Delocalise", "ID BDGEO": "148", "horodatage": "2021-07-10 19:59:05", "distance (en metres)": 131.01, "station": "MESSIDOR LIBERTES", "marker-color": "#FF565E"}}, {"type": "Feature", "geometry": {"type": "Point", "coordinates": [2.488203, 48.76857]}, "properties": {"numparc": 9531, "etat de la localisation": "Delocalise", "ID BDGEO": "148", "horodatage": "2021-07-10 20:01:01", "distance (en metres)": 131.01, "station": "MESSIDOR LIBERTES", "marker-color": "#FF565E"}}, {"type": "Feature", "geometry": {"type": "Point", "coordinates": [2.443412, 48.775017]}, "properties": {"numparc": 9531, "etat de la localisation": "Delocalise", "ID BDGEO": "804", "horodatage": "2021-07-10 20:06:51", "distance (en metres)": 52.61, "station": "BASSE QUINTE", "marker-color": "#FF565E"}}, {"type": "Feature", "geometry": {"type": "Point", "coordinates": [2.426217, 48.77037]}, "properties": {"numparc": 9531, "etat de la localisation": "Delocalise", "ID BDGEO": "124", "horodatage": "2021-07-10 20:10:17", "distance (en metres)": 43.54, "station": "PARC INTERDEPARTEMENTAL DES SPORTS", "marker-color": "#FF565E"}}, {"type": "Feature", "geometry": {"type": "Point", "coordinates": [2.435112, 48.77309]}, "properties": {"numparc": 9532, "etat de la localisation": "autre", "ID BDGEO": "127", "horodatage": "2021-07-10 20:13:37", "distance (en metres)": 44.83, "station": "POMPADOUR", "marker-color": "#818181"}}, {"type": "Feature", "geometry": {"type": "Point", "coordinates": [2.408489, 48.765358]}, "properties": {"numparc": 9525, "etat de la localisation": "autre", "ID BDGEO": "118", "horodatage": "2021-07-10 20:31:26", "distance (en metres)": 42.0, "station": "CHOISY-LE-ROI RER", "marker-color": "#818181"}}, {"type": "Feature", "geometry": {"type": "Point", "coordinates": [2.400553, 48.76178]}, "properties": {"numparc": 9531, "etat de la localisation": "autre", "ID BDGEO": "113", "horodatage": "2021-07-10 20:40:34", "distance (en metres)": 147.95, "station": "GEORGES HALGOULT", "marker-color": "#818181"}}, {"type": "Feature", "geometry": {"type": "Point", "coordinates": [2.400553, 48.76178]}, "properties": {"numparc": 9531, "etat de la localisation": "autre", "ID BDGEO": "113", "horodatage": "2021-07-10 20:41:22", "distance (en metres)": 147.95, "station": "GEORGES HALGOULT", "marker-color": "#818181"}}, {"type": "Feature", "geometry": {"type": "Point", "coordinates": [2.400553, 48.76178]}, "properties": {"numparc": 9531, "etat de la localisation": "autre", "ID BDGEO": "113", "horodatage": "2021-07-10 20:43:12", "distance (en metres)": 147.95, "station": "GEORGES HALGOULT", "marker-color": "#818181"}}, {"type": "Feature", "geometry": {"type": "Point", "coordinates": [2.400553, 48.76178]}, "properties": {"numparc": 9531, "etat de la localisation": "autre", "ID BDGEO": "113", "horodatage": "2021-07-10 20:45:19", "distance (en metres)": 147.95, "station": "GEORGES HALGOULT", "marker-color": "#818181"}}, {"type": "Feature", "geometry": {"type": "Point", "coordinates": [2.400553, 48.76178]}, "properties": {"numparc": 9531, "etat de la localisation": "autre", "ID BDGEO": "113", "horodatage": "2021-07-10 20:46:55", "distance (en metres)": 147.95, "station": "GEORGES HALGOULT", "marker-color": "#818181"}}, {"type": "Feature", "geometry": {"type": "Point", "coordinates": [2.400553, 48.76178]}, "properties": {"numparc": 9531, "etat de la localisation": "autre", "ID BDGEO": "113", "horodatage": "2021-07-10 20:48:44", "distance (en metres)": 147.95, "station": "GEORGES HALGOULT", "marker-color": "#818181"}}, {"type": "Feature", "geometry": {"type": "Point", "coordinates": [2.400553, 48.76178]}, "properties": {"numparc": 9531, "etat de la localisation": "autre", "ID BDGEO": "113", "horodatage": "2021-07-10 20:50:01", "distance (en metres)": 147.95, "station": "GEORGES HALGOULT", "marker-color": "#818181"}}, {"type": "Feature", "geometry": {"type": "Point", "coordinates": [2.462957, 48.768871]}, "properties": {"numparc": 9531, "etat de la localisation": "autre", "ID BDGEO": "136", "horodatage": "2021-07-10 21:03:28", "distance (en metres)": 67.79, "station": "POINTE DU LAC", "marker-color": "#818181"}}, {"type": "Feature", "geometry": {"type": "Point", "coordinates": [2.506644, 48.772667]}, "properties": {"numparc": 9531, "etat de la localisation": "autre", "ID BDGEO": "154", "horodatage": "2021-07-10 21:06:19", "distance (en metres)": 49.42, "station": "SUCY-BONNEUIL RER.", "marker-color": "#818181"}}, {"type": "Feature", "geometry": {"type": "Point", "coordinates": [2.408509, 48.765358]}, "properties": {"numparc": 9532, "etat de la localisation": "autre", "ID BDGEO": "118", "horodatage": "2021-07-10 21:08:56", "distance (en metres)": 40.72, "station": "CHOISY-LE-ROI RER", "marker-color": "#818181"}}, {"type": "Feature", "geometry": {"type": "Point", "coordinates": [2.506644, 48.772667]}, "properties": {"numparc": 9531, "etat de la localisation": "autre", "ID BDGEO": "291", "horodatage": "2021-07-10 21:17:07", "distance (en metres)": 80.72, "station": "SUCY-BONNEUIL RER", "marker-color": "#818181"}}, {"type": "Feature", "geometry": {"type": "Point", "coordinates": [2.506644, 48.772667]}, "properties": {"numparc": 9531, "etat de la localisation": "autre", "ID BDGEO": "291", "horodatage": "2021-07-10 21:21:37", "distance (en metres)": 80.72, "station": "SUCY-BONNEUIL RER", "marker-color": "#818181"}}, {"type": "Feature", "geometry": {"type": "Point", "coordinates": [2.408514, 48.765362]}, "properties": {"numparc": 9523, "etat de la localisation": "autre", "ID BDGEO": "118", "horodatage": "2021-07-10 21:22:22", "distance (en metres)": 40.19, "station": "CHOISY-LE-ROI RER", "marker-color": "#818181"}}, {"type": "Feature", "geometry": {"type": "Point", "coordinates": [2.506644, 48.772667]}, "properties": {"numparc": 9531, "etat de la localisation": "autre", "ID BDGEO": "291", "horodatage": "2021-07-10 21:23:32", "distance (en metres)": 80.72, "station": "SUCY-BONNEUIL RER", "marker-color": "#818181"}}, {"type": "Feature", "geometry": {"type": "Point", "coordinates": [2.506644, 48.772667]}, "properties": {"numparc": 9531, "etat de la localisation": "autre", "ID BDGEO": "291", "horodatage": "2021-07-10 21:24:49", "distance (en metres)": 80.72, "station": "SUCY-BONNEUIL RER", "marker-color": "#818181"}}, {"type": "Feature", "geometry": {"type": "Point", "coordinates": [2.506644, 48.772667]}, "properties": {"numparc": 9531, "etat de la localisation": "autre", "ID BDGEO": "291", "horodatage": "2021-07-10 21:27:24", "distance (en metres)": 80.72, "station": "SUCY-BONNEUIL RER", "marker-color": "#818181"}}, {"type": "Feature", "geometry": {"type": "Point", "coordinates": [2.446913, 48.770134]}, "properties": {"numparc": 9531, "etat de la localisation": "autre", "ID BDGEO": "133", "horodatage": "2021-07-10 22:04:38", "distance (en metres)": 90.79, "station": "VAL POMPADOUR", "marker-color": "#818181"}}, {"type": "Feature", "geometry": {"type": "Point", "coordinates": [2.446913, 48.770134]}, "properties": {"numparc": 9531, "etat de la localisation": "autre", "ID BDGEO": "133", "horodatage": "2021-07-10 22:06:30", "distance (en metres)": 90.79, "station": "VAL POMPADOUR", "marker-color": "#818181"}}, {"type": "Feature", "geometry": {"type": "Point", "coordinates": [2.446913, 48.770134]}, "properties": {"numparc": 9531, "etat de la localisation": "autre", "ID BDGEO": "133", "horodatage": "2021-07-10 22:07:47", "distance (en metres)": 90.79, "station": "VAL POMPADOUR", "marker-color": "#818181"}}, {"type": "Feature", "geometry": {"type": "Point", "coordinates": [2.446913, 48.770134]}, "properties": {"numparc": 9531, "etat de la localisation": "autre", "ID BDGEO": "133", "horodatage": "2021-07-10 22:09:05", "distance (en metres)": 90.79, "station": "VAL POMPADOUR", "marker-color": "#818181"}}, {"type": "Feature", "geometry": {"type": "Point", "coordinates": [2.446913, 48.770134]}, "properties": {"numparc": 9531, "etat de la localisation": "autre", "ID BDGEO": "133", "horodatage": "2021-07-10 22:11:33", "distance (en metres)": 90.79, "station": "VAL POMPADOUR", "marker-color": "#818181"}}, {"type": "Feature", "geometry": {"type": "Point", "coordinates": [2.446913, 48.770134]}, "properties": {"numparc": 9531, "etat de la localisation": "autre", "ID BDGEO": "133", "horodatage": "2021-07-10 22:12:45", "distance (en metres)": 90.79, "station": "VAL POMPADOUR", "marker-color": "#818181"}}, {"type": "Feature", "geometry": {"type": "Point", "coordinates": [2.446913, 48.770134]}, "properties": {"numparc": 9531, "etat de la localisation": "Delocalise", "ID BDGEO": "133", "horodatage": "2021-07-10 22:14:56", "distance (en metres)": 90.79, "station": "VAL POMPADOUR", "marker-color": "#FF565E"}}, {"type": "Feature", "geometry": {"type": "Point", "coordinates": [2.446913, 48.770134]}, "properties": {"numparc": 9531, "etat de la localisation": "Delocalise", "ID BDGEO": "133", "horodatage": "2021-07-10 22:17:36", "distance (en metres)": 90.79, "station": "VAL POMPADOUR", "marker-color": "#FF565E"}}, {"type": "Feature", "geometry": {"type": "Point", "coordinates": [2.446913, 48.770134]}, "properties": {"numparc": 9531, "etat de la localisation": "autre", "ID BDGEO": "133", "horodatage": "2021-07-10 22:30:18", "distance (en metres)": 90.79, "station": "VAL POMPADOUR", "marker-color": "#818181"}}, {"type": "Feature", "geometry": {"type": "Point", "coordinates": [2.446913, 48.770134]}, "properties": {"numparc": 9531, "etat de la localisation": "autre", "ID BDGEO": "133", "horodatage": "2021-07-10 22:30:40", "distance (en metres)": 90.79, "station": "VAL POMPADOUR", "marker-color": "#818181"}}, {"type": "Feature", "geometry": {"type": "Point", "coordinates": [2.446913, 48.770134]}, "properties": {"numparc": 9531, "etat de la localisation": "autre", "ID BDGEO": "133", "horodatage": "2021-07-10 22:34:41", "distance (en metres)": 90.79, "station": "VAL POMPADOUR", "marker-color": "#818181"}}, {"type": "Feature", "geometry": {"type": "Point", "coordinates": [2.446913, 48.770134]}, "properties": {"numparc": 9531, "etat de la localisation": "autre", "ID BDGEO": "133", "horodatage": "2021-07-10 22:36:31", "distance (en metres)": 90.79, "station": "VAL POMPADOUR", "marker-color": "#818181"}}, {"type": "Feature", "geometry": {"type": "Point", "coordinates": [2.488734, 48.768776]}, "properties": {"numparc": 9531, "etat de la localisation": "autre", "ID BDGEO": "148", "horodatage": "2021-07-10 22:39:23", "distance (en metres)": 175.83, "station": "MESSIDOR LIBERTES", "marker-color": "#818181"}}, {"type": "Feature", "geometry": {"type": "Point", "coordinates": [2.408435, 48.765339]}, "properties": {"numparc": 9532, "etat de la localisation": "autre", "ID BDGEO": "118", "horodatage": "2021-07-10 22:39:24", "distance (en metres)": 46.48, "station": "CHOISY-LE-ROI RER", "marker-color": "#818181"}}, {"type": "Feature", "geometry": {"type": "Point", "coordinates": [2.488734, 48.768776]}, "properties": {"numparc": 9531, "etat de la localisation": "autre", "ID BDGEO": "148", "horodatage": "2021-07-10 22:40:36", "distance (en metres)": 175.83, "station": "MESSIDOR LIBERTES", "marker-color": "#818181"}}, {"type": "Feature", "geometry": {"type": "Point", "coordinates": [2.488734, 48.768776]}, "properties": {"numparc": 9531, "etat de la localisation": "autre", "ID BDGEO": "148", "horodatage": "2021-07-10 22:43:03", "distance (en metres)": 175.83, "station": "MESSIDOR LIBERTES", "marker-color": "#818181"}}, {"type": "Feature", "geometry": {"type": "Point", "coordinates": [2.488734, 48.768776]}, "properties": {"numparc": 9531, "etat de la localisation": "autre", "ID BDGEO": "148", "horodatage": "2021-07-10 22:44:52", "distance (en metres)": 175.83, "station": "MESSIDOR LIBERTES", "marker-color": "#818181"}}, {"type": "Feature", "geometry": {"type": "Point", "coordinates": [2.488734, 48.768776]}, "properties": {"numparc": 9531, "etat de la localisation": "autre", "ID BDGEO": "148", "horodatage": "2021-07-10 22:46:10", "distance (en metres)": 175.83, "station": "MESSIDOR LIBERTES", "marker-color": "#818181"}}, {"type": "Feature", "geometry": {"type": "Point", "coordinates": [2.488734, 48.768776]}, "properties": {"numparc": 9531, "etat de la localisation": "autre", "ID BDGEO": "148", "horodatage": "2021-07-10 22:47:52", "distance (en metres)": 175.83, "station": "MESSIDOR LIBERTES", "marker-color": "#818181"}}, {"type": "Feature", "geometry": {"type": "Point", "coordinates": [2.488734, 48.768776]}, "properties": {"numparc": 9531, "etat de la localisation": "autre", "ID BDGEO": "148", "horodatage": "2021-07-10 22:49:22", "distance (en metres)": 175.83, "station": "MESSIDOR LIBERTES", "marker-color": "#818181"}}, {"type": "Feature", "geometry": {"type": "Point", "coordinates": [2.501722, 48.77301]}, "properties": {"numparc": 9531, "etat de la localisation": "autre", "ID BDGEO": "291", "horodatage": "2021-07-10 23:53:23", "distance (en metres)": 384.46, "station": "SUCY-BONNEUIL RER", "marker-color": "#818181"}}, {"type": "Feature", "geometry": {"type": "Point", "coordinates": [2.408492, 48.765369]}, "properties": {"numparc": 9532, "etat de la localisation": "autre", "ID BDGEO": "118", "horodatage": "2021-07-10 23:54:10", "distance (en metres)": 41.19, "station": "CHOISY-LE-ROI RER", "marker-color": "#818181"}}, {"type": "Feature", "geometry": {"type": "Point", "coordinates": [2.501722, 48.77301]}, "properties": {"numparc": 9531, "etat de la localisation": "autre", "ID BDGEO": "291", "horodatage": "2021-07-10 23:54:35", "distance (en metres)": 384.46, "station": "SUCY-BONNEUIL RER", "marker-color": "#818181"}}, {"type": "Feature", "geometry": {"type": "Point", "coordinates": [2.501722, 48.77301]}, "properties": {"numparc": 9531, "etat de la localisation": "autre", "ID BDGEO": "291", "horodatage": "2021-07-10 23:56:27", "distance (en metres)": 384.46, "station": "SUCY-BONNEUIL RER", "marker-color": "#818181"}}, {"type": "Feature", "geometry": {"type": "Point", "coordinates": [2.501722, 48.77301]}, "properties": {"numparc": 9531, "etat de la localisation": "autre", "ID BDGEO": "291", "horodatage": "2021-07-10 23:57:53", "distance (en metres)": 384.46, "station": "SUCY-BONNEUIL RER", "marker-color": "#818181"}}, {"type": "Feature", "geometry": {"type": "Point", "coordinates": [2.501722, 48.77301]}, "properties": {"numparc": 9531, "etat de la localisation": "autre", "ID BDGEO": "291", "horodatage": "2021-07-10 23:59:54", "distance (en metres)": 384.46, "station": "SUCY-BONNEUIL RER", "marker-color": "#818181"}}, {"type": "Feature", "geometry": {"type": "Point", "coordinates": [2.501722, 48.77301]}, "properties": {"numparc": 9531, "etat de la localisation": "autre", "ID BDGEO": "291", "horodatage": "2021-07-11 00:00:58", "distance (en metres)": 384.46, "station": "SUCY-BONNEUIL RER", "marker-color": "#818181"}}, {"type": "Feature", "geometry": {"type": "Point", "coordinates": [2.501722, 48.77301]}, "properties": {"numparc": 9531, "etat de la localisation": "autre", "ID BDGEO": "291", "horodatage": "2021-07-11 00:02:19", "distance (en metres)": 384.46, "station": "SUCY-BONNEUIL RER", "marker-color": "#818181"}}, {"type": "Feature", "geometry": {"type": "Point", "coordinates": [2.501722, 48.77301]}, "properties": {"numparc": 9531, "etat de la localisation": "autre", "ID BDGEO": "291", "horodatage": "2021-07-11 00:04:06", "distance (en metres)": 384.46, "station": "SUCY-BONNEUIL RER", "marker-color": "#818181"}}, {"type": "Feature", "geometry": {"type": "Point", "coordinates": [2.402299, 48.763268]}, "properties": {"numparc": 9531, "etat de la localisation": "autre", "ID BDGEO": "114", "horodatage": "2021-07-11 00:33:55", "distance (en metres)": 123.8, "station": "RENE PANHARD", "marker-color": "#818181"}}, {"type": "Feature", "geometry": {"type": "Point", "coordinates": [2.402299, 48.763268]}, "properties": {"numparc": 9531, "etat de la localisation": "autre", "ID BDGEO": "114", "horodatage": "2021-07-11 00:34:56", "distance (en metres)": 123.8, "station": "RENE PANHARD", "marker-color": "#818181"}}, {"type": "Feature", "geometry": {"type": "Point", "coordinates": [2.446891, 48.769951]}, "properties": {"numparc": 9531, "etat de la localisation": "autre", "ID BDGEO": "133", "horodatage": "2021-07-11 00:41:31", "distance (en metres)": 71.39, "station": "VAL POMPADOUR", "marker-color": "#818181"}}, {"type": "Feature", "geometry": {"type": "Point", "coordinates": [2.446891, 48.769951]}, "properties": {"numparc": 9531, "etat de la localisation": "autre", "ID BDGEO": "133", "horodatage": "2021-07-11 00:44:05", "distance (en metres)": 71.39, "station": "VAL POMPADOUR", "marker-color": "#818181"}}, {"type": "Feature", "geometry": {"type": "Point", "coordinates": [2.446891, 48.769951]}, "properties": {"numparc": 9531, "etat de la localisation": "autre", "ID BDGEO": "133", "horodatage": "2021-07-11 00:46:59", "distance (en metres)": 71.39, "station": "VAL POMPADOUR", "marker-color": "#818181"}}, {"type": "Feature", "geometry": {"type": "Point", "coordinates": [2.447338, 48.768749]}, "properties": {"numparc": 9531, "etat de la localisation": "autre", "ID BDGEO": "133", "horodatage": "2021-07-11 01:21:40", "distance (en metres)": 66.3, "station": "VAL POMPADOUR", "marker-color": "#818181"}}, {"type": "Feature", "geometry": {"type": "Point", "coordinates": [2.447338, 48.768749]}, "properties": {"numparc": 9531, "etat de la localisation": "autre", "ID BDGEO": "133", "horodatage": "2021-07-11 01:24:23", "distance (en metres)": 66.3, "station": "VAL POMPADOUR", "marker-color": "#818181"}}, {"type": "Feature", "geometry": {"type": "Point", "coordinates": [2.44255, 48.772896]}, "properties": {"numparc": 9538, "etat de la localisation": "autre", "ID BDGEO": "208", "horodatage": "2021-07-11 01:25:47", "distance (en metres)": 62.46, "station": "DEPOT CRETEIL SORTIE", "marker-color": "#818181"}}, {"type": "Feature", "geometry": {"type": "Point", "coordinates": [2.46638, 48.767941]}, "properties": {"numparc": 9539, "etat de la localisation": "autre", "ID BDGEO": "136", "horodatage": "2021-07-11 01:30:23", "distance (en metres)": 204.06, "station": "POINTE DU LAC", "marker-color": "#818181"}}, {"type": "Feature", "geometry": {"type": "Point", "coordinates": [2.435063, 48.773071]}, "properties": {"numparc": 9532, "etat de la localisation": "autre", "ID BDGEO": "127", "horodatage": "2021-07-11 01:42:59", "distance (en metres)": 40.66, "station": "POMPADOUR", "marker-color": "#818181"}}, {"type": "Feature", "geometry": {"type": "Point", "coordinates": [2.443074, 48.772072]}, "properties": {"numparc": 9525, "etat de la localisation": "autre", "ID BDGEO": "208", "horodatage": "2021-07-11 02:18:53", "distance (en metres)": 56.06, "station": "DEPOT CRETEIL SORTIE", "marker-color": "#818181"}}, {"type": "Feature", "geometry": {"type": "Point", "coordinates": [2.443074, 48.772072]}, "properties": {"numparc": 9525, "etat de la localisation": "autre", "ID BDGEO": "208", "horodatage": "2021-07-11 02:19:41", "distance (en metres)": 56.06, "station": "DEPOT CRETEIL SORTIE", "marker-color": "#818181"}}, {"type": "Feature", "geometry": {"type": "Point", "coordinates": [2.421748, 48.769193]}, "properties": {"station": "MARCELLIN BERTHELOT", "ID BDGEO": "122", "marker-color": "#56B3FF"}}, {"type": "Feature", "geometry": {"type": "Point", "coordinates": [2.447161, 48.769334]}, "properties": {"station": "VAL POMPADOUR", "ID BDGEO": "133", "marker-color": "#56B3FF"}}, {"type": "Feature", "geometry": {"type": "Point", "coordinates": [2.481293, 48.765567]}, "properties": {"station": "STADE DE BONNEUIL", "ID BDGEO": "144", "marker-color": "#56B3FF"}}, {"type": "Feature", "geometry": {"type": "Point", "coordinates": [2.408988, 48.765543]}, "properties": {"station": "CHOISY-LE-ROI RER", "ID BDGEO": "118", "marker-color": "#56B3FF"}}, {"type": "Feature", "geometry": {"type": "Point", "coordinates": [2.434577, 48.772895]}, "properties": {"station": "POMPADOUR", "ID BDGEO": "127", "marker-color": "#56B3FF"}}, {"type": "Feature", "geometry": {"type": "Point", "coordinates": [2.490367, 48.771956]}, "properties": {"station": "RHIN ET DANUBE", "ID BDGEO": "151", "marker-color": "#56B3FF"}}, {"type": "Feature", "geometry": {"type": "Point", "coordinates": [2.470855, 48.766883]}, "properties": {"station": "EUROPARC", "ID BDGEO": "138", "marker-color": "#56B3FF"}}, {"type": "Feature", "geometry": {"type": "Point", "coordinates": [2.393399, 48.758478]}, "properties": {"station": "VICTOR BASCH", "ID BDGEO": "111", "marker-color": "#56B3FF"}}, {"type": "Feature", "geometry": {"type": "Point", "coordinates": [2.421108, 48.768861]}, "properties": {"station": "MARCELLIN BERTHELOT", "ID BDGEO": "123", "marker-color": "#56B3FF"}}, {"type": "Feature", "geometry": {"type": "Point", "coordinates": [2.495919, 48.77309]}, "properties": {"station": "PETITS CARREAUX", "ID BDGEO": "152", "marker-color": "#56B3FF"}}, {"type": "Feature", "geometry": {"type": "Point", "coordinates": [2.470515, 48.766964]}, "properties": {"station": "EUROPARC", "ID BDGEO": "141", "marker-color": "#56B3FF"}}, {"type": "Feature", "geometry": {"type": "Point", "coordinates": [2.434604, 48.773057]}, "properties": {"station": "POMPADOUR", "ID BDGEO": "126", "marker-color": "#56B3FF"}}, {"type": "Feature", "geometry": {"type": "Point", "coordinates": [2.408662, 48.765346]}, "properties": {"station": "CHOISY-LE-ROI RER", "ID BDGEO": "119", "marker-color": "#56B3FF"}}, {"type": "Feature", "geometry": {"type": "Point", "coordinates": [2.447215, 48.769163]}, "properties": {"station": "VAL POMPADOUR", "ID BDGEO": "131", "marker-color": "#56B3FF"}}, {"type": "Feature", "geometry": {"type": "Point", "coordinates": [2.443189, 48.77536]}, "properties": {"station": "BASSE QUINTE", "ID BDGEO": "129", "marker-color": "#56B3FF"}}, {"type": "Feature", "geometry": {"type": "Point", "coordinates": [2.443122, 48.77545]}, "properties": {"station": "BASSE QUINTE", "ID BDGEO": "804", "marker-color": "#56B3FF"}}, {"type": "Feature", "geometry": {"type": "Point", "coordinates": [2.443238, 48.772564]}, "properties": {"station": "DEPOT CRETEIL SORTIE", "ID BDGEO": "208", "marker-color": "#56B3FF"}}, {"type": "Feature", "geometry": {"type": "Point", "coordinates": [2.456908, 48.768345]}, "properties": {"station": "FACULTE DES SPORTS.", "ID BDGEO": "1029", "marker-color": "#56B3FF"}}, {"type": "Feature", "geometry": {"type": "Point", "coordinates": [2.404881, 48.764152]}, "properties": {"station": "ROUGET DE LISLE", "ID BDGEO": "117", "marker-color": "#56B3FF"}}, {"type": "Feature", "geometry": {"type": "Point", "coordinates": [2.506712, 48.771942]}, "properties": {"station": "SUCY-BONNEUIL RER", "ID BDGEO": "291", "marker-color": "#56B3FF"}}, {"type": "Feature", "geometry": {"type": "Point", "coordinates": [2.389034, 48.757204]}, "properties": {"station": "CARREFOUR RESISTANCE", "ID BDGEO": "109", "marker-color": "#56B3FF"}}, {"type": "Feature", "geometry": {"type": "Point", "coordinates": [2.49034, 48.771803]}, "properties": {"station": "RHIN ET DANUBE", "ID BDGEO": "150", "marker-color": "#56B3FF"}}, {"type": "Feature", "geometry": {"type": "Point", "coordinates": [2.486806, 48.767835]}, "properties": {"station": "MESSIDOR LIBERTES", "ID BDGEO": "148", "marker-color": "#56B3FF"}}, {"type": "Feature", "geometry": {"type": "Point", "coordinates": [2.425625, 48.770341]}, "properties": {"station": "PARC INTERDEPARTEMENTAL DES SPORTS", "ID BDGEO": "124", "marker-color": "#56B3FF"}}, {"type": "Feature", "geometry": {"type": "Point", "coordinates": [2.399465, 48.760659]}, "properties": {"station": "GEORGES HALGOULT", "ID BDGEO": "113", "marker-color": "#56B3FF"}}, {"type": "Feature", "geometry": {"type": "Point", "coordinates": [2.463843, 48.768697]}, "properties": {"station": "POINTE DU LAC", "ID BDGEO": "136", "marker-color": "#56B3FF"}}, {"type": "Feature", "geometry": {"type": "Point", "coordinates": [2.506767, 48.77223]}, "properties": {"station": "SUCY-BONNEUIL RER.", "ID BDGEO": "154", "marker-color": "#56B3FF"}}, {"type": "Feature", "geometry": {"type": "Point", "coordinates": [2.40099, 48.762564]}, "properties": {"station": "RENE PANHARD", "ID BDGEO": "114", "marker-color": "#56B3FF"}}]}