{"type": "FeatureCollection", "features": [{"type": "Feature", "geometry": {"type": "Point", "coordinates": [2.297823, 48.721111]}, "properties": {"etat de la localisation": "Delocalise", "numparc": 7052, "duree": "00:12:59", "horodatage": "2022-09-09 04:51:25", "marker-color": "#FF565E"}}, {"type": "Feature", "geometry": {"type": "Point", "coordinates": [2.333555, 48.706844]}, "properties": {"etat de la localisation": "Delocalise", "numparc": 7052, "duree": "00:01:08", "horodatage": "2022-09-09 05:05:29", "marker-color": "#FF565E"}}, {"type": "Feature", "geometry": {"type": "Point", "coordinates": [2.296598, 48.721256]}, "properties": {"etat de la localisation": "Delocalise", "numparc": 7055, "duree": "00:02:38", "horodatage": "2022-09-09 05:15:54", "marker-color": "#FF565E"}}, {"type": "Feature", "geometry": {"type": "Point", "coordinates": [2.297316, 48.721203]}, "properties": {"etat de la localisation": "Hors service", "numparc": 7055, "duree": "", "horodatage": "2022-09-09 05:18:32", "marker-color": "#707070"}}, {"type": "Feature", "geometry": {"type": "Point", "coordinates": [2.297883, 48.720978]}, "properties": {"etat de la localisation": "Delocalise", "numparc": 7059, "duree": "00:11:53", "horodatage": "2022-09-09 05:18:44", "marker-color": "#FF565E"}}, {"type": "Feature", "geometry": {"type": "Point", "coordinates": [2.296621, 48.721378]}, "properties": {"etat de la localisation": "Delocalise", "numparc": 7060, "duree": "00:01:56", "horodatage": "2022-09-09 05:30:08", "marker-color": "#FF565E"}}, {"type": "Feature", "geometry": {"type": "Point", "coordinates": [2.333544, 48.706844]}, "properties": {"etat de la localisation": "Delocalise", "numparc": 7059, "duree": "00:00:55", "horodatage": "2022-09-09 05:31:34", "marker-color": "#FF565E"}}, {"type": "Feature", "geometry": {"type": "Point", "coordinates": [2.29684, 48.721298]}, "properties": {"etat de la localisation": "Hors service", "numparc": 7060, "duree": "", "horodatage": "2022-09-09 05:32:04", "marker-color": "#707070"}}, {"type": "Feature", "geometry": {"type": "Point", "coordinates": [2.297242, 48.722076]}, "properties": {"etat de la localisation": "Delocalise", "numparc": 7048, "duree": "00:02:25", "horodatage": "2022-09-09 06:47:15", "marker-color": "#FF565E"}}, {"type": "Feature", "geometry": {"type": "Point", "coordinates": [2.297179, 48.721867]}, "properties": {"etat de la localisation": "Hors service", "numparc": 7048, "duree": "", "horodatage": "2022-09-09 06:49:40", "marker-color": "#707070"}}, {"type": "Feature", "geometry": {"type": "Point", "coordinates": [2.297001, 48.721565]}, "properties": {"etat de la localisation": "Hors service", "numparc": 7060, "duree": "", "horodatage": "2022-09-09 08:20:54", "marker-color": "#707070"}}, {"type": "Feature", "geometry": {"type": "Point", "coordinates": [2.296765, 48.721851]}, "properties": {"etat de la localisation": "Hors service", "numparc": 7061, "duree": "", "horodatage": "2022-09-09 08:40:25", "marker-color": "#707070"}}, {"type": "Feature", "geometry": {"type": "Point", "coordinates": [2.298075, 48.721474]}, "properties": {"etat de la localisation": "Hors service", "numparc": 7059, "duree": "", "horodatage": "2022-09-09 09:36:43", "marker-color": "#707070"}}, {"type": "Feature", "geometry": {"type": "Point", "coordinates": [2.296604, 48.72123]}, "properties": {"etat de la localisation": "Hors service", "numparc": 7055, "duree": "", "horodatage": "2022-09-09 10:27:55", "marker-color": "#707070"}}, {"type": "Feature", "geometry": {"type": "Point", "coordinates": [2.297501, 48.721886]}, "properties": {"etat de la localisation": "Mission inconnue", "numparc": 4838, "duree": "", "horodatage": "2022-09-09 11:41:51", "marker-color": "#FF9F56"}}, {"type": "Feature", "geometry": {"type": "Point", "coordinates": [2.297501, 48.721886]}, "properties": {"etat de la localisation": "Mission inconnue", "numparc": 4838, "duree": "", "horodatage": "2022-09-09 11:41:54", "marker-color": "#FF9F56"}}, {"type": "Feature", "geometry": {"type": "Point", "coordinates": [2.297501, 48.721886]}, "properties": {"etat de la localisation": "Mission inconnue", "numparc": 4838, "duree": "", "horodatage": "2022-09-09 11:44:36", "marker-color": "#FF9F56"}}, {"type": "Feature", "geometry": {"type": "Point", "coordinates": [2.297501, 48.721886]}, "properties": {"etat de la localisation": "Hors service", "numparc": 4838, "duree": "", "horodatage": "2022-09-09 11:44:36", "marker-color": "#707070"}}, {"type": "Feature", "geometry": {"type": "Point", "coordinates": [2.298884, 48.720661]}, "properties": {"etat de la localisation": "Mission inconnue", "numparc": 7056, "duree": "", "horodatage": "2022-09-09 12:34:09", "marker-color": "#FF9F56"}}, {"type": "Feature", "geometry": {"type": "Point", "coordinates": [2.298614, 48.719967]}, "properties": {"etat de la localisation": "Mission inconnue", "numparc": 7056, "duree": "", "horodatage": "2022-09-09 12:34:26", "marker-color": "#FF9F56"}}, {"type": "Feature", "geometry": {"type": "Point", "coordinates": [2.3226, 48.701561]}, "properties": {"etat de la localisation": "Delocalise", "numparc": 7056, "duree": "00:03:33", "horodatage": "2022-09-09 12:46:54", "marker-color": "#FF565E"}}, {"type": "Feature", "geometry": {"type": "Point", "coordinates": [2.331054, 48.707134]}, "properties": {"etat de la localisation": "Delocalise", "numparc": 7056, "duree": "00:01:17", "horodatage": "2022-09-09 12:51:17", "marker-color": "#FF565E"}}, {"type": "Feature", "geometry": {"type": "Point", "coordinates": [2.298411, 48.716427]}, "properties": {"etat de la localisation": "Mission inconnue", "numparc": 7054, "duree": "", "horodatage": "2022-09-09 16:03:54", "marker-color": "#FF9F56"}}, {"type": "Feature", "geometry": {"type": "Point", "coordinates": [2.298411, 48.716427]}, "properties": {"etat de la localisation": "Mission inconnue", "numparc": 7054, "duree": "", "horodatage": "2022-09-09 16:03:57", "marker-color": "#FF9F56"}}, {"type": "Feature", "geometry": {"type": "Point", "coordinates": [2.296579, 48.721218]}, "properties": {"etat de la localisation": "Mission inconnue", "numparc": 7055, "duree": "", "horodatage": "2022-09-09 16:04:33", "marker-color": "#FF9F56"}}, {"type": "Feature", "geometry": {"type": "Point", "coordinates": [2.296579, 48.721218]}, "properties": {"etat de la localisation": "Mission inconnue", "numparc": 7055, "duree": "", "horodatage": "2022-09-09 16:04:34", "marker-color": "#FF9F56"}}, {"type": "Feature", "geometry": {"type": "Point", "coordinates": [2.296597, 48.721241]}, "properties": {"etat de la localisation": "Hors service", "numparc": 7055, "duree": "", "horodatage": "2022-09-09 16:19:38", "marker-color": "#707070"}}, {"type": "Feature", "geometry": {"type": "Point", "coordinates": [2.296597, 48.721241]}, "properties": {"etat de la localisation": "Mission inconnue", "numparc": 7055, "duree": "", "horodatage": "2022-09-09 16:20:43", "marker-color": "#FF9F56"}}, {"type": "Feature", "geometry": {"type": "Point", "coordinates": [2.295239, 48.717712]}, "properties": {"etat de la localisation": "Mission inconnue", "numparc": 7055, "duree": "", "horodatage": "2022-09-09 16:35:48", "marker-color": "#FF9F56"}}, {"type": "Feature", "geometry": {"type": "Point", "coordinates": [2.335358, 48.705887]}, "properties": {"etat de la localisation": "Mission suivante non connue", "numparc": 7055, "duree": "", "horodatage": "2022-09-09 17:04:12", "marker-color": "#7156FF"}}, {"type": "Feature", "geometry": {"type": "Point", "coordinates": [2.320157, 48.702751]}, "properties": {"etat de la localisation": "Mission suivante non connue", "numparc": 7056, "duree": "", "horodatage": "2022-09-09 17:56:48", "marker-color": "#7156FF"}}, {"type": "Feature", "geometry": {"type": "Point", "coordinates": [2.320158, 48.702751]}, "properties": {"etat de la localisation": "Mission inconnue", "numparc": 7056, "duree": "", "horodatage": "2022-09-09 17:57:19", "marker-color": "#FF9F56"}}, {"type": "Feature", "geometry": {"type": "Point", "coordinates": [2.319858, 48.702866]}, "properties": {"etat de la localisation": "Mission suivante non connue", "numparc": 7052, "duree": "", "horodatage": "2022-09-09 18:26:31", "marker-color": "#7156FF"}}, {"type": "Feature", "geometry": {"type": "Point", "coordinates": [2.320286, 48.702576]}, "properties": {"etat de la localisation": "Mission suivante non connue", "numparc": 7052, "duree": "", "horodatage": "2022-09-09 18:28:53", "marker-color": "#7156FF"}}, {"type": "Feature", "geometry": {"type": "Point", "coordinates": [2.320286, 48.702576]}, "properties": {"etat de la localisation": "Mission inconnue", "numparc": 7052, "duree": "", "horodatage": "2022-09-09 18:29:03", "marker-color": "#FF9F56"}}, {"type": "Feature", "geometry": {"type": "Point", "coordinates": [2.317032, 48.704208]}, "properties": {"etat de la localisation": "Delocalise", "numparc": 7052, "duree": "00:00:27", "horodatage": "2022-09-09 18:34:18", "marker-color": "#FF565E"}}, {"type": "Feature", "geometry": {"type": "Point", "coordinates": [2.325308, 48.821415]}, "properties": {"etat de la localisation": "Mission suivante non connue", "numparc": 7052, "duree": "", "horodatage": "2022-09-09 18:53:55", "marker-color": "#7156FF"}}, {"type": "Feature", "geometry": {"type": "Point", "coordinates": [2.32465, 48.821465]}, "properties": {"etat de la localisation": "Mission inconnue", "numparc": 7052, "duree": "", "horodatage": "2022-09-09 18:54:32", "marker-color": "#FF9F56"}}, {"type": "Feature", "geometry": {"type": "Point", "coordinates": [2.319856, 48.702877]}, "properties": {"etat de la localisation": "Mission suivante non connue", "numparc": 7055, "duree": "", "horodatage": "2022-09-09 19:03:58", "marker-color": "#7156FF"}}, {"type": "Feature", "geometry": {"type": "Point", "coordinates": [2.320226, 48.702717]}, "properties": {"etat de la localisation": "Mission suivante non connue", "numparc": 7055, "duree": "", "horodatage": "2022-09-09 19:05:45", "marker-color": "#7156FF"}}, {"type": "Feature", "geometry": {"type": "Point", "coordinates": [2.320226, 48.702717]}, "properties": {"etat de la localisation": "Mission inconnue", "numparc": 7055, "duree": "", "horodatage": "2022-09-09 19:05:49", "marker-color": "#FF9F56"}}, {"type": "Feature", "geometry": {"type": "Point", "coordinates": [2.298229, 48.721722]}, "properties": {"etat de la localisation": "Hors service", "numparc": 7054, "duree": "", "horodatage": "2022-09-09 19:14:33", "marker-color": "#707070"}}, {"type": "Feature", "geometry": {"type": "Point", "coordinates": [2.304262, 48.727753]}, "properties": {"etat de la localisation": "Delocalise", "numparc": 7055, "duree": "00:13:33", "horodatage": "2022-09-09 19:35:21", "marker-color": "#FF565E"}}, {"type": "Feature", "geometry": {"type": "Point", "coordinates": [2.297484, 48.721748]}, "properties": {"etat de la localisation": "Hors service", "numparc": 7048, "duree": "", "horodatage": "2022-09-09 19:47:47", "marker-color": "#707070"}}, {"type": "Feature", "geometry": {"type": "Point", "coordinates": [2.325319, 48.821472]}, "properties": {"etat de la localisation": "Mission suivante non connue", "numparc": 7055, "duree": "", "horodatage": "2022-09-09 19:48:54", "marker-color": "#7156FF"}}, {"type": "Feature", "geometry": {"type": "Point", "coordinates": [2.297336, 48.721115]}, "properties": {"etat de la localisation": "Mission inconnue", "numparc": 7067, "duree": "", "horodatage": "2022-09-09 20:09:51", "marker-color": "#FF9F56"}}, {"type": "Feature", "geometry": {"type": "Point", "coordinates": [2.298956, 48.720116]}, "properties": {"etat de la localisation": "Mission inconnue", "numparc": 7067, "duree": "", "horodatage": "2022-09-09 20:13:10", "marker-color": "#FF9F56"}}, {"type": "Feature", "geometry": {"type": "Point", "coordinates": [2.298114, 48.718914]}, "properties": {"etat de la localisation": "Mission inconnue", "numparc": 7067, "duree": "", "horodatage": "2022-09-09 20:21:39", "marker-color": "#FF9F56"}}, {"type": "Feature", "geometry": {"type": "Point", "coordinates": [2.298114, 48.718914]}, "properties": {"etat de la localisation": "Mission inconnue", "numparc": 7067, "duree": "", "horodatage": "2022-09-09 20:21:44", "marker-color": "#FF9F56"}}, {"type": "Feature", "geometry": {"type": "Point", "coordinates": [2.335418, 48.705711]}, "properties": {"etat de la localisation": "Mission suivante non connue", "numparc": 7055, "duree": "", "horodatage": "2022-09-09 20:38:08", "marker-color": "#7156FF"}}, {"type": "Feature", "geometry": {"type": "Point", "coordinates": [2.297409, 48.721313]}, "properties": {"etat de la localisation": "Hors service", "numparc": 7055, "duree": "", "horodatage": "2022-09-09 20:57:10", "marker-color": "#707070"}}, {"type": "Feature", "geometry": {"type": "Point", "coordinates": [2.295842, 48.717987]}, "properties": {"etat de la localisation": "Delocalise", "numparc": 7067, "duree": "00:00:41", "horodatage": "2022-09-09 21:13:48", "marker-color": "#FF565E"}}, {"type": "Feature", "geometry": {"type": "Point", "coordinates": [2.297178, 48.721004]}, "properties": {"etat de la localisation": "Hors service", "numparc": 7067, "duree": "", "horodatage": "2022-09-10 00:39:47", "marker-color": "#707070"}}, {"type": "Feature", "geometry": {"type": "Point", "coordinates": [2.337207, 48.705193]}, "properties": {"etat de la localisation": "Delocalise", "numparc": 7052, "duree": "00:07:05", "horodatage": "2022-09-10 01:00:26", "marker-color": "#FF565E"}}, {"type": "Feature", "geometry": {"type": "Point", "coordinates": [2.200477, 48.887466]}, "properties": {"etat de la localisation": "Mission inconnue", "numparc": 2869, "duree": "", "horodatage": "2022-09-10 01:10:47", "marker-color": "#FF9F56"}}, {"type": "Feature", "geometry": {"type": "Point", "coordinates": [2.200477, 48.887466]}, "properties": {"etat de la localisation": "Mission inconnue", "numparc": 2869, "duree": "", "horodatage": "2022-09-10 01:11:02", "marker-color": "#FF9F56"}}, {"type": "Feature", "geometry": {"type": "Point", "coordinates": [2.296927, 48.720783]}, "properties": {"etat de la localisation": "Hors service", "numparc": 7052, "duree": "", "horodatage": "2022-09-10 01:15:24", "marker-color": "#707070"}}, {"type": "Feature", "geometry": {"type": "Point", "coordinates": [2.296953, 48.721333]}, "properties": {"etat de la localisation": "Hors service", "numparc": 7056, "duree": "", "horodatage": "2022-09-10 01:16:29", "marker-color": "#707070"}}, {"type": "Feature", "geometry": {"type": "Point", "coordinates": [2.168441, 48.875244]}, "properties": {"etat de la localisation": "Mission inconnue", "numparc": 2869, "duree": "", "horodatage": "2022-09-10 01:37:41", "marker-color": "#FF9F56"}}]}