{"type": "FeatureCollection", "features": [{"type": "Feature", "geometry": {"type": "Point", "coordinates": [2.348771, 48.857456]}, "properties": {"etat de la localisation": "Mission inconnue", "numparc": 1499, "duree": "", "horodatage": "2022-06-09 02:31:44", "marker-color": "#FF9F56"}}, {"type": "Feature", "geometry": {"type": "Point", "coordinates": [2.3498, 48.861355]}, "properties": {"etat de la localisation": "Mission inconnue", "numparc": 1499, "duree": "", "horodatage": "2022-06-09 02:37:39", "marker-color": "#FF9F56"}}, {"type": "Feature", "geometry": {"type": "Point", "coordinates": [2.427607, 48.87878]}, "properties": {"etat de la localisation": "Mission inconnue", "numparc": 1503, "duree": "", "horodatage": "2022-06-09 04:00:53", "marker-color": "#FF9F56"}}, {"type": "Feature", "geometry": {"type": "Point", "coordinates": [2.427607, 48.87878]}, "properties": {"etat de la localisation": "Hors service", "numparc": 1503, "duree": "", "horodatage": "2022-06-09 04:01:10", "marker-color": "#707070"}}, {"type": "Feature", "geometry": {"type": "Point", "coordinates": [2.427616, 48.878773]}, "properties": {"etat de la localisation": "Hors service", "numparc": 1503, "duree": "", "horodatage": "2022-06-09 04:04:07", "marker-color": "#707070"}}, {"type": "Feature", "geometry": {"type": "Point", "coordinates": [2.427616, 48.878773]}, "properties": {"etat de la localisation": "Mission inconnue", "numparc": 1503, "duree": "", "horodatage": "2022-06-09 04:04:07", "marker-color": "#FF9F56"}}, {"type": "Feature", "geometry": {"type": "Point", "coordinates": [2.427486, 48.879013]}, "properties": {"etat de la localisation": "Hors service", "numparc": 1499, "duree": "", "horodatage": "2022-06-09 05:09:19", "marker-color": "#707070"}}, {"type": "Feature", "geometry": {"type": "Point", "coordinates": [2.427596, 48.878975]}, "properties": {"etat de la localisation": "Hors service", "numparc": 1578, "duree": "", "horodatage": "2022-06-09 06:04:57", "marker-color": "#707070"}}, {"type": "Feature", "geometry": {"type": "Point", "coordinates": [2.427635, 48.878963]}, "properties": {"etat de la localisation": "Mission inconnue", "numparc": 1504, "duree": "", "horodatage": "2022-06-09 23:22:02", "marker-color": "#FF9F56"}}, {"type": "Feature", "geometry": {"type": "Point", "coordinates": [2.434744, 48.879654]}, "properties": {"etat de la localisation": "Mission inconnue", "numparc": 1504, "duree": "", "horodatage": "2022-06-09 23:31:00", "marker-color": "#FF9F56"}}, {"type": "Feature", "geometry": {"type": "Point", "coordinates": [2.427589, 48.87883]}, "properties": {"etat de la localisation": "Mission inconnue", "numparc": 1499, "duree": "", "horodatage": "2022-06-09 23:38:16", "marker-color": "#FF9F56"}}, {"type": "Feature", "geometry": {"type": "Point", "coordinates": [2.427551, 48.87883]}, "properties": {"etat de la localisation": "Mission inconnue", "numparc": 1553, "duree": "", "horodatage": "2022-06-09 23:53:40", "marker-color": "#FF9F56"}}, {"type": "Feature", "geometry": {"type": "Point", "coordinates": [2.428293, 48.878979]}, "properties": {"etat de la localisation": "Mission inconnue", "numparc": 1521, "duree": "", "horodatage": "2022-06-09 23:57:13", "marker-color": "#FF9F56"}}, {"type": "Feature", "geometry": {"type": "Point", "coordinates": [2.428272, 48.87899]}, "properties": {"etat de la localisation": "Hors service", "numparc": 1521, "duree": "", "horodatage": "2022-06-10 00:00:15", "marker-color": "#707070"}}, {"type": "Feature", "geometry": {"type": "Point", "coordinates": [2.427907, 48.878963]}, "properties": {"etat de la localisation": "Mission inconnue", "numparc": 1507, "duree": "", "horodatage": "2022-06-10 00:02:39", "marker-color": "#FF9F56"}}, {"type": "Feature", "geometry": {"type": "Point", "coordinates": [2.427907, 48.878963]}, "properties": {"etat de la localisation": "Mission inconnue", "numparc": 1507, "duree": "", "horodatage": "2022-06-10 00:04:14", "marker-color": "#FF9F56"}}, {"type": "Feature", "geometry": {"type": "Point", "coordinates": [2.427131, 48.878235]}, "properties": {"etat de la localisation": "Mission inconnue", "numparc": 1541, "duree": "", "horodatage": "2022-06-10 00:12:09", "marker-color": "#FF9F56"}}, {"type": "Feature", "geometry": {"type": "Point", "coordinates": [2.414015, 48.845055]}, "properties": {"etat de la localisation": "Mission inconnue", "numparc": 1541, "duree": "", "horodatage": "2022-06-10 00:18:42", "marker-color": "#FF9F56"}}, {"type": "Feature", "geometry": {"type": "Point", "coordinates": [2.428272, 48.87899]}, "properties": {"etat de la localisation": "Mission inconnue", "numparc": 1521, "duree": "", "horodatage": "2022-06-10 00:27:11", "marker-color": "#FF9F56"}}, {"type": "Feature", "geometry": {"type": "Point", "coordinates": [2.428272, 48.87899]}, "properties": {"etat de la localisation": "Hors service", "numparc": 1521, "duree": "", "horodatage": "2022-06-10 00:42:17", "marker-color": "#707070"}}, {"type": "Feature", "geometry": {"type": "Point", "coordinates": [2.469474, 48.901398]}, "properties": {"etat de la localisation": "Mission inconnue", "numparc": 4934, "duree": "", "horodatage": "2022-06-10 02:06:59", "marker-color": "#FF9F56"}}]}