{"type": "FeatureCollection", "features": [{"type": "Feature", "geometry": {"type": "Point", "coordinates": [2.359078, 48.761875]}, "properties": {"alarme": "VEHICULE DELOCALISE", "numparc": 5716, "type": "EXPLOITATION", "duree": "00:01:40", "horodatage": "2022-11-04 00:06:58", "statut": "start", "marker-color": "#ff0000"}}, {"type": "Feature", "geometry": {"type": "Point", "coordinates": [2.499883, 48.835201]}, "properties": {"alarme": "VEHICULE DELOCALISE", "numparc": 5725, "type": "EXPLOITATION", "duree": "00:08:58", "horodatage": "2022-11-04 00:30:00", "statut": "start", "marker-color": "#ff0000"}}, {"type": "Feature", "geometry": {"type": "Point", "coordinates": [2.499958, 48.835171]}, "properties": {"alarme": "VEHICULE DELOCALISE", "numparc": 5917, "type": "EXPLOITATION", "duree": "00:23:13", "horodatage": "2022-11-04 00:53:02", "statut": "start", "marker-color": "#ff0000"}}, {"type": "Feature", "geometry": {"type": "Point", "coordinates": [2.471035, 48.809273]}, "properties": {"alarme": "VEHICULE DELOCALISE", "numparc": 5724, "type": "EXPLOITATION", "duree": "00:00:37", "horodatage": "2022-11-04 02:23:42", "statut": "start", "marker-color": "#ff0000"}}, {"type": "Feature", "geometry": {"type": "Point", "coordinates": [2.365972, 48.759163]}, "properties": {"alarme": "VEHICULE DELOCALISE", "numparc": 5716, "type": "EXPLOITATION", "duree": "00:01:40", "horodatage": "2022-11-04 00:08:38", "statut": "end", "marker-color": "#2fe184"}}, {"type": "Feature", "geometry": {"type": "Point", "coordinates": [2.495551, 48.823383]}, "properties": {"alarme": "VEHICULE DELOCALISE", "numparc": 5725, "type": "EXPLOITATION", "duree": "00:08:58", "horodatage": "2022-11-04 00:38:58", "statut": "end", "marker-color": "#2fe184"}}, {"type": "Feature", "geometry": {"type": "Point", "coordinates": [2.452539, 48.789925]}, "properties": {"alarme": "VEHICULE DELOCALISE", "numparc": 5917, "type": "EXPLOITATION", "duree": "00:23:13", "horodatage": "2022-11-04 01:16:15", "statut": "end", "marker-color": "#2fe184"}}, {"type": "Feature", "geometry": {"type": "Point", "coordinates": [2.471124, 48.8074]}, "properties": {"alarme": "VEHICULE DELOCALISE", "numparc": 5724, "type": "EXPLOITATION", "duree": "00:00:37", "horodatage": "2022-11-04 02:24:19", "statut": "end", "marker-color": "#2fe184"}}]}