{"type": "FeatureCollection", "features": [{"type": "Feature", "geometry": {"type": "Point", "coordinates": [2.387655, 48.754883]}, "properties": {"etat de la localisation": "Delocalise", "numparc": 6914, "duree": "00:11:45", "horodatage": "2022-12-13 05:19:48", "marker-color": "#FF565E"}}, {"type": "Feature", "geometry": {"type": "Point", "coordinates": [2.387915, 48.754639]}, "properties": {"etat de la localisation": "Delocalise", "numparc": 6928, "duree": "00:35:32", "horodatage": "2022-12-13 06:29:10", "marker-color": "#FF565E"}}, {"type": "Feature", "geometry": {"type": "Point", "coordinates": [2.38788, 48.754723]}, "properties": {"etat de la localisation": "Delocalise", "numparc": 6931, "duree": "00:01:11", "horodatage": "2022-12-13 06:40:36", "marker-color": "#FF565E"}}, {"type": "Feature", "geometry": {"type": "Point", "coordinates": [2.388787, 48.753971]}, "properties": {"etat de la localisation": "Delocalise", "numparc": 6923, "duree": "00:30:04", "horodatage": "2022-12-13 06:52:00", "marker-color": "#FF565E"}}, {"type": "Feature", "geometry": {"type": "Point", "coordinates": [2.387959, 48.754742]}, "properties": {"etat de la localisation": "Mission inconnue", "numparc": 6924, "duree": "", "horodatage": "2022-12-13 09:01:36", "marker-color": "#FF9F56"}}, {"type": "Feature", "geometry": {"type": "Point", "coordinates": [2.323643, 48.801395]}, "properties": {"etat de la localisation": "Mission inconnue", "numparc": 6914, "duree": "", "horodatage": "2022-12-13 09:33:50", "marker-color": "#FF9F56"}}, {"type": "Feature", "geometry": {"type": "Point", "coordinates": [2.327564, 48.798206]}, "properties": {"etat de la localisation": "Mission inconnue", "numparc": 6914, "duree": "", "horodatage": "2022-12-13 09:36:59", "marker-color": "#FF9F56"}}, {"type": "Feature", "geometry": {"type": "Point", "coordinates": [2.327564, 48.798206]}, "properties": {"etat de la localisation": "Mission inconnue", "numparc": 6914, "duree": "", "horodatage": "2022-12-13 09:37:18", "marker-color": "#FF9F56"}}, {"type": "Feature", "geometry": {"type": "Point", "coordinates": [2.387917, 48.753704]}, "properties": {"etat de la localisation": "Mission inconnue", "numparc": 6908, "duree": "", "horodatage": "2022-12-13 10:23:27", "marker-color": "#FF9F56"}}, {"type": "Feature", "geometry": {"type": "Point", "coordinates": [2.387917, 48.753704]}, "properties": {"etat de la localisation": "Hors service", "numparc": 6908, "duree": "", "horodatage": "2022-12-13 10:23:39", "marker-color": "#707070"}}, {"type": "Feature", "geometry": {"type": "Point", "coordinates": [2.387917, 48.753704]}, "properties": {"etat de la localisation": "Mission inconnue", "numparc": 6908, "duree": "", "horodatage": "2022-12-13 10:24:50", "marker-color": "#FF9F56"}}, {"type": "Feature", "geometry": {"type": "Point", "coordinates": [2.387917, 48.753704]}, "properties": {"etat de la localisation": "Delocalise", "numparc": 6908, "duree": "00:01:09", "horodatage": "2022-12-13 10:24:54", "marker-color": "#FF565E"}}, {"type": "Feature", "geometry": {"type": "Point", "coordinates": [2.387917, 48.753704]}, "properties": {"etat de la localisation": "Hors service", "numparc": 6908, "duree": "", "horodatage": "2022-12-13 10:26:03", "marker-color": "#707070"}}, {"type": "Feature", "geometry": {"type": "Point", "coordinates": [2.38741, 48.753998]}, "properties": {"etat de la localisation": "Hors service", "numparc": 6925, "duree": "", "horodatage": "2022-12-13 11:24:50", "marker-color": "#707070"}}, {"type": "Feature", "geometry": {"type": "Point", "coordinates": [2.386872, 48.755009]}, "properties": {"etat de la localisation": "Mission inconnue", "numparc": 6913, "duree": "", "horodatage": "2022-12-13 11:40:11", "marker-color": "#FF9F56"}}, {"type": "Feature", "geometry": {"type": "Point", "coordinates": [2.386872, 48.755009]}, "properties": {"etat de la localisation": "Mission inconnue", "numparc": 6913, "duree": "", "horodatage": "2022-12-13 11:45:51", "marker-color": "#FF9F56"}}, {"type": "Feature", "geometry": {"type": "Point", "coordinates": [2.387283, 48.753956]}, "properties": {"etat de la localisation": "Hors service", "numparc": 6928, "duree": "", "horodatage": "2022-12-13 12:01:01", "marker-color": "#707070"}}, {"type": "Feature", "geometry": {"type": "Point", "coordinates": [2.387642, 48.754551]}, "properties": {"etat de la localisation": "Delocalise", "numparc": 6925, "duree": "00:02:06", "horodatage": "2022-12-13 12:19:57", "marker-color": "#FF565E"}}, {"type": "Feature", "geometry": {"type": "Point", "coordinates": [2.387642, 48.754551]}, "properties": {"etat de la localisation": "Mission inconnue", "numparc": 6925, "duree": "", "horodatage": "2022-12-13 12:22:03", "marker-color": "#FF9F56"}}, {"type": "Feature", "geometry": {"type": "Point", "coordinates": [2.387627, 48.754749]}, "properties": {"etat de la localisation": "Hors service", "numparc": 6925, "duree": "", "horodatage": "2022-12-13 12:38:09", "marker-color": "#707070"}}, {"type": "Feature", "geometry": {"type": "Point", "coordinates": [2.387715, 48.75465]}, "properties": {"etat de la localisation": "Delocalise", "numparc": 6925, "duree": "00:13:41", "horodatage": "2022-12-13 12:41:24", "marker-color": "#FF565E"}}, {"type": "Feature", "geometry": {"type": "Point", "coordinates": [2.325796, 48.758541]}, "properties": {"etat de la localisation": "Delocalise", "numparc": 6924, "duree": "00:04:01", "horodatage": "2022-12-13 12:53:20", "marker-color": "#FF565E"}}, {"type": "Feature", "geometry": {"type": "Point", "coordinates": [2.387931, 48.754639]}, "properties": {"etat de la localisation": "Delocalise", "numparc": 6928, "duree": "00:00:17", "horodatage": "2022-12-13 12:59:32", "marker-color": "#FF565E"}}, {"type": "Feature", "geometry": {"type": "Point", "coordinates": [2.387395, 48.753979]}, "properties": {"etat de la localisation": "Hors service", "numparc": 6924, "duree": "", "horodatage": "2022-12-13 13:00:19", "marker-color": "#707070"}}, {"type": "Feature", "geometry": {"type": "Point", "coordinates": [2.387909, 48.753704]}, "properties": {"etat de la localisation": "Delocalise", "numparc": 6908, "duree": "00:26:14", "horodatage": "2022-12-13 13:05:40", "marker-color": "#FF565E"}}, {"type": "Feature", "geometry": {"type": "Point", "coordinates": [2.324908, 48.822189]}, "properties": {"etat de la localisation": "Mission suivante non connue", "numparc": 6928, "duree": "", "horodatage": "2022-12-13 13:25:13", "marker-color": "#7156FF"}}, {"type": "Feature", "geometry": {"type": "Point", "coordinates": [2.387415, 48.753967]}, "properties": {"etat de la localisation": "Hors service", "numparc": 6931, "duree": "", "horodatage": "2022-12-13 13:29:56", "marker-color": "#707070"}}, {"type": "Feature", "geometry": {"type": "Point", "coordinates": [2.33106, 48.763012]}, "properties": {"etat de la localisation": "Mission suivante non connue", "numparc": 6913, "duree": "", "horodatage": "2022-12-13 13:38:52", "marker-color": "#7156FF"}}, {"type": "Feature", "geometry": {"type": "Point", "coordinates": [2.330889, 48.762798]}, "properties": {"etat de la localisation": "Mission suivante non connue", "numparc": 6923, "duree": "", "horodatage": "2022-12-13 13:41:12", "marker-color": "#7156FF"}}, {"type": "Feature", "geometry": {"type": "Point", "coordinates": [2.38744, 48.753944]}, "properties": {"etat de la localisation": "Hors service", "numparc": 6923, "duree": "", "horodatage": "2022-12-13 13:53:44", "marker-color": "#707070"}}, {"type": "Feature", "geometry": {"type": "Point", "coordinates": [2.33089, 48.762833]}, "properties": {"etat de la localisation": "Mission suivante non connue", "numparc": 6928, "duree": "", "horodatage": "2022-12-13 14:03:59", "marker-color": "#7156FF"}}, {"type": "Feature", "geometry": {"type": "Point", "coordinates": [2.331021, 48.762955]}, "properties": {"etat de la localisation": "Mission suivante non connue", "numparc": 6914, "duree": "", "horodatage": "2022-12-13 14:41:26", "marker-color": "#7156FF"}}, {"type": "Feature", "geometry": {"type": "Point", "coordinates": [2.331012, 48.763016]}, "properties": {"etat de la localisation": "Mission suivante non connue", "numparc": 6908, "duree": "", "horodatage": "2022-12-13 15:01:28", "marker-color": "#7156FF"}}, {"type": "Feature", "geometry": {"type": "Point", "coordinates": [2.386539, 48.754261]}, "properties": {"etat de la localisation": "Delocalise", "numparc": 6929, "duree": "00:02:35", "horodatage": "2022-12-13 16:26:46", "marker-color": "#FF565E"}}, {"type": "Feature", "geometry": {"type": "Point", "coordinates": [2.387246, 48.755432]}, "properties": {"etat de la localisation": "Mission inconnue", "numparc": 6923, "duree": "", "horodatage": "2022-12-13 18:26:09", "marker-color": "#FF9F56"}}, {"type": "Feature", "geometry": {"type": "Point", "coordinates": [2.387477, 48.75441]}, "properties": {"etat de la localisation": "Delocalise", "numparc": 6924, "duree": "00:35:42", "horodatage": "2022-12-13 18:51:57", "marker-color": "#FF565E"}}, {"type": "Feature", "geometry": {"type": "Point", "coordinates": [2.38737, 48.754063]}, "properties": {"etat de la localisation": "Hors service", "numparc": 6925, "duree": "", "horodatage": "2022-12-13 19:14:54", "marker-color": "#707070"}}, {"type": "Feature", "geometry": {"type": "Point", "coordinates": [2.38788, 48.754745]}, "properties": {"etat de la localisation": "Hors service", "numparc": 6914, "duree": "", "horodatage": "2022-12-13 19:35:52", "marker-color": "#707070"}}, {"type": "Feature", "geometry": {"type": "Point", "coordinates": [2.387232, 48.753933]}, "properties": {"etat de la localisation": "Hors service", "numparc": 6908, "duree": "", "horodatage": "2022-12-13 19:41:57", "marker-color": "#707070"}}, {"type": "Feature", "geometry": {"type": "Point", "coordinates": [2.387285, 48.753891]}, "properties": {"etat de la localisation": "Hors service", "numparc": 6913, "duree": "", "horodatage": "2022-12-13 19:49:35", "marker-color": "#707070"}}, {"type": "Feature", "geometry": {"type": "Point", "coordinates": [2.331025, 48.762981]}, "properties": {"etat de la localisation": "Mission suivante non connue", "numparc": 6915, "duree": "", "horodatage": "2022-12-13 20:45:29", "marker-color": "#7156FF"}}, {"type": "Feature", "geometry": {"type": "Point", "coordinates": [2.387367, 48.754021]}, "properties": {"etat de la localisation": "Hors service", "numparc": 6920, "duree": "", "horodatage": "2022-12-13 20:50:12", "marker-color": "#707070"}}, {"type": "Feature", "geometry": {"type": "Point", "coordinates": [2.387336, 48.754028]}, "properties": {"etat de la localisation": "Hors service", "numparc": 6915, "duree": "", "horodatage": "2022-12-13 20:57:22", "marker-color": "#707070"}}, {"type": "Feature", "geometry": {"type": "Point", "coordinates": [2.330827, 48.762733]}, "properties": {"etat de la localisation": "Mission suivante non connue", "numparc": 6928, "duree": "", "horodatage": "2022-12-13 21:23:08", "marker-color": "#7156FF"}}, {"type": "Feature", "geometry": {"type": "Point", "coordinates": [2.387425, 48.753986]}, "properties": {"etat de la localisation": "Hors service", "numparc": 6928, "duree": "", "horodatage": "2022-12-13 21:33:23", "marker-color": "#707070"}}, {"type": "Feature", "geometry": {"type": "Point", "coordinates": [2.331024, 48.762962]}, "properties": {"etat de la localisation": "Hors service", "numparc": 6923, "duree": "", "horodatage": "2022-12-13 22:41:09", "marker-color": "#707070"}}, {"type": "Feature", "geometry": {"type": "Point", "coordinates": [2.387459, 48.75396]}, "properties": {"etat de la localisation": "Hors service", "numparc": 6924, "duree": "", "horodatage": "2022-12-14 00:52:24", "marker-color": "#707070"}}, {"type": "Feature", "geometry": {"type": "Point", "coordinates": [2.387201, 48.755432]}, "properties": {"etat de la localisation": "Hors service", "numparc": 6929, "duree": "", "horodatage": "2022-12-14 00:54:01", "marker-color": "#707070"}}, {"type": "Feature", "geometry": {"type": "Point", "coordinates": [2.387394, 48.753986]}, "properties": {"etat de la localisation": "Hors service", "numparc": 6923, "duree": "", "horodatage": "2022-12-14 01:20:09", "marker-color": "#707070"}}]}