{"type": "FeatureCollection", "features": [{"type": "Feature", "geometry": {"type": "Point", "coordinates": [2.442706, 48.772739]}, "properties": {"etat de la localisation": "Hors service", "numparc": 2856, "duree": "", "horodatage": "2022-10-29 06:49:27", "marker-color": "#707070"}}, {"type": "Feature", "geometry": {"type": "Point", "coordinates": [2.442706, 48.772739]}, "properties": {"etat de la localisation": "Delocalise", "numparc": 2856, "duree": "00:07:00", "horodatage": "2022-10-29 06:50:05", "marker-color": "#FF565E"}}, {"type": "Feature", "geometry": {"type": "Point", "coordinates": [2.392864, 48.822224]}, "properties": {"etat de la localisation": "Hors service", "numparc": 2856, "duree": "", "horodatage": "2022-10-29 07:05:06", "marker-color": "#707070"}}, {"type": "Feature", "geometry": {"type": "Point", "coordinates": [2.377363, 48.830849]}, "properties": {"etat de la localisation": "Hors service", "numparc": 2856, "duree": "", "horodatage": "2022-10-29 07:20:43", "marker-color": "#707070"}}, {"type": "Feature", "geometry": {"type": "Point", "coordinates": [2.377363, 48.830849]}, "properties": {"etat de la localisation": "Delocalise", "numparc": 2856, "duree": "00:00:51", "horodatage": "2022-10-29 07:22:05", "marker-color": "#FF565E"}}, {"type": "Feature", "geometry": {"type": "Point", "coordinates": [2.389306, 48.824757]}, "properties": {"etat de la localisation": "Hors service", "numparc": 2856, "duree": "", "horodatage": "2022-10-29 07:37:07", "marker-color": "#707070"}}, {"type": "Feature", "geometry": {"type": "Point", "coordinates": [2.389306, 48.824757]}, "properties": {"etat de la localisation": "Delocalise", "numparc": 2856, "duree": "00:00:03", "horodatage": "2022-10-29 07:37:55", "marker-color": "#FF565E"}}, {"type": "Feature", "geometry": {"type": "Point", "coordinates": [2.379353, 48.831867]}, "properties": {"etat de la localisation": "Hors service", "numparc": 2856, "duree": "", "horodatage": "2022-10-29 07:52:58", "marker-color": "#707070"}}, {"type": "Feature", "geometry": {"type": "Point", "coordinates": [2.379353, 48.831867]}, "properties": {"etat de la localisation": "Delocalise", "numparc": 2856, "duree": "00:00:48", "horodatage": "2022-10-29 07:54:12", "marker-color": "#FF565E"}}, {"type": "Feature", "geometry": {"type": "Point", "coordinates": [2.392891, 48.822197]}, "properties": {"etat de la localisation": "Hors service", "numparc": 2856, "duree": "", "horodatage": "2022-10-29 08:09:13", "marker-color": "#707070"}}, {"type": "Feature", "geometry": {"type": "Point", "coordinates": [2.383739, 48.829151]}, "properties": {"etat de la localisation": "Delocalise", "numparc": 2856, "duree": "00:00:12", "horodatage": "2022-10-29 08:10:05", "marker-color": "#FF565E"}}, {"type": "Feature", "geometry": {"type": "Point", "coordinates": [2.377045, 48.830448]}, "properties": {"etat de la localisation": "Hors service", "numparc": 2856, "duree": "", "horodatage": "2022-10-29 08:25:08", "marker-color": "#707070"}}, {"type": "Feature", "geometry": {"type": "Point", "coordinates": [2.37707, 48.830448]}, "properties": {"etat de la localisation": "Delocalise", "numparc": 2856, "duree": "00:00:01", "horodatage": "2022-10-29 08:40:43", "marker-color": "#FF565E"}}, {"type": "Feature", "geometry": {"type": "Point", "coordinates": [2.378642, 48.831554]}, "properties": {"etat de la localisation": "Hors service", "numparc": 2856, "duree": "", "horodatage": "2022-10-29 08:55:46", "marker-color": "#707070"}}, {"type": "Feature", "geometry": {"type": "Point", "coordinates": [2.378642, 48.831554]}, "properties": {"etat de la localisation": "Delocalise", "numparc": 2856, "duree": "00:00:06", "horodatage": "2022-10-29 08:56:46", "marker-color": "#FF565E"}}, {"type": "Feature", "geometry": {"type": "Point", "coordinates": [2.389295, 48.824753]}, "properties": {"etat de la localisation": "Hors service", "numparc": 2856, "duree": "", "horodatage": "2022-10-29 09:11:47", "marker-color": "#707070"}}, {"type": "Feature", "geometry": {"type": "Point", "coordinates": [2.377392, 48.830826]}, "properties": {"etat de la localisation": "Hors service", "numparc": 2856, "duree": "", "horodatage": "2022-10-29 09:27:49", "marker-color": "#707070"}}, {"type": "Feature", "geometry": {"type": "Point", "coordinates": [2.384318, 48.828487]}, "properties": {"etat de la localisation": "Delocalise", "numparc": 2856, "duree": "00:00:02", "horodatage": "2022-10-29 09:29:46", "marker-color": "#FF565E"}}, {"type": "Feature", "geometry": {"type": "Point", "coordinates": [2.389207, 48.824776]}, "properties": {"etat de la localisation": "Hors service", "numparc": 2856, "duree": "", "horodatage": "2022-10-29 09:44:50", "marker-color": "#707070"}}, {"type": "Feature", "geometry": {"type": "Point", "coordinates": [2.379416, 48.831917]}, "properties": {"etat de la localisation": "Hors service", "numparc": 2856, "duree": "", "horodatage": "2022-10-29 10:01:00", "marker-color": "#707070"}}, {"type": "Feature", "geometry": {"type": "Point", "coordinates": [2.379416, 48.831917]}, "properties": {"etat de la localisation": "Delocalise", "numparc": 2856, "duree": "00:00:30", "horodatage": "2022-10-29 10:01:39", "marker-color": "#FF565E"}}, {"type": "Feature", "geometry": {"type": "Point", "coordinates": [2.39288, 48.822166]}, "properties": {"etat de la localisation": "Hors service", "numparc": 2856, "duree": "", "horodatage": "2022-10-29 10:16:42", "marker-color": "#707070"}}, {"type": "Feature", "geometry": {"type": "Point", "coordinates": [2.37935, 48.831867]}, "properties": {"etat de la localisation": "Hors service", "numparc": 2856, "duree": "", "horodatage": "2022-10-29 10:32:28", "marker-color": "#707070"}}, {"type": "Feature", "geometry": {"type": "Point", "coordinates": [2.379351, 48.831871]}, "properties": {"etat de la localisation": "Delocalise", "numparc": 2856, "duree": "00:00:08", "horodatage": "2022-10-29 10:34:06", "marker-color": "#FF565E"}}, {"type": "Feature", "geometry": {"type": "Point", "coordinates": [2.389232, 48.824799]}, "properties": {"etat de la localisation": "Hors service", "numparc": 2856, "duree": "", "horodatage": "2022-10-29 10:49:09", "marker-color": "#707070"}}, {"type": "Feature", "geometry": {"type": "Point", "coordinates": [2.377037, 48.830147]}, "properties": {"etat de la localisation": "Mission inconnue", "numparc": 2856, "duree": "", "horodatage": "2022-10-29 10:57:00", "marker-color": "#FF9F56"}}, {"type": "Feature", "geometry": {"type": "Point", "coordinates": [2.37788, 48.829689]}, "properties": {"etat de la localisation": "Hors service", "numparc": 2856, "duree": "", "horodatage": "2022-10-29 11:05:57", "marker-color": "#707070"}}, {"type": "Feature", "geometry": {"type": "Point", "coordinates": [2.37788, 48.829689]}, "properties": {"etat de la localisation": "Delocalise", "numparc": 2856, "duree": "00:09:57", "horodatage": "2022-10-29 11:06:33", "marker-color": "#FF565E"}}, {"type": "Feature", "geometry": {"type": "Point", "coordinates": [2.384291, 48.828537]}, "properties": {"etat de la localisation": "Hors service", "numparc": 2856, "duree": "", "horodatage": "2022-10-29 11:21:36", "marker-color": "#707070"}}, {"type": "Feature", "geometry": {"type": "Point", "coordinates": [2.389201, 48.824806]}, "properties": {"etat de la localisation": "Hors service", "numparc": 2856, "duree": "", "horodatage": "2022-10-29 11:39:22", "marker-color": "#707070"}}, {"type": "Feature", "geometry": {"type": "Point", "coordinates": [2.377028, 48.830025]}, "properties": {"etat de la localisation": "Hors service", "numparc": 2856, "duree": "", "horodatage": "2022-10-29 11:54:47", "marker-color": "#707070"}}, {"type": "Feature", "geometry": {"type": "Point", "coordinates": [2.441822, 48.77298]}, "properties": {"etat de la localisation": "Delocalise", "numparc": 2861, "duree": "00:29:29", "horodatage": "2022-10-29 11:56:26", "marker-color": "#FF565E"}}, {"type": "Feature", "geometry": {"type": "Point", "coordinates": [2.377028, 48.830025]}, "properties": {"etat de la localisation": "Delocalise", "numparc": 2856, "duree": "00:04:16", "horodatage": "2022-10-29 11:56:28", "marker-color": "#FF565E"}}, {"type": "Feature", "geometry": {"type": "Point", "coordinates": [2.39556, 48.820202]}, "properties": {"etat de la localisation": "Hors service", "numparc": 2856, "duree": "", "horodatage": "2022-10-29 12:11:32", "marker-color": "#707070"}}, {"type": "Feature", "geometry": {"type": "Point", "coordinates": [2.377099, 48.830132]}, "properties": {"etat de la localisation": "Hors service", "numparc": 2856, "duree": "", "horodatage": "2022-10-29 12:27:13", "marker-color": "#707070"}}, {"type": "Feature", "geometry": {"type": "Point", "coordinates": [2.377099, 48.830132]}, "properties": {"etat de la localisation": "Delocalise", "numparc": 2856, "duree": "00:06:00", "horodatage": "2022-10-29 12:27:49", "marker-color": "#FF565E"}}, {"type": "Feature", "geometry": {"type": "Point", "coordinates": [2.377829, 48.829609]}, "properties": {"etat de la localisation": "Hors service", "numparc": 2856, "duree": "", "horodatage": "2022-10-29 12:42:52", "marker-color": "#707070"}}, {"type": "Feature", "geometry": {"type": "Point", "coordinates": [2.398397, 48.81847]}, "properties": {"etat de la localisation": "Hors service", "numparc": 2856, "duree": "", "horodatage": "2022-10-29 12:58:48", "marker-color": "#707070"}}, {"type": "Feature", "geometry": {"type": "Point", "coordinates": [2.377026, 48.830147]}, "properties": {"etat de la localisation": "Hors service", "numparc": 2856, "duree": "", "horodatage": "2022-10-29 13:14:26", "marker-color": "#707070"}}, {"type": "Feature", "geometry": {"type": "Point", "coordinates": [2.377026, 48.830147]}, "properties": {"etat de la localisation": "Delocalise", "numparc": 2856, "duree": "00:13:21", "horodatage": "2022-10-29 13:16:00", "marker-color": "#FF565E"}}, {"type": "Feature", "geometry": {"type": "Point", "coordinates": [2.443231, 48.772655]}, "properties": {"etat de la localisation": "Hors service", "numparc": 2865, "duree": "", "horodatage": "2022-10-29 13:24:36", "marker-color": "#707070"}}, {"type": "Feature", "geometry": {"type": "Point", "coordinates": [2.377026, 48.830147]}, "properties": {"etat de la localisation": "Hors service", "numparc": 2856, "duree": "", "horodatage": "2022-10-29 13:29:22", "marker-color": "#707070"}}, {"type": "Feature", "geometry": {"type": "Point", "coordinates": [2.443231, 48.772655]}, "properties": {"etat de la localisation": "Delocalise", "numparc": 2865, "duree": "00:01:51", "horodatage": "2022-10-29 13:34:31", "marker-color": "#FF565E"}}, {"type": "Feature", "geometry": {"type": "Point", "coordinates": [2.398481, 48.818386]}, "properties": {"etat de la localisation": "Hors service", "numparc": 2865, "duree": "", "horodatage": "2022-10-29 13:49:33", "marker-color": "#707070"}}, {"type": "Feature", "geometry": {"type": "Point", "coordinates": [2.377847, 48.829727]}, "properties": {"etat de la localisation": "Hors service", "numparc": 2865, "duree": "", "horodatage": "2022-10-29 14:05:17", "marker-color": "#707070"}}, {"type": "Feature", "geometry": {"type": "Point", "coordinates": [2.377852, 48.829632]}, "properties": {"etat de la localisation": "Delocalise", "numparc": 2865, "duree": "00:02:30", "horodatage": "2022-10-29 14:10:37", "marker-color": "#FF565E"}}, {"type": "Feature", "geometry": {"type": "Point", "coordinates": [2.395584, 48.820179]}, "properties": {"etat de la localisation": "Hors service", "numparc": 2865, "duree": "", "horodatage": "2022-10-29 14:25:38", "marker-color": "#707070"}}, {"type": "Feature", "geometry": {"type": "Point", "coordinates": [2.398441, 48.818447]}, "properties": {"etat de la localisation": "Mission inconnue", "numparc": 2865, "duree": "", "horodatage": "2022-10-29 14:28:04", "marker-color": "#FF9F56"}}, {"type": "Feature", "geometry": {"type": "Point", "coordinates": [2.377094, 48.830147]}, "properties": {"etat de la localisation": "Hors service", "numparc": 2865, "duree": "", "horodatage": "2022-10-29 14:43:09", "marker-color": "#707070"}}, {"type": "Feature", "geometry": {"type": "Point", "coordinates": [2.377094, 48.830147]}, "properties": {"etat de la localisation": "Delocalise", "numparc": 2865, "duree": "00:02:06", "horodatage": "2022-10-29 14:46:35", "marker-color": "#FF565E"}}, {"type": "Feature", "geometry": {"type": "Point", "coordinates": [2.398382, 48.818504]}, "properties": {"etat de la localisation": "Hors service", "numparc": 2865, "duree": "", "horodatage": "2022-10-29 15:01:37", "marker-color": "#707070"}}, {"type": "Feature", "geometry": {"type": "Point", "coordinates": [2.377037, 48.830097]}, "properties": {"etat de la localisation": "Hors service", "numparc": 2865, "duree": "", "horodatage": "2022-10-29 15:17:01", "marker-color": "#707070"}}, {"type": "Feature", "geometry": {"type": "Point", "coordinates": [2.377045, 48.83009]}, "properties": {"etat de la localisation": "Delocalise", "numparc": 2865, "duree": "00:01:11", "horodatage": "2022-10-29 15:17:32", "marker-color": "#FF565E"}}, {"type": "Feature", "geometry": {"type": "Point", "coordinates": [2.377814, 48.82959]}, "properties": {"etat de la localisation": "Hors service", "numparc": 2865, "duree": "", "horodatage": "2022-10-29 15:32:34", "marker-color": "#707070"}}, {"type": "Feature", "geometry": {"type": "Point", "coordinates": [2.377814, 48.82959]}, "properties": {"etat de la localisation": "Delocalise", "numparc": 2865, "duree": "00:04:34", "horodatage": "2022-10-29 15:36:07", "marker-color": "#FF565E"}}, {"type": "Feature", "geometry": {"type": "Point", "coordinates": [2.389205, 48.82473]}, "properties": {"etat de la localisation": "Hors service", "numparc": 2865, "duree": "", "horodatage": "2022-10-29 15:51:10", "marker-color": "#707070"}}, {"type": "Feature", "geometry": {"type": "Point", "coordinates": [2.37919, 48.831909]}, "properties": {"etat de la localisation": "Hors service", "numparc": 2865, "duree": "", "horodatage": "2022-10-29 16:11:28", "marker-color": "#707070"}}, {"type": "Feature", "geometry": {"type": "Point", "coordinates": [2.377758, 48.830502]}, "properties": {"etat de la localisation": "Delocalise", "numparc": 2865, "duree": "00:01:31", "horodatage": "2022-10-29 16:12:36", "marker-color": "#FF565E"}}, {"type": "Feature", "geometry": {"type": "Point", "coordinates": [2.377758, 48.830502]}, "properties": {"etat de la localisation": "Delocalise", "numparc": 2865, "duree": "00:00:00", "horodatage": "2022-10-29 16:14:28", "marker-color": "#FF565E"}}, {"type": "Feature", "geometry": {"type": "Point", "coordinates": [2.377737, 48.829601]}, "properties": {"etat de la localisation": "Hors service", "numparc": 2865, "duree": "", "horodatage": "2022-10-29 16:27:39", "marker-color": "#707070"}}, {"type": "Feature", "geometry": {"type": "Point", "coordinates": [2.398479, 48.818405]}, "properties": {"etat de la localisation": "Delocalise", "numparc": 2865, "duree": "00:00:12", "horodatage": "2022-10-29 16:45:10", "marker-color": "#FF565E"}}, {"type": "Feature", "geometry": {"type": "Point", "coordinates": [2.377781, 48.829628]}, "properties": {"etat de la localisation": "Hors service", "numparc": 2861, "duree": "", "horodatage": "2022-10-29 16:53:18", "marker-color": "#707070"}}, {"type": "Feature", "geometry": {"type": "Point", "coordinates": [2.379202, 48.831837]}, "properties": {"etat de la localisation": "Hors service", "numparc": 2865, "duree": "", "horodatage": "2022-10-29 17:00:12", "marker-color": "#707070"}}, {"type": "Feature", "geometry": {"type": "Point", "coordinates": [2.377066, 48.830074]}, "properties": {"etat de la localisation": "Delocalise", "numparc": 2865, "duree": "00:15:03", "horodatage": "2022-10-29 17:02:02", "marker-color": "#FF565E"}}, {"type": "Feature", "geometry": {"type": "Point", "coordinates": [2.442694, 48.772591]}, "properties": {"etat de la localisation": "Hors service", "numparc": 2856, "duree": "", "horodatage": "2022-10-29 17:07:00", "marker-color": "#707070"}}, {"type": "Feature", "geometry": {"type": "Point", "coordinates": [2.442694, 48.772591]}, "properties": {"etat de la localisation": "Delocalise", "numparc": 2856, "duree": "00:08:46", "horodatage": "2022-10-29 17:08:19", "marker-color": "#FF565E"}}, {"type": "Feature", "geometry": {"type": "Point", "coordinates": [2.377847, 48.829681]}, "properties": {"etat de la localisation": "Hors service", "numparc": 2865, "duree": "", "horodatage": "2022-10-29 17:17:05", "marker-color": "#707070"}}, {"type": "Feature", "geometry": {"type": "Point", "coordinates": [2.377847, 48.829681]}, "properties": {"etat de la localisation": "Delocalise", "numparc": 2865, "duree": "00:11:49", "horodatage": "2022-10-29 17:19:56", "marker-color": "#FF565E"}}, {"type": "Feature", "geometry": {"type": "Point", "coordinates": [2.379376, 48.831894]}, "properties": {"etat de la localisation": "Hors service", "numparc": 2856, "duree": "", "horodatage": "2022-10-29 17:23:21", "marker-color": "#707070"}}, {"type": "Feature", "geometry": {"type": "Point", "coordinates": [2.377526, 48.830933]}, "properties": {"etat de la localisation": "Hors service", "numparc": 2865, "duree": "", "horodatage": "2022-10-29 17:34:59", "marker-color": "#707070"}}, {"type": "Feature", "geometry": {"type": "Point", "coordinates": [2.395572, 48.820179]}, "properties": {"etat de la localisation": "Hors service", "numparc": 2856, "duree": "", "horodatage": "2022-10-29 17:38:46", "marker-color": "#707070"}}, {"type": "Feature", "geometry": {"type": "Point", "coordinates": [2.398378, 48.818485]}, "properties": {"etat de la localisation": "Delocalise", "numparc": 2865, "duree": "00:02:06", "horodatage": "2022-10-29 17:49:15", "marker-color": "#FF565E"}}, {"type": "Feature", "geometry": {"type": "Point", "coordinates": [2.389519, 48.824581]}, "properties": {"etat de la localisation": "Mission suivante non connue", "numparc": 2867, "duree": "", "horodatage": "2022-10-29 17:51:16", "marker-color": "#7156FF"}}, {"type": "Feature", "geometry": {"type": "Point", "coordinates": [2.378007, 48.829632]}, "properties": {"etat de la localisation": "Hors service", "numparc": 2856, "duree": "", "horodatage": "2022-10-29 17:54:22", "marker-color": "#707070"}}, {"type": "Feature", "geometry": {"type": "Point", "coordinates": [2.377075, 48.829998]}, "properties": {"etat de la localisation": "Mission suivante non connue", "numparc": 2867, "duree": "", "horodatage": "2022-10-29 17:56:08", "marker-color": "#7156FF"}}, {"type": "Feature", "geometry": {"type": "Point", "coordinates": [2.377992, 48.829639]}, "properties": {"etat de la localisation": "Delocalise", "numparc": 2856, "duree": "00:09:46", "horodatage": "2022-10-29 17:57:15", "marker-color": "#FF565E"}}, {"type": "Feature", "geometry": {"type": "Point", "coordinates": [2.379156, 48.831913]}, "properties": {"etat de la localisation": "Hors service", "numparc": 2865, "duree": "", "horodatage": "2022-10-29 18:04:18", "marker-color": "#707070"}}, {"type": "Feature", "geometry": {"type": "Point", "coordinates": [2.376946, 48.830276]}, "properties": {"etat de la localisation": "Delocalise", "numparc": 2865, "duree": "00:12:13", "horodatage": "2022-10-29 18:06:15", "marker-color": "#FF565E"}}, {"type": "Feature", "geometry": {"type": "Point", "coordinates": [2.379369, 48.831928]}, "properties": {"etat de la localisation": "Hors service", "numparc": 2856, "duree": "", "horodatage": "2022-10-29 18:12:17", "marker-color": "#707070"}}, {"type": "Feature", "geometry": {"type": "Point", "coordinates": [2.379369, 48.831928]}, "properties": {"etat de la localisation": "Delocalise", "numparc": 2856, "duree": "00:02:11", "horodatage": "2022-10-29 18:12:54", "marker-color": "#FF565E"}}, {"type": "Feature", "geometry": {"type": "Point", "coordinates": [2.393773, 48.821579]}, "properties": {"etat de la localisation": "Delocalise", "numparc": 2867, "duree": "00:00:51", "horodatage": "2022-10-29 18:19:50", "marker-color": "#FF565E"}}, {"type": "Feature", "geometry": {"type": "Point", "coordinates": [2.37739, 48.830898]}, "properties": {"etat de la localisation": "Hors service", "numparc": 2865, "duree": "", "horodatage": "2022-10-29 18:21:18", "marker-color": "#707070"}}, {"type": "Feature", "geometry": {"type": "Point", "coordinates": [2.389268, 48.824814]}, "properties": {"etat de la localisation": "Hors service", "numparc": 2856, "duree": "", "horodatage": "2022-10-29 18:27:56", "marker-color": "#707070"}}, {"type": "Feature", "geometry": {"type": "Point", "coordinates": [2.389268, 48.824814]}, "properties": {"etat de la localisation": "Delocalise", "numparc": 2856, "duree": "00:15:01", "horodatage": "2022-10-29 18:31:51", "marker-color": "#FF565E"}}, {"type": "Feature", "geometry": {"type": "Point", "coordinates": [2.378065, 48.829521]}, "properties": {"etat de la localisation": "Hors service", "numparc": 2856, "duree": "", "horodatage": "2022-10-29 18:46:52", "marker-color": "#707070"}}, {"type": "Feature", "geometry": {"type": "Point", "coordinates": [2.378065, 48.829521]}, "properties": {"etat de la localisation": "Delocalise", "numparc": 2856, "duree": "00:00:45", "horodatage": "2022-10-29 18:47:40", "marker-color": "#FF565E"}}, {"type": "Feature", "geometry": {"type": "Point", "coordinates": [2.376978, 48.830112]}, "properties": {"etat de la localisation": "Hors service", "numparc": 2865, "duree": "", "horodatage": "2022-10-29 18:48:22", "marker-color": "#707070"}}, {"type": "Feature", "geometry": {"type": "Point", "coordinates": [2.376978, 48.830112]}, "properties": {"etat de la localisation": "Delocalise", "numparc": 2865, "duree": "00:12:41", "horodatage": "2022-10-29 18:49:00", "marker-color": "#FF565E"}}, {"type": "Feature", "geometry": {"type": "Point", "coordinates": [2.392187, 48.822613]}, "properties": {"etat de la localisation": "Hors service", "numparc": 2856, "duree": "", "horodatage": "2022-10-29 19:02:42", "marker-color": "#707070"}}, {"type": "Feature", "geometry": {"type": "Point", "coordinates": [2.379234, 48.831947]}, "properties": {"etat de la localisation": "Hors service", "numparc": 2865, "duree": "", "horodatage": "2022-10-29 19:04:02", "marker-color": "#707070"}}, {"type": "Feature", "geometry": {"type": "Point", "coordinates": [2.441701, 48.772408]}, "properties": {"etat de la localisation": "Hors service", "numparc": 2861, "duree": "", "horodatage": "2022-10-29 19:11:08", "marker-color": "#707070"}}, {"type": "Feature", "geometry": {"type": "Point", "coordinates": [2.379218, 48.831852]}, "properties": {"etat de la localisation": "Hors service", "numparc": 2856, "duree": "", "horodatage": "2022-10-29 19:18:17", "marker-color": "#707070"}}, {"type": "Feature", "geometry": {"type": "Point", "coordinates": [2.377109, 48.830189]}, "properties": {"etat de la localisation": "Delocalise", "numparc": 2856, "duree": "00:05:15", "horodatage": "2022-10-29 19:21:34", "marker-color": "#FF565E"}}, {"type": "Feature", "geometry": {"type": "Point", "coordinates": [2.377066, 48.830109]}, "properties": {"etat de la localisation": "Hors service", "numparc": 2865, "duree": "", "horodatage": "2022-10-29 19:29:45", "marker-color": "#707070"}}, {"type": "Feature", "geometry": {"type": "Point", "coordinates": [2.377067, 48.830109]}, "properties": {"etat de la localisation": "Delocalise", "numparc": 2865, "duree": "00:08:31", "horodatage": "2022-10-29 19:31:23", "marker-color": "#FF565E"}}, {"type": "Feature", "geometry": {"type": "Point", "coordinates": [2.389111, 48.824806]}, "properties": {"etat de la localisation": "Hors service", "numparc": 2856, "duree": "", "horodatage": "2022-10-29 19:36:36", "marker-color": "#707070"}}, {"type": "Feature", "geometry": {"type": "Point", "coordinates": [2.392109, 48.822662]}, "properties": {"etat de la localisation": "Delocalise", "numparc": 2856, "duree": "00:00:44", "horodatage": "2022-10-29 19:38:23", "marker-color": "#FF565E"}}, {"type": "Feature", "geometry": {"type": "Point", "coordinates": [2.382053, 48.830376]}, "properties": {"etat de la localisation": "Hors service", "numparc": 2865, "duree": "", "horodatage": "2022-10-29 19:46:24", "marker-color": "#707070"}}, {"type": "Feature", "geometry": {"type": "Point", "coordinates": [2.383839, 48.829109]}, "properties": {"etat de la localisation": "Hors service", "numparc": 2856, "duree": "", "horodatage": "2022-10-29 19:53:26", "marker-color": "#707070"}}, {"type": "Feature", "geometry": {"type": "Point", "coordinates": [2.383839, 48.829109]}, "properties": {"etat de la localisation": "Delocalise", "numparc": 2856, "duree": "00:00:43", "horodatage": "2022-10-29 19:53:46", "marker-color": "#FF565E"}}, {"type": "Feature", "geometry": {"type": "Point", "coordinates": [2.39841, 48.818451]}, "properties": {"etat de la localisation": "Delocalise", "numparc": 2865, "duree": "00:00:05", "horodatage": "2022-10-29 19:56:13", "marker-color": "#FF565E"}}, {"type": "Feature", "geometry": {"type": "Point", "coordinates": [2.377427, 48.830803]}, "properties": {"etat de la localisation": "Hors service", "numparc": 2856, "duree": "", "horodatage": "2022-10-29 20:08:48", "marker-color": "#707070"}}, {"type": "Feature", "geometry": {"type": "Point", "coordinates": [2.377427, 48.830803]}, "properties": {"etat de la localisation": "Delocalise", "numparc": 2856, "duree": "00:00:09", "horodatage": "2022-10-29 20:09:35", "marker-color": "#FF565E"}}, {"type": "Feature", "geometry": {"type": "Point", "coordinates": [2.378206, 48.828819]}, "properties": {"etat de la localisation": "Hors service", "numparc": 2865, "duree": "", "horodatage": "2022-10-29 20:11:16", "marker-color": "#707070"}}, {"type": "Feature", "geometry": {"type": "Point", "coordinates": [2.389272, 48.82473]}, "properties": {"etat de la localisation": "Hors service", "numparc": 2856, "duree": "", "horodatage": "2022-10-29 20:24:36", "marker-color": "#707070"}}, {"type": "Feature", "geometry": {"type": "Point", "coordinates": [2.389272, 48.82473]}, "properties": {"etat de la localisation": "Delocalise", "numparc": 2856, "duree": "00:00:12", "horodatage": "2022-10-29 20:25:24", "marker-color": "#FF565E"}}, {"type": "Feature", "geometry": {"type": "Point", "coordinates": [2.379159, 48.832047]}, "properties": {"etat de la localisation": "Hors service", "numparc": 2856, "duree": "", "horodatage": "2022-10-29 20:40:26", "marker-color": "#707070"}}, {"type": "Feature", "geometry": {"type": "Point", "coordinates": [2.382013, 48.830437]}, "properties": {"etat de la localisation": "Delocalise", "numparc": 2856, "duree": "00:00:22", "horodatage": "2022-10-29 20:41:50", "marker-color": "#FF565E"}}, {"type": "Feature", "geometry": {"type": "Point", "coordinates": [2.389284, 48.824787]}, "properties": {"etat de la localisation": "Hors service", "numparc": 2856, "duree": "", "horodatage": "2022-10-29 20:56:52", "marker-color": "#707070"}}, {"type": "Feature", "geometry": {"type": "Point", "coordinates": [2.389284, 48.824787]}, "properties": {"etat de la localisation": "Delocalise", "numparc": 2856, "duree": "00:00:02", "horodatage": "2022-10-29 20:57:40", "marker-color": "#FF565E"}}, {"type": "Feature", "geometry": {"type": "Point", "coordinates": [2.3843, 48.828602]}, "properties": {"etat de la localisation": "Hors service", "numparc": 2856, "duree": "", "horodatage": "2022-10-29 21:12:42", "marker-color": "#707070"}}, {"type": "Feature", "geometry": {"type": "Point", "coordinates": [2.377043, 48.830101]}, "properties": {"etat de la localisation": "Hors service", "numparc": 2856, "duree": "", "horodatage": "2022-10-29 21:29:03", "marker-color": "#707070"}}, {"type": "Feature", "geometry": {"type": "Point", "coordinates": [2.377043, 48.830101]}, "properties": {"etat de la localisation": "Delocalise", "numparc": 2856, "duree": "00:06:19", "horodatage": "2022-10-29 21:34:17", "marker-color": "#FF565E"}}, {"type": "Feature", "geometry": {"type": "Point", "coordinates": [2.395576, 48.820187]}, "properties": {"etat de la localisation": "Hors service", "numparc": 2856, "duree": "", "horodatage": "2022-10-29 21:49:19", "marker-color": "#707070"}}, {"type": "Feature", "geometry": {"type": "Point", "coordinates": [2.398404, 48.818447]}, "properties": {"etat de la localisation": "Delocalise", "numparc": 2856, "duree": "00:00:29", "horodatage": "2022-10-29 21:53:03", "marker-color": "#FF565E"}}, {"type": "Feature", "geometry": {"type": "Point", "coordinates": [2.377043, 48.830116]}, "properties": {"etat de la localisation": "Hors service", "numparc": 2856, "duree": "", "horodatage": "2022-10-29 22:08:06", "marker-color": "#707070"}}, {"type": "Feature", "geometry": {"type": "Point", "coordinates": [2.377043, 48.830116]}, "properties": {"etat de la localisation": "Delocalise", "numparc": 2856, "duree": "00:06:05", "horodatage": "2022-10-29 22:08:33", "marker-color": "#FF565E"}}, {"type": "Feature", "geometry": {"type": "Point", "coordinates": [2.392171, 48.822636]}, "properties": {"etat de la localisation": "Hors service", "numparc": 2856, "duree": "", "horodatage": "2022-10-29 22:23:35", "marker-color": "#707070"}}, {"type": "Feature", "geometry": {"type": "Point", "coordinates": [2.395518, 48.820232]}, "properties": {"etat de la localisation": "Delocalise", "numparc": 2856, "duree": "00:00:26", "horodatage": "2022-10-29 22:25:42", "marker-color": "#FF565E"}}, {"type": "Feature", "geometry": {"type": "Point", "coordinates": [2.377026, 48.83009]}, "properties": {"etat de la localisation": "Hors service", "numparc": 2856, "duree": "", "horodatage": "2022-10-29 22:40:43", "marker-color": "#707070"}}, {"type": "Feature", "geometry": {"type": "Point", "coordinates": [2.377026, 48.83009]}, "properties": {"etat de la localisation": "Delocalise", "numparc": 2856, "duree": "00:11:01", "horodatage": "2022-10-29 22:41:16", "marker-color": "#FF565E"}}, {"type": "Feature", "geometry": {"type": "Point", "coordinates": [2.377026, 48.83009]}, "properties": {"etat de la localisation": "Hors service", "numparc": 2856, "duree": "", "horodatage": "2022-10-29 22:52:17", "marker-color": "#707070"}}, {"type": "Feature", "geometry": {"type": "Point", "coordinates": [2.441709, 48.772423]}, "properties": {"etat de la localisation": "Hors service", "numparc": 2867, "duree": "", "horodatage": "2022-10-29 22:54:53", "marker-color": "#707070"}}]}