{"type": "FeatureCollection", "features": [{"type": "Feature", "geometry": {"type": "Point", "coordinates": [2.348639, 48.896816]}, "properties": {"numparc": 4410, "etat de la localisation": "autre", "ID BDGEO": "450", "horodatage": "2022-04-26 05:52:35", "distance (en metres)": 65.73, "station": "SORTIE DEPOT", "marker-color": "#818181"}}, {"type": "Feature", "geometry": {"type": "Point", "coordinates": [2.348639, 48.896816]}, "properties": {"numparc": 4410, "etat de la localisation": "autre", "ID BDGEO": "450", "horodatage": "2022-04-26 05:53:07", "distance (en metres)": 65.73, "station": "SORTIE DEPOT", "marker-color": "#818181"}}, {"type": "Feature", "geometry": {"type": "Point", "coordinates": [2.348639, 48.896816]}, "properties": {"numparc": 4410, "etat de la localisation": "autre", "ID BDGEO": "450", "horodatage": "2022-04-26 05:53:30", "distance (en metres)": 65.73, "station": "SORTIE DEPOT", "marker-color": "#818181"}}, {"type": "Feature", "geometry": {"type": "Point", "coordinates": [2.348243, 48.896389]}, "properties": {"numparc": 4391, "etat de la localisation": "autre", "ID BDGEO": "450", "horodatage": "2022-04-26 06:54:57", "distance (en metres)": 103.77, "station": "SORTIE DEPOT", "marker-color": "#818181"}}, {"type": "Feature", "geometry": {"type": "Point", "coordinates": [2.314724, 48.872375]}, "properties": {"numparc": 4410, "etat de la localisation": "Delocalise", "ID BDGEO": "91", "horodatage": "2022-04-26 06:58:13", "distance (en metres)": 89.75, "station": "MATIGNON-SAINT HONORE", "marker-color": "#FF565E"}}, {"type": "Feature", "geometry": {"type": "Point", "coordinates": [2.344578, 48.892887]}, "properties": {"numparc": 4410, "etat de la localisation": "Delocalise", "ID BDGEO": "4", "horodatage": "2022-04-26 07:15:21", "distance (en metres)": 48.65, "station": "MAIRIE DU 18E-J. JOFFRIN", "marker-color": "#FF565E"}}, {"type": "Feature", "geometry": {"type": "Point", "coordinates": [2.324073, 48.875912]}, "properties": {"numparc": 4391, "etat de la localisation": "autre", "ID BDGEO": "119", "horodatage": "2022-04-26 07:33:58", "distance (en metres)": 61.6, "station": "GARE SAINT-LAZARE-ROME", "marker-color": "#818181"}}, {"type": "Feature", "geometry": {"type": "Point", "coordinates": [2.323812, 48.875862]}, "properties": {"numparc": 4410, "etat de la localisation": "autre", "ID BDGEO": "119", "horodatage": "2022-04-26 07:44:43", "distance (en metres)": 56.62, "station": "GARE SAINT-LAZARE-ROME", "marker-color": "#818181"}}, {"type": "Feature", "geometry": {"type": "Point", "coordinates": [2.314571, 48.872391]}, "properties": {"numparc": 4391, "etat de la localisation": "autre", "ID BDGEO": "91", "horodatage": "2022-04-26 08:57:29", "distance (en metres)": 86.97, "station": "MATIGNON-SAINT HONORE", "marker-color": "#818181"}}, {"type": "Feature", "geometry": {"type": "Point", "coordinates": [2.314713, 48.872417]}, "properties": {"numparc": 4410, "etat de la localisation": "Delocalise", "ID BDGEO": "91", "horodatage": "2022-04-26 09:16:57", "distance (en metres)": 85.02, "station": "MATIGNON-SAINT HONORE", "marker-color": "#FF565E"}}, {"type": "Feature", "geometry": {"type": "Point", "coordinates": [2.314388, 48.874794]}, "properties": {"numparc": 4410, "etat de la localisation": "autre", "ID BDGEO": "92", "horodatage": "2022-04-26 09:18:51", "distance (en metres)": 40.41, "station": "HAUSSMANN-MIROMESNIL", "marker-color": "#818181"}}, {"type": "Feature", "geometry": {"type": "Point", "coordinates": [2.348659, 48.896656]}, "properties": {"numparc": 4391, "etat de la localisation": "autre", "ID BDGEO": "450", "horodatage": "2022-04-26 09:29:36", "distance (en metres)": 65.44, "station": "SORTIE DEPOT", "marker-color": "#818181"}}, {"type": "Feature", "geometry": {"type": "Point", "coordinates": [2.326951, 48.883331]}, "properties": {"numparc": 4410, "etat de la localisation": "autre", "ID BDGEO": "97", "horodatage": "2022-04-26 09:31:39", "distance (en metres)": 56.09, "station": "PLACE DE CLICHY", "marker-color": "#818181"}}, {"type": "Feature", "geometry": {"type": "Point", "coordinates": [2.344635, 48.892906]}, "properties": {"numparc": 4410, "etat de la localisation": "autre", "ID BDGEO": "4", "horodatage": "2022-04-26 09:44:50", "distance (en metres)": 44.37, "station": "MAIRIE DU 18E-J. JOFFRIN", "marker-color": "#818181"}}, {"type": "Feature", "geometry": {"type": "Point", "coordinates": [2.323779, 48.875961]}, "properties": {"numparc": 4410, "etat de la localisation": "autre", "ID BDGEO": "119", "horodatage": "2022-04-26 10:24:41", "distance (en metres)": 45.49, "station": "GARE SAINT-LAZARE-ROME", "marker-color": "#818181"}}, {"type": "Feature", "geometry": {"type": "Point", "coordinates": [2.323939, 48.874557]}, "properties": {"numparc": 4410, "etat de la localisation": "Delocalise", "ID BDGEO": "129", "horodatage": "2022-04-26 10:26:16", "distance (en metres)": 68.44, "station": "PASQUIER-ANJOU", "marker-color": "#FF565E"}}, {"type": "Feature", "geometry": {"type": "Point", "coordinates": [2.302587, 48.86422]}, "properties": {"numparc": 4410, "etat de la localisation": "autre", "ID BDGEO": "72", "horodatage": "2022-04-26 11:44:29", "distance (en metres)": 94.78, "station": "ALMA-MARCEAU", "marker-color": "#818181"}}, {"type": "Feature", "geometry": {"type": "Point", "coordinates": [2.31019, 48.868103]}, "properties": {"numparc": 4410, "etat de la localisation": "Delocalise", "ID BDGEO": "40", "horodatage": "2022-04-26 11:48:21", "distance (en metres)": 104.87, "station": "RPT CHAMPS ELYSEES", "marker-color": "#FF565E"}}, {"type": "Feature", "geometry": {"type": "Point", "coordinates": [2.314716, 48.872402]}, "properties": {"numparc": 4410, "etat de la localisation": "autre", "ID BDGEO": "91", "horodatage": "2022-04-26 11:51:16", "distance (en metres)": 86.72, "station": "MATIGNON-SAINT HONORE", "marker-color": "#818181"}}, {"type": "Feature", "geometry": {"type": "Point", "coordinates": [2.344557, 48.892891]}, "properties": {"numparc": 4410, "etat de la localisation": "autre", "ID BDGEO": "4", "horodatage": "2022-04-26 12:17:36", "distance (en metres)": 50.15, "station": "MAIRIE DU 18E-J. JOFFRIN", "marker-color": "#818181"}}, {"type": "Feature", "geometry": {"type": "Point", "coordinates": [2.323732, 48.875866]}, "properties": {"numparc": 4410, "etat de la localisation": "autre", "ID BDGEO": "119", "horodatage": "2022-04-26 12:58:08", "distance (en metres)": 54.38, "station": "GARE SAINT-LAZARE-ROME", "marker-color": "#818181"}}, {"type": "Feature", "geometry": {"type": "Point", "coordinates": [2.323875, 48.874592]}, "properties": {"numparc": 4410, "etat de la localisation": "Delocalise", "ID BDGEO": "129", "horodatage": "2022-04-26 12:59:51", "distance (en metres)": 65.93, "station": "PASQUIER-ANJOU", "marker-color": "#FF565E"}}, {"type": "Feature", "geometry": {"type": "Point", "coordinates": [2.288353, 48.834621]}, "properties": {"numparc": 4410, "etat de la localisation": "Delocalise", "ID BDGEO": "166", "horodatage": "2022-04-26 13:41:31", "distance (en metres)": 92.28, "station": "HAMEAU", "marker-color": "#FF565E"}}, {"type": "Feature", "geometry": {"type": "Point", "coordinates": [2.314679, 48.872417]}, "properties": {"numparc": 4410, "etat de la localisation": "Delocalise", "ID BDGEO": "91", "horodatage": "2022-04-26 14:24:52", "distance (en metres)": 84.66, "station": "MATIGNON-SAINT HONORE", "marker-color": "#FF565E"}}, {"type": "Feature", "geometry": {"type": "Point", "coordinates": [2.344515, 48.892857]}, "properties": {"numparc": 4410, "etat de la localisation": "autre", "ID BDGEO": "4", "horodatage": "2022-04-26 14:50:46", "distance (en metres)": 53.57, "station": "MAIRIE DU 18E-J. JOFFRIN", "marker-color": "#818181"}}, {"type": "Feature", "geometry": {"type": "Point", "coordinates": [2.345375, 48.893574]}, "properties": {"numparc": 4410, "etat de la localisation": "autre", "ID BDGEO": "4", "horodatage": "2022-04-26 14:52:28", "distance (en metres)": 73.43, "station": "MAIRIE DU 18E-J. JOFFRIN", "marker-color": "#818181"}}, {"type": "Feature", "geometry": {"type": "Point", "coordinates": [2.32386, 48.874588]}, "properties": {"numparc": 4410, "etat de la localisation": "autre", "ID BDGEO": "129", "horodatage": "2022-04-26 15:35:46", "distance (en metres)": 64.76, "station": "PASQUIER-ANJOU", "marker-color": "#818181"}}, {"type": "Feature", "geometry": {"type": "Point", "coordinates": [2.34865, 48.896633]}, "properties": {"numparc": 4391, "etat de la localisation": "autre", "ID BDGEO": "450", "horodatage": "2022-04-26 15:57:37", "distance (en metres)": 66.64, "station": "SORTIE DEPOT", "marker-color": "#818181"}}, {"type": "Feature", "geometry": {"type": "Point", "coordinates": [2.348671, 48.896641]}, "properties": {"numparc": 4391, "etat de la localisation": "Delocalise", "ID BDGEO": "5", "horodatage": "2022-04-26 16:00:50", "distance (en metres)": 514.58, "station": "MAIRIE DU 18E-J. JOFFRIN.", "marker-color": "#FF565E"}}, {"type": "Feature", "geometry": {"type": "Point", "coordinates": [2.344558, 48.892879]}, "properties": {"numparc": 4410, "etat de la localisation": "autre", "ID BDGEO": "4", "horodatage": "2022-04-26 17:18:55", "distance (en metres)": 50.18, "station": "MAIRIE DU 18E-J. JOFFRIN", "marker-color": "#818181"}}, {"type": "Feature", "geometry": {"type": "Point", "coordinates": [2.345269, 48.893688]}, "properties": {"numparc": 4410, "etat de la localisation": "autre", "ID BDGEO": "4", "horodatage": "2022-04-26 17:21:08", "distance (en metres)": 85.53, "station": "MAIRIE DU 18E-J. JOFFRIN", "marker-color": "#818181"}}, {"type": "Feature", "geometry": {"type": "Point", "coordinates": [2.314587, 48.872368]}, "properties": {"numparc": 4391, "etat de la localisation": "autre", "ID BDGEO": "91", "horodatage": "2022-04-26 17:21:28", "distance (en metres)": 89.56, "station": "MATIGNON-SAINT HONORE", "marker-color": "#818181"}}, {"type": "Feature", "geometry": {"type": "Point", "coordinates": [2.345508, 48.893635]}, "properties": {"numparc": 4410, "etat de la localisation": "autre", "ID BDGEO": "4", "horodatage": "2022-04-26 17:22:49", "distance (en metres)": 81.91, "station": "MAIRIE DU 18E-J. JOFFRIN", "marker-color": "#818181"}}, {"type": "Feature", "geometry": {"type": "Point", "coordinates": [2.344711, 48.893047]}, "properties": {"numparc": 4391, "etat de la localisation": "autre", "ID BDGEO": "4", "horodatage": "2022-04-26 17:45:21", "distance (en metres)": 41.32, "station": "MAIRIE DU 18E-J. JOFFRIN", "marker-color": "#818181"}}, {"type": "Feature", "geometry": {"type": "Point", "coordinates": [2.345443, 48.893497]}, "properties": {"numparc": 4391, "etat de la localisation": "autre", "ID BDGEO": "4", "horodatage": "2022-04-26 17:49:46", "distance (en metres)": 65.96, "station": "MAIRIE DU 18E-J. JOFFRIN", "marker-color": "#818181"}}, {"type": "Feature", "geometry": {"type": "Point", "coordinates": [2.34567, 48.893272]}, "properties": {"numparc": 4391, "etat de la localisation": "autre", "ID BDGEO": "4", "horodatage": "2022-04-26 17:52:10", "distance (en metres)": 50.22, "station": "MAIRIE DU 18E-J. JOFFRIN", "marker-color": "#818181"}}, {"type": "Feature", "geometry": {"type": "Point", "coordinates": [2.323802, 48.875919]}, "properties": {"numparc": 4410, "etat de la localisation": "autre", "ID BDGEO": "119", "horodatage": "2022-04-26 18:07:04", "distance (en metres)": 50.44, "station": "GARE SAINT-LAZARE-ROME", "marker-color": "#818181"}}, {"type": "Feature", "geometry": {"type": "Point", "coordinates": [2.323961, 48.874588]}, "properties": {"numparc": 4410, "etat de la localisation": "autre", "ID BDGEO": "129", "horodatage": "2022-04-26 18:07:54", "distance (en metres)": 71.32, "station": "PASQUIER-ANJOU", "marker-color": "#818181"}}, {"type": "Feature", "geometry": {"type": "Point", "coordinates": [2.320749, 48.874622]}, "properties": {"numparc": 4410, "etat de la localisation": "autre", "ID BDGEO": "130", "horodatage": "2022-04-26 18:10:50", "distance (en metres)": 54.22, "station": "SAINT AUGUSTIN", "marker-color": "#818181"}}, {"type": "Feature", "geometry": {"type": "Point", "coordinates": [2.323899, 48.875927]}, "properties": {"numparc": 4391, "etat de la localisation": "autre", "ID BDGEO": "119", "horodatage": "2022-04-26 18:29:49", "distance (en metres)": 52.86, "station": "GARE SAINT-LAZARE-ROME", "marker-color": "#818181"}}, {"type": "Feature", "geometry": {"type": "Point", "coordinates": [2.323945, 48.874519]}, "properties": {"numparc": 4391, "etat de la localisation": "autre", "ID BDGEO": "129", "horodatage": "2022-04-26 18:31:21", "distance (en metres)": 67.22, "station": "PASQUIER-ANJOU", "marker-color": "#818181"}}, {"type": "Feature", "geometry": {"type": "Point", "coordinates": [2.286514, 48.833111]}, "properties": {"numparc": 4391, "etat de la localisation": "autre", "ID BDGEO": "9", "horodatage": "2022-04-26 19:09:22", "distance (en metres)": 40.64, "station": "PORTE DE VERSAILLES", "marker-color": "#818181"}}, {"type": "Feature", "geometry": {"type": "Point", "coordinates": [2.299614, 48.840393]}, "properties": {"numparc": 4391, "etat de la localisation": "autre", "ID BDGEO": "34", "horodatage": "2022-04-26 19:27:36", "distance (en metres)": 101.83, "station": "VAUGIRARD", "marker-color": "#818181"}}, {"type": "Feature", "geometry": {"type": "Point", "coordinates": [2.314684, 48.872349]}, "properties": {"numparc": 4391, "etat de la localisation": "autre", "ID BDGEO": "91", "horodatage": "2022-04-26 19:54:01", "distance (en metres)": 92.28, "station": "MATIGNON-SAINT HONORE", "marker-color": "#818181"}}, {"type": "Feature", "geometry": {"type": "Point", "coordinates": [2.348624, 48.897266]}, "properties": {"numparc": 4410, "etat de la localisation": "autre", "ID BDGEO": "5", "horodatage": "2022-04-26 20:02:59", "distance (en metres)": 570.32, "station": "MAIRIE DU 18E-J. JOFFRIN.", "marker-color": "#818181"}}, {"type": "Feature", "geometry": {"type": "Point", "coordinates": [2.344593, 48.892956]}, "properties": {"numparc": 4391, "etat de la localisation": "autre", "ID BDGEO": "4", "horodatage": "2022-04-26 20:15:55", "distance (en metres)": 47.59, "station": "MAIRIE DU 18E-J. JOFFRIN", "marker-color": "#818181"}}, {"type": "Feature", "geometry": {"type": "Point", "coordinates": [2.34905, 48.896946]}, "properties": {"numparc": 4410, "etat de la localisation": "autre", "ID BDGEO": "5", "horodatage": "2022-04-26 20:20:14", "distance (en metres)": 558.33, "station": "MAIRIE DU 18E-J. JOFFRIN.", "marker-color": "#818181"}}, {"type": "Feature", "geometry": {"type": "Point", "coordinates": [2.348229, 48.897045]}, "properties": {"numparc": 4410, "etat de la localisation": "autre", "ID BDGEO": "450", "horodatage": "2022-04-26 20:24:46", "distance (en metres)": 100.17, "station": "SORTIE DEPOT", "marker-color": "#818181"}}, {"type": "Feature", "geometry": {"type": "Point", "coordinates": [2.348321, 48.89764]}, "properties": {"numparc": 4410, "etat de la localisation": "autre", "ID BDGEO": "450", "horodatage": "2022-04-26 20:30:18", "distance (en metres)": 130.98, "station": "SORTIE DEPOT", "marker-color": "#818181"}}, {"type": "Feature", "geometry": {"type": "Point", "coordinates": [2.323718, 48.875893]}, "properties": {"numparc": 4391, "etat de la localisation": "autre", "ID BDGEO": "119", "horodatage": "2022-04-26 20:56:35", "distance (en metres)": 51.25, "station": "GARE SAINT-LAZARE-ROME", "marker-color": "#818181"}}, {"type": "Feature", "geometry": {"type": "Point", "coordinates": [2.3456, 48.893238]}, "properties": {"numparc": 4410, "etat de la localisation": "autre", "ID BDGEO": "4", "horodatage": "2022-04-26 21:03:48", "distance (en metres)": 44.07, "station": "MAIRIE DU 18E-J. JOFFRIN", "marker-color": "#818181"}}, {"type": "Feature", "geometry": {"type": "Point", "coordinates": [2.286519, 48.833141]}, "properties": {"numparc": 4391, "etat de la localisation": "autre", "ID BDGEO": "9", "horodatage": "2022-04-26 21:29:25", "distance (en metres)": 41.62, "station": "PORTE DE VERSAILLES", "marker-color": "#818181"}}, {"type": "Feature", "geometry": {"type": "Point", "coordinates": [2.323883, 48.874557]}, "properties": {"numparc": 4410, "etat de la localisation": "Delocalise", "ID BDGEO": "129", "horodatage": "2022-04-26 21:35:00", "distance (en metres)": 64.72, "station": "PASQUIER-ANJOU", "marker-color": "#FF565E"}}, {"type": "Feature", "geometry": {"type": "Point", "coordinates": [2.321224, 48.874893]}, "properties": {"numparc": 4410, "etat de la localisation": "autre", "ID BDGEO": "130", "horodatage": "2022-04-26 21:35:53", "distance (en metres)": 44.36, "station": "SAINT AUGUSTIN", "marker-color": "#818181"}}, {"type": "Feature", "geometry": {"type": "Point", "coordinates": [2.348547, 48.897297]}, "properties": {"numparc": 4410, "etat de la localisation": "autre", "ID BDGEO": "450", "horodatage": "2022-04-26 22:31:53", "distance (en metres)": 92.74, "station": "SORTIE DEPOT", "marker-color": "#818181"}}, {"type": "Feature", "geometry": {"type": "Point", "coordinates": [2.348677, 48.897362]}, "properties": {"numparc": 4391, "etat de la localisation": "autre", "ID BDGEO": "450", "horodatage": "2022-04-26 22:33:16", "distance (en metres)": 90.6, "station": "SORTIE DEPOT", "marker-color": "#818181"}}, {"type": "Feature", "geometry": {"type": "Point", "coordinates": [2.348992, 48.896423]}, "properties": {"numparc": 4410, "etat de la localisation": "autre", "ID BDGEO": "450", "horodatage": "2022-04-26 22:36:44", "distance (en metres)": 55.71, "station": "SORTIE DEPOT", "marker-color": "#818181"}}, {"type": "Feature", "geometry": {"type": "Point", "coordinates": [2.348384, 48.896465]}, "properties": {"numparc": 4391, "etat de la localisation": "autre", "ID BDGEO": "450", "horodatage": "2022-04-26 22:37:45", "distance (en metres)": 90.96, "station": "SORTIE DEPOT", "marker-color": "#818181"}}, {"type": "Feature", "geometry": {"type": "Point", "coordinates": [2.349536, 48.896774]}, "properties": {"station": "SORTIE DEPOT", "ID BDGEO": "450", "marker-color": "#56B3FF"}}, {"type": "Feature", "geometry": {"type": "Point", "coordinates": [2.314529, 48.873172]}, "properties": {"station": "MATIGNON-SAINT HONORE", "ID BDGEO": "91", "marker-color": "#56B3FF"}}, {"type": "Feature", "geometry": {"type": "Point", "coordinates": [2.345242, 48.892919]}, "properties": {"station": "MAIRIE DU 18E-J. JOFFRIN", "ID BDGEO": "4", "marker-color": "#56B3FF"}}, {"type": "Feature", "geometry": {"type": "Point", "coordinates": [2.323534, 48.876337]}, "properties": {"station": "GARE SAINT-LAZARE-ROME", "ID BDGEO": "119", "marker-color": "#56B3FF"}}, {"type": "Feature", "geometry": {"type": "Point", "coordinates": [2.314392, 48.874431]}, "properties": {"station": "HAUSSMANN-MIROMESNIL", "ID BDGEO": "92", "marker-color": "#56B3FF"}}, {"type": "Feature", "geometry": {"type": "Point", "coordinates": [2.326557, 48.882898]}, "properties": {"station": "PLACE DE CLICHY", "ID BDGEO": "97", "marker-color": "#56B3FF"}}, {"type": "Feature", "geometry": {"type": "Point", "coordinates": [2.323085, 48.874306]}, "properties": {"station": "PASQUIER-ANJOU", "ID BDGEO": "129", "marker-color": "#56B3FF"}}, {"type": "Feature", "geometry": {"type": "Point", "coordinates": [2.302572, 48.865072]}, "properties": {"station": "ALMA-MARCEAU", "ID BDGEO": "72", "marker-color": "#56B3FF"}}, {"type": "Feature", "geometry": {"type": "Point", "coordinates": [2.308782, 48.868282]}, "properties": {"station": "RPT CHAMPS ELYSEES", "ID BDGEO": "40", "marker-color": "#56B3FF"}}, {"type": "Feature", "geometry": {"type": "Point", "coordinates": [2.289182, 48.835247]}, "properties": {"station": "HAMEAU", "ID BDGEO": "166", "marker-color": "#56B3FF"}}, {"type": "Feature", "geometry": {"type": "Point", "coordinates": [2.344506, 48.89291]}, "properties": {"station": "MAIRIE DU 18E-J. JOFFRIN.", "ID BDGEO": "5", "marker-color": "#56B3FF"}}, {"type": "Feature", "geometry": {"type": "Point", "coordinates": [2.321477, 48.874531]}, "properties": {"station": "SAINT AUGUSTIN", "ID BDGEO": "130", "marker-color": "#56B3FF"}}, {"type": "Feature", "geometry": {"type": "Point", "coordinates": [2.287033, 48.832981]}, "properties": {"station": "PORTE DE VERSAILLES", "ID BDGEO": "9", "marker-color": "#56B3FF"}}, {"type": "Feature", "geometry": {"type": "Point", "coordinates": [2.300111, 48.839538]}, "properties": {"station": "VAUGIRARD", "ID BDGEO": "34", "marker-color": "#56B3FF"}}]}