{"type": "FeatureCollection", "features": [{"type": "Feature", "geometry": {"type": "Point", "coordinates": [2.313025, 48.842136]}, "properties": {"alarme": "VEHICULE DELOCALISE", "numparc": 1432, "type": "EXPLOITATION", "duree": "00:00:32", "horodatage": "2022-10-27 09:29:09", "statut": "start", "marker-color": "#ff0000"}}, {"type": "Feature", "geometry": {"type": "Point", "coordinates": [2.313011, 48.842003]}, "properties": {"alarme": "VEHICULE DELOCALISE", "numparc": 1432, "type": "EXPLOITATION", "duree": "00:01:09", "horodatage": "2022-10-27 14:13:04", "statut": "start", "marker-color": "#ff0000"}}, {"type": "Feature", "geometry": {"type": "Point", "coordinates": [2.313337, 48.841709]}, "properties": {"alarme": "VEHICULE DELOCALISE", "numparc": 1403, "type": "EXPLOITATION", "duree": "00:02:12", "horodatage": "2022-10-27 14:47:12", "statut": "start", "marker-color": "#ff0000"}}, {"type": "Feature", "geometry": {"type": "Point", "coordinates": [2.312987, 48.842056]}, "properties": {"alarme": "VEHICULE DELOCALISE", "numparc": 1403, "type": "EXPLOITATION", "duree": "00:01:39", "horodatage": "2022-10-27 17:17:18", "statut": "start", "marker-color": "#ff0000"}}, {"type": "Feature", "geometry": {"type": "Point", "coordinates": [2.313539, 48.841537]}, "properties": {"alarme": "VEHICULE DELOCALISE", "numparc": 1432, "type": "EXPLOITATION", "duree": "00:00:32", "horodatage": "2022-10-27 09:29:41", "statut": "end", "marker-color": "#2fe184"}}, {"type": "Feature", "geometry": {"type": "Point", "coordinates": [2.31424, 48.840881]}, "properties": {"alarme": "VEHICULE DELOCALISE", "numparc": 1432, "type": "EXPLOITATION", "duree": "00:01:09", "horodatage": "2022-10-27 14:14:13", "statut": "end", "marker-color": "#2fe184"}}, {"type": "Feature", "geometry": {"type": "Point", "coordinates": [2.31678, 48.838875]}, "properties": {"alarme": "VEHICULE DELOCALISE", "numparc": 1403, "type": "EXPLOITATION", "duree": "00:02:12", "horodatage": "2022-10-27 14:49:24", "statut": "end", "marker-color": "#2fe184"}}, {"type": "Feature", "geometry": {"type": "Point", "coordinates": [2.316795, 48.838779]}, "properties": {"alarme": "VEHICULE DELOCALISE", "numparc": 1403, "type": "EXPLOITATION", "duree": "00:01:39", "horodatage": "2022-10-27 17:18:57", "statut": "end", "marker-color": "#2fe184"}}, {"type": "Feature", "geometry": {"type": "Point", "coordinates": [2.329669, 48.822735]}, "properties": {"alarme": "DEFAUT LIAISON DATA SAEIV / AIGLE", "numparc": 1364, "type": "TECHNIQUE", "duree": "24:00:00", "horodatage": "2022-10-27 04:21:08", "statut": "start", "marker-color": "#000000"}}]}