{"type": "FeatureCollection", "features": [{"type": "Feature", "geometry": {"type": "Point", "coordinates": [2.359852, 48.89151]}, "properties": {"alarme": "VEHICULE DELOCALISE", "numparc": 5638, "type": "EXPLOITATION", "duree": "00:09:38", "horodatage": "2022-05-06 05:31:58", "statut": "start", "marker-color": "#ff0000"}}, {"type": "Feature", "geometry": {"type": "Point", "coordinates": [2.354906, 48.865719]}, "properties": {"alarme": "VEHICULE DELOCALISE", "numparc": 5638, "type": "EXPLOITATION", "duree": "00:00:13", "horodatage": "2022-05-06 05:45:59", "statut": "start", "marker-color": "#ff0000"}}, {"type": "Feature", "geometry": {"type": "Point", "coordinates": [2.34268, 48.854542]}, "properties": {"alarme": "VEHICULE DELOCALISE", "numparc": 5679, "type": "EXPLOITATION", "duree": "00:05:00", "horodatage": "2022-05-06 05:55:52", "statut": "start", "marker-color": "#ff0000"}}, {"type": "Feature", "geometry": {"type": "Point", "coordinates": [2.342631, 48.854568]}, "properties": {"alarme": "VEHICULE DELOCALISE", "numparc": 5652, "type": "EXPLOITATION", "duree": "00:05:26", "horodatage": "2022-05-06 06:28:09", "statut": "start", "marker-color": "#ff0000"}}, {"type": "Feature", "geometry": {"type": "Point", "coordinates": [2.359429, 48.894161]}, "properties": {"alarme": "VEHICULE DELOCALISE", "numparc": 5679, "type": "EXPLOITATION", "duree": "00:00:29", "horodatage": "2022-05-06 06:32:59", "statut": "start", "marker-color": "#ff0000"}}, {"type": "Feature", "geometry": {"type": "Point", "coordinates": [2.359432, 48.894215]}, "properties": {"alarme": "VEHICULE DELOCALISE", "numparc": 5669, "type": "EXPLOITATION", "duree": "00:00:32", "horodatage": "2022-05-06 06:49:00", "statut": "start", "marker-color": "#ff0000"}}, {"type": "Feature", "geometry": {"type": "Point", "coordinates": [2.342779, 48.854538]}, "properties": {"alarme": "VEHICULE DELOCALISE", "numparc": 5660, "type": "EXPLOITATION", "duree": "00:03:29", "horodatage": "2022-05-06 06:53:10", "statut": "start", "marker-color": "#ff0000"}}, {"type": "Feature", "geometry": {"type": "Point", "coordinates": [2.359448, 48.894176]}, "properties": {"alarme": "VEHICULE DELOCALISE", "numparc": 5652, "type": "EXPLOITATION", "duree": "00:00:24", "horodatage": "2022-05-06 07:03:26", "statut": "start", "marker-color": "#ff0000"}}, {"type": "Feature", "geometry": {"type": "Point", "coordinates": [2.342962, 48.854397]}, "properties": {"alarme": "VEHICULE DELOCALISE", "numparc": 5642, "type": "EXPLOITATION", "duree": "00:06:30", "horodatage": "2022-05-06 07:07:03", "statut": "start", "marker-color": "#ff0000"}}, {"type": "Feature", "geometry": {"type": "Point", "coordinates": [2.342839, 48.854485]}, "properties": {"alarme": "VEHICULE DELOCALISE", "numparc": 5646, "type": "EXPLOITATION", "duree": "00:05:47", "horodatage": "2022-05-06 07:15:48", "statut": "start", "marker-color": "#ff0000"}}, {"type": "Feature", "geometry": {"type": "Point", "coordinates": [2.342724, 48.854519]}, "properties": {"alarme": "VEHICULE DELOCALISE", "numparc": 5644, "type": "EXPLOITATION", "duree": "00:04:05", "horodatage": "2022-05-06 07:33:52", "statut": "start", "marker-color": "#ff0000"}}, {"type": "Feature", "geometry": {"type": "Point", "coordinates": [2.357754, 48.873898]}, "properties": {"alarme": "VEHICULE DELOCALISE", "numparc": 5660, "type": "EXPLOITATION", "duree": "00:00:47", "horodatage": "2022-05-06 07:41:25", "statut": "start", "marker-color": "#ff0000"}}, {"type": "Feature", "geometry": {"type": "Point", "coordinates": [2.342798, 48.854481]}, "properties": {"alarme": "VEHICULE DELOCALISE", "numparc": 5670, "type": "EXPLOITATION", "duree": "00:06:07", "horodatage": "2022-05-06 07:41:34", "statut": "start", "marker-color": "#ff0000"}}, {"type": "Feature", "geometry": {"type": "Point", "coordinates": [2.347814, 48.854904]}, "properties": {"alarme": "VEHICULE DELOCALISE", "numparc": 5638, "type": "EXPLOITATION", "duree": "00:01:33", "horodatage": "2022-05-06 07:49:36", "statut": "start", "marker-color": "#ff0000"}}, {"type": "Feature", "geometry": {"type": "Point", "coordinates": [2.342919, 48.854496]}, "properties": {"alarme": "VEHICULE DELOCALISE", "numparc": 5679, "type": "EXPLOITATION", "duree": "00:05:42", "horodatage": "2022-05-06 07:50:22", "statut": "start", "marker-color": "#ff0000"}}, {"type": "Feature", "geometry": {"type": "Point", "coordinates": [2.359467, 48.894234]}, "properties": {"alarme": "VEHICULE DELOCALISE", "numparc": 5646, "type": "EXPLOITATION", "duree": "00:00:31", "horodatage": "2022-05-06 07:58:06", "statut": "start", "marker-color": "#ff0000"}}, {"type": "Feature", "geometry": {"type": "Point", "coordinates": [2.342818, 48.854561]}, "properties": {"alarme": "VEHICULE DELOCALISE", "numparc": 5665, "type": "EXPLOITATION", "duree": "00:05:54", "horodatage": "2022-05-06 08:06:56", "statut": "start", "marker-color": "#ff0000"}}, {"type": "Feature", "geometry": {"type": "Point", "coordinates": [2.343048, 48.854378]}, "properties": {"alarme": "VEHICULE DELOCALISE", "numparc": 5669, "type": "EXPLOITATION", "duree": "00:05:13", "horodatage": "2022-05-06 08:10:15", "statut": "start", "marker-color": "#ff0000"}}, {"type": "Feature", "geometry": {"type": "Point", "coordinates": [2.359429, 48.894295]}, "properties": {"alarme": "VEHICULE DELOCALISE", "numparc": 5644, "type": "EXPLOITATION", "duree": "00:00:32", "horodatage": "2022-05-06 08:15:25", "statut": "start", "marker-color": "#ff0000"}}, {"type": "Feature", "geometry": {"type": "Point", "coordinates": [2.342982, 48.854416]}, "properties": {"alarme": "VEHICULE DELOCALISE", "numparc": 5661, "type": "EXPLOITATION", "duree": "00:06:25", "horodatage": "2022-05-06 08:18:59", "statut": "start", "marker-color": "#ff0000"}}, {"type": "Feature", "geometry": {"type": "Point", "coordinates": [2.359507, 48.894161]}, "properties": {"alarme": "VEHICULE DELOCALISE", "numparc": 5670, "type": "EXPLOITATION", "duree": "00:00:30", "horodatage": "2022-05-06 08:20:47", "statut": "start", "marker-color": "#ff0000"}}, {"type": "Feature", "geometry": {"type": "Point", "coordinates": [2.342895, 48.854465]}, "properties": {"alarme": "VEHICULE DELOCALISE", "numparc": 5677, "type": "EXPLOITATION", "duree": "00:05:45", "horodatage": "2022-05-06 08:23:33", "statut": "start", "marker-color": "#ff0000"}}, {"type": "Feature", "geometry": {"type": "Point", "coordinates": [2.34288, 48.854488]}, "properties": {"alarme": "VEHICULE DELOCALISE", "numparc": 5652, "type": "EXPLOITATION", "duree": "00:51:00", "horodatage": "2022-05-06 08:30:57", "statut": "start", "marker-color": "#ff0000"}}, {"type": "Feature", "geometry": {"type": "Point", "coordinates": [2.359475, 48.894238]}, "properties": {"alarme": "VEHICULE DELOCALISE", "numparc": 5679, "type": "EXPLOITATION", "duree": "00:01:08", "horodatage": "2022-05-06 08:32:53", "statut": "start", "marker-color": "#ff0000"}}, {"type": "Feature", "geometry": {"type": "Point", "coordinates": [2.359484, 48.894241]}, "properties": {"alarme": "VEHICULE DELOCALISE", "numparc": 5661, "type": "EXPLOITATION", "duree": "00:00:30", "horodatage": "2022-05-06 09:08:47", "statut": "start", "marker-color": "#ff0000"}}, {"type": "Feature", "geometry": {"type": "Point", "coordinates": [2.34308, 48.854355]}, "properties": {"alarme": "VEHICULE DELOCALISE", "numparc": 5642, "type": "EXPLOITATION", "duree": "00:05:44", "horodatage": "2022-05-06 09:12:53", "statut": "start", "marker-color": "#ff0000"}}, {"type": "Feature", "geometry": {"type": "Point", "coordinates": [2.359513, 48.894188]}, "properties": {"alarme": "VEHICULE DELOCALISE", "numparc": 5677, "type": "EXPLOITATION", "duree": "00:01:08", "horodatage": "2022-05-06 09:15:31", "statut": "start", "marker-color": "#ff0000"}}, {"type": "Feature", "geometry": {"type": "Point", "coordinates": [2.342834, 48.854481]}, "properties": {"alarme": "VEHICULE DELOCALISE", "numparc": 5649, "type": "EXPLOITATION", "duree": "00:10:20", "horodatage": "2022-05-06 09:23:43", "statut": "start", "marker-color": "#ff0000"}}, {"type": "Feature", "geometry": {"type": "Point", "coordinates": [2.342861, 48.854435]}, "properties": {"alarme": "VEHICULE DELOCALISE", "numparc": 5646, "type": "EXPLOITATION", "duree": "00:08:37", "horodatage": "2022-05-06 09:33:51", "statut": "start", "marker-color": "#ff0000"}}, {"type": "Feature", "geometry": {"type": "Point", "coordinates": [2.343048, 48.854328]}, "properties": {"alarme": "VEHICULE DELOCALISE", "numparc": 5644, "type": "EXPLOITATION", "duree": "00:07:17", "horodatage": "2022-05-06 09:51:41", "statut": "start", "marker-color": "#ff0000"}}, {"type": "Feature", "geometry": {"type": "Point", "coordinates": [2.342843, 48.854458]}, "properties": {"alarme": "VEHICULE DELOCALISE", "numparc": 5670, "type": "EXPLOITATION", "duree": "00:06:07", "horodatage": "2022-05-06 09:59:28", "statut": "start", "marker-color": "#ff0000"}}, {"type": "Feature", "geometry": {"type": "Point", "coordinates": [2.359395, 48.894367]}, "properties": {"alarme": "VEHICULE DELOCALISE", "numparc": 5649, "type": "EXPLOITATION", "duree": "00:01:08", "horodatage": "2022-05-06 10:11:38", "statut": "start", "marker-color": "#ff0000"}}, {"type": "Feature", "geometry": {"type": "Point", "coordinates": [2.342903, 48.85445]}, "properties": {"alarme": "VEHICULE DELOCALISE", "numparc": 5679, "type": "EXPLOITATION", "duree": "00:08:25", "horodatage": "2022-05-06 10:13:04", "statut": "start", "marker-color": "#ff0000"}}, {"type": "Feature", "geometry": {"type": "Point", "coordinates": [2.359464, 48.894215]}, "properties": {"alarme": "VEHICULE DELOCALISE", "numparc": 5646, "type": "EXPLOITATION", "duree": "00:01:16", "horodatage": "2022-05-06 10:23:26", "statut": "start", "marker-color": "#ff0000"}}, {"type": "Feature", "geometry": {"type": "Point", "coordinates": [2.34295, 48.854397]}, "properties": {"alarme": "VEHICULE DELOCALISE", "numparc": 5665, "type": "EXPLOITATION", "duree": "00:06:39", "horodatage": "2022-05-06 10:28:54", "statut": "start", "marker-color": "#ff0000"}}, {"type": "Feature", "geometry": {"type": "Point", "coordinates": [2.342989, 48.854378]}, "properties": {"alarme": "VEHICULE DELOCALISE", "numparc": 5669, "type": "EXPLOITATION", "duree": "00:05:37", "horodatage": "2022-05-06 10:38:02", "statut": "start", "marker-color": "#ff0000"}}, {"type": "Feature", "geometry": {"type": "Point", "coordinates": [2.343026, 48.85434]}, "properties": {"alarme": "VEHICULE DELOCALISE", "numparc": 5653, "type": "EXPLOITATION", "duree": "00:06:01", "horodatage": "2022-05-06 10:39:07", "statut": "start", "marker-color": "#ff0000"}}, {"type": "Feature", "geometry": {"type": "Point", "coordinates": [2.359443, 48.894207]}, "properties": {"alarme": "VEHICULE DELOCALISE", "numparc": 5644, "type": "EXPLOITATION", "duree": "00:00:54", "horodatage": "2022-05-06 10:41:57", "statut": "start", "marker-color": "#ff0000"}}, {"type": "Feature", "geometry": {"type": "Point", "coordinates": [2.35949, 48.894215]}, "properties": {"alarme": "VEHICULE DELOCALISE", "numparc": 5670, "type": "EXPLOITATION", "duree": "00:00:49", "horodatage": "2022-05-06 10:47:16", "statut": "start", "marker-color": "#ff0000"}}, {"type": "Feature", "geometry": {"type": "Point", "coordinates": [2.353542, 48.862103]}, "properties": {"alarme": "VEHICULE DELOCALISE", "numparc": 5646, "type": "EXPLOITATION", "duree": "00:00:47", "horodatage": "2022-05-06 10:47:52", "statut": "start", "marker-color": "#ff0000"}}, {"type": "Feature", "geometry": {"type": "Point", "coordinates": [2.342855, 48.854443]}, "properties": {"alarme": "VEHICULE DELOCALISE", "numparc": 5661, "type": "EXPLOITATION", "duree": "00:06:03", "horodatage": "2022-05-06 10:50:35", "statut": "start", "marker-color": "#ff0000"}}, {"type": "Feature", "geometry": {"type": "Point", "coordinates": [2.342737, 48.854465]}, "properties": {"alarme": "VEHICULE DELOCALISE", "numparc": 5677, "type": "EXPLOITATION", "duree": "00:06:06", "horodatage": "2022-05-06 10:56:18", "statut": "start", "marker-color": "#ff0000"}}, {"type": "Feature", "geometry": {"type": "Point", "coordinates": [2.359409, 48.894341]}, "properties": {"alarme": "VEHICULE DELOCALISE", "numparc": 5679, "type": "EXPLOITATION", "duree": "00:00:51", "horodatage": "2022-05-06 11:03:17", "statut": "start", "marker-color": "#ff0000"}}, {"type": "Feature", "geometry": {"type": "Point", "coordinates": [2.343049, 48.854343]}, "properties": {"alarme": "VEHICULE DELOCALISE", "numparc": 5660, "type": "EXPLOITATION", "duree": "00:08:48", "horodatage": "2022-05-06 11:15:33", "statut": "start", "marker-color": "#ff0000"}}, {"type": "Feature", "geometry": {"type": "Point", "coordinates": [2.359447, 48.894306]}, "properties": {"alarme": "VEHICULE DELOCALISE", "numparc": 5665, "type": "EXPLOITATION", "duree": "00:00:50", "horodatage": "2022-05-06 11:19:14", "statut": "start", "marker-color": "#ff0000"}}, {"type": "Feature", "geometry": {"type": "Point", "coordinates": [2.359454, 48.894394]}, "properties": {"alarme": "VEHICULE DELOCALISE", "numparc": 5669, "type": "EXPLOITATION", "duree": "00:00:33", "horodatage": "2022-05-06 11:23:38", "statut": "start", "marker-color": "#ff0000"}}, {"type": "Feature", "geometry": {"type": "Point", "coordinates": [2.341791, 48.848553]}, "properties": {"alarme": "VEHICULE DELOCALISE", "numparc": 5644, "type": "EXPLOITATION", "duree": "00:01:24", "horodatage": "2022-05-06 11:26:53", "statut": "start", "marker-color": "#ff0000"}}, {"type": "Feature", "geometry": {"type": "Point", "coordinates": [2.353454, 48.86216]}, "properties": {"alarme": "VEHICULE DELOCALISE", "numparc": 5679, "type": "EXPLOITATION", "duree": "00:00:43", "horodatage": "2022-05-06 11:28:44", "statut": "start", "marker-color": "#ff0000"}}, {"type": "Feature", "geometry": {"type": "Point", "coordinates": [2.359357, 48.894371]}, "properties": {"alarme": "VEHICULE DELOCALISE", "numparc": 5653, "type": "EXPLOITATION", "duree": "00:00:43", "horodatage": "2022-05-06 11:28:45", "statut": "start", "marker-color": "#ff0000"}}, {"type": "Feature", "geometry": {"type": "Point", "coordinates": [2.343034, 48.854362]}, "properties": {"alarme": "VEHICULE DELOCALISE", "numparc": 5642, "type": "EXPLOITATION", "duree": "00:07:55", "horodatage": "2022-05-06 11:34:03", "statut": "start", "marker-color": "#ff0000"}}, {"type": "Feature", "geometry": {"type": "Point", "coordinates": [2.359448, 48.894176]}, "properties": {"alarme": "VEHICULE DELOCALISE", "numparc": 5661, "type": "EXPLOITATION", "duree": "00:00:53", "horodatage": "2022-05-06 11:35:21", "statut": "start", "marker-color": "#ff0000"}}, {"type": "Feature", "geometry": {"type": "Point", "coordinates": [2.35945, 48.894344]}, "properties": {"alarme": "VEHICULE DELOCALISE", "numparc": 5677, "type": "EXPLOITATION", "duree": "00:00:56", "horodatage": "2022-05-06 11:42:13", "statut": "start", "marker-color": "#ff0000"}}, {"type": "Feature", "geometry": {"type": "Point", "coordinates": [2.342748, 48.854492]}, "properties": {"alarme": "VEHICULE DELOCALISE", "numparc": 5649, "type": "EXPLOITATION", "duree": "00:07:04", "horodatage": "2022-05-06 11:50:01", "statut": "start", "marker-color": "#ff0000"}}, {"type": "Feature", "geometry": {"type": "Point", "coordinates": [2.342858, 48.854427]}, "properties": {"alarme": "VEHICULE DELOCALISE", "numparc": 5646, "type": "EXPLOITATION", "duree": "00:06:00", "horodatage": "2022-05-06 11:58:12", "statut": "start", "marker-color": "#ff0000"}}, {"type": "Feature", "geometry": {"type": "Point", "coordinates": [2.359541, 48.89402]}, "properties": {"alarme": "VEHICULE DELOCALISE", "numparc": 5660, "type": "EXPLOITATION", "duree": "00:00:46", "horodatage": "2022-05-06 12:00:47", "statut": "start", "marker-color": "#ff0000"}}, {"type": "Feature", "geometry": {"type": "Point", "coordinates": [2.359862, 48.891815]}, "properties": {"alarme": "VEHICULE DELOCALISE", "numparc": 5660, "type": "EXPLOITATION", "duree": "00:02:56", "horodatage": "2022-05-06 12:02:29", "statut": "start", "marker-color": "#ff0000"}}, {"type": "Feature", "geometry": {"type": "Point", "coordinates": [2.348901, 48.856796]}, "properties": {"alarme": "VEHICULE DELOCALISE", "numparc": 5661, "type": "EXPLOITATION", "duree": "00:20:17", "horodatage": "2022-05-06 12:03:02", "statut": "start", "marker-color": "#ff0000"}}, {"type": "Feature", "geometry": {"type": "Point", "coordinates": [2.359228, 48.885521]}, "properties": {"alarme": "VEHICULE DELOCALISE", "numparc": 5660, "type": "EXPLOITATION", "duree": "00:03:07", "horodatage": "2022-05-06 12:08:48", "statut": "start", "marker-color": "#ff0000"}}, {"type": "Feature", "geometry": {"type": "Point", "coordinates": [2.342799, 48.854507]}, "properties": {"alarme": "VEHICULE DELOCALISE", "numparc": 5644, "type": "EXPLOITATION", "duree": "00:05:56", "horodatage": "2022-05-06 12:12:12", "statut": "start", "marker-color": "#ff0000"}}, {"type": "Feature", "geometry": {"type": "Point", "coordinates": [2.357612, 48.880589]}, "properties": {"alarme": "VEHICULE DELOCALISE", "numparc": 5660, "type": "EXPLOITATION", "duree": "00:02:19", "horodatage": "2022-05-06 12:12:42", "statut": "start", "marker-color": "#ff0000"}}, {"type": "Feature", "geometry": {"type": "Point", "coordinates": [2.357019, 48.876392]}, "properties": {"alarme": "VEHICULE DELOCALISE", "numparc": 5660, "type": "EXPLOITATION", "duree": "00:08:03", "horodatage": "2022-05-06 12:15:59", "statut": "start", "marker-color": "#ff0000"}}, {"type": "Feature", "geometry": {"type": "Point", "coordinates": [2.342944, 48.854481]}, "properties": {"alarme": "VEHICULE DELOCALISE", "numparc": 5679, "type": "EXPLOITATION", "duree": "00:07:03", "horodatage": "2022-05-06 12:39:13", "statut": "start", "marker-color": "#ff0000"}}, {"type": "Feature", "geometry": {"type": "Point", "coordinates": [2.359437, 48.894253]}, "properties": {"alarme": "VEHICULE DELOCALISE", "numparc": 5649, "type": "EXPLOITATION", "duree": "00:00:28", "horodatage": "2022-05-06 12:42:42", "statut": "start", "marker-color": "#ff0000"}}, {"type": "Feature", "geometry": {"type": "Point", "coordinates": [2.342531, 48.854515]}, "properties": {"alarme": "VEHICULE DELOCALISE", "numparc": 5665, "type": "EXPLOITATION", "duree": "00:05:14", "horodatage": "2022-05-06 12:52:43", "statut": "start", "marker-color": "#ff0000"}}, {"type": "Feature", "geometry": {"type": "Point", "coordinates": [2.359389, 48.894451]}, "properties": {"alarme": "VEHICULE DELOCALISE", "numparc": 5646, "type": "EXPLOITATION", "duree": "00:00:51", "horodatage": "2022-05-06 12:54:01", "statut": "start", "marker-color": "#ff0000"}}, {"type": "Feature", "geometry": {"type": "Point", "coordinates": [2.342769, 48.854481]}, "properties": {"alarme": "VEHICULE DELOCALISE", "numparc": 5669, "type": "EXPLOITATION", "duree": "00:06:58", "horodatage": "2022-05-06 12:57:52", "statut": "start", "marker-color": "#ff0000"}}, {"type": "Feature", "geometry": {"type": "Point", "coordinates": [2.342947, 48.854424]}, "properties": {"alarme": "VEHICULE DELOCALISE", "numparc": 5653, "type": "EXPLOITATION", "duree": "00:07:01", "horodatage": "2022-05-06 13:02:08", "statut": "start", "marker-color": "#ff0000"}}, {"type": "Feature", "geometry": {"type": "Point", "coordinates": [2.342879, 48.854454]}, "properties": {"alarme": "VEHICULE DELOCALISE", "numparc": 5661, "type": "EXPLOITATION", "duree": "00:08:30", "horodatage": "2022-05-06 13:15:08", "statut": "start", "marker-color": "#ff0000"}}, {"type": "Feature", "geometry": {"type": "Point", "coordinates": [2.342875, 48.85442]}, "properties": {"alarme": "VEHICULE DELOCALISE", "numparc": 5677, "type": "EXPLOITATION", "duree": "00:08:31", "horodatage": "2022-05-06 13:22:03", "statut": "start", "marker-color": "#ff0000"}}, {"type": "Feature", "geometry": {"type": "Point", "coordinates": [2.359465, 48.894279]}, "properties": {"alarme": "VEHICULE DELOCALISE", "numparc": 5679, "type": "EXPLOITATION", "duree": "00:00:28", "horodatage": "2022-05-06 13:26:17", "statut": "start", "marker-color": "#ff0000"}}, {"type": "Feature", "geometry": {"type": "Point", "coordinates": [2.342974, 48.854488]}, "properties": {"alarme": "VEHICULE DELOCALISE", "numparc": 5660, "type": "EXPLOITATION", "duree": "00:06:13", "horodatage": "2022-05-06 13:42:02", "statut": "start", "marker-color": "#ff0000"}}, {"type": "Feature", "geometry": {"type": "Point", "coordinates": [2.359405, 48.894409]}, "properties": {"alarme": "VEHICULE DELOCALISE", "numparc": 5665, "type": "EXPLOITATION", "duree": "00:00:39", "horodatage": "2022-05-06 13:48:39", "statut": "start", "marker-color": "#ff0000"}}, {"type": "Feature", "geometry": {"type": "Point", "coordinates": [2.359452, 48.894314]}, "properties": {"alarme": "VEHICULE DELOCALISE", "numparc": 5669, "type": "EXPLOITATION", "duree": "00:00:31", "horodatage": "2022-05-06 13:54:24", "statut": "start", "marker-color": "#ff0000"}}, {"type": "Feature", "geometry": {"type": "Point", "coordinates": [2.359449, 48.894257]}, "properties": {"alarme": "VEHICULE DELOCALISE", "numparc": 5653, "type": "EXPLOITATION", "duree": "00:00:48", "horodatage": "2022-05-06 14:00:31", "statut": "start", "marker-color": "#ff0000"}}, {"type": "Feature", "geometry": {"type": "Point", "coordinates": [2.342916, 48.854481]}, "properties": {"alarme": "VEHICULE DELOCALISE", "numparc": 5642, "type": "EXPLOITATION", "duree": "00:07:02", "horodatage": "2022-05-06 14:05:44", "statut": "start", "marker-color": "#ff0000"}}, {"type": "Feature", "geometry": {"type": "Point", "coordinates": [2.343112, 48.854343]}, "properties": {"alarme": "VEHICULE DELOCALISE", "numparc": 5646, "type": "EXPLOITATION", "duree": "00:06:04", "horodatage": "2022-05-06 14:21:47", "statut": "start", "marker-color": "#ff0000"}}, {"type": "Feature", "geometry": {"type": "Point", "coordinates": [2.359451, 48.894222]}, "properties": {"alarme": "VEHICULE DELOCALISE", "numparc": 5661, "type": "EXPLOITATION", "duree": "00:00:49", "horodatage": "2022-05-06 14:21:59", "statut": "start", "marker-color": "#ff0000"}}, {"type": "Feature", "geometry": {"type": "Point", "coordinates": [2.341642, 48.848576]}, "properties": {"alarme": "VEHICULE DELOCALISE", "numparc": 5665, "type": "EXPLOITATION", "duree": "00:01:20", "horodatage": "2022-05-06 14:25:24", "statut": "start", "marker-color": "#ff0000"}}, {"type": "Feature", "geometry": {"type": "Point", "coordinates": [2.343019, 48.854408]}, "properties": {"alarme": "VEHICULE DELOCALISE", "numparc": 5679, "type": "EXPLOITATION", "duree": "00:06:53", "horodatage": "2022-05-06 15:00:26", "statut": "start", "marker-color": "#ff0000"}}, {"type": "Feature", "geometry": {"type": "Point", "coordinates": [2.35944, 48.894455]}, "properties": {"alarme": "VEHICULE DELOCALISE", "numparc": 5642, "type": "EXPLOITATION", "duree": "00:00:37", "horodatage": "2022-05-06 15:07:28", "statut": "start", "marker-color": "#ff0000"}}, {"type": "Feature", "geometry": {"type": "Point", "coordinates": [2.340869, 48.847439]}, "properties": {"alarme": "VEHICULE DELOCALISE", "numparc": 5677, "type": "EXPLOITATION", "duree": "00:00:14", "horodatage": "2022-05-06 15:18:43", "statut": "start", "marker-color": "#ff0000"}}, {"type": "Feature", "geometry": {"type": "Point", "coordinates": [2.342952, 48.854412]}, "properties": {"alarme": "VEHICULE DELOCALISE", "numparc": 5669, "type": "EXPLOITATION", "duree": "00:07:02", "horodatage": "2022-05-06 15:31:51", "statut": "start", "marker-color": "#ff0000"}}, {"type": "Feature", "geometry": {"type": "Point", "coordinates": [2.347903, 48.857815]}, "properties": {"alarme": "VEHICULE DELOCALISE", "numparc": 5645, "type": "EXPLOITATION", "duree": "00:00:27", "horodatage": "2022-05-06 15:33:54", "statut": "start", "marker-color": "#ff0000"}}, {"type": "Feature", "geometry": {"type": "Point", "coordinates": [2.34281, 48.854481]}, "properties": {"alarme": "VEHICULE DELOCALISE", "numparc": 5653, "type": "EXPLOITATION", "duree": "00:06:21", "horodatage": "2022-05-06 15:38:29", "statut": "start", "marker-color": "#ff0000"}}, {"type": "Feature", "geometry": {"type": "Point", "coordinates": [2.340729, 48.847351]}, "properties": {"alarme": "VEHICULE DELOCALISE", "numparc": 5642, "type": "EXPLOITATION", "duree": "00:02:28", "horodatage": "2022-05-06 16:00:17", "statut": "start", "marker-color": "#ff0000"}}, {"type": "Feature", "geometry": {"type": "Point", "coordinates": [2.342826, 48.854401]}, "properties": {"alarme": "VEHICULE DELOCALISE", "numparc": 5661, "type": "EXPLOITATION", "duree": "00:05:15", "horodatage": "2022-05-06 16:10:51", "statut": "start", "marker-color": "#ff0000"}}, {"type": "Feature", "geometry": {"type": "Point", "coordinates": [2.347912, 48.857815]}, "properties": {"alarme": "VEHICULE DELOCALISE", "numparc": 5642, "type": "EXPLOITATION", "duree": "00:00:12", "horodatage": "2022-05-06 16:11:33", "statut": "start", "marker-color": "#ff0000"}}, {"type": "Feature", "geometry": {"type": "Point", "coordinates": [2.348923, 48.856667]}, "properties": {"alarme": "VEHICULE DELOCALISE", "numparc": 5665, "type": "EXPLOITATION", "duree": "00:08:15", "horodatage": "2022-05-06 16:15:57", "statut": "start", "marker-color": "#ff0000"}}, {"type": "Feature", "geometry": {"type": "Point", "coordinates": [2.359487, 48.893669]}, "properties": {"alarme": "VEHICULE DELOCALISE", "numparc": 5645, "type": "EXPLOITATION", "duree": "00:00:31", "horodatage": "2022-05-06 16:31:34", "statut": "start", "marker-color": "#ff0000"}}, {"type": "Feature", "geometry": {"type": "Point", "coordinates": [2.348825, 48.856899]}, "properties": {"alarme": "VEHICULE DELOCALISE", "numparc": 5679, "type": "EXPLOITATION", "duree": "00:04:47", "horodatage": "2022-05-06 16:32:28", "statut": "start", "marker-color": "#ff0000"}}, {"type": "Feature", "geometry": {"type": "Point", "coordinates": [2.359444, 48.89415]}, "properties": {"alarme": "VEHICULE DELOCALISE", "numparc": 5669, "type": "EXPLOITATION", "duree": "00:00:39", "horodatage": "2022-05-06 16:38:01", "statut": "start", "marker-color": "#ff0000"}}, {"type": "Feature", "geometry": {"type": "Point", "coordinates": [2.348994, 48.859821]}, "properties": {"alarme": "VEHICULE DELOCALISE", "numparc": 5643, "type": "EXPLOITATION", "duree": "00:00:36", "horodatage": "2022-05-06 16:42:23", "statut": "start", "marker-color": "#ff0000"}}, {"type": "Feature", "geometry": {"type": "Point", "coordinates": [2.359432, 48.894314]}, "properties": {"alarme": "VEHICULE DELOCALISE", "numparc": 5653, "type": "EXPLOITATION", "duree": "00:01:00", "horodatage": "2022-05-06 16:44:50", "statut": "start", "marker-color": "#ff0000"}}, {"type": "Feature", "geometry": {"type": "Point", "coordinates": [2.359376, 48.894501]}, "properties": {"alarme": "VEHICULE DELOCALISE", "numparc": 5661, "type": "EXPLOITATION", "duree": "00:00:31", "horodatage": "2022-05-06 17:12:47", "statut": "start", "marker-color": "#ff0000"}}, {"type": "Feature", "geometry": {"type": "Point", "coordinates": [2.35931, 48.897079]}, "properties": {"alarme": "VEHICULE DELOCALISE", "numparc": 5643, "type": "EXPLOITATION", "duree": "00:02:26", "horodatage": "2022-05-06 17:16:28", "statut": "start", "marker-color": "#ff0000"}}, {"type": "Feature", "geometry": {"type": "Point", "coordinates": [2.342982, 48.85442]}, "properties": {"alarme": "VEHICULE DELOCALISE", "numparc": 5679, "type": "EXPLOITATION", "duree": "00:04:52", "horodatage": "2022-05-06 17:33:37", "statut": "start", "marker-color": "#ff0000"}}, {"type": "Feature", "geometry": {"type": "Point", "coordinates": [2.347947, 48.857761]}, "properties": {"alarme": "VEHICULE DELOCALISE", "numparc": 5665, "type": "EXPLOITATION", "duree": "00:00:41", "horodatage": "2022-05-06 17:35:24", "statut": "start", "marker-color": "#ff0000"}}, {"type": "Feature", "geometry": {"type": "Point", "coordinates": [2.359083, 48.89706]}, "properties": {"alarme": "VEHICULE DELOCALISE", "numparc": 5646, "type": "EXPLOITATION", "duree": "00:00:21", "horodatage": "2022-05-06 17:37:21", "statut": "start", "marker-color": "#ff0000"}}, {"type": "Feature", "geometry": {"type": "Point", "coordinates": [2.340853, 48.847382]}, "properties": {"alarme": "VEHICULE DELOCALISE", "numparc": 5661, "type": "EXPLOITATION", "duree": "00:11:49", "horodatage": "2022-05-06 17:58:47", "statut": "start", "marker-color": "#ff0000"}}, {"type": "Feature", "geometry": {"type": "Point", "coordinates": [2.342805, 48.854427]}, "properties": {"alarme": "VEHICULE DELOCALISE", "numparc": 5645, "type": "EXPLOITATION", "duree": "00:09:37", "horodatage": "2022-05-06 18:12:10", "statut": "start", "marker-color": "#ff0000"}}, {"type": "Feature", "geometry": {"type": "Point", "coordinates": [2.340911, 48.847431]}, "properties": {"alarme": "VEHICULE DELOCALISE", "numparc": 5660, "type": "EXPLOITATION", "duree": "00:01:35", "horodatage": "2022-05-06 18:13:56", "statut": "start", "marker-color": "#ff0000"}}, {"type": "Feature", "geometry": {"type": "Point", "coordinates": [2.359053, 48.89711]}, "properties": {"alarme": "VEHICULE DELOCALISE", "numparc": 5665, "type": "EXPLOITATION", "duree": "00:00:18", "horodatage": "2022-05-06 18:15:39", "statut": "start", "marker-color": "#ff0000"}}, {"type": "Feature", "geometry": {"type": "Point", "coordinates": [2.342961, 48.854374]}, "properties": {"alarme": "VEHICULE DELOCALISE", "numparc": 5669, "type": "EXPLOITATION", "duree": "00:06:37", "horodatage": "2022-05-06 18:16:50", "statut": "start", "marker-color": "#ff0000"}}, {"type": "Feature", "geometry": {"type": "Point", "coordinates": [2.359209, 48.89447]}, "properties": {"alarme": "VEHICULE DELOCALISE", "numparc": 5679, "type": "EXPLOITATION", "duree": "00:01:10", "horodatage": "2022-05-06 18:32:07", "statut": "start", "marker-color": "#ff0000"}}, {"type": "Feature", "geometry": {"type": "Point", "coordinates": [2.359491, 48.894157]}, "properties": {"alarme": "VEHICULE DELOCALISE", "numparc": 5650, "type": "EXPLOITATION", "duree": "00:00:43", "horodatage": "2022-05-06 18:53:59", "statut": "start", "marker-color": "#ff0000"}}, {"type": "Feature", "geometry": {"type": "Point", "coordinates": [2.356792, 48.876347]}, "properties": {"alarme": "VEHICULE DELOCALISE", "numparc": 5660, "type": "EXPLOITATION", "duree": "00:00:16", "horodatage": "2022-05-06 19:06:32", "statut": "start", "marker-color": "#ff0000"}}, {"type": "Feature", "geometry": {"type": "Point", "coordinates": [2.34291, 48.854427]}, "properties": {"alarme": "VEHICULE DELOCALISE", "numparc": 5642, "type": "EXPLOITATION", "duree": "00:10:48", "horodatage": "2022-05-06 19:08:11", "statut": "start", "marker-color": "#ff0000"}}, {"type": "Feature", "geometry": {"type": "Point", "coordinates": [2.34287, 48.854237]}, "properties": {"alarme": "VEHICULE DELOCALISE", "numparc": 5654, "type": "EXPLOITATION", "duree": "00:07:49", "horodatage": "2022-05-06 19:14:05", "statut": "start", "marker-color": "#ff0000"}}, {"type": "Feature", "geometry": {"type": "Point", "coordinates": [2.342864, 48.854488]}, "properties": {"alarme": "VEHICULE DELOCALISE", "numparc": 5643, "type": "EXPLOITATION", "duree": "00:07:59", "horodatage": "2022-05-06 19:20:17", "statut": "start", "marker-color": "#ff0000"}}, {"type": "Feature", "geometry": {"type": "Point", "coordinates": [2.359493, 48.894211]}, "properties": {"alarme": "VEHICULE DELOCALISE", "numparc": 5669, "type": "EXPLOITATION", "duree": "00:00:44", "horodatage": "2022-05-06 19:21:58", "statut": "start", "marker-color": "#ff0000"}}, {"type": "Feature", "geometry": {"type": "Point", "coordinates": [2.325376, 48.822685]}, "properties": {"alarme": "VEHICULE DELOCALISE", "numparc": 5679, "type": "EXPLOITATION", "duree": "00:45:58", "horodatage": "2022-05-06 19:23:06", "statut": "start", "marker-color": "#ff0000"}}, {"type": "Feature", "geometry": {"type": "Point", "coordinates": [2.359433, 48.894348]}, "properties": {"alarme": "VEHICULE DELOCALISE", "numparc": 5653, "type": "EXPLOITATION", "duree": "00:00:35", "horodatage": "2022-05-06 19:28:41", "statut": "start", "marker-color": "#ff0000"}}, {"type": "Feature", "geometry": {"type": "Point", "coordinates": [2.359443, 48.894169]}, "properties": {"alarme": "VEHICULE DELOCALISE", "numparc": 5641, "type": "EXPLOITATION", "duree": "00:00:46", "horodatage": "2022-05-06 19:35:13", "statut": "start", "marker-color": "#ff0000"}}, {"type": "Feature", "geometry": {"type": "Point", "coordinates": [2.359411, 48.89436]}, "properties": {"alarme": "VEHICULE DELOCALISE", "numparc": 5677, "type": "EXPLOITATION", "duree": "00:03:37", "horodatage": "2022-05-06 19:51:38", "statut": "start", "marker-color": "#ff0000"}}, {"type": "Feature", "geometry": {"type": "Point", "coordinates": [2.359663, 48.892262]}, "properties": {"alarme": "VEHICULE DELOCALISE", "numparc": 5660, "type": "EXPLOITATION", "duree": "00:01:12", "horodatage": "2022-05-06 19:55:04", "statut": "start", "marker-color": "#ff0000"}}, {"type": "Feature", "geometry": {"type": "Point", "coordinates": [2.359387, 48.894314]}, "properties": {"alarme": "VEHICULE DELOCALISE", "numparc": 5644, "type": "EXPLOITATION", "duree": "00:00:31", "horodatage": "2022-05-06 20:26:20", "statut": "start", "marker-color": "#ff0000"}}, {"type": "Feature", "geometry": {"type": "Point", "coordinates": [2.359151, 48.896984]}, "properties": {"alarme": "VEHICULE DELOCALISE", "numparc": 5665, "type": "EXPLOITATION", "duree": "00:00:30", "horodatage": "2022-05-06 20:42:26", "statut": "start", "marker-color": "#ff0000"}}, {"type": "Feature", "geometry": {"type": "Point", "coordinates": [2.359221, 48.897194]}, "properties": {"alarme": "VEHICULE DELOCALISE", "numparc": 5648, "type": "EXPLOITATION", "duree": "00:00:35", "horodatage": "2022-05-06 20:43:30", "statut": "start", "marker-color": "#ff0000"}}, {"type": "Feature", "geometry": {"type": "Point", "coordinates": [2.342808, 48.854404]}, "properties": {"alarme": "VEHICULE DELOCALISE", "numparc": 5669, "type": "EXPLOITATION", "duree": "00:06:06", "horodatage": "2022-05-06 20:47:25", "statut": "start", "marker-color": "#ff0000"}}, {"type": "Feature", "geometry": {"type": "Point", "coordinates": [2.359391, 48.894375]}, "properties": {"alarme": "VEHICULE DELOCALISE", "numparc": 5653, "type": "EXPLOITATION", "duree": "00:00:29", "horodatage": "2022-05-06 21:35:46", "statut": "start", "marker-color": "#ff0000"}}, {"type": "Feature", "geometry": {"type": "Point", "coordinates": [2.359525, 48.894249]}, "properties": {"alarme": "VEHICULE DELOCALISE", "numparc": 5641, "type": "EXPLOITATION", "duree": "00:00:31", "horodatage": "2022-05-06 21:43:42", "statut": "start", "marker-color": "#ff0000"}}, {"type": "Feature", "geometry": {"type": "Point", "coordinates": [2.342909, 48.854412]}, "properties": {"alarme": "VEHICULE DELOCALISE", "numparc": 5643, "type": "EXPLOITATION", "duree": "00:04:36", "horodatage": "2022-05-06 21:45:41", "statut": "start", "marker-color": "#ff0000"}}, {"type": "Feature", "geometry": {"type": "Point", "coordinates": [2.359524, 48.894211]}, "properties": {"alarme": "VEHICULE DELOCALISE", "numparc": 5660, "type": "EXPLOITATION", "duree": "00:00:45", "horodatage": "2022-05-06 21:58:54", "statut": "start", "marker-color": "#ff0000"}}, {"type": "Feature", "geometry": {"type": "Point", "coordinates": [2.359474, 48.894184]}, "properties": {"alarme": "VEHICULE DELOCALISE", "numparc": 5677, "type": "EXPLOITATION", "duree": "00:00:35", "horodatage": "2022-05-06 22:07:06", "statut": "start", "marker-color": "#ff0000"}}, {"type": "Feature", "geometry": {"type": "Point", "coordinates": [2.342901, 48.854378]}, "properties": {"alarme": "VEHICULE DELOCALISE", "numparc": 5640, "type": "EXPLOITATION", "duree": "00:03:48", "horodatage": "2022-05-06 22:08:06", "statut": "start", "marker-color": "#ff0000"}}, {"type": "Feature", "geometry": {"type": "Point", "coordinates": [2.359426, 48.894272]}, "properties": {"alarme": "VEHICULE DELOCALISE", "numparc": 5642, "type": "EXPLOITATION", "duree": "00:00:44", "horodatage": "2022-05-06 22:16:19", "statut": "start", "marker-color": "#ff0000"}}, {"type": "Feature", "geometry": {"type": "Point", "coordinates": [2.353336, 48.86219]}, "properties": {"alarme": "VEHICULE DELOCALISE", "numparc": 5660, "type": "EXPLOITATION", "duree": "00:00:47", "horodatage": "2022-05-06 22:18:17", "statut": "start", "marker-color": "#ff0000"}}, {"type": "Feature", "geometry": {"type": "Point", "coordinates": [2.359451, 48.894211]}, "properties": {"alarme": "VEHICULE DELOCALISE", "numparc": 5643, "type": "EXPLOITATION", "duree": "00:00:31", "horodatage": "2022-05-06 22:25:54", "statut": "start", "marker-color": "#ff0000"}}, {"type": "Feature", "geometry": {"type": "Point", "coordinates": [2.342647, 48.84869]}, "properties": {"alarme": "VEHICULE DELOCALISE", "numparc": 5660, "type": "EXPLOITATION", "duree": "00:01:28", "horodatage": "2022-05-06 22:28:34", "statut": "start", "marker-color": "#ff0000"}}, {"type": "Feature", "geometry": {"type": "Point", "coordinates": [2.357226, 48.878551]}, "properties": {"alarme": "VEHICULE DELOCALISE", "numparc": 5648, "type": "EXPLOITATION", "duree": "00:01:25", "horodatage": "2022-05-06 22:29:04", "statut": "start", "marker-color": "#ff0000"}}, {"type": "Feature", "geometry": {"type": "Point", "coordinates": [2.325256, 48.822716]}, "properties": {"alarme": "VEHICULE DELOCALISE", "numparc": 5641, "type": "EXPLOITATION", "duree": "00:30:21", "horodatage": "2022-05-06 22:33:24", "statut": "start", "marker-color": "#ff0000"}}, {"type": "Feature", "geometry": {"type": "Point", "coordinates": [2.359458, 48.894203]}, "properties": {"alarme": "VEHICULE DELOCALISE", "numparc": 5665, "type": "EXPLOITATION", "duree": "00:00:47", "horodatage": "2022-05-06 22:56:10", "statut": "start", "marker-color": "#ff0000"}}, {"type": "Feature", "geometry": {"type": "Point", "coordinates": [2.325439, 48.82267]}, "properties": {"alarme": "VEHICULE DELOCALISE", "numparc": 5665, "type": "EXPLOITATION", "duree": "00:27:46", "horodatage": "2022-05-06 23:38:54", "statut": "start", "marker-color": "#ff0000"}}, {"type": "Feature", "geometry": {"type": "Point", "coordinates": [2.342543, 48.854607]}, "properties": {"alarme": "VEHICULE DELOCALISE", "numparc": 5643, "type": "EXPLOITATION", "duree": "00:04:19", "horodatage": "2022-05-06 23:44:49", "statut": "start", "marker-color": "#ff0000"}}, {"type": "Feature", "geometry": {"type": "Point", "coordinates": [2.359435, 48.894398]}, "properties": {"alarme": "VEHICULE DELOCALISE", "numparc": 5660, "type": "EXPLOITATION", "duree": "00:00:31", "horodatage": "2022-05-07 00:01:43", "statut": "start", "marker-color": "#ff0000"}}, {"type": "Feature", "geometry": {"type": "Point", "coordinates": [2.349029, 48.859749]}, "properties": {"alarme": "VEHICULE DELOCALISE", "numparc": 5640, "type": "EXPLOITATION", "duree": "00:00:30", "horodatage": "2022-05-07 00:01:48", "statut": "start", "marker-color": "#ff0000"}}, {"type": "Feature", "geometry": {"type": "Point", "coordinates": [2.35944, 48.894234]}, "properties": {"alarme": "VEHICULE DELOCALISE", "numparc": 5643, "type": "EXPLOITATION", "duree": "00:00:28", "horodatage": "2022-05-07 00:17:45", "statut": "start", "marker-color": "#ff0000"}}, {"type": "Feature", "geometry": {"type": "Point", "coordinates": [2.347654, 48.8578]}, "properties": {"alarme": "VEHICULE DELOCALISE", "numparc": 5640, "type": "EXPLOITATION", "duree": "00:04:36", "horodatage": "2022-05-07 00:46:31", "statut": "start", "marker-color": "#ff0000"}}, {"type": "Feature", "geometry": {"type": "Point", "coordinates": [2.325386, 48.822906]}, "properties": {"alarme": "VEHICULE DELOCALISE", "numparc": 5640, "type": "EXPLOITATION", "duree": "00:01:18", "horodatage": "2022-05-07 01:07:29", "statut": "start", "marker-color": "#ff0000"}}, {"type": "Feature", "geometry": {"type": "Point", "coordinates": [2.358237, 48.873905]}, "properties": {"alarme": "VEHICULE DELOCALISE", "numparc": 5638, "type": "EXPLOITATION", "duree": "00:09:38", "horodatage": "2022-05-06 05:41:36", "statut": "end", "marker-color": "#2fe184"}}, {"type": "Feature", "geometry": {"type": "Point", "coordinates": [2.355174, 48.865658]}, "properties": {"alarme": "VEHICULE DELOCALISE", "numparc": 5638, "type": "EXPLOITATION", "duree": "00:00:13", "horodatage": "2022-05-06 05:46:12", "statut": "end", "marker-color": "#2fe184"}}, {"type": "Feature", "geometry": {"type": "Point", "coordinates": [2.35119, 48.863682]}, "properties": {"alarme": "VEHICULE DELOCALISE", "numparc": 5679, "type": "EXPLOITATION", "duree": "00:05:00", "horodatage": "2022-05-06 06:00:52", "statut": "end", "marker-color": "#2fe184"}}, {"type": "Feature", "geometry": {"type": "Point", "coordinates": [2.349692, 48.861076]}, "properties": {"alarme": "VEHICULE DELOCALISE", "numparc": 5652, "type": "EXPLOITATION", "duree": "00:05:26", "horodatage": "2022-05-06 06:33:35", "statut": "end", "marker-color": "#2fe184"}}, {"type": "Feature", "geometry": {"type": "Point", "coordinates": [2.359656, 48.892902]}, "properties": {"alarme": "VEHICULE DELOCALISE", "numparc": 5679, "type": "EXPLOITATION", "duree": "00:00:29", "horodatage": "2022-05-06 06:33:28", "statut": "end", "marker-color": "#2fe184"}}, {"type": "Feature", "geometry": {"type": "Point", "coordinates": [2.359645, 48.892849]}, "properties": {"alarme": "VEHICULE DELOCALISE", "numparc": 5669, "type": "EXPLOITATION", "duree": "00:00:32", "horodatage": "2022-05-06 06:49:32", "statut": "end", "marker-color": "#2fe184"}}, {"type": "Feature", "geometry": {"type": "Point", "coordinates": [2.34815, 48.858273]}, "properties": {"alarme": "VEHICULE DELOCALISE", "numparc": 5660, "type": "EXPLOITATION", "duree": "00:03:29", "horodatage": "2022-05-06 06:56:39", "statut": "end", "marker-color": "#2fe184"}}, {"type": "Feature", "geometry": {"type": "Point", "coordinates": [2.35966, 48.892879]}, "properties": {"alarme": "VEHICULE DELOCALISE", "numparc": 5652, "type": "EXPLOITATION", "duree": "00:00:24", "horodatage": "2022-05-06 07:03:50", "statut": "end", "marker-color": "#2fe184"}}, {"type": "Feature", "geometry": {"type": "Point", "coordinates": [2.349676, 48.861095]}, "properties": {"alarme": "VEHICULE DELOCALISE", "numparc": 5642, "type": "EXPLOITATION", "duree": "00:06:30", "horodatage": "2022-05-06 07:13:33", "statut": "end", "marker-color": "#2fe184"}}, {"type": "Feature", "geometry": {"type": "Point", "coordinates": [2.348078, 48.858135]}, "properties": {"alarme": "VEHICULE DELOCALISE", "numparc": 5646, "type": "EXPLOITATION", "duree": "00:05:47", "horodatage": "2022-05-06 07:21:35", "statut": "end", "marker-color": "#2fe184"}}, {"type": "Feature", "geometry": {"type": "Point", "coordinates": [2.347867, 48.857697]}, "properties": {"alarme": "VEHICULE DELOCALISE", "numparc": 5644, "type": "EXPLOITATION", "duree": "00:04:05", "horodatage": "2022-05-06 07:37:57", "statut": "end", "marker-color": "#2fe184"}}, {"type": "Feature", "geometry": {"type": "Point", "coordinates": [2.35679, 48.872055]}, "properties": {"alarme": "VEHICULE DELOCALISE", "numparc": 5660, "type": "EXPLOITATION", "duree": "00:00:47", "horodatage": "2022-05-06 07:42:12", "statut": "end", "marker-color": "#2fe184"}}, {"type": "Feature", "geometry": {"type": "Point", "coordinates": [2.348165, 48.858307]}, "properties": {"alarme": "VEHICULE DELOCALISE", "numparc": 5670, "type": "EXPLOITATION", "duree": "00:06:07", "horodatage": "2022-05-06 07:47:41", "statut": "end", "marker-color": "#2fe184"}}, {"type": "Feature", "geometry": {"type": "Point", "coordinates": [2.347814, 48.854904]}, "properties": {"alarme": "VEHICULE DELOCALISE", "numparc": 5638, "type": "EXPLOITATION", "duree": "00:01:33", "horodatage": "2022-05-06 07:51:09", "statut": "end", "marker-color": "#2fe184"}}, {"type": "Feature", "geometry": {"type": "Point", "coordinates": [2.348011, 48.858002]}, "properties": {"alarme": "VEHICULE DELOCALISE", "numparc": 5679, "type": "EXPLOITATION", "duree": "00:05:42", "horodatage": "2022-05-06 07:56:04", "statut": "end", "marker-color": "#2fe184"}}, {"type": "Feature", "geometry": {"type": "Point", "coordinates": [2.359644, 48.89291]}, "properties": {"alarme": "VEHICULE DELOCALISE", "numparc": 5646, "type": "EXPLOITATION", "duree": "00:00:31", "horodatage": "2022-05-06 07:58:37", "statut": "end", "marker-color": "#2fe184"}}, {"type": "Feature", "geometry": {"type": "Point", "coordinates": [2.348202, 48.858307]}, "properties": {"alarme": "VEHICULE DELOCALISE", "numparc": 5665, "type": "EXPLOITATION", "duree": "00:05:54", "horodatage": "2022-05-06 08:12:50", "statut": "end", "marker-color": "#2fe184"}}, {"type": "Feature", "geometry": {"type": "Point", "coordinates": [2.347812, 48.85767]}, "properties": {"alarme": "VEHICULE DELOCALISE", "numparc": 5669, "type": "EXPLOITATION", "duree": "00:05:13", "horodatage": "2022-05-06 08:15:28", "statut": "end", "marker-color": "#2fe184"}}, {"type": "Feature", "geometry": {"type": "Point", "coordinates": [2.359668, 48.892815]}, "properties": {"alarme": "VEHICULE DELOCALISE", "numparc": 5644, "type": "EXPLOITATION", "duree": "00:00:32", "horodatage": "2022-05-06 08:15:57", "statut": "end", "marker-color": "#2fe184"}}, {"type": "Feature", "geometry": {"type": "Point", "coordinates": [2.348163, 48.85828]}, "properties": {"alarme": "VEHICULE DELOCALISE", "numparc": 5661, "type": "EXPLOITATION", "duree": "00:06:25", "horodatage": "2022-05-06 08:25:24", "statut": "end", "marker-color": "#2fe184"}}, {"type": "Feature", "geometry": {"type": "Point", "coordinates": [2.359725, 48.89275]}, "properties": {"alarme": "VEHICULE DELOCALISE", "numparc": 5670, "type": "EXPLOITATION", "duree": "00:00:30", "horodatage": "2022-05-06 08:21:17", "statut": "end", "marker-color": "#2fe184"}}, {"type": "Feature", "geometry": {"type": "Point", "coordinates": [2.348192, 48.858299]}, "properties": {"alarme": "VEHICULE DELOCALISE", "numparc": 5677, "type": "EXPLOITATION", "duree": "00:05:45", "horodatage": "2022-05-06 08:29:18", "statut": "end", "marker-color": "#2fe184"}}, {"type": "Feature", "geometry": {"type": "Point", "coordinates": [2.359674, 48.892849]}, "properties": {"alarme": "VEHICULE DELOCALISE", "numparc": 5652, "type": "EXPLOITATION", "duree": "00:51:00", "horodatage": "2022-05-06 09:21:57", "statut": "end", "marker-color": "#2fe184"}}, {"type": "Feature", "geometry": {"type": "Point", "coordinates": [2.359708, 48.892754]}, "properties": {"alarme": "VEHICULE DELOCALISE", "numparc": 5679, "type": "EXPLOITATION", "duree": "00:01:08", "horodatage": "2022-05-06 08:34:01", "statut": "end", "marker-color": "#2fe184"}}, {"type": "Feature", "geometry": {"type": "Point", "coordinates": [2.359672, 48.893181]}, "properties": {"alarme": "VEHICULE DELOCALISE", "numparc": 5661, "type": "EXPLOITATION", "duree": "00:00:30", "horodatage": "2022-05-06 09:09:17", "statut": "end", "marker-color": "#2fe184"}}, {"type": "Feature", "geometry": {"type": "Point", "coordinates": [2.348187, 48.858292]}, "properties": {"alarme": "VEHICULE DELOCALISE", "numparc": 5642, "type": "EXPLOITATION", "duree": "00:05:44", "horodatage": "2022-05-06 09:18:37", "statut": "end", "marker-color": "#2fe184"}}, {"type": "Feature", "geometry": {"type": "Point", "coordinates": [2.359757, 48.892868]}, "properties": {"alarme": "VEHICULE DELOCALISE", "numparc": 5677, "type": "EXPLOITATION", "duree": "00:01:08", "horodatage": "2022-05-06 09:16:39", "statut": "end", "marker-color": "#2fe184"}}, {"type": "Feature", "geometry": {"type": "Point", "coordinates": [2.351272, 48.863838]}, "properties": {"alarme": "VEHICULE DELOCALISE", "numparc": 5649, "type": "EXPLOITATION", "duree": "00:10:20", "horodatage": "2022-05-06 09:34:03", "statut": "end", "marker-color": "#2fe184"}}, {"type": "Feature", "geometry": {"type": "Point", "coordinates": [2.348095, 48.858147]}, "properties": {"alarme": "VEHICULE DELOCALISE", "numparc": 5646, "type": "EXPLOITATION", "duree": "00:08:37", "horodatage": "2022-05-06 09:42:28", "statut": "end", "marker-color": "#2fe184"}}, {"type": "Feature", "geometry": {"type": "Point", "coordinates": [2.348065, 48.858074]}, "properties": {"alarme": "VEHICULE DELOCALISE", "numparc": 5644, "type": "EXPLOITATION", "duree": "00:07:17", "horodatage": "2022-05-06 09:58:58", "statut": "end", "marker-color": "#2fe184"}}, {"type": "Feature", "geometry": {"type": "Point", "coordinates": [2.348099, 48.858158]}, "properties": {"alarme": "VEHICULE DELOCALISE", "numparc": 5670, "type": "EXPLOITATION", "duree": "00:06:07", "horodatage": "2022-05-06 10:05:35", "statut": "end", "marker-color": "#2fe184"}}, {"type": "Feature", "geometry": {"type": "Point", "coordinates": [2.359679, 48.89278]}, "properties": {"alarme": "VEHICULE DELOCALISE", "numparc": 5649, "type": "EXPLOITATION", "duree": "00:01:08", "horodatage": "2022-05-06 10:12:46", "statut": "end", "marker-color": "#2fe184"}}, {"type": "Feature", "geometry": {"type": "Point", "coordinates": [2.348191, 48.85833]}, "properties": {"alarme": "VEHICULE DELOCALISE", "numparc": 5679, "type": "EXPLOITATION", "duree": "00:08:25", "horodatage": "2022-05-06 10:21:29", "statut": "end", "marker-color": "#2fe184"}}, {"type": "Feature", "geometry": {"type": "Point", "coordinates": [2.35969, 48.892849]}, "properties": {"alarme": "VEHICULE DELOCALISE", "numparc": 5646, "type": "EXPLOITATION", "duree": "00:01:16", "horodatage": "2022-05-06 10:24:42", "statut": "end", "marker-color": "#2fe184"}}, {"type": "Feature", "geometry": {"type": "Point", "coordinates": [2.34818, 48.858311]}, "properties": {"alarme": "VEHICULE DELOCALISE", "numparc": 5665, "type": "EXPLOITATION", "duree": "00:06:39", "horodatage": "2022-05-06 10:35:33", "statut": "end", "marker-color": "#2fe184"}}, {"type": "Feature", "geometry": {"type": "Point", "coordinates": [2.348147, 48.858318]}, "properties": {"alarme": "VEHICULE DELOCALISE", "numparc": 5669, "type": "EXPLOITATION", "duree": "00:05:37", "horodatage": "2022-05-06 10:43:39", "statut": "end", "marker-color": "#2fe184"}}, {"type": "Feature", "geometry": {"type": "Point", "coordinates": [2.348188, 48.858356]}, "properties": {"alarme": "VEHICULE DELOCALISE", "numparc": 5653, "type": "EXPLOITATION", "duree": "00:06:01", "horodatage": "2022-05-06 10:45:08", "statut": "end", "marker-color": "#2fe184"}}, {"type": "Feature", "geometry": {"type": "Point", "coordinates": [2.35964, 48.892876]}, "properties": {"alarme": "VEHICULE DELOCALISE", "numparc": 5644, "type": "EXPLOITATION", "duree": "00:00:54", "horodatage": "2022-05-06 10:42:51", "statut": "end", "marker-color": "#2fe184"}}, {"type": "Feature", "geometry": {"type": "Point", "coordinates": [2.359695, 48.892792]}, "properties": {"alarme": "VEHICULE DELOCALISE", "numparc": 5670, "type": "EXPLOITATION", "duree": "00:00:49", "horodatage": "2022-05-06 10:48:05", "statut": "end", "marker-color": "#2fe184"}}, {"type": "Feature", "geometry": {"type": "Point", "coordinates": [2.352432, 48.859783]}, "properties": {"alarme": "VEHICULE DELOCALISE", "numparc": 5646, "type": "EXPLOITATION", "duree": "00:00:47", "horodatage": "2022-05-06 10:48:39", "statut": "end", "marker-color": "#2fe184"}}, {"type": "Feature", "geometry": {"type": "Point", "coordinates": [2.348173, 48.858322]}, "properties": {"alarme": "VEHICULE DELOCALISE", "numparc": 5661, "type": "EXPLOITATION", "duree": "00:06:03", "horodatage": "2022-05-06 10:56:38", "statut": "end", "marker-color": "#2fe184"}}, {"type": "Feature", "geometry": {"type": "Point", "coordinates": [2.348168, 48.858311]}, "properties": {"alarme": "VEHICULE DELOCALISE", "numparc": 5677, "type": "EXPLOITATION", "duree": "00:06:06", "horodatage": "2022-05-06 11:02:24", "statut": "end", "marker-color": "#2fe184"}}, {"type": "Feature", "geometry": {"type": "Point", "coordinates": [2.359638, 48.89307]}, "properties": {"alarme": "VEHICULE DELOCALISE", "numparc": 5679, "type": "EXPLOITATION", "duree": "00:00:51", "horodatage": "2022-05-06 11:04:08", "statut": "end", "marker-color": "#2fe184"}}, {"type": "Feature", "geometry": {"type": "Point", "coordinates": [2.349588, 48.861004]}, "properties": {"alarme": "VEHICULE DELOCALISE", "numparc": 5660, "type": "EXPLOITATION", "duree": "00:08:48", "horodatage": "2022-05-06 11:24:21", "statut": "end", "marker-color": "#2fe184"}}, {"type": "Feature", "geometry": {"type": "Point", "coordinates": [2.359679, 48.892868]}, "properties": {"alarme": "VEHICULE DELOCALISE", "numparc": 5665, "type": "EXPLOITATION", "duree": "00:00:50", "horodatage": "2022-05-06 11:20:04", "statut": "end", "marker-color": "#2fe184"}}, {"type": "Feature", "geometry": {"type": "Point", "coordinates": [2.359689, 48.892872]}, "properties": {"alarme": "VEHICULE DELOCALISE", "numparc": 5669, "type": "EXPLOITATION", "duree": "00:00:33", "horodatage": "2022-05-06 11:24:11", "statut": "end", "marker-color": "#2fe184"}}, {"type": "Feature", "geometry": {"type": "Point", "coordinates": [2.340265, 48.846352]}, "properties": {"alarme": "VEHICULE DELOCALISE", "numparc": 5644, "type": "EXPLOITATION", "duree": "00:01:24", "horodatage": "2022-05-06 11:28:17", "statut": "end", "marker-color": "#2fe184"}}, {"type": "Feature", "geometry": {"type": "Point", "coordinates": [2.352335, 48.859951]}, "properties": {"alarme": "VEHICULE DELOCALISE", "numparc": 5679, "type": "EXPLOITATION", "duree": "00:00:43", "horodatage": "2022-05-06 11:29:27", "statut": "end", "marker-color": "#2fe184"}}, {"type": "Feature", "geometry": {"type": "Point", "coordinates": [2.359616, 48.892887]}, "properties": {"alarme": "VEHICULE DELOCALISE", "numparc": 5653, "type": "EXPLOITATION", "duree": "00:00:43", "horodatage": "2022-05-06 11:29:28", "statut": "end", "marker-color": "#2fe184"}}, {"type": "Feature", "geometry": {"type": "Point", "coordinates": [2.348181, 48.858353]}, "properties": {"alarme": "VEHICULE DELOCALISE", "numparc": 5642, "type": "EXPLOITATION", "duree": "00:07:55", "horodatage": "2022-05-06 11:41:58", "statut": "end", "marker-color": "#2fe184"}}, {"type": "Feature", "geometry": {"type": "Point", "coordinates": [2.359666, 48.892807]}, "properties": {"alarme": "VEHICULE DELOCALISE", "numparc": 5661, "type": "EXPLOITATION", "duree": "00:00:53", "horodatage": "2022-05-06 11:36:14", "statut": "end", "marker-color": "#2fe184"}}, {"type": "Feature", "geometry": {"type": "Point", "coordinates": [2.359695, 48.89283]}, "properties": {"alarme": "VEHICULE DELOCALISE", "numparc": 5677, "type": "EXPLOITATION", "duree": "00:00:56", "horodatage": "2022-05-06 11:43:09", "statut": "end", "marker-color": "#2fe184"}}, {"type": "Feature", "geometry": {"type": "Point", "coordinates": [2.348199, 48.858334]}, "properties": {"alarme": "VEHICULE DELOCALISE", "numparc": 5649, "type": "EXPLOITATION", "duree": "00:07:04", "horodatage": "2022-05-06 11:57:05", "statut": "end", "marker-color": "#2fe184"}}, {"type": "Feature", "geometry": {"type": "Point", "coordinates": [2.348199, 48.858311]}, "properties": {"alarme": "VEHICULE DELOCALISE", "numparc": 5646, "type": "EXPLOITATION", "duree": "00:06:00", "horodatage": "2022-05-06 12:04:12", "statut": "end", "marker-color": "#2fe184"}}, {"type": "Feature", "geometry": {"type": "Point", "coordinates": [2.359709, 48.892921]}, "properties": {"alarme": "VEHICULE DELOCALISE", "numparc": 5660, "type": "EXPLOITATION", "duree": "00:00:46", "horodatage": "2022-05-06 12:01:33", "statut": "end", "marker-color": "#2fe184"}}, {"type": "Feature", "geometry": {"type": "Point", "coordinates": [2.359647, 48.887379]}, "properties": {"alarme": "VEHICULE DELOCALISE", "numparc": 5660, "type": "EXPLOITATION", "duree": "00:02:56", "horodatage": "2022-05-06 12:05:25", "statut": "end", "marker-color": "#2fe184"}}, {"type": "Feature", "geometry": {"type": "Point", "coordinates": [2.343663, 48.852512]}, "properties": {"alarme": "VEHICULE DELOCALISE", "numparc": 5661, "type": "EXPLOITATION", "duree": "00:20:17", "horodatage": "2022-05-06 12:23:19", "statut": "end", "marker-color": "#2fe184"}}, {"type": "Feature", "geometry": {"type": "Point", "coordinates": [2.357888, 48.881111]}, "properties": {"alarme": "VEHICULE DELOCALISE", "numparc": 5660, "type": "EXPLOITATION", "duree": "00:03:07", "horodatage": "2022-05-06 12:11:55", "statut": "end", "marker-color": "#2fe184"}}, {"type": "Feature", "geometry": {"type": "Point", "coordinates": [2.347997, 48.858303]}, "properties": {"alarme": "VEHICULE DELOCALISE", "numparc": 5644, "type": "EXPLOITATION", "duree": "00:05:56", "horodatage": "2022-05-06 12:18:08", "statut": "end", "marker-color": "#2fe184"}}, {"type": "Feature", "geometry": {"type": "Point", "coordinates": [2.356131, 48.877758]}, "properties": {"alarme": "VEHICULE DELOCALISE", "numparc": 5660, "type": "EXPLOITATION", "duree": "00:02:19", "horodatage": "2022-05-06 12:15:01", "statut": "end", "marker-color": "#2fe184"}}, {"type": "Feature", "geometry": {"type": "Point", "coordinates": [2.35855, 48.874409]}, "properties": {"alarme": "VEHICULE DELOCALISE", "numparc": 5660, "type": "EXPLOITATION", "duree": "00:08:03", "horodatage": "2022-05-06 12:24:02", "statut": "end", "marker-color": "#2fe184"}}, {"type": "Feature", "geometry": {"type": "Point", "coordinates": [2.348078, 48.858105]}, "properties": {"alarme": "VEHICULE DELOCALISE", "numparc": 5679, "type": "EXPLOITATION", "duree": "00:07:03", "horodatage": "2022-05-06 12:46:16", "statut": "end", "marker-color": "#2fe184"}}, {"type": "Feature", "geometry": {"type": "Point", "coordinates": [2.359644, 48.892792]}, "properties": {"alarme": "VEHICULE DELOCALISE", "numparc": 5649, "type": "EXPLOITATION", "duree": "00:00:28", "horodatage": "2022-05-06 12:43:10", "statut": "end", "marker-color": "#2fe184"}}, {"type": "Feature", "geometry": {"type": "Point", "coordinates": [2.348212, 48.858303]}, "properties": {"alarme": "VEHICULE DELOCALISE", "numparc": 5665, "type": "EXPLOITATION", "duree": "00:05:14", "horodatage": "2022-05-06 12:57:57", "statut": "end", "marker-color": "#2fe184"}}, {"type": "Feature", "geometry": {"type": "Point", "coordinates": [2.359631, 48.892773]}, "properties": {"alarme": "VEHICULE DELOCALISE", "numparc": 5646, "type": "EXPLOITATION", "duree": "00:00:51", "horodatage": "2022-05-06 12:54:52", "statut": "end", "marker-color": "#2fe184"}}, {"type": "Feature", "geometry": {"type": "Point", "coordinates": [2.348221, 48.858299]}, "properties": {"alarme": "VEHICULE DELOCALISE", "numparc": 5669, "type": "EXPLOITATION", "duree": "00:06:58", "horodatage": "2022-05-06 13:04:50", "statut": "end", "marker-color": "#2fe184"}}, {"type": "Feature", "geometry": {"type": "Point", "coordinates": [2.349661, 48.861084]}, "properties": {"alarme": "VEHICULE DELOCALISE", "numparc": 5653, "type": "EXPLOITATION", "duree": "00:07:01", "horodatage": "2022-05-06 13:09:09", "statut": "end", "marker-color": "#2fe184"}}, {"type": "Feature", "geometry": {"type": "Point", "coordinates": [2.348191, 48.858299]}, "properties": {"alarme": "VEHICULE DELOCALISE", "numparc": 5661, "type": "EXPLOITATION", "duree": "00:08:30", "horodatage": "2022-05-06 13:23:38", "statut": "end", "marker-color": "#2fe184"}}, {"type": "Feature", "geometry": {"type": "Point", "coordinates": [2.348178, 48.858322]}, "properties": {"alarme": "VEHICULE DELOCALISE", "numparc": 5677, "type": "EXPLOITATION", "duree": "00:08:31", "horodatage": "2022-05-06 13:30:34", "statut": "end", "marker-color": "#2fe184"}}, {"type": "Feature", "geometry": {"type": "Point", "coordinates": [2.359641, 48.892887]}, "properties": {"alarme": "VEHICULE DELOCALISE", "numparc": 5679, "type": "EXPLOITATION", "duree": "00:00:28", "horodatage": "2022-05-06 13:26:45", "statut": "end", "marker-color": "#2fe184"}}, {"type": "Feature", "geometry": {"type": "Point", "coordinates": [2.348145, 48.858299]}, "properties": {"alarme": "VEHICULE DELOCALISE", "numparc": 5660, "type": "EXPLOITATION", "duree": "00:06:13", "horodatage": "2022-05-06 13:48:15", "statut": "end", "marker-color": "#2fe184"}}, {"type": "Feature", "geometry": {"type": "Point", "coordinates": [2.359624, 48.893002]}, "properties": {"alarme": "VEHICULE DELOCALISE", "numparc": 5665, "type": "EXPLOITATION", "duree": "00:00:39", "horodatage": "2022-05-06 13:49:18", "statut": "end", "marker-color": "#2fe184"}}, {"type": "Feature", "geometry": {"type": "Point", "coordinates": [2.359698, 48.892879]}, "properties": {"alarme": "VEHICULE DELOCALISE", "numparc": 5669, "type": "EXPLOITATION", "duree": "00:00:31", "horodatage": "2022-05-06 13:54:55", "statut": "end", "marker-color": "#2fe184"}}, {"type": "Feature", "geometry": {"type": "Point", "coordinates": [2.359665, 48.892872]}, "properties": {"alarme": "VEHICULE DELOCALISE", "numparc": 5653, "type": "EXPLOITATION", "duree": "00:00:48", "horodatage": "2022-05-06 14:01:19", "statut": "end", "marker-color": "#2fe184"}}, {"type": "Feature", "geometry": {"type": "Point", "coordinates": [2.348181, 48.858303]}, "properties": {"alarme": "VEHICULE DELOCALISE", "numparc": 5642, "type": "EXPLOITATION", "duree": "00:07:02", "horodatage": "2022-05-06 14:12:46", "statut": "end", "marker-color": "#2fe184"}}, {"type": "Feature", "geometry": {"type": "Point", "coordinates": [2.348139, 48.858345]}, "properties": {"alarme": "VEHICULE DELOCALISE", "numparc": 5646, "type": "EXPLOITATION", "duree": "00:06:04", "horodatage": "2022-05-06 14:27:51", "statut": "end", "marker-color": "#2fe184"}}, {"type": "Feature", "geometry": {"type": "Point", "coordinates": [2.359668, 48.892887]}, "properties": {"alarme": "VEHICULE DELOCALISE", "numparc": 5661, "type": "EXPLOITATION", "duree": "00:00:49", "horodatage": "2022-05-06 14:22:48", "statut": "end", "marker-color": "#2fe184"}}, {"type": "Feature", "geometry": {"type": "Point", "coordinates": [2.340197, 48.846344]}, "properties": {"alarme": "VEHICULE DELOCALISE", "numparc": 5665, "type": "EXPLOITATION", "duree": "00:01:20", "horodatage": "2022-05-06 14:26:44", "statut": "end", "marker-color": "#2fe184"}}, {"type": "Feature", "geometry": {"type": "Point", "coordinates": [2.348181, 48.858303]}, "properties": {"alarme": "VEHICULE DELOCALISE", "numparc": 5679, "type": "EXPLOITATION", "duree": "00:06:53", "horodatage": "2022-05-06 15:07:19", "statut": "end", "marker-color": "#2fe184"}}, {"type": "Feature", "geometry": {"type": "Point", "coordinates": [2.359646, 48.892887]}, "properties": {"alarme": "VEHICULE DELOCALISE", "numparc": 5642, "type": "EXPLOITATION", "duree": "00:00:37", "horodatage": "2022-05-06 15:08:05", "statut": "end", "marker-color": "#2fe184"}}, {"type": "Feature", "geometry": {"type": "Point", "coordinates": [2.340874, 48.847919]}, "properties": {"alarme": "VEHICULE DELOCALISE", "numparc": 5677, "type": "EXPLOITATION", "duree": "00:00:14", "horodatage": "2022-05-06 15:18:57", "statut": "end", "marker-color": "#2fe184"}}, {"type": "Feature", "geometry": {"type": "Point", "coordinates": [2.348176, 48.858341]}, "properties": {"alarme": "VEHICULE DELOCALISE", "numparc": 5669, "type": "EXPLOITATION", "duree": "00:07:02", "horodatage": "2022-05-06 15:38:53", "statut": "end", "marker-color": "#2fe184"}}, {"type": "Feature", "geometry": {"type": "Point", "coordinates": [2.348202, 48.858341]}, "properties": {"alarme": "VEHICULE DELOCALISE", "numparc": 5645, "type": "EXPLOITATION", "duree": "00:00:27", "horodatage": "2022-05-06 15:34:21", "statut": "end", "marker-color": "#2fe184"}}, {"type": "Feature", "geometry": {"type": "Point", "coordinates": [2.348142, 48.858315]}, "properties": {"alarme": "VEHICULE DELOCALISE", "numparc": 5653, "type": "EXPLOITATION", "duree": "00:06:21", "horodatage": "2022-05-06 15:44:50", "statut": "end", "marker-color": "#2fe184"}}, {"type": "Feature", "geometry": {"type": "Point", "coordinates": [2.342459, 48.850117]}, "properties": {"alarme": "VEHICULE DELOCALISE", "numparc": 5642, "type": "EXPLOITATION", "duree": "00:02:28", "horodatage": "2022-05-06 16:02:45", "statut": "end", "marker-color": "#2fe184"}}, {"type": "Feature", "geometry": {"type": "Point", "coordinates": [2.347875, 48.857735]}, "properties": {"alarme": "VEHICULE DELOCALISE", "numparc": 5661, "type": "EXPLOITATION", "duree": "00:05:15", "horodatage": "2022-05-06 16:16:06", "statut": "end", "marker-color": "#2fe184"}}, {"type": "Feature", "geometry": {"type": "Point", "coordinates": [2.347938, 48.857857]}, "properties": {"alarme": "VEHICULE DELOCALISE", "numparc": 5642, "type": "EXPLOITATION", "duree": "00:00:12", "horodatage": "2022-05-06 16:11:45", "statut": "end", "marker-color": "#2fe184"}}, {"type": "Feature", "geometry": {"type": "Point", "coordinates": [2.34392, 48.852524]}, "properties": {"alarme": "VEHICULE DELOCALISE", "numparc": 5665, "type": "EXPLOITATION", "duree": "00:08:15", "horodatage": "2022-05-06 16:24:12", "statut": "end", "marker-color": "#2fe184"}}, {"type": "Feature", "geometry": {"type": "Point", "coordinates": [2.359632, 48.89278]}, "properties": {"alarme": "VEHICULE DELOCALISE", "numparc": 5645, "type": "EXPLOITATION", "duree": "00:00:31", "horodatage": "2022-05-06 16:32:05", "statut": "end", "marker-color": "#2fe184"}}, {"type": "Feature", "geometry": {"type": "Point", "coordinates": [2.34385, 48.852573]}, "properties": {"alarme": "VEHICULE DELOCALISE", "numparc": 5679, "type": "EXPLOITATION", "duree": "00:04:47", "horodatage": "2022-05-06 16:37:15", "statut": "end", "marker-color": "#2fe184"}}, {"type": "Feature", "geometry": {"type": "Point", "coordinates": [2.359649, 48.892914]}, "properties": {"alarme": "VEHICULE DELOCALISE", "numparc": 5669, "type": "EXPLOITATION", "duree": "00:00:39", "horodatage": "2022-05-06 16:38:40", "statut": "end", "marker-color": "#2fe184"}}, {"type": "Feature", "geometry": {"type": "Point", "coordinates": [2.349643, 48.86108]}, "properties": {"alarme": "VEHICULE DELOCALISE", "numparc": 5643, "type": "EXPLOITATION", "duree": "00:00:36", "horodatage": "2022-05-06 16:42:59", "statut": "end", "marker-color": "#2fe184"}}, {"type": "Feature", "geometry": {"type": "Point", "coordinates": [2.359627, 48.892876]}, "properties": {"alarme": "VEHICULE DELOCALISE", "numparc": 5653, "type": "EXPLOITATION", "duree": "00:01:00", "horodatage": "2022-05-06 16:45:50", "statut": "end", "marker-color": "#2fe184"}}, {"type": "Feature", "geometry": {"type": "Point", "coordinates": [2.359613, 48.892868]}, "properties": {"alarme": "VEHICULE DELOCALISE", "numparc": 5661, "type": "EXPLOITATION", "duree": "00:00:31", "horodatage": "2022-05-06 17:13:18", "statut": "end", "marker-color": "#2fe184"}}, {"type": "Feature", "geometry": {"type": "Point", "coordinates": [2.359128, 48.896332]}, "properties": {"alarme": "VEHICULE DELOCALISE", "numparc": 5643, "type": "EXPLOITATION", "duree": "00:02:26", "horodatage": "2022-05-06 17:18:54", "statut": "end", "marker-color": "#2fe184"}}, {"type": "Feature", "geometry": {"type": "Point", "coordinates": [2.348152, 48.858082]}, "properties": {"alarme": "VEHICULE DELOCALISE", "numparc": 5679, "type": "EXPLOITATION", "duree": "00:04:52", "horodatage": "2022-05-06 17:38:29", "statut": "end", "marker-color": "#2fe184"}}, {"type": "Feature", "geometry": {"type": "Point", "coordinates": [2.348209, 48.858299]}, "properties": {"alarme": "VEHICULE DELOCALISE", "numparc": 5665, "type": "EXPLOITATION", "duree": "00:00:41", "horodatage": "2022-05-06 17:36:05", "statut": "end", "marker-color": "#2fe184"}}, {"type": "Feature", "geometry": {"type": "Point", "coordinates": [2.359116, 48.89666]}, "properties": {"alarme": "VEHICULE DELOCALISE", "numparc": 5646, "type": "EXPLOITATION", "duree": "00:00:21", "horodatage": "2022-05-06 17:37:42", "statut": "end", "marker-color": "#2fe184"}}, {"type": "Feature", "geometry": {"type": "Point", "coordinates": [2.342266, 48.849781]}, "properties": {"alarme": "VEHICULE DELOCALISE", "numparc": 5661, "type": "EXPLOITATION", "duree": "00:11:49", "horodatage": "2022-05-06 18:10:36", "statut": "end", "marker-color": "#2fe184"}}, {"type": "Feature", "geometry": {"type": "Point", "coordinates": [2.348205, 48.858322]}, "properties": {"alarme": "VEHICULE DELOCALISE", "numparc": 5645, "type": "EXPLOITATION", "duree": "00:09:37", "horodatage": "2022-05-06 18:21:47", "statut": "end", "marker-color": "#2fe184"}}, {"type": "Feature", "geometry": {"type": "Point", "coordinates": [2.341286, 48.848167]}, "properties": {"alarme": "VEHICULE DELOCALISE", "numparc": 5660, "type": "EXPLOITATION", "duree": "00:01:35", "horodatage": "2022-05-06 18:15:31", "statut": "end", "marker-color": "#2fe184"}}, {"type": "Feature", "geometry": {"type": "Point", "coordinates": [2.359101, 48.896713]}, "properties": {"alarme": "VEHICULE DELOCALISE", "numparc": 5665, "type": "EXPLOITATION", "duree": "00:00:18", "horodatage": "2022-05-06 18:15:57", "statut": "end", "marker-color": "#2fe184"}}, {"type": "Feature", "geometry": {"type": "Point", "coordinates": [2.347871, 48.857685]}, "properties": {"alarme": "VEHICULE DELOCALISE", "numparc": 5669, "type": "EXPLOITATION", "duree": "00:06:37", "horodatage": "2022-05-06 18:23:27", "statut": "end", "marker-color": "#2fe184"}}, {"type": "Feature", "geometry": {"type": "Point", "coordinates": [2.359453, 48.892826]}, "properties": {"alarme": "VEHICULE DELOCALISE", "numparc": 5679, "type": "EXPLOITATION", "duree": "00:01:10", "horodatage": "2022-05-06 18:33:17", "statut": "end", "marker-color": "#2fe184"}}, {"type": "Feature", "geometry": {"type": "Point", "coordinates": [2.359714, 48.892803]}, "properties": {"alarme": "VEHICULE DELOCALISE", "numparc": 5650, "type": "EXPLOITATION", "duree": "00:00:43", "horodatage": "2022-05-06 18:54:42", "statut": "end", "marker-color": "#2fe184"}}, {"type": "Feature", "geometry": {"type": "Point", "coordinates": [2.356792, 48.876347]}, "properties": {"alarme": "VEHICULE DELOCALISE", "numparc": 5660, "type": "EXPLOITATION", "duree": "00:00:16", "horodatage": "2022-05-06 19:06:48", "statut": "end", "marker-color": "#2fe184"}}, {"type": "Feature", "geometry": {"type": "Point", "coordinates": [2.348063, 48.858063]}, "properties": {"alarme": "VEHICULE DELOCALISE", "numparc": 5642, "type": "EXPLOITATION", "duree": "00:10:48", "horodatage": "2022-05-06 19:18:59", "statut": "end", "marker-color": "#2fe184"}}, {"type": "Feature", "geometry": {"type": "Point", "coordinates": [2.347967, 48.85775]}, "properties": {"alarme": "VEHICULE DELOCALISE", "numparc": 5654, "type": "EXPLOITATION", "duree": "00:07:49", "horodatage": "2022-05-06 19:21:54", "statut": "end", "marker-color": "#2fe184"}}, {"type": "Feature", "geometry": {"type": "Point", "coordinates": [2.34803, 48.858074]}, "properties": {"alarme": "VEHICULE DELOCALISE", "numparc": 5643, "type": "EXPLOITATION", "duree": "00:07:59", "horodatage": "2022-05-06 19:28:16", "statut": "end", "marker-color": "#2fe184"}}, {"type": "Feature", "geometry": {"type": "Point", "coordinates": [2.359666, 48.893074]}, "properties": {"alarme": "VEHICULE DELOCALISE", "numparc": 5669, "type": "EXPLOITATION", "duree": "00:00:44", "horodatage": "2022-05-06 19:22:42", "statut": "end", "marker-color": "#2fe184"}}, {"type": "Feature", "geometry": {"type": "Point", "coordinates": [2.370582, 48.909954]}, "properties": {"alarme": "VEHICULE DELOCALISE", "numparc": 5679, "type": "EXPLOITATION", "duree": "00:45:58", "horodatage": "2022-05-06 20:09:04", "statut": "end", "marker-color": "#2fe184"}}, {"type": "Feature", "geometry": {"type": "Point", "coordinates": [2.359656, 48.892887]}, "properties": {"alarme": "VEHICULE DELOCALISE", "numparc": 5653, "type": "EXPLOITATION", "duree": "00:00:35", "horodatage": "2022-05-06 19:29:16", "statut": "end", "marker-color": "#2fe184"}}, {"type": "Feature", "geometry": {"type": "Point", "coordinates": [2.359663, 48.892773]}, "properties": {"alarme": "VEHICULE DELOCALISE", "numparc": 5641, "type": "EXPLOITATION", "duree": "00:00:46", "horodatage": "2022-05-06 19:35:59", "statut": "end", "marker-color": "#2fe184"}}, {"type": "Feature", "geometry": {"type": "Point", "coordinates": [2.359654, 48.892838]}, "properties": {"alarme": "VEHICULE DELOCALISE", "numparc": 5677, "type": "EXPLOITATION", "duree": "00:03:37", "horodatage": "2022-05-06 19:55:15", "statut": "end", "marker-color": "#2fe184"}}, {"type": "Feature", "geometry": {"type": "Point", "coordinates": [2.359729, 48.889858]}, "properties": {"alarme": "VEHICULE DELOCALISE", "numparc": 5660, "type": "EXPLOITATION", "duree": "00:01:12", "horodatage": "2022-05-06 19:56:16", "statut": "end", "marker-color": "#2fe184"}}, {"type": "Feature", "geometry": {"type": "Point", "coordinates": [2.359572, 48.892879]}, "properties": {"alarme": "VEHICULE DELOCALISE", "numparc": 5644, "type": "EXPLOITATION", "duree": "00:00:31", "horodatage": "2022-05-06 20:26:51", "statut": "end", "marker-color": "#2fe184"}}, {"type": "Feature", "geometry": {"type": "Point", "coordinates": [2.359234, 48.896042]}, "properties": {"alarme": "VEHICULE DELOCALISE", "numparc": 5665, "type": "EXPLOITATION", "duree": "00:00:30", "horodatage": "2022-05-06 20:42:56", "statut": "end", "marker-color": "#2fe184"}}, {"type": "Feature", "geometry": {"type": "Point", "coordinates": [2.359218, 48.896519]}, "properties": {"alarme": "VEHICULE DELOCALISE", "numparc": 5648, "type": "EXPLOITATION", "duree": "00:00:35", "horodatage": "2022-05-06 20:44:05", "statut": "end", "marker-color": "#2fe184"}}, {"type": "Feature", "geometry": {"type": "Point", "coordinates": [2.348062, 48.858017]}, "properties": {"alarme": "VEHICULE DELOCALISE", "numparc": 5669, "type": "EXPLOITATION", "duree": "00:06:06", "horodatage": "2022-05-06 20:53:31", "statut": "end", "marker-color": "#2fe184"}}, {"type": "Feature", "geometry": {"type": "Point", "coordinates": [2.359632, 48.892879]}, "properties": {"alarme": "VEHICULE DELOCALISE", "numparc": 5653, "type": "EXPLOITATION", "duree": "00:00:29", "horodatage": "2022-05-06 21:36:15", "statut": "end", "marker-color": "#2fe184"}}, {"type": "Feature", "geometry": {"type": "Point", "coordinates": [2.359757, 48.892845]}, "properties": {"alarme": "VEHICULE DELOCALISE", "numparc": 5641, "type": "EXPLOITATION", "duree": "00:00:31", "horodatage": "2022-05-06 21:44:13", "statut": "end", "marker-color": "#2fe184"}}, {"type": "Feature", "geometry": {"type": "Point", "coordinates": [2.348212, 48.858322]}, "properties": {"alarme": "VEHICULE DELOCALISE", "numparc": 5643, "type": "EXPLOITATION", "duree": "00:04:36", "horodatage": "2022-05-06 21:50:17", "statut": "end", "marker-color": "#2fe184"}}, {"type": "Feature", "geometry": {"type": "Point", "coordinates": [2.359734, 48.892906]}, "properties": {"alarme": "VEHICULE DELOCALISE", "numparc": 5660, "type": "EXPLOITATION", "duree": "00:00:45", "horodatage": "2022-05-06 21:59:39", "statut": "end", "marker-color": "#2fe184"}}, {"type": "Feature", "geometry": {"type": "Point", "coordinates": [2.359684, 48.892849]}, "properties": {"alarme": "VEHICULE DELOCALISE", "numparc": 5677, "type": "EXPLOITATION", "duree": "00:00:35", "horodatage": "2022-05-06 22:07:41", "statut": "end", "marker-color": "#2fe184"}}, {"type": "Feature", "geometry": {"type": "Point", "coordinates": [2.348163, 48.858303]}, "properties": {"alarme": "VEHICULE DELOCALISE", "numparc": 5640, "type": "EXPLOITATION", "duree": "00:03:48", "horodatage": "2022-05-06 22:11:54", "statut": "end", "marker-color": "#2fe184"}}, {"type": "Feature", "geometry": {"type": "Point", "coordinates": [2.359677, 48.892788]}, "properties": {"alarme": "VEHICULE DELOCALISE", "numparc": 5642, "type": "EXPLOITATION", "duree": "00:00:44", "horodatage": "2022-05-06 22:17:03", "statut": "end", "marker-color": "#2fe184"}}, {"type": "Feature", "geometry": {"type": "Point", "coordinates": [2.352103, 48.859863]}, "properties": {"alarme": "VEHICULE DELOCALISE", "numparc": 5660, "type": "EXPLOITATION", "duree": "00:00:47", "horodatage": "2022-05-06 22:19:04", "statut": "end", "marker-color": "#2fe184"}}, {"type": "Feature", "geometry": {"type": "Point", "coordinates": [2.359669, 48.892868]}, "properties": {"alarme": "VEHICULE DELOCALISE", "numparc": 5643, "type": "EXPLOITATION", "duree": "00:00:31", "horodatage": "2022-05-06 22:26:25", "statut": "end", "marker-color": "#2fe184"}}, {"type": "Feature", "geometry": {"type": "Point", "coordinates": [2.340222, 48.846355]}, "properties": {"alarme": "VEHICULE DELOCALISE", "numparc": 5660, "type": "EXPLOITATION", "duree": "00:01:28", "horodatage": "2022-05-06 22:30:02", "statut": "end", "marker-color": "#2fe184"}}, {"type": "Feature", "geometry": {"type": "Point", "coordinates": [2.357948, 48.880894]}, "properties": {"alarme": "VEHICULE DELOCALISE", "numparc": 5648, "type": "EXPLOITATION", "duree": "00:01:25", "horodatage": "2022-05-06 22:30:29", "statut": "end", "marker-color": "#2fe184"}}, {"type": "Feature", "geometry": {"type": "Point", "coordinates": [2.368838, 48.911255]}, "properties": {"alarme": "VEHICULE DELOCALISE", "numparc": 5641, "type": "EXPLOITATION", "duree": "00:30:21", "horodatage": "2022-05-06 23:03:45", "statut": "end", "marker-color": "#2fe184"}}, {"type": "Feature", "geometry": {"type": "Point", "coordinates": [2.359643, 48.892864]}, "properties": {"alarme": "VEHICULE DELOCALISE", "numparc": 5665, "type": "EXPLOITATION", "duree": "00:00:47", "horodatage": "2022-05-06 22:56:57", "statut": "end", "marker-color": "#2fe184"}}, {"type": "Feature", "geometry": {"type": "Point", "coordinates": [2.368846, 48.911057]}, "properties": {"alarme": "VEHICULE DELOCALISE", "numparc": 5665, "type": "EXPLOITATION", "duree": "00:27:46", "horodatage": "2022-05-07 00:06:40", "statut": "end", "marker-color": "#2fe184"}}, {"type": "Feature", "geometry": {"type": "Point", "coordinates": [2.348215, 48.858284]}, "properties": {"alarme": "VEHICULE DELOCALISE", "numparc": 5643, "type": "EXPLOITATION", "duree": "00:04:19", "horodatage": "2022-05-06 23:49:08", "statut": "end", "marker-color": "#2fe184"}}, {"type": "Feature", "geometry": {"type": "Point", "coordinates": [2.359587, 48.892967]}, "properties": {"alarme": "VEHICULE DELOCALISE", "numparc": 5660, "type": "EXPLOITATION", "duree": "00:00:31", "horodatage": "2022-05-07 00:02:14", "statut": "end", "marker-color": "#2fe184"}}, {"type": "Feature", "geometry": {"type": "Point", "coordinates": [2.349777, 48.861038]}, "properties": {"alarme": "VEHICULE DELOCALISE", "numparc": 5640, "type": "EXPLOITATION", "duree": "00:00:30", "horodatage": "2022-05-07 00:02:18", "statut": "end", "marker-color": "#2fe184"}}, {"type": "Feature", "geometry": {"type": "Point", "coordinates": [2.359648, 48.892891]}, "properties": {"alarme": "VEHICULE DELOCALISE", "numparc": 5643, "type": "EXPLOITATION", "duree": "00:00:28", "horodatage": "2022-05-07 00:18:13", "statut": "end", "marker-color": "#2fe184"}}, {"type": "Feature", "geometry": {"type": "Point", "coordinates": [2.343765, 48.85289]}, "properties": {"alarme": "VEHICULE DELOCALISE", "numparc": 5640, "type": "EXPLOITATION", "duree": "00:04:36", "horodatage": "2022-05-07 00:51:07", "statut": "end", "marker-color": "#2fe184"}}, {"type": "Feature", "geometry": {"type": "Point", "coordinates": [2.325214, 48.819942]}, "properties": {"alarme": "VEHICULE DELOCALISE", "numparc": 5640, "type": "EXPLOITATION", "duree": "00:01:18", "horodatage": "2022-05-07 01:08:47", "statut": "end", "marker-color": "#2fe184"}}]}