{"type": "FeatureCollection", "features": [{"type": "Feature", "geometry": {"type": "Point", "coordinates": [2.551629, 48.840839]}, "properties": {"etat de la localisation": "Delocalise", "numparc": 5875, "duree": "00:01:36", "horodatage": "2022-08-18 04:56:13", "marker-color": "#FF565E"}}, {"type": "Feature", "geometry": {"type": "Point", "coordinates": [2.659277, 48.842281]}, "properties": {"etat de la localisation": "Delocalise", "numparc": 5903, "duree": "00:04:01", "horodatage": "2022-08-18 05:04:53", "marker-color": "#FF565E"}}, {"type": "Feature", "geometry": {"type": "Point", "coordinates": [2.659137, 48.842075]}, "properties": {"etat de la localisation": "Delocalise", "numparc": 5872, "duree": "00:06:16", "horodatage": "2022-08-18 05:52:48", "marker-color": "#FF565E"}}, {"type": "Feature", "geometry": {"type": "Point", "coordinates": [2.551568, 48.840958]}, "properties": {"etat de la localisation": "Delocalise", "numparc": 5864, "duree": "00:01:39", "horodatage": "2022-08-18 06:50:56", "marker-color": "#FF565E"}}, {"type": "Feature", "geometry": {"type": "Point", "coordinates": [2.551899, 48.840717]}, "properties": {"etat de la localisation": "Hors service", "numparc": 5903, "duree": "", "horodatage": "2022-08-18 07:08:07", "marker-color": "#707070"}}, {"type": "Feature", "geometry": {"type": "Point", "coordinates": [2.571262, 48.806499]}, "properties": {"etat de la localisation": "Delocalise", "numparc": 5875, "duree": "00:01:09", "horodatage": "2022-08-18 08:59:26", "marker-color": "#FF565E"}}, {"type": "Feature", "geometry": {"type": "Point", "coordinates": [2.569258, 48.809105]}, "properties": {"etat de la localisation": "Delocalise", "numparc": 5903, "duree": "00:01:48", "horodatage": "2022-08-18 08:59:36", "marker-color": "#FF565E"}}, {"type": "Feature", "geometry": {"type": "Point", "coordinates": [2.542374, 48.828331]}, "properties": {"etat de la localisation": "Deviation programmee", "numparc": 5872, "duree": "", "horodatage": "2022-08-18 09:05:34", "marker-color": "#56FF93"}}, {"type": "Feature", "geometry": {"type": "Point", "coordinates": [2.543224, 48.823765]}, "properties": {"etat de la localisation": "Deviation programmee", "numparc": 5875, "duree": "", "horodatage": "2022-08-18 09:08:58", "marker-color": "#56FF93"}}, {"type": "Feature", "geometry": {"type": "Point", "coordinates": [2.575647, 48.801025]}, "properties": {"etat de la localisation": "Deviation programmee", "numparc": 5864, "duree": "", "horodatage": "2022-08-18 09:13:04", "marker-color": "#56FF93"}}, {"type": "Feature", "geometry": {"type": "Point", "coordinates": [2.565859, 48.813614]}, "properties": {"etat de la localisation": "Deviation programmee", "numparc": 5872, "duree": "", "horodatage": "2022-08-18 09:18:10", "marker-color": "#56FF93"}}, {"type": "Feature", "geometry": {"type": "Point", "coordinates": [2.542264, 48.828384]}, "properties": {"etat de la localisation": "Deviation programmee", "numparc": 5877, "duree": "", "horodatage": "2022-08-18 09:21:41", "marker-color": "#56FF93"}}, {"type": "Feature", "geometry": {"type": "Point", "coordinates": [2.543211, 48.823772]}, "properties": {"etat de la localisation": "Deviation programmee", "numparc": 5864, "duree": "", "horodatage": "2022-08-18 09:24:52", "marker-color": "#56FF93"}}, {"type": "Feature", "geometry": {"type": "Point", "coordinates": [2.57567, 48.801041]}, "properties": {"etat de la localisation": "Deviation programmee", "numparc": 5903, "duree": "", "horodatage": "2022-08-18 09:29:35", "marker-color": "#56FF93"}}, {"type": "Feature", "geometry": {"type": "Point", "coordinates": [2.565943, 48.81353]}, "properties": {"etat de la localisation": "Deviation programmee", "numparc": 5877, "duree": "", "horodatage": "2022-08-18 09:37:34", "marker-color": "#56FF93"}}, {"type": "Feature", "geometry": {"type": "Point", "coordinates": [2.543081, 48.82375]}, "properties": {"etat de la localisation": "Deviation programmee", "numparc": 5903, "duree": "", "horodatage": "2022-08-18 09:39:51", "marker-color": "#56FF93"}}, {"type": "Feature", "geometry": {"type": "Point", "coordinates": [2.541977, 48.828476]}, "properties": {"etat de la localisation": "Deviation programmee", "numparc": 5870, "duree": "", "horodatage": "2022-08-18 09:40:03", "marker-color": "#56FF93"}}, {"type": "Feature", "geometry": {"type": "Point", "coordinates": [2.575651, 48.80101]}, "properties": {"etat de la localisation": "Deviation programmee", "numparc": 5872, "duree": "", "horodatage": "2022-08-18 09:45:30", "marker-color": "#56FF93"}}, {"type": "Feature", "geometry": {"type": "Point", "coordinates": [2.54238, 48.828304]}, "properties": {"etat de la localisation": "Deviation programmee", "numparc": 5875, "duree": "", "horodatage": "2022-08-18 09:51:18", "marker-color": "#56FF93"}}, {"type": "Feature", "geometry": {"type": "Point", "coordinates": [2.566178, 48.81337]}, "properties": {"etat de la localisation": "Deviation programmee", "numparc": 5870, "duree": "", "horodatage": "2022-08-18 09:51:57", "marker-color": "#56FF93"}}, {"type": "Feature", "geometry": {"type": "Point", "coordinates": [2.552309, 48.840618]}, "properties": {"etat de la localisation": "Hors service", "numparc": 5864, "duree": "", "horodatage": "2022-08-18 09:52:48", "marker-color": "#707070"}}, {"type": "Feature", "geometry": {"type": "Point", "coordinates": [2.543342, 48.823692]}, "properties": {"etat de la localisation": "Deviation programmee", "numparc": 5872, "duree": "", "horodatage": "2022-08-18 09:56:27", "marker-color": "#56FF93"}}, {"type": "Feature", "geometry": {"type": "Point", "coordinates": [2.582602, 48.785793]}, "properties": {"etat de la localisation": "Mission suivante non connue", "numparc": 5870, "duree": "", "horodatage": "2022-08-18 10:02:38", "marker-color": "#7156FF"}}, {"type": "Feature", "geometry": {"type": "Point", "coordinates": [2.565851, 48.813625]}, "properties": {"etat de la localisation": "Deviation programmee", "numparc": 5875, "duree": "", "horodatage": "2022-08-18 10:02:46", "marker-color": "#56FF93"}}, {"type": "Feature", "geometry": {"type": "Point", "coordinates": [2.580992, 48.785748]}, "properties": {"etat de la localisation": "Mission suivante non connue", "numparc": 5870, "duree": "", "horodatage": "2022-08-18 10:03:13", "marker-color": "#7156FF"}}, {"type": "Feature", "geometry": {"type": "Point", "coordinates": [2.575646, 48.801029]}, "properties": {"etat de la localisation": "Deviation programmee", "numparc": 5877, "duree": "", "horodatage": "2022-08-18 10:05:01", "marker-color": "#56FF93"}}, {"type": "Feature", "geometry": {"type": "Point", "coordinates": [2.542223, 48.828346]}, "properties": {"etat de la localisation": "Deviation programmee", "numparc": 5864, "duree": "", "horodatage": "2022-08-18 10:08:30", "marker-color": "#56FF93"}}, {"type": "Feature", "geometry": {"type": "Point", "coordinates": [2.543251, 48.823742]}, "properties": {"etat de la localisation": "Deviation programmee", "numparc": 5877, "duree": "", "horodatage": "2022-08-18 10:17:56", "marker-color": "#56FF93"}}, {"type": "Feature", "geometry": {"type": "Point", "coordinates": [2.575687, 48.801025]}, "properties": {"etat de la localisation": "Deviation programmee", "numparc": 5870, "duree": "", "horodatage": "2022-08-18 10:19:00", "marker-color": "#56FF93"}}, {"type": "Feature", "geometry": {"type": "Point", "coordinates": [2.565887, 48.813625]}, "properties": {"etat de la localisation": "Deviation programmee", "numparc": 5864, "duree": "", "horodatage": "2022-08-18 10:23:07", "marker-color": "#56FF93"}}, {"type": "Feature", "geometry": {"type": "Point", "coordinates": [2.543178, 48.823788]}, "properties": {"etat de la localisation": "Deviation programmee", "numparc": 5870, "duree": "", "horodatage": "2022-08-18 10:29:50", "marker-color": "#56FF93"}}, {"type": "Feature", "geometry": {"type": "Point", "coordinates": [2.542347, 48.828331]}, "properties": {"etat de la localisation": "Deviation programmee", "numparc": 5903, "duree": "", "horodatage": "2022-08-18 10:31:55", "marker-color": "#56FF93"}}, {"type": "Feature", "geometry": {"type": "Point", "coordinates": [2.575705, 48.801025]}, "properties": {"etat de la localisation": "Deviation programmee", "numparc": 5875, "duree": "", "horodatage": "2022-08-18 10:33:23", "marker-color": "#56FF93"}}, {"type": "Feature", "geometry": {"type": "Point", "coordinates": [2.552617, 48.840652]}, "properties": {"etat de la localisation": "Hors service", "numparc": 5872, "duree": "", "horodatage": "2022-08-18 10:38:20", "marker-color": "#707070"}}, {"type": "Feature", "geometry": {"type": "Point", "coordinates": [2.580886, 48.785767]}, "properties": {"etat de la localisation": "Hors service", "numparc": 5864, "duree": "", "horodatage": "2022-08-18 10:43:25", "marker-color": "#707070"}}, {"type": "Feature", "geometry": {"type": "Point", "coordinates": [2.543226, 48.823807]}, "properties": {"etat de la localisation": "Deviation programmee", "numparc": 5875, "duree": "", "horodatage": "2022-08-18 10:43:30", "marker-color": "#56FF93"}}, {"type": "Feature", "geometry": {"type": "Point", "coordinates": [2.565968, 48.81356]}, "properties": {"etat de la localisation": "Deviation programmee", "numparc": 5903, "duree": "", "horodatage": "2022-08-18 10:43:41", "marker-color": "#56FF93"}}, {"type": "Feature", "geometry": {"type": "Point", "coordinates": [2.580884, 48.785767]}, "properties": {"etat de la localisation": "Hors service", "numparc": 5864, "duree": "", "horodatage": "2022-08-18 10:48:07", "marker-color": "#707070"}}, {"type": "Feature", "geometry": {"type": "Point", "coordinates": [2.542373, 48.828312]}, "properties": {"etat de la localisation": "Deviation programmee", "numparc": 5872, "duree": "", "horodatage": "2022-08-18 10:49:59", "marker-color": "#56FF93"}}, {"type": "Feature", "geometry": {"type": "Point", "coordinates": [2.659485, 48.842934]}, "properties": {"etat de la localisation": "Hors service", "numparc": 5877, "duree": "", "horodatage": "2022-08-18 10:53:33", "marker-color": "#707070"}}, {"type": "Feature", "geometry": {"type": "Point", "coordinates": [2.575795, 48.800941]}, "properties": {"etat de la localisation": "Deviation programmee", "numparc": 5864, "duree": "", "horodatage": "2022-08-18 10:58:17", "marker-color": "#56FF93"}}, {"type": "Feature", "geometry": {"type": "Point", "coordinates": [2.565981, 48.813515]}, "properties": {"etat de la localisation": "Deviation programmee", "numparc": 5872, "duree": "", "horodatage": "2022-08-18 11:02:36", "marker-color": "#56FF93"}}, {"type": "Feature", "geometry": {"type": "Point", "coordinates": [2.543293, 48.823715]}, "properties": {"etat de la localisation": "Deviation programmee", "numparc": 5864, "duree": "", "horodatage": "2022-08-18 11:10:31", "marker-color": "#56FF93"}}, {"type": "Feature", "geometry": {"type": "Point", "coordinates": [2.580922, 48.785645]}, "properties": {"etat de la localisation": "Hors service", "numparc": 5872, "duree": "", "horodatage": "2022-08-18 11:16:08", "marker-color": "#707070"}}, {"type": "Feature", "geometry": {"type": "Point", "coordinates": [2.659046, 48.842205]}, "properties": {"etat de la localisation": "Hors service", "numparc": 5875, "duree": "", "horodatage": "2022-08-18 11:18:50", "marker-color": "#707070"}}, {"type": "Feature", "geometry": {"type": "Point", "coordinates": [2.659501, 48.842934]}, "properties": {"etat de la localisation": "Hors service", "numparc": 5903, "duree": "", "horodatage": "2022-08-18 11:19:06", "marker-color": "#707070"}}, {"type": "Feature", "geometry": {"type": "Point", "coordinates": [2.542329, 48.828297]}, "properties": {"etat de la localisation": "Deviation programmee", "numparc": 5870, "duree": "", "horodatage": "2022-08-18 11:23:14", "marker-color": "#56FF93"}}, {"type": "Feature", "geometry": {"type": "Point", "coordinates": [2.575652, 48.801025]}, "properties": {"etat de la localisation": "Deviation programmee", "numparc": 5872, "duree": "", "horodatage": "2022-08-18 11:28:30", "marker-color": "#56FF93"}}, {"type": "Feature", "geometry": {"type": "Point", "coordinates": [2.565936, 48.813553]}, "properties": {"etat de la localisation": "Deviation programmee", "numparc": 5870, "duree": "", "horodatage": "2022-08-18 11:38:25", "marker-color": "#56FF93"}}, {"type": "Feature", "geometry": {"type": "Point", "coordinates": [2.543169, 48.823818]}, "properties": {"etat de la localisation": "Deviation programmee", "numparc": 5872, "duree": "", "horodatage": "2022-08-18 11:40:10", "marker-color": "#56FF93"}}, {"type": "Feature", "geometry": {"type": "Point", "coordinates": [2.542392, 48.828335]}, "properties": {"etat de la localisation": "Deviation programmee", "numparc": 5864, "duree": "", "horodatage": "2022-08-18 11:53:14", "marker-color": "#56FF93"}}, {"type": "Feature", "geometry": {"type": "Point", "coordinates": [2.57565, 48.801037]}, "properties": {"etat de la localisation": "Deviation programmee", "numparc": 5870, "duree": "", "horodatage": "2022-08-18 12:01:33", "marker-color": "#56FF93"}}, {"type": "Feature", "geometry": {"type": "Point", "coordinates": [2.565898, 48.813557]}, "properties": {"etat de la localisation": "Deviation programmee", "numparc": 5864, "duree": "", "horodatage": "2022-08-18 12:06:04", "marker-color": "#56FF93"}}, {"type": "Feature", "geometry": {"type": "Point", "coordinates": [2.543135, 48.823753]}, "properties": {"etat de la localisation": "Deviation programmee", "numparc": 5870, "duree": "", "horodatage": "2022-08-18 12:12:57", "marker-color": "#56FF93"}}, {"type": "Feature", "geometry": {"type": "Point", "coordinates": [2.542284, 48.828362]}, "properties": {"etat de la localisation": "Deviation programmee", "numparc": 5872, "duree": "", "horodatage": "2022-08-18 12:25:26", "marker-color": "#56FF93"}}, {"type": "Feature", "geometry": {"type": "Point", "coordinates": [2.575696, 48.80101]}, "properties": {"etat de la localisation": "Deviation programmee", "numparc": 5864, "duree": "", "horodatage": "2022-08-18 12:28:03", "marker-color": "#56FF93"}}, {"type": "Feature", "geometry": {"type": "Point", "coordinates": [2.565862, 48.813599]}, "properties": {"etat de la localisation": "Deviation programmee", "numparc": 5872, "duree": "", "horodatage": "2022-08-18 12:38:29", "marker-color": "#56FF93"}}, {"type": "Feature", "geometry": {"type": "Point", "coordinates": [2.54311, 48.8237]}, "properties": {"etat de la localisation": "Deviation programmee", "numparc": 5864, "duree": "", "horodatage": "2022-08-18 12:40:01", "marker-color": "#56FF93"}}, {"type": "Feature", "geometry": {"type": "Point", "coordinates": [2.542211, 48.828339]}, "properties": {"etat de la localisation": "Deviation programmee", "numparc": 5870, "duree": "", "horodatage": "2022-08-18 12:50:44", "marker-color": "#56FF93"}}, {"type": "Feature", "geometry": {"type": "Point", "coordinates": [2.575627, 48.80101]}, "properties": {"etat de la localisation": "Deviation programmee", "numparc": 5872, "duree": "", "horodatage": "2022-08-18 13:01:24", "marker-color": "#56FF93"}}, {"type": "Feature", "geometry": {"type": "Point", "coordinates": [2.565907, 48.813538]}, "properties": {"etat de la localisation": "Deviation programmee", "numparc": 5870, "duree": "", "horodatage": "2022-08-18 13:03:13", "marker-color": "#56FF93"}}, {"type": "Feature", "geometry": {"type": "Point", "coordinates": [2.552494, 48.840611]}, "properties": {"etat de la localisation": "Hors service", "numparc": 5864, "duree": "", "horodatage": "2022-08-18 13:05:44", "marker-color": "#707070"}}, {"type": "Feature", "geometry": {"type": "Point", "coordinates": [2.543255, 48.82375]}, "properties": {"etat de la localisation": "Deviation programmee", "numparc": 5872, "duree": "", "horodatage": "2022-08-18 13:13:37", "marker-color": "#56FF93"}}, {"type": "Feature", "geometry": {"type": "Point", "coordinates": [2.542395, 48.828304]}, "properties": {"etat de la localisation": "Deviation programmee", "numparc": 5864, "duree": "", "horodatage": "2022-08-18 13:28:50", "marker-color": "#56FF93"}}, {"type": "Feature", "geometry": {"type": "Point", "coordinates": [2.575646, 48.801014]}, "properties": {"etat de la localisation": "Deviation programmee", "numparc": 5870, "duree": "", "horodatage": "2022-08-18 13:29:11", "marker-color": "#56FF93"}}, {"type": "Feature", "geometry": {"type": "Point", "coordinates": [2.543292, 48.823727]}, "properties": {"etat de la localisation": "Deviation programmee", "numparc": 5870, "duree": "", "horodatage": "2022-08-18 13:40:51", "marker-color": "#56FF93"}}, {"type": "Feature", "geometry": {"type": "Point", "coordinates": [2.565883, 48.813644]}, "properties": {"etat de la localisation": "Deviation programmee", "numparc": 5864, "duree": "", "horodatage": "2022-08-18 13:40:51", "marker-color": "#56FF93"}}, {"type": "Feature", "geometry": {"type": "Point", "coordinates": [2.542435, 48.828354]}, "properties": {"etat de la localisation": "Deviation programmee", "numparc": 5872, "duree": "", "horodatage": "2022-08-18 14:00:04", "marker-color": "#56FF93"}}, {"type": "Feature", "geometry": {"type": "Point", "coordinates": [2.565883, 48.813606]}, "properties": {"etat de la localisation": "Deviation programmee", "numparc": 5872, "duree": "", "horodatage": "2022-08-18 14:10:54", "marker-color": "#56FF93"}}, {"type": "Feature", "geometry": {"type": "Point", "coordinates": [2.575789, 48.800949]}, "properties": {"etat de la localisation": "Deviation programmee", "numparc": 5864, "duree": "", "horodatage": "2022-08-18 14:11:00", "marker-color": "#56FF93"}}, {"type": "Feature", "geometry": {"type": "Point", "coordinates": [2.543251, 48.823742]}, "properties": {"etat de la localisation": "Deviation programmee", "numparc": 5864, "duree": "", "horodatage": "2022-08-18 14:25:26", "marker-color": "#56FF93"}}, {"type": "Feature", "geometry": {"type": "Point", "coordinates": [2.542222, 48.828362]}, "properties": {"etat de la localisation": "Deviation programmee", "numparc": 5870, "duree": "", "horodatage": "2022-08-18 14:28:49", "marker-color": "#56FF93"}}, {"type": "Feature", "geometry": {"type": "Point", "coordinates": [2.575658, 48.80101]}, "properties": {"etat de la localisation": "Deviation programmee", "numparc": 5872, "duree": "", "horodatage": "2022-08-18 14:35:24", "marker-color": "#56FF93"}}, {"type": "Feature", "geometry": {"type": "Point", "coordinates": [2.566, 48.813503]}, "properties": {"etat de la localisation": "Deviation programmee", "numparc": 5870, "duree": "", "horodatage": "2022-08-18 14:41:19", "marker-color": "#56FF93"}}, {"type": "Feature", "geometry": {"type": "Point", "coordinates": [2.543144, 48.823723]}, "properties": {"etat de la localisation": "Deviation programmee", "numparc": 5872, "duree": "", "horodatage": "2022-08-18 14:45:59", "marker-color": "#56FF93"}}, {"type": "Feature", "geometry": {"type": "Point", "coordinates": [2.552217, 48.840614]}, "properties": {"etat de la localisation": "Hors service", "numparc": 5864, "duree": "", "horodatage": "2022-08-18 14:54:46", "marker-color": "#707070"}}, {"type": "Feature", "geometry": {"type": "Point", "coordinates": [2.575651, 48.801033]}, "properties": {"etat de la localisation": "Deviation programmee", "numparc": 5870, "duree": "", "horodatage": "2022-08-18 15:02:29", "marker-color": "#56FF93"}}, {"type": "Feature", "geometry": {"type": "Point", "coordinates": [2.543285, 48.823723]}, "properties": {"etat de la localisation": "Deviation programmee", "numparc": 5870, "duree": "", "horodatage": "2022-08-18 15:13:45", "marker-color": "#56FF93"}}, {"type": "Feature", "geometry": {"type": "Point", "coordinates": [2.658848, 48.842411]}, "properties": {"etat de la localisation": "Delocalise", "numparc": 5875, "duree": "00:05:34", "horodatage": "2022-08-18 15:14:52", "marker-color": "#FF565E"}}, {"type": "Feature", "geometry": {"type": "Point", "coordinates": [2.542254, 48.828358]}, "properties": {"etat de la localisation": "Deviation programmee", "numparc": 5864, "duree": "", "horodatage": "2022-08-18 15:15:31", "marker-color": "#56FF93"}}, {"type": "Feature", "geometry": {"type": "Point", "coordinates": [2.565964, 48.813507]}, "properties": {"etat de la localisation": "Deviation programmee", "numparc": 5864, "duree": "", "horodatage": "2022-08-18 15:25:18", "marker-color": "#56FF93"}}, {"type": "Feature", "geometry": {"type": "Point", "coordinates": [2.551771, 48.840794]}, "properties": {"etat de la localisation": "Delocalise", "numparc": 5875, "duree": "00:02:45", "horodatage": "2022-08-18 15:34:59", "marker-color": "#FF565E"}}, {"type": "Feature", "geometry": {"type": "Point", "coordinates": [2.55235, 48.840729]}, "properties": {"etat de la localisation": "Hors service", "numparc": 5870, "duree": "", "horodatage": "2022-08-18 15:35:19", "marker-color": "#707070"}}, {"type": "Feature", "geometry": {"type": "Point", "coordinates": [2.542406, 48.828327]}, "properties": {"etat de la localisation": "Deviation programmee", "numparc": 5872, "duree": "", "horodatage": "2022-08-18 15:37:49", "marker-color": "#56FF93"}}, {"type": "Feature", "geometry": {"type": "Point", "coordinates": [2.56587, 48.813614]}, "properties": {"etat de la localisation": "Deviation programmee", "numparc": 5872, "duree": "", "horodatage": "2022-08-18 15:49:00", "marker-color": "#56FF93"}}, {"type": "Feature", "geometry": {"type": "Point", "coordinates": [2.542424, 48.828342]}, "properties": {"etat de la localisation": "Deviation programmee", "numparc": 5875, "duree": "", "horodatage": "2022-08-18 15:52:29", "marker-color": "#56FF93"}}, {"type": "Feature", "geometry": {"type": "Point", "coordinates": [2.57566, 48.801018]}, "properties": {"etat de la localisation": "Deviation programmee", "numparc": 5864, "duree": "", "horodatage": "2022-08-18 15:54:22", "marker-color": "#56FF93"}}, {"type": "Feature", "geometry": {"type": "Point", "coordinates": [2.543216, 48.823765]}, "properties": {"etat de la localisation": "Deviation programmee", "numparc": 5864, "duree": "", "horodatage": "2022-08-18 16:05:52", "marker-color": "#56FF93"}}, {"type": "Feature", "geometry": {"type": "Point", "coordinates": [2.574708, 48.78862]}, "properties": {"etat de la localisation": "Delocalise", "numparc": 5872, "duree": "00:02:47", "horodatage": "2022-08-18 16:07:15", "marker-color": "#FF565E"}}, {"type": "Feature", "geometry": {"type": "Point", "coordinates": [2.576867, 48.792095]}, "properties": {"etat de la localisation": "Delocalise", "numparc": 5872, "duree": "00:00:17", "horodatage": "2022-08-18 16:10:57", "marker-color": "#FF565E"}}, {"type": "Feature", "geometry": {"type": "Point", "coordinates": [2.578168, 48.791824]}, "properties": {"etat de la localisation": "Delocalise", "numparc": 5872, "duree": "00:01:57", "horodatage": "2022-08-18 16:11:48", "marker-color": "#FF565E"}}, {"type": "Feature", "geometry": {"type": "Point", "coordinates": [2.573206, 48.805637]}, "properties": {"etat de la localisation": "Delocalise", "numparc": 5872, "duree": "00:08:21", "horodatage": "2022-08-18 16:15:40", "marker-color": "#FF565E"}}, {"type": "Feature", "geometry": {"type": "Point", "coordinates": [2.54237, 48.828304]}, "properties": {"etat de la localisation": "Deviation programmee", "numparc": 5870, "duree": "", "horodatage": "2022-08-18 16:18:10", "marker-color": "#56FF93"}}, {"type": "Feature", "geometry": {"type": "Point", "coordinates": [2.557031, 48.820198]}, "properties": {"etat de la localisation": "Delocalise", "numparc": 5872, "duree": "00:01:59", "horodatage": "2022-08-18 16:24:30", "marker-color": "#FF565E"}}, {"type": "Feature", "geometry": {"type": "Point", "coordinates": [2.547816, 48.823082]}, "properties": {"etat de la localisation": "Delocalise", "numparc": 5872, "duree": "00:05:04", "horodatage": "2022-08-18 16:27:22", "marker-color": "#FF565E"}}, {"type": "Feature", "geometry": {"type": "Point", "coordinates": [2.569308, 48.809086]}, "properties": {"etat de la localisation": "Delocalise", "numparc": 5870, "duree": "00:01:17", "horodatage": "2022-08-18 16:31:42", "marker-color": "#FF565E"}}, {"type": "Feature", "geometry": {"type": "Point", "coordinates": [2.660792, 48.842308]}, "properties": {"etat de la localisation": "Hors service", "numparc": 5872, "duree": "", "horodatage": "2022-08-18 18:39:02", "marker-color": "#707070"}}, {"type": "Feature", "geometry": {"type": "Point", "coordinates": [2.660219, 48.842197]}, "properties": {"etat de la localisation": "Delocalise", "numparc": 5877, "duree": "00:11:07", "horodatage": "2022-08-18 19:01:43", "marker-color": "#FF565E"}}, {"type": "Feature", "geometry": {"type": "Point", "coordinates": [2.658829, 48.842335]}, "properties": {"etat de la localisation": "Hors service", "numparc": 5870, "duree": "", "horodatage": "2022-08-18 19:16:09", "marker-color": "#707070"}}, {"type": "Feature", "geometry": {"type": "Point", "coordinates": [2.551705, 48.840893]}, "properties": {"etat de la localisation": "Delocalise", "numparc": 5877, "duree": "00:10:47", "horodatage": "2022-08-18 19:29:45", "marker-color": "#FF565E"}}, {"type": "Feature", "geometry": {"type": "Point", "coordinates": [2.658715, 48.842922]}, "properties": {"etat de la localisation": "Hors service", "numparc": 5864, "duree": "", "horodatage": "2022-08-18 19:44:28", "marker-color": "#707070"}}, {"type": "Feature", "geometry": {"type": "Point", "coordinates": [2.660551, 48.842289]}, "properties": {"etat de la localisation": "Hors service", "numparc": 5875, "duree": "", "horodatage": "2022-08-18 21:55:21", "marker-color": "#707070"}}, {"type": "Feature", "geometry": {"type": "Point", "coordinates": [2.659553, 48.842884]}, "properties": {"etat de la localisation": "Hors service", "numparc": 5877, "duree": "", "horodatage": "2022-08-19 01:11:40", "marker-color": "#707070"}}]}