{"type": "FeatureCollection", "features": [{"type": "Feature", "geometry": {"type": "Point", "coordinates": [2.428231, 48.878719]}, "properties": {"etat de la localisation": "Delocalise", "numparc": 4941, "duree": "00:15:41", "horodatage": "2021-11-13 07:11:26", "marker-color": "#FF565E"}}, {"type": "Feature", "geometry": {"type": "Point", "coordinates": [2.427517, 48.878876]}, "properties": {"etat de la localisation": "Hors service", "numparc": 4943, "duree": "", "horodatage": "2021-11-14 00:44:56", "marker-color": "#707070"}}, {"type": "Feature", "geometry": {"type": "Point", "coordinates": [2.427339, 48.87899]}, "properties": {"etat de la localisation": "Hors service", "numparc": 4941, "duree": "", "horodatage": "2021-11-14 02:18:59", "marker-color": "#707070"}}]}