{"type": "FeatureCollection", "features": [{"type": "Feature", "geometry": {"type": "Point", "coordinates": [2.387998, 48.754894]}, "properties": {"etat de la localisation": "Delocalise", "numparc": 7433, "duree": "00:03:40", "horodatage": "2023-06-05 04:34:23", "marker-color": "#FF565E"}}, {"type": "Feature", "geometry": {"type": "Point", "coordinates": [2.400764, 48.763203]}, "properties": {"etat de la localisation": "Hors service", "numparc": 7433, "duree": "", "horodatage": "2023-06-05 04:42:51", "marker-color": "#707070"}}, {"type": "Feature", "geometry": {"type": "Point", "coordinates": [2.388045, 48.754642]}, "properties": {"etat de la localisation": "Delocalise", "numparc": 7434, "duree": "00:09:49", "horodatage": "2023-06-05 04:56:19", "marker-color": "#FF565E"}}, {"type": "Feature", "geometry": {"type": "Point", "coordinates": [2.357701, 48.763264]}, "properties": {"etat de la localisation": "Mission suivante non connue", "numparc": 7433, "duree": "", "horodatage": "2023-06-05 04:57:58", "marker-color": "#7156FF"}}, {"type": "Feature", "geometry": {"type": "Point", "coordinates": [2.388093, 48.755203]}, "properties": {"etat de la localisation": "Delocalise", "numparc": 7421, "duree": "00:00:47", "horodatage": "2023-06-05 05:01:03", "marker-color": "#FF565E"}}, {"type": "Feature", "geometry": {"type": "Point", "coordinates": [2.387443, 48.755054]}, "properties": {"etat de la localisation": "Hors service", "numparc": 7421, "duree": "", "horodatage": "2023-06-05 05:01:50", "marker-color": "#707070"}}, {"type": "Feature", "geometry": {"type": "Point", "coordinates": [2.387988, 48.754818]}, "properties": {"etat de la localisation": "Delocalise", "numparc": 7423, "duree": "00:13:47", "horodatage": "2023-06-05 05:26:15", "marker-color": "#FF565E"}}, {"type": "Feature", "geometry": {"type": "Point", "coordinates": [2.357984, 48.763027]}, "properties": {"etat de la localisation": "Hors service", "numparc": 7434, "duree": "", "horodatage": "2023-06-05 05:30:06", "marker-color": "#707070"}}, {"type": "Feature", "geometry": {"type": "Point", "coordinates": [2.368723, 48.728558]}, "properties": {"etat de la localisation": "Mission suivante non connue", "numparc": 7433, "duree": "", "horodatage": "2023-06-05 05:48:28", "marker-color": "#7156FF"}}, {"type": "Feature", "geometry": {"type": "Point", "coordinates": [2.369349, 48.728786]}, "properties": {"etat de la localisation": "Hors service", "numparc": 7433, "duree": "", "horodatage": "2023-06-05 05:50:20", "marker-color": "#707070"}}, {"type": "Feature", "geometry": {"type": "Point", "coordinates": [2.38799, 48.75491]}, "properties": {"etat de la localisation": "Delocalise", "numparc": 7439, "duree": "00:04:43", "horodatage": "2023-06-05 06:11:05", "marker-color": "#FF565E"}}, {"type": "Feature", "geometry": {"type": "Point", "coordinates": [2.388023, 48.754787]}, "properties": {"etat de la localisation": "Delocalise", "numparc": 7430, "duree": "00:02:07", "horodatage": "2023-06-05 06:19:02", "marker-color": "#FF565E"}}, {"type": "Feature", "geometry": {"type": "Point", "coordinates": [2.402924, 48.761581]}, "properties": {"etat de la localisation": "Mission inconnue", "numparc": 7439, "duree": "", "horodatage": "2023-06-05 06:37:19", "marker-color": "#FF9F56"}}, {"type": "Feature", "geometry": {"type": "Point", "coordinates": [2.400184, 48.742981]}, "properties": {"etat de la localisation": "Mission suivante non connue", "numparc": 7439, "duree": "", "horodatage": "2023-06-05 06:56:58", "marker-color": "#7156FF"}}, {"type": "Feature", "geometry": {"type": "Point", "coordinates": [2.386916, 48.754051]}, "properties": {"etat de la localisation": "Mission inconnue", "numparc": 5734, "duree": "", "horodatage": "2023-06-05 07:18:49", "marker-color": "#FF9F56"}}, {"type": "Feature", "geometry": {"type": "Point", "coordinates": [2.386916, 48.754051]}, "properties": {"etat de la localisation": "Mission inconnue", "numparc": 5734, "duree": "", "horodatage": "2023-06-05 07:18:55", "marker-color": "#FF9F56"}}, {"type": "Feature", "geometry": {"type": "Point", "coordinates": [2.386916, 48.754051]}, "properties": {"etat de la localisation": "Mission inconnue", "numparc": 5734, "duree": "", "horodatage": "2023-06-05 07:18:56", "marker-color": "#FF9F56"}}, {"type": "Feature", "geometry": {"type": "Point", "coordinates": [2.386916, 48.754051]}, "properties": {"etat de la localisation": "Mission inconnue", "numparc": 5734, "duree": "", "horodatage": "2023-06-05 07:24:12", "marker-color": "#FF9F56"}}, {"type": "Feature", "geometry": {"type": "Point", "coordinates": [2.369391, 48.728806]}, "properties": {"etat de la localisation": "Mission suivante non connue", "numparc": 5734, "duree": "", "horodatage": "2023-06-05 08:22:23", "marker-color": "#7156FF"}}, {"type": "Feature", "geometry": {"type": "Point", "coordinates": [2.388112, 48.754868]}, "properties": {"etat de la localisation": "Hors service", "numparc": 7428, "duree": "", "horodatage": "2023-06-05 08:37:03", "marker-color": "#707070"}}, {"type": "Feature", "geometry": {"type": "Point", "coordinates": [2.387351, 48.753979]}, "properties": {"etat de la localisation": "Hors service", "numparc": 7433, "duree": "", "horodatage": "2023-06-05 08:59:01", "marker-color": "#707070"}}, {"type": "Feature", "geometry": {"type": "Point", "coordinates": [2.387986, 48.754883]}, "properties": {"etat de la localisation": "Hors service", "numparc": 7421, "duree": "", "horodatage": "2023-06-05 09:18:14", "marker-color": "#707070"}}, {"type": "Feature", "geometry": {"type": "Point", "coordinates": [2.387422, 48.753933]}, "properties": {"etat de la localisation": "Hors service", "numparc": 7437, "duree": "", "horodatage": "2023-06-05 09:19:02", "marker-color": "#707070"}}, {"type": "Feature", "geometry": {"type": "Point", "coordinates": [2.398528, 48.76033]}, "properties": {"etat de la localisation": "Deviation programmee", "numparc": 5734, "duree": "", "horodatage": "2023-06-05 11:24:54", "marker-color": "#56FF93"}}, {"type": "Feature", "geometry": {"type": "Point", "coordinates": [2.398521, 48.760342]}, "properties": {"etat de la localisation": "Delocalise", "numparc": 5734, "duree": "00:01:09", "horodatage": "2023-06-05 11:25:00", "marker-color": "#FF565E"}}, {"type": "Feature", "geometry": {"type": "Point", "coordinates": [2.358007, 48.763042]}, "properties": {"etat de la localisation": "Mission inconnue", "numparc": 7429, "duree": "", "horodatage": "2023-06-05 13:01:42", "marker-color": "#FF9F56"}}, {"type": "Feature", "geometry": {"type": "Point", "coordinates": [2.369399, 48.728798]}, "properties": {"etat de la localisation": "Mission inconnue", "numparc": 5734, "duree": "", "horodatage": "2023-06-05 13:13:08", "marker-color": "#FF9F56"}}, {"type": "Feature", "geometry": {"type": "Point", "coordinates": [2.369399, 48.728798]}, "properties": {"etat de la localisation": "Mission inconnue", "numparc": 5734, "duree": "", "horodatage": "2023-06-05 13:17:02", "marker-color": "#FF9F56"}}, {"type": "Feature", "geometry": {"type": "Point", "coordinates": [2.369412, 48.728798]}, "properties": {"etat de la localisation": "Hors service", "numparc": 5734, "duree": "", "horodatage": "2023-06-05 15:52:04", "marker-color": "#707070"}}, {"type": "Feature", "geometry": {"type": "Point", "coordinates": [2.388228, 48.754551]}, "properties": {"etat de la localisation": "Delocalise", "numparc": 7437, "duree": "00:08:33", "horodatage": "2023-06-05 16:38:45", "marker-color": "#FF565E"}}, {"type": "Feature", "geometry": {"type": "Point", "coordinates": [2.387951, 48.754761]}, "properties": {"etat de la localisation": "Delocalise", "numparc": 7433, "duree": "00:15:30", "horodatage": "2023-06-05 16:46:22", "marker-color": "#FF565E"}}, {"type": "Feature", "geometry": {"type": "Point", "coordinates": [2.387641, 48.754242]}, "properties": {"etat de la localisation": "Hors service", "numparc": 7437, "duree": "", "horodatage": "2023-06-05 18:45:53", "marker-color": "#707070"}}, {"type": "Feature", "geometry": {"type": "Point", "coordinates": [2.387301, 48.753956]}, "properties": {"etat de la localisation": "Hors service", "numparc": 7434, "duree": "", "horodatage": "2023-06-05 18:56:11", "marker-color": "#707070"}}, {"type": "Feature", "geometry": {"type": "Point", "coordinates": [2.388059, 48.754791]}, "properties": {"etat de la localisation": "Mission inconnue", "numparc": 7428, "duree": "", "horodatage": "2023-06-05 19:02:11", "marker-color": "#FF9F56"}}, {"type": "Feature", "geometry": {"type": "Point", "coordinates": [2.387369, 48.754047]}, "properties": {"etat de la localisation": "Hors service", "numparc": 7429, "duree": "", "horodatage": "2023-06-05 19:27:09", "marker-color": "#707070"}}, {"type": "Feature", "geometry": {"type": "Point", "coordinates": [2.387373, 48.754032]}, "properties": {"etat de la localisation": "Hors service", "numparc": 7423, "duree": "", "horodatage": "2023-06-05 19:32:02", "marker-color": "#707070"}}, {"type": "Feature", "geometry": {"type": "Point", "coordinates": [2.387393, 48.754044]}, "properties": {"etat de la localisation": "Hors service", "numparc": 5734, "duree": "", "horodatage": "2023-06-05 19:46:27", "marker-color": "#707070"}}, {"type": "Feature", "geometry": {"type": "Point", "coordinates": [2.388115, 48.75465]}, "properties": {"etat de la localisation": "Hors service", "numparc": 7433, "duree": "", "horodatage": "2023-06-05 21:01:27", "marker-color": "#707070"}}, {"type": "Feature", "geometry": {"type": "Point", "coordinates": [2.38814, 48.754692]}, "properties": {"etat de la localisation": "Hors service", "numparc": 7439, "duree": "", "horodatage": "2023-06-06 00:14:36", "marker-color": "#707070"}}, {"type": "Feature", "geometry": {"type": "Point", "coordinates": [2.388388, 48.754818]}, "properties": {"etat de la localisation": "Hors service", "numparc": 7463, "duree": "", "horodatage": "2023-06-06 00:53:23", "marker-color": "#707070"}}, {"type": "Feature", "geometry": {"type": "Point", "coordinates": [2.387408, 48.753967]}, "properties": {"etat de la localisation": "Hors service", "numparc": 7438, "duree": "", "horodatage": "2023-06-06 00:54:34", "marker-color": "#707070"}}, {"type": "Feature", "geometry": {"type": "Point", "coordinates": [2.387431, 48.753933]}, "properties": {"etat de la localisation": "Hors service", "numparc": 7430, "duree": "", "horodatage": "2023-06-06 01:24:58", "marker-color": "#707070"}}, {"type": "Feature", "geometry": {"type": "Point", "coordinates": [2.388248, 48.754704]}, "properties": {"etat de la localisation": "Hors service", "numparc": 7428, "duree": "", "horodatage": "2023-06-06 01:38:07", "marker-color": "#707070"}}]}