{"type": "FeatureCollection", "features": [{"type": "Feature", "geometry": {"type": "Point", "coordinates": [2.335393, 48.832058]}, "properties": {"etat de la localisation": "Delocalise", "numparc": 1399, "duree": "00:03:51", "horodatage": "2022-02-13 18:04:21", "marker-color": "#FF565E"}}, {"type": "Feature", "geometry": {"type": "Point", "coordinates": [2.335435, 48.832127]}, "properties": {"etat de la localisation": "Delocalise", "numparc": 1439, "duree": "00:04:29", "horodatage": "2022-02-13 18:45:20", "marker-color": "#FF565E"}}, {"type": "Feature", "geometry": {"type": "Point", "coordinates": [2.312068, 48.83934]}, "properties": {"etat de la localisation": "Deviation programmee", "numparc": 1399, "duree": "", "horodatage": "2022-02-13 19:53:17", "marker-color": "#56FF93"}}, {"type": "Feature", "geometry": {"type": "Point", "coordinates": [2.313089, 48.842113]}, "properties": {"etat de la localisation": "Delocalise", "numparc": 1399, "duree": "00:00:59", "horodatage": "2022-02-13 19:55:36", "marker-color": "#FF565E"}}, {"type": "Feature", "geometry": {"type": "Point", "coordinates": [2.317077, 48.838535]}, "properties": {"etat de la localisation": "Deviation programmee", "numparc": 1399, "duree": "", "horodatage": "2022-02-13 19:58:15", "marker-color": "#56FF93"}}, {"type": "Feature", "geometry": {"type": "Point", "coordinates": [2.312021, 48.839401]}, "properties": {"etat de la localisation": "Deviation programmee", "numparc": 1439, "duree": "", "horodatage": "2022-02-13 20:21:53", "marker-color": "#56FF93"}}, {"type": "Feature", "geometry": {"type": "Point", "coordinates": [2.329834, 48.823406]}, "properties": {"etat de la localisation": "Hors service", "numparc": 1399, "duree": "", "horodatage": "2022-02-13 20:22:42", "marker-color": "#707070"}}, {"type": "Feature", "geometry": {"type": "Point", "coordinates": [2.313141, 48.842175]}, "properties": {"etat de la localisation": "Delocalise", "numparc": 1439, "duree": "00:01:45", "horodatage": "2022-02-13 20:22:53", "marker-color": "#FF565E"}}, {"type": "Feature", "geometry": {"type": "Point", "coordinates": [2.317017, 48.838539]}, "properties": {"etat de la localisation": "Deviation programmee", "numparc": 1439, "duree": "", "horodatage": "2022-02-13 20:26:26", "marker-color": "#56FF93"}}, {"type": "Feature", "geometry": {"type": "Point", "coordinates": [2.32901, 48.82473]}, "properties": {"etat de la localisation": "Hors service", "numparc": 1439, "duree": "", "horodatage": "2022-02-13 20:55:08", "marker-color": "#707070"}}]}