{"type": "FeatureCollection", "features": [{"type": "Feature", "geometry": {"type": "Point", "coordinates": [2.387057, 48.755501]}, "properties": {"etat de la localisation": "Hors service", "numparc": 5759, "duree": "", "horodatage": "2022-12-10 05:25:56", "marker-color": "#707070"}}, {"type": "Feature", "geometry": {"type": "Point", "coordinates": [2.387057, 48.755501]}, "properties": {"etat de la localisation": "Hors service", "numparc": 5759, "duree": "", "horodatage": "2022-12-10 05:41:28", "marker-color": "#707070"}}, {"type": "Feature", "geometry": {"type": "Point", "coordinates": [2.387057, 48.755501]}, "properties": {"etat de la localisation": "Hors service", "numparc": 5759, "duree": "", "horodatage": "2022-12-10 05:49:42", "marker-color": "#707070"}}, {"type": "Feature", "geometry": {"type": "Point", "coordinates": [2.331672, 48.669651]}, "properties": {"etat de la localisation": "Mission suivante non connue", "numparc": 5723, "duree": "", "horodatage": "2022-12-10 11:32:34", "marker-color": "#7156FF"}}, {"type": "Feature", "geometry": {"type": "Point", "coordinates": [2.331672, 48.669651]}, "properties": {"etat de la localisation": "Mission inconnue", "numparc": 5723, "duree": "", "horodatage": "2022-12-10 11:32:36", "marker-color": "#FF9F56"}}, {"type": "Feature", "geometry": {"type": "Point", "coordinates": [2.387325, 48.755665]}, "properties": {"etat de la localisation": "Mission inconnue", "numparc": 5725, "duree": "", "horodatage": "2022-12-10 11:46:47", "marker-color": "#FF9F56"}}, {"type": "Feature", "geometry": {"type": "Point", "coordinates": [2.387239, 48.755676]}, "properties": {"etat de la localisation": "Hors service", "numparc": 5723, "duree": "", "horodatage": "2022-12-10 12:29:31", "marker-color": "#707070"}}, {"type": "Feature", "geometry": {"type": "Point", "coordinates": [2.338756, 48.675789]}, "properties": {"etat de la localisation": "Mission inconnue", "numparc": 5719, "duree": "", "horodatage": "2022-12-10 12:46:43", "marker-color": "#FF9F56"}}, {"type": "Feature", "geometry": {"type": "Point", "coordinates": [2.338816, 48.673908]}, "properties": {"etat de la localisation": "Mission inconnue", "numparc": 5719, "duree": "", "horodatage": "2022-12-10 12:47:58", "marker-color": "#FF9F56"}}, {"type": "Feature", "geometry": {"type": "Point", "coordinates": [2.387282, 48.755611]}, "properties": {"etat de la localisation": "Hors service", "numparc": 5757, "duree": "", "horodatage": "2022-12-10 14:04:25", "marker-color": "#707070"}}, {"type": "Feature", "geometry": {"type": "Point", "coordinates": [2.387052, 48.755478]}, "properties": {"etat de la localisation": "Hors service", "numparc": 5725, "duree": "", "horodatage": "2022-12-10 17:28:12", "marker-color": "#707070"}}, {"type": "Feature", "geometry": {"type": "Point", "coordinates": [2.342009, 48.679699]}, "properties": {"etat de la localisation": "Delocalise", "numparc": 7436, "duree": "00:03:05", "horodatage": "2022-12-10 17:56:15", "marker-color": "#FF565E"}}, {"type": "Feature", "geometry": {"type": "Point", "coordinates": [2.387192, 48.755569]}, "properties": {"etat de la localisation": "Hors service", "numparc": 5719, "duree": "", "horodatage": "2022-12-10 18:16:20", "marker-color": "#707070"}}, {"type": "Feature", "geometry": {"type": "Point", "coordinates": [2.338231, 48.676178]}, "properties": {"etat de la localisation": "Mission suivante non connue", "numparc": 5759, "duree": "", "horodatage": "2022-12-10 19:05:20", "marker-color": "#7156FF"}}, {"type": "Feature", "geometry": {"type": "Point", "coordinates": [2.338231, 48.676178]}, "properties": {"etat de la localisation": "Mission inconnue", "numparc": 5759, "duree": "", "horodatage": "2022-12-10 19:05:32", "marker-color": "#FF9F56"}}, {"type": "Feature", "geometry": {"type": "Point", "coordinates": [2.387234, 48.755627]}, "properties": {"etat de la localisation": "Hors service", "numparc": 7436, "duree": "", "horodatage": "2022-12-10 19:17:36", "marker-color": "#707070"}}, {"type": "Feature", "geometry": {"type": "Point", "coordinates": [2.387272, 48.755657]}, "properties": {"etat de la localisation": "Hors service", "numparc": 5759, "duree": "", "horodatage": "2022-12-10 19:38:04", "marker-color": "#707070"}}, {"type": "Feature", "geometry": {"type": "Point", "coordinates": [2.382638, 48.691521]}, "properties": {"etat de la localisation": "Mission suivante non connue", "numparc": 5731, "duree": "", "horodatage": "2022-12-10 19:59:19", "marker-color": "#7156FF"}}, {"type": "Feature", "geometry": {"type": "Point", "coordinates": [2.338225, 48.676174]}, "properties": {"etat de la localisation": "Mission suivante non connue", "numparc": 5731, "duree": "", "horodatage": "2022-12-10 20:30:42", "marker-color": "#7156FF"}}, {"type": "Feature", "geometry": {"type": "Point", "coordinates": [2.382343, 48.691578]}, "properties": {"etat de la localisation": "Mission suivante non connue", "numparc": 5731, "duree": "", "horodatage": "2022-12-10 20:58:42", "marker-color": "#7156FF"}}, {"type": "Feature", "geometry": {"type": "Point", "coordinates": [2.337766, 48.676456]}, "properties": {"etat de la localisation": "Mission suivante non connue", "numparc": 5731, "duree": "", "horodatage": "2022-12-10 21:59:21", "marker-color": "#7156FF"}}, {"type": "Feature", "geometry": {"type": "Point", "coordinates": [2.38257, 48.691536]}, "properties": {"etat de la localisation": "Mission suivante non connue", "numparc": 5731, "duree": "", "horodatage": "2022-12-10 22:29:24", "marker-color": "#7156FF"}}, {"type": "Feature", "geometry": {"type": "Point", "coordinates": [2.338244, 48.676212]}, "properties": {"etat de la localisation": "Mission suivante non connue", "numparc": 5731, "duree": "", "horodatage": "2022-12-10 23:29:00", "marker-color": "#7156FF"}}, {"type": "Feature", "geometry": {"type": "Point", "coordinates": [2.382652, 48.691498]}, "properties": {"etat de la localisation": "Hors service", "numparc": 5723, "duree": "", "horodatage": "2022-12-10 23:32:06", "marker-color": "#707070"}}, {"type": "Feature", "geometry": {"type": "Point", "coordinates": [2.382623, 48.691536]}, "properties": {"etat de la localisation": "Mission suivante non connue", "numparc": 5731, "duree": "", "horodatage": "2022-12-10 23:54:23", "marker-color": "#7156FF"}}, {"type": "Feature", "geometry": {"type": "Point", "coordinates": [2.387004, 48.755486]}, "properties": {"etat de la localisation": "Hors service", "numparc": 5723, "duree": "", "horodatage": "2022-12-11 00:43:06", "marker-color": "#707070"}}, {"type": "Feature", "geometry": {"type": "Point", "coordinates": [2.372047, 48.698772]}, "properties": {"etat de la localisation": "Mission suivante non connue", "numparc": 5731, "duree": "", "horodatage": "2022-12-11 00:45:40", "marker-color": "#7156FF"}}, {"type": "Feature", "geometry": {"type": "Point", "coordinates": [2.387184, 48.755642]}, "properties": {"etat de la localisation": "Hors service", "numparc": 5731, "duree": "", "horodatage": "2022-12-11 01:08:48", "marker-color": "#707070"}}]}