{"type": "FeatureCollection", "features": [{"type": "Feature", "geometry": {"type": "Point", "coordinates": [2.348806, 48.896847]}, "properties": {"etat de la localisation": "Mission inconnue", "numparc": 4410, "duree": "", "horodatage": "2022-07-29 09:00:34", "marker-color": "#FF9F56"}}, {"type": "Feature", "geometry": {"type": "Point", "coordinates": [2.348806, 48.896847]}, "properties": {"etat de la localisation": "Hors service", "numparc": 4410, "duree": "", "horodatage": "2022-07-29 09:03:25", "marker-color": "#707070"}}]}