{"type": "FeatureCollection", "features": [{"type": "Feature", "geometry": {"type": "Point", "coordinates": [2.402019, 48.885536]}, "properties": {"alarme": "VEHICULE DELOCALISE", "numparc": 5664, "type": "EXPLOITATION", "duree": "00:02:17", "horodatage": "2022-10-15 06:49:33", "statut": "start", "marker-color": "#ff0000"}}, {"type": "Feature", "geometry": {"type": "Point", "coordinates": [2.402085, 48.885563]}, "properties": {"alarme": "VEHICULE DELOCALISE", "numparc": 5681, "type": "EXPLOITATION", "duree": "00:02:42", "horodatage": "2022-10-15 08:30:41", "statut": "start", "marker-color": "#ff0000"}}, {"type": "Feature", "geometry": {"type": "Point", "coordinates": [2.401862, 48.885593]}, "properties": {"alarme": "VEHICULE DELOCALISE", "numparc": 5664, "type": "EXPLOITATION", "duree": "00:04:07", "horodatage": "2022-10-15 08:41:55", "statut": "start", "marker-color": "#ff0000"}}, {"type": "Feature", "geometry": {"type": "Point", "coordinates": [2.402147, 48.885563]}, "properties": {"alarme": "VEHICULE DELOCALISE", "numparc": 5681, "type": "EXPLOITATION", "duree": "00:02:46", "horodatage": "2022-10-15 10:40:10", "statut": "start", "marker-color": "#ff0000"}}, {"type": "Feature", "geometry": {"type": "Point", "coordinates": [2.40193, 48.885605]}, "properties": {"alarme": "VEHICULE DELOCALISE", "numparc": 5664, "type": "EXPLOITATION", "duree": "00:03:34", "horodatage": "2022-10-15 10:43:08", "statut": "start", "marker-color": "#ff0000"}}, {"type": "Feature", "geometry": {"type": "Point", "coordinates": [2.412013, 48.879696]}, "properties": {"alarme": "VEHICULE DELOCALISE", "numparc": 5681, "type": "EXPLOITATION", "duree": "00:00:26", "horodatage": "2022-10-15 10:45:52", "statut": "start", "marker-color": "#ff0000"}}, {"type": "Feature", "geometry": {"type": "Point", "coordinates": [2.409032, 48.878044]}, "properties": {"alarme": "VEHICULE DELOCALISE", "numparc": 5681, "type": "EXPLOITATION", "duree": "00:01:59", "horodatage": "2022-10-15 10:47:20", "statut": "start", "marker-color": "#ff0000"}}, {"type": "Feature", "geometry": {"type": "Point", "coordinates": [2.394638, 48.899269]}, "properties": {"alarme": "VEHICULE DELOCALISE", "numparc": 5664, "type": "EXPLOITATION", "duree": "00:09:00", "horodatage": "2022-10-15 11:27:28", "statut": "start", "marker-color": "#ff0000"}}, {"type": "Feature", "geometry": {"type": "Point", "coordinates": [2.402211, 48.885536]}, "properties": {"alarme": "VEHICULE DELOCALISE", "numparc": 5681, "type": "EXPLOITATION", "duree": "00:03:10", "horodatage": "2022-10-15 12:55:36", "statut": "start", "marker-color": "#ff0000"}}, {"type": "Feature", "geometry": {"type": "Point", "coordinates": [2.402112, 48.885632]}, "properties": {"alarme": "VEHICULE DELOCALISE", "numparc": 5664, "type": "EXPLOITATION", "duree": "00:02:56", "horodatage": "2022-10-15 12:59:52", "statut": "start", "marker-color": "#ff0000"}}, {"type": "Feature", "geometry": {"type": "Point", "coordinates": [2.402179, 48.885674]}, "properties": {"alarme": "VEHICULE DELOCALISE", "numparc": 5655, "type": "EXPLOITATION", "duree": "00:02:57", "horodatage": "2022-10-15 14:27:50", "statut": "start", "marker-color": "#ff0000"}}, {"type": "Feature", "geometry": {"type": "Point", "coordinates": [2.402194, 48.885574]}, "properties": {"alarme": "VEHICULE DELOCALISE", "numparc": 5681, "type": "EXPLOITATION", "duree": "00:03:18", "horodatage": "2022-10-15 14:53:24", "statut": "start", "marker-color": "#ff0000"}}, {"type": "Feature", "geometry": {"type": "Point", "coordinates": [2.402251, 48.885628]}, "properties": {"alarme": "VEHICULE DELOCALISE", "numparc": 5649, "type": "EXPLOITATION", "duree": "00:03:09", "horodatage": "2022-10-15 15:00:53", "statut": "start", "marker-color": "#ff0000"}}, {"type": "Feature", "geometry": {"type": "Point", "coordinates": [2.402267, 48.885609]}, "properties": {"alarme": "VEHICULE DELOCALISE", "numparc": 5640, "type": "EXPLOITATION", "duree": "00:02:37", "horodatage": "2022-10-15 15:30:47", "statut": "start", "marker-color": "#ff0000"}}, {"type": "Feature", "geometry": {"type": "Point", "coordinates": [2.402463, 48.885635]}, "properties": {"alarme": "VEHICULE DELOCALISE", "numparc": 5664, "type": "EXPLOITATION", "duree": "00:02:45", "horodatage": "2022-10-15 15:30:48", "statut": "start", "marker-color": "#ff0000"}}, {"type": "Feature", "geometry": {"type": "Point", "coordinates": [2.40126, 48.885685]}, "properties": {"alarme": "VEHICULE DELOCALISE", "numparc": 5651, "type": "EXPLOITATION", "duree": "00:07:58", "horodatage": "2022-10-15 16:32:55", "statut": "start", "marker-color": "#ff0000"}}, {"type": "Feature", "geometry": {"type": "Point", "coordinates": [2.402058, 48.885582]}, "properties": {"alarme": "VEHICULE DELOCALISE", "numparc": 5678, "type": "EXPLOITATION", "duree": "00:03:00", "horodatage": "2022-10-15 16:57:10", "statut": "start", "marker-color": "#ff0000"}}, {"type": "Feature", "geometry": {"type": "Point", "coordinates": [2.380576, 48.913647]}, "properties": {"alarme": "VEHICULE DELOCALISE", "numparc": 5649, "type": "EXPLOITATION", "duree": "00:12:21", "horodatage": "2022-10-15 17:00:27", "statut": "start", "marker-color": "#ff0000"}}, {"type": "Feature", "geometry": {"type": "Point", "coordinates": [2.387174, 48.900421]}, "properties": {"alarme": "VEHICULE DELOCALISE", "numparc": 5640, "type": "EXPLOITATION", "duree": "00:05:29", "horodatage": "2022-10-15 17:19:05", "statut": "start", "marker-color": "#ff0000"}}, {"type": "Feature", "geometry": {"type": "Point", "coordinates": [2.402191, 48.885658]}, "properties": {"alarme": "VEHICULE DELOCALISE", "numparc": 5681, "type": "EXPLOITATION", "duree": "00:03:42", "horodatage": "2022-10-15 17:20:35", "statut": "start", "marker-color": "#ff0000"}}, {"type": "Feature", "geometry": {"type": "Point", "coordinates": [2.401256, 48.890884]}, "properties": {"alarme": "VEHICULE DELOCALISE", "numparc": 5649, "type": "EXPLOITATION", "duree": "00:12:09", "horodatage": "2022-10-15 17:24:24", "statut": "start", "marker-color": "#ff0000"}}, {"type": "Feature", "geometry": {"type": "Point", "coordinates": [2.402203, 48.88559]}, "properties": {"alarme": "VEHICULE DELOCALISE", "numparc": 5640, "type": "EXPLOITATION", "duree": "00:10:55", "horodatage": "2022-10-15 17:38:07", "statut": "start", "marker-color": "#ff0000"}}, {"type": "Feature", "geometry": {"type": "Point", "coordinates": [2.405602, 48.878006]}, "properties": {"alarme": "VEHICULE DELOCALISE", "numparc": 5681, "type": "EXPLOITATION", "duree": "00:03:18", "horodatage": "2022-10-15 17:52:11", "statut": "start", "marker-color": "#ff0000"}}, {"type": "Feature", "geometry": {"type": "Point", "coordinates": [2.402247, 48.885609]}, "properties": {"alarme": "VEHICULE DELOCALISE", "numparc": 5664, "type": "EXPLOITATION", "duree": "00:02:38", "horodatage": "2022-10-15 17:53:29", "statut": "start", "marker-color": "#ff0000"}}, {"type": "Feature", "geometry": {"type": "Point", "coordinates": [2.402175, 48.885609]}, "properties": {"alarme": "VEHICULE DELOCALISE", "numparc": 5651, "type": "EXPLOITATION", "duree": "00:02:58", "horodatage": "2022-10-15 18:30:25", "statut": "start", "marker-color": "#ff0000"}}, {"type": "Feature", "geometry": {"type": "Point", "coordinates": [2.401283, 48.890957]}, "properties": {"alarme": "VEHICULE DELOCALISE", "numparc": 5661, "type": "EXPLOITATION", "duree": "00:03:06", "horodatage": "2022-10-15 19:09:53", "statut": "start", "marker-color": "#ff0000"}}, {"type": "Feature", "geometry": {"type": "Point", "coordinates": [2.40233, 48.885544]}, "properties": {"alarme": "VEHICULE DELOCALISE", "numparc": 5649, "type": "EXPLOITATION", "duree": "00:07:19", "horodatage": "2022-10-15 19:18:24", "statut": "start", "marker-color": "#ff0000"}}, {"type": "Feature", "geometry": {"type": "Point", "coordinates": [2.387546, 48.908138]}, "properties": {"alarme": "VEHICULE DELOCALISE", "numparc": 5640, "type": "EXPLOITATION", "duree": "00:00:08", "horodatage": "2022-10-15 19:28:04", "statut": "start", "marker-color": "#ff0000"}}, {"type": "Feature", "geometry": {"type": "Point", "coordinates": [2.402149, 48.885567]}, "properties": {"alarme": "VEHICULE DELOCALISE", "numparc": 5640, "type": "EXPLOITATION", "duree": "00:03:51", "horodatage": "2022-10-15 19:49:35", "statut": "start", "marker-color": "#ff0000"}}, {"type": "Feature", "geometry": {"type": "Point", "coordinates": [2.409894, 48.877274]}, "properties": {"alarme": "VEHICULE DELOCALISE", "numparc": 5649, "type": "EXPLOITATION", "duree": "00:06:03", "horodatage": "2022-10-15 19:50:59", "statut": "start", "marker-color": "#ff0000"}}, {"type": "Feature", "geometry": {"type": "Point", "coordinates": [2.401144, 48.890884]}, "properties": {"alarme": "VEHICULE DELOCALISE", "numparc": 5678, "type": "EXPLOITATION", "duree": "00:09:10", "horodatage": "2022-10-15 19:52:33", "statut": "start", "marker-color": "#ff0000"}}, {"type": "Feature", "geometry": {"type": "Point", "coordinates": [2.403975, 48.881397]}, "properties": {"alarme": "VEHICULE DELOCALISE", "numparc": 5649, "type": "EXPLOITATION", "duree": "00:00:41", "horodatage": "2022-10-15 19:58:07", "statut": "start", "marker-color": "#ff0000"}}, {"type": "Feature", "geometry": {"type": "Point", "coordinates": [2.398508, 48.891506]}, "properties": {"alarme": "VEHICULE DELOCALISE", "numparc": 5649, "type": "EXPLOITATION", "duree": "00:03:35", "horodatage": "2022-10-15 20:04:16", "statut": "start", "marker-color": "#ff0000"}}, {"type": "Feature", "geometry": {"type": "Point", "coordinates": [2.402177, 48.885601]}, "properties": {"alarme": "VEHICULE DELOCALISE", "numparc": 5661, "type": "EXPLOITATION", "duree": "00:03:20", "horodatage": "2022-10-15 20:48:07", "statut": "start", "marker-color": "#ff0000"}}, {"type": "Feature", "geometry": {"type": "Point", "coordinates": [2.402077, 48.885609]}, "properties": {"alarme": "VEHICULE DELOCALISE", "numparc": 5651, "type": "EXPLOITATION", "duree": "00:02:44", "horodatage": "2022-10-15 21:02:22", "statut": "start", "marker-color": "#ff0000"}}, {"type": "Feature", "geometry": {"type": "Point", "coordinates": [2.402262, 48.885651]}, "properties": {"alarme": "VEHICULE DELOCALISE", "numparc": 5649, "type": "EXPLOITATION", "duree": "00:02:47", "horodatage": "2022-10-15 21:23:55", "statut": "start", "marker-color": "#ff0000"}}, {"type": "Feature", "geometry": {"type": "Point", "coordinates": [2.402099, 48.885582]}, "properties": {"alarme": "VEHICULE DELOCALISE", "numparc": 5678, "type": "EXPLOITATION", "duree": "00:04:57", "horodatage": "2022-10-15 21:46:45", "statut": "start", "marker-color": "#ff0000"}}, {"type": "Feature", "geometry": {"type": "Point", "coordinates": [2.409334, 48.877979]}, "properties": {"alarme": "VEHICULE DELOCALISE", "numparc": 5678, "type": "EXPLOITATION", "duree": "00:19:06", "horodatage": "2022-10-15 21:57:36", "statut": "start", "marker-color": "#ff0000"}}, {"type": "Feature", "geometry": {"type": "Point", "coordinates": [2.402228, 48.885643]}, "properties": {"alarme": "VEHICULE DELOCALISE", "numparc": 5640, "type": "EXPLOITATION", "duree": "00:03:43", "horodatage": "2022-10-15 22:15:28", "statut": "start", "marker-color": "#ff0000"}}, {"type": "Feature", "geometry": {"type": "Point", "coordinates": [2.402197, 48.885582]}, "properties": {"alarme": "VEHICULE DELOCALISE", "numparc": 5661, "type": "EXPLOITATION", "duree": "00:03:00", "horodatage": "2022-10-15 22:44:17", "statut": "start", "marker-color": "#ff0000"}}, {"type": "Feature", "geometry": {"type": "Point", "coordinates": [2.402112, 48.885574]}, "properties": {"alarme": "VEHICULE DELOCALISE", "numparc": 5640, "type": "EXPLOITATION", "duree": "00:02:20", "horodatage": "2022-10-15 23:46:38", "statut": "start", "marker-color": "#ff0000"}}, {"type": "Feature", "geometry": {"type": "Point", "coordinates": [2.402167, 48.885574]}, "properties": {"alarme": "VEHICULE DELOCALISE", "numparc": 5661, "type": "EXPLOITATION", "duree": "00:03:28", "horodatage": "2022-10-16 00:48:55", "statut": "start", "marker-color": "#ff0000"}}, {"type": "Feature", "geometry": {"type": "Point", "coordinates": [2.402134, 48.885628]}, "properties": {"alarme": "VEHICULE DELOCALISE", "numparc": 5640, "type": "EXPLOITATION", "duree": "00:03:10", "horodatage": "2022-10-16 01:42:49", "statut": "start", "marker-color": "#ff0000"}}, {"type": "Feature", "geometry": {"type": "Point", "coordinates": [2.409337, 48.878162]}, "properties": {"alarme": "VEHICULE DELOCALISE", "numparc": 5640, "type": "EXPLOITATION", "duree": "00:00:10", "horodatage": "2022-10-16 01:50:02", "statut": "start", "marker-color": "#ff0000"}}, {"type": "Feature", "geometry": {"type": "Point", "coordinates": [2.403171, 48.881607]}, "properties": {"alarme": "VEHICULE DELOCALISE", "numparc": 5664, "type": "EXPLOITATION", "duree": "00:02:17", "horodatage": "2022-10-15 06:51:50", "statut": "end", "marker-color": "#2fe184"}}, {"type": "Feature", "geometry": {"type": "Point", "coordinates": [2.403094, 48.881672]}, "properties": {"alarme": "VEHICULE DELOCALISE", "numparc": 5681, "type": "EXPLOITATION", "duree": "00:02:42", "horodatage": "2022-10-15 08:33:23", "statut": "end", "marker-color": "#2fe184"}}, {"type": "Feature", "geometry": {"type": "Point", "coordinates": [2.407944, 48.880268]}, "properties": {"alarme": "VEHICULE DELOCALISE", "numparc": 5664, "type": "EXPLOITATION", "duree": "00:04:07", "horodatage": "2022-10-15 08:46:02", "statut": "end", "marker-color": "#2fe184"}}, {"type": "Feature", "geometry": {"type": "Point", "coordinates": [2.40308, 48.881676]}, "properties": {"alarme": "VEHICULE DELOCALISE", "numparc": 5681, "type": "EXPLOITATION", "duree": "00:02:46", "horodatage": "2022-10-15 10:42:56", "statut": "end", "marker-color": "#2fe184"}}, {"type": "Feature", "geometry": {"type": "Point", "coordinates": [2.403108, 48.88166]}, "properties": {"alarme": "VEHICULE DELOCALISE", "numparc": 5664, "type": "EXPLOITATION", "duree": "00:03:34", "horodatage": "2022-10-15 10:46:42", "statut": "end", "marker-color": "#2fe184"}}, {"type": "Feature", "geometry": {"type": "Point", "coordinates": [2.41192, 48.878963]}, "properties": {"alarme": "VEHICULE DELOCALISE", "numparc": 5681, "type": "EXPLOITATION", "duree": "00:00:26", "horodatage": "2022-10-15 10:46:18", "statut": "end", "marker-color": "#2fe184"}}, {"type": "Feature", "geometry": {"type": "Point", "coordinates": [2.408098, 48.876705]}, "properties": {"alarme": "VEHICULE DELOCALISE", "numparc": 5681, "type": "EXPLOITATION", "duree": "00:01:59", "horodatage": "2022-10-15 10:49:19", "statut": "end", "marker-color": "#2fe184"}}, {"type": "Feature", "geometry": {"type": "Point", "coordinates": [2.385126, 48.910545]}, "properties": {"alarme": "VEHICULE DELOCALISE", "numparc": 5664, "type": "EXPLOITATION", "duree": "00:09:00", "horodatage": "2022-10-15 11:36:28", "statut": "end", "marker-color": "#2fe184"}}, {"type": "Feature", "geometry": {"type": "Point", "coordinates": [2.403153, 48.881672]}, "properties": {"alarme": "VEHICULE DELOCALISE", "numparc": 5681, "type": "EXPLOITATION", "duree": "00:03:10", "horodatage": "2022-10-15 12:58:46", "statut": "end", "marker-color": "#2fe184"}}, {"type": "Feature", "geometry": {"type": "Point", "coordinates": [2.403114, 48.881729]}, "properties": {"alarme": "VEHICULE DELOCALISE", "numparc": 5664, "type": "EXPLOITATION", "duree": "00:02:56", "horodatage": "2022-10-15 13:02:48", "statut": "end", "marker-color": "#2fe184"}}, {"type": "Feature", "geometry": {"type": "Point", "coordinates": [2.403076, 48.881683]}, "properties": {"alarme": "VEHICULE DELOCALISE", "numparc": 5655, "type": "EXPLOITATION", "duree": "00:02:57", "horodatage": "2022-10-15 14:30:47", "statut": "end", "marker-color": "#2fe184"}}, {"type": "Feature", "geometry": {"type": "Point", "coordinates": [2.407947, 48.880257]}, "properties": {"alarme": "VEHICULE DELOCALISE", "numparc": 5681, "type": "EXPLOITATION", "duree": "00:03:18", "horodatage": "2022-10-15 14:56:42", "statut": "end", "marker-color": "#2fe184"}}, {"type": "Feature", "geometry": {"type": "Point", "coordinates": [2.403121, 48.881653]}, "properties": {"alarme": "VEHICULE DELOCALISE", "numparc": 5649, "type": "EXPLOITATION", "duree": "00:03:09", "horodatage": "2022-10-15 15:04:02", "statut": "end", "marker-color": "#2fe184"}}, {"type": "Feature", "geometry": {"type": "Point", "coordinates": [2.403147, 48.881634]}, "properties": {"alarme": "VEHICULE DELOCALISE", "numparc": 5640, "type": "EXPLOITATION", "duree": "00:02:37", "horodatage": "2022-10-15 15:33:24", "statut": "end", "marker-color": "#2fe184"}}, {"type": "Feature", "geometry": {"type": "Point", "coordinates": [2.402946, 48.881779]}, "properties": {"alarme": "VEHICULE DELOCALISE", "numparc": 5664, "type": "EXPLOITATION", "duree": "00:02:45", "horodatage": "2022-10-15 15:33:33", "statut": "end", "marker-color": "#2fe184"}}, {"type": "Feature", "geometry": {"type": "Point", "coordinates": [2.402928, 48.891327]}, "properties": {"alarme": "VEHICULE DELOCALISE", "numparc": 5651, "type": "EXPLOITATION", "duree": "00:07:58", "horodatage": "2022-10-15 16:40:53", "statut": "end", "marker-color": "#2fe184"}}, {"type": "Feature", "geometry": {"type": "Point", "coordinates": [2.403133, 48.881641]}, "properties": {"alarme": "VEHICULE DELOCALISE", "numparc": 5678, "type": "EXPLOITATION", "duree": "00:03:00", "horodatage": "2022-10-15 17:00:10", "statut": "end", "marker-color": "#2fe184"}}, {"type": "Feature", "geometry": {"type": "Point", "coordinates": [2.394604, 48.900997]}, "properties": {"alarme": "VEHICULE DELOCALISE", "numparc": 5649, "type": "EXPLOITATION", "duree": "00:12:21", "horodatage": "2022-10-15 17:12:48", "statut": "end", "marker-color": "#2fe184"}}, {"type": "Feature", "geometry": {"type": "Point", "coordinates": [2.394589, 48.901012]}, "properties": {"alarme": "VEHICULE DELOCALISE", "numparc": 5640, "type": "EXPLOITATION", "duree": "00:05:29", "horodatage": "2022-10-15 17:24:34", "statut": "end", "marker-color": "#2fe184"}}, {"type": "Feature", "geometry": {"type": "Point", "coordinates": [2.403075, 48.881702]}, "properties": {"alarme": "VEHICULE DELOCALISE", "numparc": 5681, "type": "EXPLOITATION", "duree": "00:03:42", "horodatage": "2022-10-15 17:24:17", "statut": "end", "marker-color": "#2fe184"}}, {"type": "Feature", "geometry": {"type": "Point", "coordinates": [2.400522, 48.895535]}, "properties": {"alarme": "VEHICULE DELOCALISE", "numparc": 5649, "type": "EXPLOITATION", "duree": "00:12:09", "horodatage": "2022-10-15 17:36:33", "statut": "end", "marker-color": "#2fe184"}}, {"type": "Feature", "geometry": {"type": "Point", "coordinates": [2.407521, 48.880322]}, "properties": {"alarme": "VEHICULE DELOCALISE", "numparc": 5640, "type": "EXPLOITATION", "duree": "00:10:55", "horodatage": "2022-10-15 17:49:02", "statut": "end", "marker-color": "#2fe184"}}, {"type": "Feature", "geometry": {"type": "Point", "coordinates": [2.402045, 48.882217]}, "properties": {"alarme": "VEHICULE DELOCALISE", "numparc": 5681, "type": "EXPLOITATION", "duree": "00:03:18", "horodatage": "2022-10-15 17:55:29", "statut": "end", "marker-color": "#2fe184"}}, {"type": "Feature", "geometry": {"type": "Point", "coordinates": [2.403065, 48.881699]}, "properties": {"alarme": "VEHICULE DELOCALISE", "numparc": 5664, "type": "EXPLOITATION", "duree": "00:02:38", "horodatage": "2022-10-15 17:56:07", "statut": "end", "marker-color": "#2fe184"}}, {"type": "Feature", "geometry": {"type": "Point", "coordinates": [2.403095, 48.881672]}, "properties": {"alarme": "VEHICULE DELOCALISE", "numparc": 5651, "type": "EXPLOITATION", "duree": "00:02:58", "horodatage": "2022-10-15 18:33:23", "statut": "end", "marker-color": "#2fe184"}}, {"type": "Feature", "geometry": {"type": "Point", "coordinates": [2.400627, 48.895584]}, "properties": {"alarme": "VEHICULE DELOCALISE", "numparc": 5661, "type": "EXPLOITATION", "duree": "00:03:06", "horodatage": "2022-10-15 19:12:59", "statut": "end", "marker-color": "#2fe184"}}, {"type": "Feature", "geometry": {"type": "Point", "coordinates": [2.407025, 48.880505]}, "properties": {"alarme": "VEHICULE DELOCALISE", "numparc": 5649, "type": "EXPLOITATION", "duree": "00:07:19", "horodatage": "2022-10-15 19:25:43", "statut": "end", "marker-color": "#2fe184"}}, {"type": "Feature", "geometry": {"type": "Point", "coordinates": [2.387546, 48.908138]}, "properties": {"alarme": "VEHICULE DELOCALISE", "numparc": 5640, "type": "EXPLOITATION", "duree": "00:00:08", "horodatage": "2022-10-15 19:28:12", "statut": "end", "marker-color": "#2fe184"}}, {"type": "Feature", "geometry": {"type": "Point", "coordinates": [2.403248, 48.881573]}, "properties": {"alarme": "VEHICULE DELOCALISE", "numparc": 5640, "type": "EXPLOITATION", "duree": "00:03:51", "horodatage": "2022-10-15 19:53:26", "statut": "end", "marker-color": "#2fe184"}}, {"type": "Feature", "geometry": {"type": "Point", "coordinates": [2.407207, 48.880474]}, "properties": {"alarme": "VEHICULE DELOCALISE", "numparc": 5649, "type": "EXPLOITATION", "duree": "00:06:03", "horodatage": "2022-10-15 19:57:02", "statut": "end", "marker-color": "#2fe184"}}, {"type": "Feature", "geometry": {"type": "Point", "coordinates": [2.402557, 48.891239]}, "properties": {"alarme": "VEHICULE DELOCALISE", "numparc": 5678, "type": "EXPLOITATION", "duree": "00:09:10", "horodatage": "2022-10-15 20:01:43", "statut": "end", "marker-color": "#2fe184"}}, {"type": "Feature", "geometry": {"type": "Point", "coordinates": [2.40157, 48.882507]}, "properties": {"alarme": "VEHICULE DELOCALISE", "numparc": 5649, "type": "EXPLOITATION", "duree": "00:00:41", "horodatage": "2022-10-15 19:58:48", "statut": "end", "marker-color": "#2fe184"}}, {"type": "Feature", "geometry": {"type": "Point", "coordinates": [2.39731, 48.899021]}, "properties": {"alarme": "VEHICULE DELOCALISE", "numparc": 5649, "type": "EXPLOITATION", "duree": "00:03:35", "horodatage": "2022-10-15 20:07:51", "statut": "end", "marker-color": "#2fe184"}}, {"type": "Feature", "geometry": {"type": "Point", "coordinates": [2.407729, 48.880291]}, "properties": {"alarme": "VEHICULE DELOCALISE", "numparc": 5661, "type": "EXPLOITATION", "duree": "00:03:20", "horodatage": "2022-10-15 20:51:27", "statut": "end", "marker-color": "#2fe184"}}, {"type": "Feature", "geometry": {"type": "Point", "coordinates": [2.403116, 48.881653]}, "properties": {"alarme": "VEHICULE DELOCALISE", "numparc": 5651, "type": "EXPLOITATION", "duree": "00:02:44", "horodatage": "2022-10-15 21:05:06", "statut": "end", "marker-color": "#2fe184"}}, {"type": "Feature", "geometry": {"type": "Point", "coordinates": [2.403085, 48.881664]}, "properties": {"alarme": "VEHICULE DELOCALISE", "numparc": 5649, "type": "EXPLOITATION", "duree": "00:02:47", "horodatage": "2022-10-15 21:26:42", "statut": "end", "marker-color": "#2fe184"}}, {"type": "Feature", "geometry": {"type": "Point", "coordinates": [2.403103, 48.88166]}, "properties": {"alarme": "VEHICULE DELOCALISE", "numparc": 5678, "type": "EXPLOITATION", "duree": "00:04:57", "horodatage": "2022-10-15 21:51:42", "statut": "end", "marker-color": "#2fe184"}}, {"type": "Feature", "geometry": {"type": "Point", "coordinates": [2.369144, 48.911358]}, "properties": {"alarme": "VEHICULE DELOCALISE", "numparc": 5678, "type": "EXPLOITATION", "duree": "00:19:06", "horodatage": "2022-10-15 22:16:42", "statut": "end", "marker-color": "#2fe184"}}, {"type": "Feature", "geometry": {"type": "Point", "coordinates": [2.408064, 48.880257]}, "properties": {"alarme": "VEHICULE DELOCALISE", "numparc": 5640, "type": "EXPLOITATION", "duree": "00:03:43", "horodatage": "2022-10-15 22:19:11", "statut": "end", "marker-color": "#2fe184"}}, {"type": "Feature", "geometry": {"type": "Point", "coordinates": [2.407828, 48.880264]}, "properties": {"alarme": "VEHICULE DELOCALISE", "numparc": 5661, "type": "EXPLOITATION", "duree": "00:03:00", "horodatage": "2022-10-15 22:47:17", "statut": "end", "marker-color": "#2fe184"}}, {"type": "Feature", "geometry": {"type": "Point", "coordinates": [2.403073, 48.88168]}, "properties": {"alarme": "VEHICULE DELOCALISE", "numparc": 5640, "type": "EXPLOITATION", "duree": "00:02:20", "horodatage": "2022-10-15 23:48:58", "statut": "end", "marker-color": "#2fe184"}}, {"type": "Feature", "geometry": {"type": "Point", "coordinates": [2.407817, 48.880249]}, "properties": {"alarme": "VEHICULE DELOCALISE", "numparc": 5661, "type": "EXPLOITATION", "duree": "00:03:28", "horodatage": "2022-10-16 00:52:23", "statut": "end", "marker-color": "#2fe184"}}, {"type": "Feature", "geometry": {"type": "Point", "coordinates": [2.408051, 48.88028]}, "properties": {"alarme": "VEHICULE DELOCALISE", "numparc": 5640, "type": "EXPLOITATION", "duree": "00:03:10", "horodatage": "2022-10-16 01:45:59", "statut": "end", "marker-color": "#2fe184"}}, {"type": "Feature", "geometry": {"type": "Point", "coordinates": [2.408956, 48.878517]}, "properties": {"alarme": "VEHICULE DELOCALISE", "numparc": 5640, "type": "EXPLOITATION", "duree": "00:00:10", "horodatage": "2022-10-16 01:50:12", "statut": "end", "marker-color": "#2fe184"}}, {"type": "Feature", "geometry": {"type": "Point", "coordinates": [2.369754, 48.910889]}, "properties": {"alarme": "DEFAUT LIAISON DATA SAEIV / AIGLE", "numparc": 5681, "type": "TECHNIQUE", "duree": "24:00:00", "horodatage": "2022-10-15 02:51:19", "statut": "start", "marker-color": "#000000"}}, {"type": "Feature", "geometry": {"type": "Point", "coordinates": [2.347454, 48.93412]}, "properties": {"alarme": "DEFAUT LIAISON DATA SAEIV / AIGLE", "numparc": 5640, "type": "TECHNIQUE", "duree": "24:00:00", "horodatage": "2022-10-15 18:56:10", "statut": "start", "marker-color": "#000000"}}]}