{"type": "FeatureCollection", "features": [{"type": "Feature", "geometry": {"type": "Point", "coordinates": [2.399131, 48.773884]}, "properties": {"alarme": "VEHICULE DELOCALISE", "numparc": 1306, "type": "EXPLOITATION", "duree": "00:01:21", "horodatage": "2022-09-23 07:31:56", "statut": "start", "marker-color": "#ff0000"}}, {"type": "Feature", "geometry": {"type": "Point", "coordinates": [2.39795, 48.772362]}, "properties": {"alarme": "VEHICULE DELOCALISE", "numparc": 1308, "type": "EXPLOITATION", "duree": "00:03:11", "horodatage": "2022-09-23 07:47:41", "statut": "start", "marker-color": "#ff0000"}}, {"type": "Feature", "geometry": {"type": "Point", "coordinates": [2.397446, 48.772182]}, "properties": {"alarme": "VEHICULE DELOCALISE", "numparc": 1308, "type": "EXPLOITATION", "duree": "00:01:41", "horodatage": "2022-09-23 07:55:05", "statut": "start", "marker-color": "#ff0000"}}, {"type": "Feature", "geometry": {"type": "Point", "coordinates": [2.397851, 48.772385]}, "properties": {"alarme": "VEHICULE DELOCALISE", "numparc": 1307, "type": "EXPLOITATION", "duree": "00:03:57", "horodatage": "2022-09-23 08:08:12", "statut": "start", "marker-color": "#ff0000"}}, {"type": "Feature", "geometry": {"type": "Point", "coordinates": [2.398082, 48.772758]}, "properties": {"alarme": "VEHICULE DELOCALISE", "numparc": 1307, "type": "EXPLOITATION", "duree": "00:01:23", "horodatage": "2022-09-23 08:15:22", "statut": "start", "marker-color": "#ff0000"}}, {"type": "Feature", "geometry": {"type": "Point", "coordinates": [2.397859, 48.772419]}, "properties": {"alarme": "VEHICULE DELOCALISE", "numparc": 1307, "type": "EXPLOITATION", "duree": "00:03:55", "horodatage": "2022-09-23 09:27:57", "statut": "start", "marker-color": "#ff0000"}}, {"type": "Feature", "geometry": {"type": "Point", "coordinates": [2.398492, 48.773281]}, "properties": {"alarme": "VEHICULE DELOCALISE", "numparc": 1307, "type": "EXPLOITATION", "duree": "00:01:38", "horodatage": "2022-09-23 09:35:43", "statut": "start", "marker-color": "#ff0000"}}, {"type": "Feature", "geometry": {"type": "Point", "coordinates": [2.397921, 48.772404]}, "properties": {"alarme": "VEHICULE DELOCALISE", "numparc": 1306, "type": "EXPLOITATION", "duree": "00:03:22", "horodatage": "2022-09-23 10:06:58", "statut": "start", "marker-color": "#ff0000"}}, {"type": "Feature", "geometry": {"type": "Point", "coordinates": [2.398044, 48.772732]}, "properties": {"alarme": "VEHICULE DELOCALISE", "numparc": 1308, "type": "EXPLOITATION", "duree": "00:09:05", "horodatage": "2022-09-23 10:31:42", "statut": "start", "marker-color": "#ff0000"}}, {"type": "Feature", "geometry": {"type": "Point", "coordinates": [2.397873, 48.77232]}, "properties": {"alarme": "VEHICULE DELOCALISE", "numparc": 1306, "type": "EXPLOITATION", "duree": "00:02:33", "horodatage": "2022-09-23 11:26:22", "statut": "start", "marker-color": "#ff0000"}}, {"type": "Feature", "geometry": {"type": "Point", "coordinates": [2.399154, 48.773937]}, "properties": {"alarme": "VEHICULE DELOCALISE", "numparc": 1306, "type": "EXPLOITATION", "duree": "00:02:44", "horodatage": "2022-09-23 11:32:51", "statut": "start", "marker-color": "#ff0000"}}, {"type": "Feature", "geometry": {"type": "Point", "coordinates": [2.397882, 48.772423]}, "properties": {"alarme": "VEHICULE DELOCALISE", "numparc": 1306, "type": "EXPLOITATION", "duree": "00:04:29", "horodatage": "2022-09-23 12:46:11", "statut": "start", "marker-color": "#ff0000"}}, {"type": "Feature", "geometry": {"type": "Point", "coordinates": [2.399064, 48.774113]}, "properties": {"alarme": "VEHICULE DELOCALISE", "numparc": 1306, "type": "EXPLOITATION", "duree": "00:01:45", "horodatage": "2022-09-23 12:53:24", "statut": "start", "marker-color": "#ff0000"}}, {"type": "Feature", "geometry": {"type": "Point", "coordinates": [2.398541, 48.773354]}, "properties": {"alarme": "VEHICULE DELOCALISE", "numparc": 1308, "type": "EXPLOITATION", "duree": "00:03:19", "horodatage": "2022-09-23 13:19:58", "statut": "start", "marker-color": "#ff0000"}}, {"type": "Feature", "geometry": {"type": "Point", "coordinates": [2.397223, 48.77161]}, "properties": {"alarme": "VEHICULE DELOCALISE", "numparc": 1307, "type": "EXPLOITATION", "duree": "00:01:00", "horodatage": "2022-09-23 13:41:06", "statut": "start", "marker-color": "#ff0000"}}, {"type": "Feature", "geometry": {"type": "Point", "coordinates": [2.397901, 48.772438]}, "properties": {"alarme": "VEHICULE DELOCALISE", "numparc": 1306, "type": "EXPLOITATION", "duree": "00:04:23", "horodatage": "2022-09-23 14:05:07", "statut": "start", "marker-color": "#ff0000"}}, {"type": "Feature", "geometry": {"type": "Point", "coordinates": [2.398586, 48.773415]}, "properties": {"alarme": "VEHICULE DELOCALISE", "numparc": 1308, "type": "EXPLOITATION", "duree": "00:05:44", "horodatage": "2022-09-23 14:39:39", "statut": "start", "marker-color": "#ff0000"}}, {"type": "Feature", "geometry": {"type": "Point", "coordinates": [2.397843, 48.77232]}, "properties": {"alarme": "VEHICULE DELOCALISE", "numparc": 1307, "type": "EXPLOITATION", "duree": "00:03:54", "horodatage": "2022-09-23 14:51:02", "statut": "start", "marker-color": "#ff0000"}}, {"type": "Feature", "geometry": {"type": "Point", "coordinates": [2.397963, 48.772446]}, "properties": {"alarme": "VEHICULE DELOCALISE", "numparc": 1308, "type": "EXPLOITATION", "duree": "00:04:04", "horodatage": "2022-09-23 15:50:03", "statut": "start", "marker-color": "#ff0000"}}, {"type": "Feature", "geometry": {"type": "Point", "coordinates": [2.397877, 48.772385]}, "properties": {"alarme": "VEHICULE DELOCALISE", "numparc": 1307, "type": "EXPLOITATION", "duree": "00:03:04", "horodatage": "2022-09-23 16:10:18", "statut": "start", "marker-color": "#ff0000"}}, {"type": "Feature", "geometry": {"type": "Point", "coordinates": [2.397137, 48.771515]}, "properties": {"alarme": "VEHICULE DELOCALISE", "numparc": 1307, "type": "EXPLOITATION", "duree": "00:00:46", "horodatage": "2022-09-23 16:17:44", "statut": "start", "marker-color": "#ff0000"}}, {"type": "Feature", "geometry": {"type": "Point", "coordinates": [2.397877, 48.772484]}, "properties": {"alarme": "VEHICULE DELOCALISE", "numparc": 1306, "type": "EXPLOITATION", "duree": "00:03:29", "horodatage": "2022-09-23 16:50:59", "statut": "start", "marker-color": "#ff0000"}}, {"type": "Feature", "geometry": {"type": "Point", "coordinates": [2.398773, 48.774582]}, "properties": {"alarme": "VEHICULE DELOCALISE", "numparc": 1306, "type": "EXPLOITATION", "duree": "00:03:17", "horodatage": "2022-09-23 16:57:35", "statut": "start", "marker-color": "#ff0000"}}, {"type": "Feature", "geometry": {"type": "Point", "coordinates": [2.39796, 48.772358]}, "properties": {"alarme": "VEHICULE DELOCALISE", "numparc": 1308, "type": "EXPLOITATION", "duree": "00:06:23", "horodatage": "2022-09-23 17:08:24", "statut": "start", "marker-color": "#ff0000"}}, {"type": "Feature", "geometry": {"type": "Point", "coordinates": [2.397197, 48.771618]}, "properties": {"alarme": "VEHICULE DELOCALISE", "numparc": 1308, "type": "EXPLOITATION", "duree": "00:01:40", "horodatage": "2022-09-23 17:19:06", "statut": "start", "marker-color": "#ff0000"}}, {"type": "Feature", "geometry": {"type": "Point", "coordinates": [2.397895, 48.772232]}, "properties": {"alarme": "VEHICULE DELOCALISE", "numparc": 1307, "type": "EXPLOITATION", "duree": "00:00:07", "horodatage": "2022-09-23 17:32:06", "statut": "start", "marker-color": "#ff0000"}}, {"type": "Feature", "geometry": {"type": "Point", "coordinates": [2.397715, 48.772091]}, "properties": {"alarme": "VEHICULE DELOCALISE", "numparc": 1307, "type": "EXPLOITATION", "duree": "00:04:54", "horodatage": "2022-09-23 17:33:04", "statut": "start", "marker-color": "#ff0000"}}, {"type": "Feature", "geometry": {"type": "Point", "coordinates": [2.397795, 48.772419]}, "properties": {"alarme": "VEHICULE DELOCALISE", "numparc": 1306, "type": "EXPLOITATION", "duree": "00:03:32", "horodatage": "2022-09-23 18:09:08", "statut": "start", "marker-color": "#ff0000"}}, {"type": "Feature", "geometry": {"type": "Point", "coordinates": [2.397183, 48.7715]}, "properties": {"alarme": "VEHICULE DELOCALISE", "numparc": 1306, "type": "EXPLOITATION", "duree": "00:00:56", "horodatage": "2022-09-23 18:16:52", "statut": "start", "marker-color": "#ff0000"}}, {"type": "Feature", "geometry": {"type": "Point", "coordinates": [2.397901, 48.772377]}, "properties": {"alarme": "VEHICULE DELOCALISE", "numparc": 1308, "type": "EXPLOITATION", "duree": "00:07:21", "horodatage": "2022-09-23 18:33:43", "statut": "start", "marker-color": "#ff0000"}}, {"type": "Feature", "geometry": {"type": "Point", "coordinates": [2.398979, 48.774216]}, "properties": {"alarme": "VEHICULE DELOCALISE", "numparc": 1308, "type": "EXPLOITATION", "duree": "00:02:06", "horodatage": "2022-09-23 18:43:40", "statut": "start", "marker-color": "#ff0000"}}, {"type": "Feature", "geometry": {"type": "Point", "coordinates": [2.397886, 48.772385]}, "properties": {"alarme": "VEHICULE DELOCALISE", "numparc": 1307, "type": "EXPLOITATION", "duree": "00:02:18", "horodatage": "2022-09-23 18:49:36", "statut": "start", "marker-color": "#ff0000"}}, {"type": "Feature", "geometry": {"type": "Point", "coordinates": [2.399166, 48.773949]}, "properties": {"alarme": "VEHICULE DELOCALISE", "numparc": 1306, "type": "EXPLOITATION", "duree": "00:03:13", "horodatage": "2022-09-23 19:35:00", "statut": "start", "marker-color": "#ff0000"}}, {"type": "Feature", "geometry": {"type": "Point", "coordinates": [2.39816, 48.772743]}, "properties": {"alarme": "VEHICULE DELOCALISE", "numparc": 1308, "type": "EXPLOITATION", "duree": "00:02:45", "horodatage": "2022-09-23 19:53:52", "statut": "start", "marker-color": "#ff0000"}}, {"type": "Feature", "geometry": {"type": "Point", "coordinates": [2.397952, 48.772362]}, "properties": {"alarme": "VEHICULE DELOCALISE", "numparc": 1307, "type": "EXPLOITATION", "duree": "00:05:17", "horodatage": "2022-09-23 20:07:04", "statut": "start", "marker-color": "#ff0000"}}, {"type": "Feature", "geometry": {"type": "Point", "coordinates": [2.397854, 48.772369]}, "properties": {"alarme": "VEHICULE DELOCALISE", "numparc": 1306, "type": "EXPLOITATION", "duree": "00:11:27", "horodatage": "2022-09-23 20:43:58", "statut": "start", "marker-color": "#ff0000"}}, {"type": "Feature", "geometry": {"type": "Point", "coordinates": [2.386629, 48.76651]}, "properties": {"alarme": "VEHICULE DELOCALISE", "numparc": 1306, "type": "EXPLOITATION", "duree": "00:03:23", "horodatage": "2022-09-23 20:56:32", "statut": "start", "marker-color": "#ff0000"}}, {"type": "Feature", "geometry": {"type": "Point", "coordinates": [2.386775, 48.760376]}, "properties": {"alarme": "VEHICULE DELOCALISE", "numparc": 1306, "type": "EXPLOITATION", "duree": "00:01:03", "horodatage": "2022-09-23 21:00:28", "statut": "start", "marker-color": "#ff0000"}}, {"type": "Feature", "geometry": {"type": "Point", "coordinates": [2.386562, 48.755836]}, "properties": {"alarme": "VEHICULE DELOCALISE", "numparc": 1306, "type": "EXPLOITATION", "duree": "00:01:37", "horodatage": "2022-09-23 21:02:50", "statut": "start", "marker-color": "#ff0000"}}, {"type": "Feature", "geometry": {"type": "Point", "coordinates": [2.37911, 48.753117]}, "properties": {"alarme": "VEHICULE DELOCALISE", "numparc": 1306, "type": "EXPLOITATION", "duree": "00:03:14", "horodatage": "2022-09-23 21:06:52", "statut": "start", "marker-color": "#ff0000"}}, {"type": "Feature", "geometry": {"type": "Point", "coordinates": [2.397725, 48.772362]}, "properties": {"alarme": "VEHICULE DELOCALISE", "numparc": 1308, "type": "EXPLOITATION", "duree": "00:00:29", "horodatage": "2022-09-23 21:14:27", "statut": "start", "marker-color": "#ff0000"}}, {"type": "Feature", "geometry": {"type": "Point", "coordinates": [2.398052, 48.772804]}, "properties": {"alarme": "VEHICULE DELOCALISE", "numparc": 1307, "type": "EXPLOITATION", "duree": "00:01:31", "horodatage": "2022-09-23 21:32:51", "statut": "start", "marker-color": "#ff0000"}}, {"type": "Feature", "geometry": {"type": "Point", "coordinates": [2.397756, 48.77206]}, "properties": {"alarme": "VEHICULE DELOCALISE", "numparc": 1308, "type": "EXPLOITATION", "duree": "00:01:26", "horodatage": "2022-09-23 22:36:27", "statut": "start", "marker-color": "#ff0000"}}, {"type": "Feature", "geometry": {"type": "Point", "coordinates": [2.397855, 48.77232]}, "properties": {"alarme": "VEHICULE DELOCALISE", "numparc": 1307, "type": "EXPLOITATION", "duree": "00:03:21", "horodatage": "2022-09-23 22:47:04", "statut": "start", "marker-color": "#ff0000"}}, {"type": "Feature", "geometry": {"type": "Point", "coordinates": [2.397285, 48.771622]}, "properties": {"alarme": "VEHICULE DELOCALISE", "numparc": 1307, "type": "EXPLOITATION", "duree": "00:02:53", "horodatage": "2022-09-23 22:54:43", "statut": "start", "marker-color": "#ff0000"}}, {"type": "Feature", "geometry": {"type": "Point", "coordinates": [2.398074, 48.772713]}, "properties": {"alarme": "VEHICULE DELOCALISE", "numparc": 1306, "type": "EXPLOITATION", "duree": "00:06:25", "horodatage": "2022-09-23 23:31:14", "statut": "start", "marker-color": "#ff0000"}}, {"type": "Feature", "geometry": {"type": "Point", "coordinates": [2.397764, 48.772373]}, "properties": {"alarme": "VEHICULE DELOCALISE", "numparc": 1308, "type": "EXPLOITATION", "duree": "00:01:31", "horodatage": "2022-09-23 23:44:31", "statut": "start", "marker-color": "#ff0000"}}, {"type": "Feature", "geometry": {"type": "Point", "coordinates": [2.397949, 48.772678]}, "properties": {"alarme": "VEHICULE DELOCALISE", "numparc": 1308, "type": "EXPLOITATION", "duree": "00:00:03", "horodatage": "2022-09-23 23:51:25", "statut": "start", "marker-color": "#ff0000"}}, {"type": "Feature", "geometry": {"type": "Point", "coordinates": [2.398136, 48.772354]}, "properties": {"alarme": "VEHICULE DELOCALISE", "numparc": 1306, "type": "EXPLOITATION", "duree": "00:01:21", "horodatage": "2022-09-23 07:33:17", "statut": "end", "marker-color": "#2fe184"}}, {"type": "Feature", "geometry": {"type": "Point", "coordinates": [2.396614, 48.777958]}, "properties": {"alarme": "VEHICULE DELOCALISE", "numparc": 1308, "type": "EXPLOITATION", "duree": "00:03:11", "horodatage": "2022-09-23 07:50:52", "statut": "end", "marker-color": "#2fe184"}}, {"type": "Feature", "geometry": {"type": "Point", "coordinates": [2.395288, 48.769051]}, "properties": {"alarme": "VEHICULE DELOCALISE", "numparc": 1308, "type": "EXPLOITATION", "duree": "00:01:41", "horodatage": "2022-09-23 07:56:46", "statut": "end", "marker-color": "#2fe184"}}, {"type": "Feature", "geometry": {"type": "Point", "coordinates": [2.396641, 48.777958]}, "properties": {"alarme": "VEHICULE DELOCALISE", "numparc": 1307, "type": "EXPLOITATION", "duree": "00:03:57", "horodatage": "2022-09-23 08:12:09", "statut": "end", "marker-color": "#2fe184"}}, {"type": "Feature", "geometry": {"type": "Point", "coordinates": [2.395332, 48.769028]}, "properties": {"alarme": "VEHICULE DELOCALISE", "numparc": 1307, "type": "EXPLOITATION", "duree": "00:01:23", "horodatage": "2022-09-23 08:16:45", "statut": "end", "marker-color": "#2fe184"}}, {"type": "Feature", "geometry": {"type": "Point", "coordinates": [2.397119, 48.777496]}, "properties": {"alarme": "VEHICULE DELOCALISE", "numparc": 1307, "type": "EXPLOITATION", "duree": "00:03:55", "horodatage": "2022-09-23 09:31:52", "statut": "end", "marker-color": "#2fe184"}}, {"type": "Feature", "geometry": {"type": "Point", "coordinates": [2.395243, 48.769012]}, "properties": {"alarme": "VEHICULE DELOCALISE", "numparc": 1307, "type": "EXPLOITATION", "duree": "00:01:38", "horodatage": "2022-09-23 09:37:21", "statut": "end", "marker-color": "#2fe184"}}, {"type": "Feature", "geometry": {"type": "Point", "coordinates": [2.39664, 48.77795]}, "properties": {"alarme": "VEHICULE DELOCALISE", "numparc": 1306, "type": "EXPLOITATION", "duree": "00:03:22", "horodatage": "2022-09-23 10:10:20", "statut": "end", "marker-color": "#2fe184"}}, {"type": "Feature", "geometry": {"type": "Point", "coordinates": [2.393002, 48.76619]}, "properties": {"alarme": "VEHICULE DELOCALISE", "numparc": 1308, "type": "EXPLOITATION", "duree": "00:09:05", "horodatage": "2022-09-23 10:40:47", "statut": "end", "marker-color": "#2fe184"}}, {"type": "Feature", "geometry": {"type": "Point", "coordinates": [2.397148, 48.777634]}, "properties": {"alarme": "VEHICULE DELOCALISE", "numparc": 1306, "type": "EXPLOITATION", "duree": "00:02:33", "horodatage": "2022-09-23 11:28:55", "statut": "end", "marker-color": "#2fe184"}}, {"type": "Feature", "geometry": {"type": "Point", "coordinates": [2.395229, 48.769005]}, "properties": {"alarme": "VEHICULE DELOCALISE", "numparc": 1306, "type": "EXPLOITATION", "duree": "00:02:44", "horodatage": "2022-09-23 11:35:35", "statut": "end", "marker-color": "#2fe184"}}, {"type": "Feature", "geometry": {"type": "Point", "coordinates": [2.397139, 48.777649]}, "properties": {"alarme": "VEHICULE DELOCALISE", "numparc": 1306, "type": "EXPLOITATION", "duree": "00:04:29", "horodatage": "2022-09-23 12:50:40", "statut": "end", "marker-color": "#2fe184"}}, {"type": "Feature", "geometry": {"type": "Point", "coordinates": [2.395247, 48.769009]}, "properties": {"alarme": "VEHICULE DELOCALISE", "numparc": 1306, "type": "EXPLOITATION", "duree": "00:01:45", "horodatage": "2022-09-23 12:55:09", "statut": "end", "marker-color": "#2fe184"}}, {"type": "Feature", "geometry": {"type": "Point", "coordinates": [2.38624, 48.766556]}, "properties": {"alarme": "VEHICULE DELOCALISE", "numparc": 1308, "type": "EXPLOITATION", "duree": "00:03:19", "horodatage": "2022-09-23 13:23:17", "statut": "end", "marker-color": "#2fe184"}}, {"type": "Feature", "geometry": {"type": "Point", "coordinates": [2.395282, 48.769001]}, "properties": {"alarme": "VEHICULE DELOCALISE", "numparc": 1307, "type": "EXPLOITATION", "duree": "00:01:00", "horodatage": "2022-09-23 13:42:06", "statut": "end", "marker-color": "#2fe184"}}, {"type": "Feature", "geometry": {"type": "Point", "coordinates": [2.396802, 48.778057]}, "properties": {"alarme": "VEHICULE DELOCALISE", "numparc": 1306, "type": "EXPLOITATION", "duree": "00:04:23", "horodatage": "2022-09-23 14:09:30", "statut": "end", "marker-color": "#2fe184"}}, {"type": "Feature", "geometry": {"type": "Point", "coordinates": [2.383871, 48.764393]}, "properties": {"alarme": "VEHICULE DELOCALISE", "numparc": 1308, "type": "EXPLOITATION", "duree": "00:05:44", "horodatage": "2022-09-23 14:45:23", "statut": "end", "marker-color": "#2fe184"}}, {"type": "Feature", "geometry": {"type": "Point", "coordinates": [2.396772, 48.778057]}, "properties": {"alarme": "VEHICULE DELOCALISE", "numparc": 1307, "type": "EXPLOITATION", "duree": "00:03:54", "horodatage": "2022-09-23 14:54:56", "statut": "end", "marker-color": "#2fe184"}}, {"type": "Feature", "geometry": {"type": "Point", "coordinates": [2.396607, 48.777966]}, "properties": {"alarme": "VEHICULE DELOCALISE", "numparc": 1308, "type": "EXPLOITATION", "duree": "00:04:04", "horodatage": "2022-09-23 15:54:07", "statut": "end", "marker-color": "#2fe184"}}, {"type": "Feature", "geometry": {"type": "Point", "coordinates": [2.396916, 48.777863]}, "properties": {"alarme": "VEHICULE DELOCALISE", "numparc": 1307, "type": "EXPLOITATION", "duree": "00:03:04", "horodatage": "2022-09-23 16:13:22", "statut": "end", "marker-color": "#2fe184"}}, {"type": "Feature", "geometry": {"type": "Point", "coordinates": [2.395271, 48.769016]}, "properties": {"alarme": "VEHICULE DELOCALISE", "numparc": 1307, "type": "EXPLOITATION", "duree": "00:00:46", "horodatage": "2022-09-23 16:18:30", "statut": "end", "marker-color": "#2fe184"}}, {"type": "Feature", "geometry": {"type": "Point", "coordinates": [2.397149, 48.777527]}, "properties": {"alarme": "VEHICULE DELOCALISE", "numparc": 1306, "type": "EXPLOITATION", "duree": "00:03:29", "horodatage": "2022-09-23 16:54:28", "statut": "end", "marker-color": "#2fe184"}}, {"type": "Feature", "geometry": {"type": "Point", "coordinates": [2.393228, 48.766277]}, "properties": {"alarme": "VEHICULE DELOCALISE", "numparc": 1306, "type": "EXPLOITATION", "duree": "00:03:17", "horodatage": "2022-09-23 17:00:52", "statut": "end", "marker-color": "#2fe184"}}, {"type": "Feature", "geometry": {"type": "Point", "coordinates": [2.397047, 48.777725]}, "properties": {"alarme": "VEHICULE DELOCALISE", "numparc": 1308, "type": "EXPLOITATION", "duree": "00:06:23", "horodatage": "2022-09-23 17:14:47", "statut": "end", "marker-color": "#2fe184"}}, {"type": "Feature", "geometry": {"type": "Point", "coordinates": [2.393343, 48.766483]}, "properties": {"alarme": "VEHICULE DELOCALISE", "numparc": 1308, "type": "EXPLOITATION", "duree": "00:01:40", "horodatage": "2022-09-23 17:20:46", "statut": "end", "marker-color": "#2fe184"}}, {"type": "Feature", "geometry": {"type": "Point", "coordinates": [2.397895, 48.772232]}, "properties": {"alarme": "VEHICULE DELOCALISE", "numparc": 1307, "type": "EXPLOITATION", "duree": "00:00:07", "horodatage": "2022-09-23 17:32:13", "statut": "end", "marker-color": "#2fe184"}}, {"type": "Feature", "geometry": {"type": "Point", "coordinates": [2.397467, 48.776649]}, "properties": {"alarme": "VEHICULE DELOCALISE", "numparc": 1307, "type": "EXPLOITATION", "duree": "00:04:54", "horodatage": "2022-09-23 17:37:58", "statut": "end", "marker-color": "#2fe184"}}, {"type": "Feature", "geometry": {"type": "Point", "coordinates": [2.396839, 48.778004]}, "properties": {"alarme": "VEHICULE DELOCALISE", "numparc": 1306, "type": "EXPLOITATION", "duree": "00:03:32", "horodatage": "2022-09-23 18:12:40", "statut": "end", "marker-color": "#2fe184"}}, {"type": "Feature", "geometry": {"type": "Point", "coordinates": [2.395225, 48.768967]}, "properties": {"alarme": "VEHICULE DELOCALISE", "numparc": 1306, "type": "EXPLOITATION", "duree": "00:00:56", "horodatage": "2022-09-23 18:17:48", "statut": "end", "marker-color": "#2fe184"}}, {"type": "Feature", "geometry": {"type": "Point", "coordinates": [2.397248, 48.77739]}, "properties": {"alarme": "VEHICULE DELOCALISE", "numparc": 1308, "type": "EXPLOITATION", "duree": "00:07:21", "horodatage": "2022-09-23 18:41:04", "statut": "end", "marker-color": "#2fe184"}}, {"type": "Feature", "geometry": {"type": "Point", "coordinates": [2.395224, 48.769028]}, "properties": {"alarme": "VEHICULE DELOCALISE", "numparc": 1308, "type": "EXPLOITATION", "duree": "00:02:06", "horodatage": "2022-09-23 18:45:46", "statut": "end", "marker-color": "#2fe184"}}, {"type": "Feature", "geometry": {"type": "Point", "coordinates": [2.397125, 48.777668]}, "properties": {"alarme": "VEHICULE DELOCALISE", "numparc": 1307, "type": "EXPLOITATION", "duree": "00:02:18", "horodatage": "2022-09-23 18:51:54", "statut": "end", "marker-color": "#2fe184"}}, {"type": "Feature", "geometry": {"type": "Point", "coordinates": [2.392895, 48.76593]}, "properties": {"alarme": "VEHICULE DELOCALISE", "numparc": 1306, "type": "EXPLOITATION", "duree": "00:03:13", "horodatage": "2022-09-23 19:38:13", "statut": "end", "marker-color": "#2fe184"}}, {"type": "Feature", "geometry": {"type": "Point", "coordinates": [2.393194, 48.766323]}, "properties": {"alarme": "VEHICULE DELOCALISE", "numparc": 1308, "type": "EXPLOITATION", "duree": "00:02:45", "horodatage": "2022-09-23 19:56:37", "statut": "end", "marker-color": "#2fe184"}}, {"type": "Feature", "geometry": {"type": "Point", "coordinates": [2.396662, 48.777981]}, "properties": {"alarme": "VEHICULE DELOCALISE", "numparc": 1307, "type": "EXPLOITATION", "duree": "00:05:17", "horodatage": "2022-09-23 20:12:21", "statut": "end", "marker-color": "#2fe184"}}, {"type": "Feature", "geometry": {"type": "Point", "coordinates": [2.389592, 48.766151]}, "properties": {"alarme": "VEHICULE DELOCALISE", "numparc": 1306, "type": "EXPLOITATION", "duree": "00:11:27", "horodatage": "2022-09-23 20:55:25", "statut": "end", "marker-color": "#2fe184"}}, {"type": "Feature", "geometry": {"type": "Point", "coordinates": [2.386115, 48.761776]}, "properties": {"alarme": "VEHICULE DELOCALISE", "numparc": 1306, "type": "EXPLOITATION", "duree": "00:03:23", "horodatage": "2022-09-23 20:59:55", "statut": "end", "marker-color": "#2fe184"}}, {"type": "Feature", "geometry": {"type": "Point", "coordinates": [2.388071, 48.75769]}, "properties": {"alarme": "VEHICULE DELOCALISE", "numparc": 1306, "type": "EXPLOITATION", "duree": "00:01:03", "horodatage": "2022-09-23 21:01:31", "statut": "end", "marker-color": "#2fe184"}}, {"type": "Feature", "geometry": {"type": "Point", "coordinates": [2.383172, 48.754375]}, "properties": {"alarme": "VEHICULE DELOCALISE", "numparc": 1306, "type": "EXPLOITATION", "duree": "00:01:37", "horodatage": "2022-09-23 21:04:27", "statut": "end", "marker-color": "#2fe184"}}, {"type": "Feature", "geometry": {"type": "Point", "coordinates": [2.36932, 48.746376]}, "properties": {"alarme": "VEHICULE DELOCALISE", "numparc": 1306, "type": "EXPLOITATION", "duree": "00:03:14", "horodatage": "2022-09-23 21:10:06", "statut": "end", "marker-color": "#2fe184"}}, {"type": "Feature", "geometry": {"type": "Point", "coordinates": [2.397725, 48.772362]}, "properties": {"alarme": "VEHICULE DELOCALISE", "numparc": 1308, "type": "EXPLOITATION", "duree": "00:00:29", "horodatage": "2022-09-23 21:14:56", "statut": "end", "marker-color": "#2fe184"}}, {"type": "Feature", "geometry": {"type": "Point", "coordinates": [2.395265, 48.769001]}, "properties": {"alarme": "VEHICULE DELOCALISE", "numparc": 1307, "type": "EXPLOITATION", "duree": "00:01:31", "horodatage": "2022-09-23 21:34:22", "statut": "end", "marker-color": "#2fe184"}}, {"type": "Feature", "geometry": {"type": "Point", "coordinates": [2.397756, 48.77206]}, "properties": {"alarme": "VEHICULE DELOCALISE", "numparc": 1308, "type": "EXPLOITATION", "duree": "00:01:26", "horodatage": "2022-09-23 22:37:53", "statut": "end", "marker-color": "#2fe184"}}, {"type": "Feature", "geometry": {"type": "Point", "coordinates": [2.397131, 48.777634]}, "properties": {"alarme": "VEHICULE DELOCALISE", "numparc": 1307, "type": "EXPLOITATION", "duree": "00:03:21", "horodatage": "2022-09-23 22:50:25", "statut": "end", "marker-color": "#2fe184"}}, {"type": "Feature", "geometry": {"type": "Point", "coordinates": [2.392885, 48.765892]}, "properties": {"alarme": "VEHICULE DELOCALISE", "numparc": 1307, "type": "EXPLOITATION", "duree": "00:02:53", "horodatage": "2022-09-23 22:57:36", "statut": "end", "marker-color": "#2fe184"}}, {"type": "Feature", "geometry": {"type": "Point", "coordinates": [2.392905, 48.765896]}, "properties": {"alarme": "VEHICULE DELOCALISE", "numparc": 1306, "type": "EXPLOITATION", "duree": "00:06:25", "horodatage": "2022-09-23 23:37:39", "statut": "end", "marker-color": "#2fe184"}}, {"type": "Feature", "geometry": {"type": "Point", "coordinates": [2.3968, 48.778057]}, "properties": {"alarme": "VEHICULE DELOCALISE", "numparc": 1308, "type": "EXPLOITATION", "duree": "00:01:31", "horodatage": "2022-09-23 23:46:02", "statut": "end", "marker-color": "#2fe184"}}, {"type": "Feature", "geometry": {"type": "Point", "coordinates": [2.397949, 48.772678]}, "properties": {"alarme": "VEHICULE DELOCALISE", "numparc": 1308, "type": "EXPLOITATION", "duree": "00:00:03", "horodatage": "2022-09-23 23:51:28", "statut": "end", "marker-color": "#2fe184"}}]}