{"type": "FeatureCollection", "features": [{"type": "Feature", "geometry": {"type": "Point", "coordinates": [2.442473, 48.772396]}, "properties": {"etat de la localisation": "Delocalise", "numparc": 2867, "duree": "00:06:20", "horodatage": "2023-03-07 05:28:06", "marker-color": "#FF565E"}}, {"type": "Feature", "geometry": {"type": "Point", "coordinates": [2.442953, 48.772835]}, "properties": {"etat de la localisation": "Mission inconnue", "numparc": 2862, "duree": "", "horodatage": "2023-03-07 15:33:46", "marker-color": "#FF9F56"}}]}