{"type": "FeatureCollection", "features": [{"type": "Feature", "geometry": {"type": "Point", "coordinates": [2.659085, 48.842083]}, "properties": {"numparc": 5872, "etat de la localisation": "Delocalise", "ID BDGEO": "95", "horodatage": "2021-12-12 06:12:06", "distance (en metres)": 62.6, "station": "CENTRE BUS DE BUSSY-SORTIE", "marker-color": "#FF565E"}}, {"type": "Feature", "geometry": {"type": "Point", "coordinates": [2.658772, 48.842754]}, "properties": {"numparc": 5872, "etat de la localisation": "autre", "ID BDGEO": "95", "horodatage": "2021-12-12 06:12:58", "distance (en metres)": 60.42, "station": "CENTRE BUS DE BUSSY-SORTIE", "marker-color": "#818181"}}, {"type": "Feature", "geometry": {"type": "Point", "coordinates": [2.658732, 48.842865]}, "properties": {"numparc": 4997, "etat de la localisation": "autre", "ID BDGEO": "95", "horodatage": "2021-12-12 06:37:22", "distance (en metres)": 68.4, "station": "CENTRE BUS DE BUSSY-SORTIE", "marker-color": "#818181"}}, {"type": "Feature", "geometry": {"type": "Point", "coordinates": [2.658893, 48.842281]}, "properties": {"numparc": 4995, "etat de la localisation": "Delocalise", "ID BDGEO": "95", "horodatage": "2021-12-12 06:42:06", "distance (en metres)": 56.68, "station": "CENTRE BUS DE BUSSY-SORTIE", "marker-color": "#FF565E"}}, {"type": "Feature", "geometry": {"type": "Point", "coordinates": [2.658893, 48.842281]}, "properties": {"numparc": 4995, "etat de la localisation": "Delocalise", "ID BDGEO": "95", "horodatage": "2021-12-12 06:43:19", "distance (en metres)": 56.68, "station": "CENTRE BUS DE BUSSY-SORTIE", "marker-color": "#FF565E"}}, {"type": "Feature", "geometry": {"type": "Point", "coordinates": [2.660325, 48.84214]}, "properties": {"numparc": 4999, "etat de la localisation": "autre", "ID BDGEO": "95", "horodatage": "2021-12-12 09:22:10", "distance (en metres)": 73.8, "station": "CENTRE BUS DE BUSSY-SORTIE", "marker-color": "#818181"}}, {"type": "Feature", "geometry": {"type": "Point", "coordinates": [2.659836, 48.842033]}, "properties": {"numparc": 4999, "etat de la localisation": "autre", "ID BDGEO": "95", "horodatage": "2021-12-12 09:30:48", "distance (en metres)": 62.28, "station": "CENTRE BUS DE BUSSY-SORTIE", "marker-color": "#818181"}}, {"type": "Feature", "geometry": {"type": "Point", "coordinates": [2.659808, 48.842186]}, "properties": {"numparc": 4967, "etat de la localisation": "autre", "ID BDGEO": "95", "horodatage": "2021-12-12 09:44:37", "distance (en metres)": 45.77, "station": "CENTRE BUS DE BUSSY-SORTIE", "marker-color": "#818181"}}, {"type": "Feature", "geometry": {"type": "Point", "coordinates": [2.659538, 48.842106]}, "properties": {"numparc": 4967, "etat de la localisation": "autre", "ID BDGEO": "95", "horodatage": "2021-12-12 09:45:31", "distance (en metres)": 50.34, "station": "CENTRE BUS DE BUSSY-SORTIE", "marker-color": "#818181"}}, {"type": "Feature", "geometry": {"type": "Point", "coordinates": [2.660211, 48.842415]}, "properties": {"numparc": 4967, "etat de la localisation": "autre", "ID BDGEO": "95", "horodatage": "2021-12-12 10:07:52", "distance (en metres)": 51.47, "station": "CENTRE BUS DE BUSSY-SORTIE", "marker-color": "#818181"}}, {"type": "Feature", "geometry": {"type": "Point", "coordinates": [2.660212, 48.842415]}, "properties": {"numparc": 4967, "etat de la localisation": "autre", "ID BDGEO": "95", "horodatage": "2021-12-12 19:39:45", "distance (en metres)": 51.53, "station": "CENTRE BUS DE BUSSY-SORTIE", "marker-color": "#818181"}}, {"type": "Feature", "geometry": {"type": "Point", "coordinates": [2.645204, 48.857731]}, "properties": {"numparc": 4997, "etat de la localisation": "autre", "ID BDGEO": "46", "horodatage": "2021-12-12 21:42:01", "distance (en metres)": 96.08, "station": "LES CANTINES", "marker-color": "#818181"}}, {"type": "Feature", "geometry": {"type": "Point", "coordinates": [2.615888, 48.843685]}, "properties": {"numparc": 4997, "etat de la localisation": "autre", "ID BDGEO": "96", "horodatage": "2021-12-12 21:54:04", "distance (en metres)": 44.01, "station": "NOISIEL-RER (R)#", "marker-color": "#818181"}}, {"type": "Feature", "geometry": {"type": "Point", "coordinates": [2.65953, 48.8428]}, "properties": {"numparc": 4997, "etat de la localisation": "autre", "ID BDGEO": "7", "horodatage": "2021-12-12 22:01:31", "distance (en metres)": 569.0, "station": "TORCY RER", "marker-color": "#818181"}}, {"type": "Feature", "geometry": {"type": "Point", "coordinates": [2.659736, 48.842369]}, "properties": {"numparc": 4997, "etat de la localisation": "autre", "ID BDGEO": "7", "horodatage": "2021-12-12 22:49:43", "distance (en metres)": 544.21, "station": "TORCY RER", "marker-color": "#818181"}}, {"type": "Feature", "geometry": {"type": "Point", "coordinates": [2.659542, 48.842559]}, "properties": {"station": "CENTRE BUS DE BUSSY-SORTIE", "ID BDGEO": "95", "marker-color": "#56B3FF"}}, {"type": "Feature", "geometry": {"type": "Point", "coordinates": [2.645993, 48.858422]}, "properties": {"station": "LES CANTINES", "ID BDGEO": "46", "marker-color": "#56B3FF"}}, {"type": "Feature", "geometry": {"type": "Point", "coordinates": [2.61648, 48.843755]}, "properties": {"station": "NOISIEL-RER (R)#", "ID BDGEO": "96", "marker-color": "#56B3FF"}}, {"type": "Feature", "geometry": {"type": "Point", "coordinates": [2.654455, 48.838923]}, "properties": {"station": "TORCY RER", "ID BDGEO": "7", "marker-color": "#56B3FF"}}]}