{"type": "FeatureCollection", "features": [{"type": "Feature", "geometry": {"type": "Point", "coordinates": [2.632961, 48.833382]}, "properties": {"alarme": "VEHICULE DELOCALISE", "numparc": 4984, "type": "EXPLOITATION", "duree": "00:00:45", "horodatage": "2022-06-09 06:05:53", "statut": "start", "marker-color": "#ff0000"}}, {"type": "Feature", "geometry": {"type": "Point", "coordinates": [2.64548, 48.858021]}, "properties": {"alarme": "DEFAUT LIAISON DATA SAEIV / AIGLE", "numparc": 4969, "type": "TECHNIQUE", "duree": "00:00:06", "horodatage": "2022-06-09 07:18:22", "statut": "start", "marker-color": "#ff0000"}}, {"type": "Feature", "geometry": {"type": "Point", "coordinates": [2.641712, 48.873665]}, "properties": {"alarme": "DEFAUT LIAISON DATA SAEIV / AIGLE", "numparc": 4969, "type": "TECHNIQUE", "duree": "00:00:08", "horodatage": "2022-06-09 07:23:33", "statut": "start", "marker-color": "#ff0000"}}, {"type": "Feature", "geometry": {"type": "Point", "coordinates": [2.629547, 48.832367]}, "properties": {"alarme": "DEFAUT LIAISON DATA SAEIV / AIGLE", "numparc": 4995, "type": "TECHNIQUE", "duree": "00:00:06", "horodatage": "2022-06-09 07:58:19", "statut": "start", "marker-color": "#ff0000"}}, {"type": "Feature", "geometry": {"type": "Point", "coordinates": [2.655545, 48.838367]}, "properties": {"alarme": "VEHICULE DELOCALISE", "numparc": 4997, "type": "EXPLOITATION", "duree": "00:01:39", "horodatage": "2022-06-09 08:00:26", "statut": "start", "marker-color": "#ff0000"}}, {"type": "Feature", "geometry": {"type": "Point", "coordinates": [2.652221, 48.835392]}, "properties": {"alarme": "VEHICULE DELOCALISE", "numparc": 4997, "type": "EXPLOITATION", "duree": "00:01:14", "horodatage": "2022-06-09 08:03:14", "statut": "start", "marker-color": "#ff0000"}}, {"type": "Feature", "geometry": {"type": "Point", "coordinates": [2.649006, 48.839512]}, "properties": {"alarme": "VEHICULE DELOCALISE", "numparc": 4997, "type": "EXPLOITATION", "duree": "00:00:25", "horodatage": "2022-06-09 08:05:09", "statut": "start", "marker-color": "#ff0000"}}, {"type": "Feature", "geometry": {"type": "Point", "coordinates": [2.648635, 48.841663]}, "properties": {"alarme": "VEHICULE DELOCALISE", "numparc": 4997, "type": "EXPLOITATION", "duree": "00:01:01", "horodatage": "2022-06-09 08:06:06", "statut": "start", "marker-color": "#ff0000"}}, {"type": "Feature", "geometry": {"type": "Point", "coordinates": [2.642054, 48.843834]}, "properties": {"alarme": "VEHICULE DELOCALISE", "numparc": 4997, "type": "EXPLOITATION", "duree": "00:00:06", "horodatage": "2022-06-09 08:07:37", "statut": "start", "marker-color": "#ff0000"}}, {"type": "Feature", "geometry": {"type": "Point", "coordinates": [2.637602, 48.851555]}, "properties": {"alarme": "DEFAUT LIAISON DATA SAEIV / AIGLE", "numparc": 4994, "type": "TECHNIQUE", "duree": "00:00:08", "horodatage": "2022-06-09 08:09:48", "statut": "start", "marker-color": "#ff0000"}}, {"type": "Feature", "geometry": {"type": "Point", "coordinates": [2.629661, 48.833427]}, "properties": {"alarme": "VEHICULE DELOCALISE", "numparc": 4997, "type": "EXPLOITATION", "duree": "00:03:00", "horodatage": "2022-06-09 08:12:44", "statut": "start", "marker-color": "#ff0000"}}, {"type": "Feature", "geometry": {"type": "Point", "coordinates": [2.632451, 48.836758]}, "properties": {"alarme": "DEFAUT LIAISON DATA SAEIV / AIGLE", "numparc": 4969, "type": "TECHNIQUE", "duree": "00:00:07", "horodatage": "2022-06-09 08:12:59", "statut": "start", "marker-color": "#ff0000"}}, {"type": "Feature", "geometry": {"type": "Point", "coordinates": [2.629325, 48.842274]}, "properties": {"alarme": "VEHICULE DELOCALISE", "numparc": 4997, "type": "EXPLOITATION", "duree": "00:01:53", "horodatage": "2022-06-09 08:17:49", "statut": "start", "marker-color": "#ff0000"}}, {"type": "Feature", "geometry": {"type": "Point", "coordinates": [2.625962, 48.855331]}, "properties": {"alarme": "VEHICULE DELOCALISE", "numparc": 4997, "type": "EXPLOITATION", "duree": "00:00:36", "horodatage": "2022-06-09 08:28:01", "statut": "start", "marker-color": "#ff0000"}}, {"type": "Feature", "geometry": {"type": "Point", "coordinates": [2.628489, 48.851013]}, "properties": {"alarme": "VEHICULE DELOCALISE", "numparc": 4997, "type": "EXPLOITATION", "duree": "00:06:52", "horodatage": "2022-06-09 08:30:55", "statut": "start", "marker-color": "#ff0000"}}, {"type": "Feature", "geometry": {"type": "Point", "coordinates": [2.639096, 48.874702]}, "properties": {"alarme": "VEHICULE DELOCALISE", "numparc": 4984, "type": "EXPLOITATION", "duree": "00:02:56", "horodatage": "2022-06-09 09:01:36", "statut": "start", "marker-color": "#ff0000"}}, {"type": "Feature", "geometry": {"type": "Point", "coordinates": [2.624355, 48.856041]}, "properties": {"alarme": "DEFAUT LIAISON DATA SAEIV / AIGLE", "numparc": 4969, "type": "TECHNIQUE", "duree": "00:00:07", "horodatage": "2022-06-09 09:08:21", "statut": "start", "marker-color": "#ff0000"}}, {"type": "Feature", "geometry": {"type": "Point", "coordinates": [2.62686, 48.851704]}, "properties": {"alarme": "DEFAUT LIAISON DATA SAEIV / AIGLE", "numparc": 4969, "type": "TECHNIQUE", "duree": "00:00:07", "horodatage": "2022-06-09 09:10:08", "statut": "start", "marker-color": "#ff0000"}}, {"type": "Feature", "geometry": {"type": "Point", "coordinates": [2.644842, 48.861637]}, "properties": {"alarme": "DEFAUT LIAISON DATA SAEIV / AIGLE", "numparc": 4969, "type": "TECHNIQUE", "duree": "00:00:07", "horodatage": "2022-06-09 09:17:46", "statut": "start", "marker-color": "#ff0000"}}, {"type": "Feature", "geometry": {"type": "Point", "coordinates": [2.642318, 48.865005]}, "properties": {"alarme": "DEFAUT LIAISON DATA SAEIV / AIGLE", "numparc": 4969, "type": "TECHNIQUE", "duree": "00:00:07", "horodatage": "2022-06-09 09:34:52", "statut": "start", "marker-color": "#ff0000"}}, {"type": "Feature", "geometry": {"type": "Point", "coordinates": [2.644826, 48.861752]}, "properties": {"alarme": "DEFAUT LIAISON DATA SAEIV / AIGLE", "numparc": 4994, "type": "TECHNIQUE", "duree": "00:00:07", "horodatage": "2022-06-09 09:38:08", "statut": "start", "marker-color": "#ff0000"}}, {"type": "Feature", "geometry": {"type": "Point", "coordinates": [2.653941, 48.835644]}, "properties": {"alarme": "VEHICULE DELOCALISE", "numparc": 4997, "type": "EXPLOITATION", "duree": "00:02:12", "horodatage": "2022-06-09 09:39:30", "statut": "start", "marker-color": "#ff0000"}}, {"type": "Feature", "geometry": {"type": "Point", "coordinates": [2.646276, 48.84243]}, "properties": {"alarme": "VEHICULE DELOCALISE", "numparc": 4997, "type": "EXPLOITATION", "duree": "00:02:06", "horodatage": "2022-06-09 09:43:08", "statut": "start", "marker-color": "#ff0000"}}, {"type": "Feature", "geometry": {"type": "Point", "coordinates": [2.629699, 48.833454]}, "properties": {"alarme": "VEHICULE DELOCALISE", "numparc": 4997, "type": "EXPLOITATION", "duree": "00:02:51", "horodatage": "2022-06-09 09:48:49", "statut": "start", "marker-color": "#ff0000"}}, {"type": "Feature", "geometry": {"type": "Point", "coordinates": [2.625892, 48.844009]}, "properties": {"alarme": "VEHICULE DELOCALISE", "numparc": 4997, "type": "EXPLOITATION", "duree": "00:00:56", "horodatage": "2022-06-09 09:54:38", "statut": "start", "marker-color": "#ff0000"}}, {"type": "Feature", "geometry": {"type": "Point", "coordinates": [2.638986, 48.875999]}, "properties": {"alarme": "VEHICULE DELOCALISE", "numparc": 4994, "type": "EXPLOITATION", "duree": "00:00:13", "horodatage": "2022-06-09 10:01:15", "statut": "start", "marker-color": "#ff0000"}}, {"type": "Feature", "geometry": {"type": "Point", "coordinates": [2.654549, 48.838879]}, "properties": {"alarme": "DEFAUT LIAISON DATA SAEIV / AIGLE", "numparc": 4969, "type": "TECHNIQUE", "duree": "00:00:07", "horodatage": "2022-06-09 10:23:27", "statut": "start", "marker-color": "#ff0000"}}, {"type": "Feature", "geometry": {"type": "Point", "coordinates": [2.638974, 48.876011]}, "properties": {"alarme": "VEHICULE DELOCALISE", "numparc": 4984, "type": "EXPLOITATION", "duree": "00:00:12", "horodatage": "2022-06-09 11:00:12", "statut": "start", "marker-color": "#ff0000"}}, {"type": "Feature", "geometry": {"type": "Point", "coordinates": [2.641405, 48.855576]}, "properties": {"alarme": "DEFAUT LIAISON DATA SAEIV / AIGLE", "numparc": 4969, "type": "TECHNIQUE", "duree": "00:00:09", "horodatage": "2022-06-09 11:04:27", "statut": "start", "marker-color": "#ff0000"}}, {"type": "Feature", "geometry": {"type": "Point", "coordinates": [2.632919, 48.833466]}, "properties": {"alarme": "VEHICULE DELOCALISE", "numparc": 4997, "type": "EXPLOITATION", "duree": "00:03:09", "horodatage": "2022-06-09 11:37:50", "statut": "start", "marker-color": "#ff0000"}}, {"type": "Feature", "geometry": {"type": "Point", "coordinates": [2.616131, 48.844879]}, "properties": {"alarme": "VEHICULE DELOCALISE", "numparc": 4997, "type": "EXPLOITATION", "duree": "00:07:44", "horodatage": "2022-06-09 11:47:24", "statut": "start", "marker-color": "#ff0000"}}, {"type": "Feature", "geometry": {"type": "Point", "coordinates": [2.638874, 48.854198]}, "properties": {"alarme": "VEHICULE DELOCALISE", "numparc": 4997, "type": "EXPLOITATION", "duree": "00:07:00", "horodatage": "2022-06-09 11:59:16", "statut": "start", "marker-color": "#ff0000"}}, {"type": "Feature", "geometry": {"type": "Point", "coordinates": [2.62899, 48.851074]}, "properties": {"alarme": "VEHICULE DELOCALISE", "numparc": 4997, "type": "EXPLOITATION", "duree": "00:01:44", "horodatage": "2022-06-09 12:42:20", "statut": "start", "marker-color": "#ff0000"}}, {"type": "Feature", "geometry": {"type": "Point", "coordinates": [2.613751, 48.847332]}, "properties": {"alarme": "VEHICULE DELOCALISE", "numparc": 4997, "type": "EXPLOITATION", "duree": "00:00:22", "horodatage": "2022-06-09 12:49:59", "statut": "start", "marker-color": "#ff0000"}}, {"type": "Feature", "geometry": {"type": "Point", "coordinates": [2.638924, 48.875866]}, "properties": {"alarme": "VEHICULE DELOCALISE", "numparc": 4984, "type": "EXPLOITATION", "duree": "00:00:10", "horodatage": "2022-06-09 12:59:06", "statut": "start", "marker-color": "#ff0000"}}, {"type": "Feature", "geometry": {"type": "Point", "coordinates": [2.637532, 48.851681]}, "properties": {"alarme": "DEFAUT LIAISON DATA SAEIV / AIGLE", "numparc": 4969, "type": "TECHNIQUE", "duree": "00:00:08", "horodatage": "2022-06-09 13:38:48", "statut": "start", "marker-color": "#ff0000"}}, {"type": "Feature", "geometry": {"type": "Point", "coordinates": [2.629634, 48.833488]}, "properties": {"alarme": "VEHICULE DELOCALISE", "numparc": 4997, "type": "EXPLOITATION", "duree": "00:01:15", "horodatage": "2022-06-09 13:39:39", "statut": "start", "marker-color": "#ff0000"}}, {"type": "Feature", "geometry": {"type": "Point", "coordinates": [2.640599, 48.871319]}, "properties": {"alarme": "VEHICULE DELOCALISE", "numparc": 4997, "type": "EXPLOITATION", "duree": "00:01:53", "horodatage": "2022-06-09 14:08:36", "statut": "start", "marker-color": "#ff0000"}}, {"type": "Feature", "geometry": {"type": "Point", "coordinates": [2.643101, 48.856762]}, "properties": {"alarme": "VEHICULE DELOCALISE", "numparc": 4997, "type": "EXPLOITATION", "duree": "00:00:45", "horodatage": "2022-06-09 14:36:57", "statut": "start", "marker-color": "#ff0000"}}, {"type": "Feature", "geometry": {"type": "Point", "coordinates": [2.646335, 48.842506]}, "properties": {"alarme": "VEHICULE DELOCALISE", "numparc": 4997, "type": "EXPLOITATION", "duree": "00:02:07", "horodatage": "2022-06-09 15:32:34", "statut": "start", "marker-color": "#ff0000"}}, {"type": "Feature", "geometry": {"type": "Point", "coordinates": [2.63291, 48.833591]}, "properties": {"alarme": "VEHICULE DELOCALISE", "numparc": 4997, "type": "EXPLOITATION", "duree": "00:03:55", "horodatage": "2022-06-09 15:38:19", "statut": "start", "marker-color": "#ff0000"}}, {"type": "Feature", "geometry": {"type": "Point", "coordinates": [2.625932, 48.843838]}, "properties": {"alarme": "VEHICULE DELOCALISE", "numparc": 4997, "type": "EXPLOITATION", "duree": "00:00:57", "horodatage": "2022-06-09 15:45:18", "statut": "start", "marker-color": "#ff0000"}}, {"type": "Feature", "geometry": {"type": "Point", "coordinates": [2.617193, 48.846684]}, "properties": {"alarme": "VEHICULE DELOCALISE", "numparc": 4997, "type": "EXPLOITATION", "duree": "00:01:46", "horodatage": "2022-06-09 15:50:45", "statut": "start", "marker-color": "#ff0000"}}, {"type": "Feature", "geometry": {"type": "Point", "coordinates": [2.628566, 48.851257]}, "properties": {"alarme": "VEHICULE DELOCALISE", "numparc": 4997, "type": "EXPLOITATION", "duree": "00:01:58", "horodatage": "2022-06-09 15:56:11", "statut": "start", "marker-color": "#ff0000"}}, {"type": "Feature", "geometry": {"type": "Point", "coordinates": [2.638773, 48.854225]}, "properties": {"alarme": "VEHICULE DELOCALISE", "numparc": 4997, "type": "EXPLOITATION", "duree": "00:01:45", "horodatage": "2022-06-09 15:59:36", "statut": "start", "marker-color": "#ff0000"}}, {"type": "Feature", "geometry": {"type": "Point", "coordinates": [2.64264, 48.865788]}, "properties": {"alarme": "VEHICULE DELOCALISE", "numparc": 4997, "type": "EXPLOITATION", "duree": "00:06:43", "horodatage": "2022-06-09 16:15:07", "statut": "start", "marker-color": "#ff0000"}}, {"type": "Feature", "geometry": {"type": "Point", "coordinates": [2.629089, 48.851192]}, "properties": {"alarme": "VEHICULE DELOCALISE", "numparc": 4997, "type": "EXPLOITATION", "duree": "00:01:09", "horodatage": "2022-06-09 16:22:41", "statut": "start", "marker-color": "#ff0000"}}, {"type": "Feature", "geometry": {"type": "Point", "coordinates": [2.613879, 48.846653]}, "properties": {"alarme": "VEHICULE DELOCALISE", "numparc": 4997, "type": "EXPLOITATION", "duree": "00:01:41", "horodatage": "2022-06-09 16:29:30", "statut": "start", "marker-color": "#ff0000"}}, {"type": "Feature", "geometry": {"type": "Point", "coordinates": [2.632989, 48.837795]}, "properties": {"alarme": "DEFAUT LIAISON DATA SAEIV / AIGLE", "numparc": 4969, "type": "TECHNIQUE", "duree": "00:00:06", "horodatage": "2022-06-09 16:47:04", "statut": "start", "marker-color": "#ff0000"}}, {"type": "Feature", "geometry": {"type": "Point", "coordinates": [2.633629, 48.850239]}, "properties": {"alarme": "DEFAUT LIAISON DATA SAEIV / AIGLE", "numparc": 4969, "type": "TECHNIQUE", "duree": "00:00:07", "horodatage": "2022-06-09 17:07:58", "statut": "start", "marker-color": "#ff0000"}}, {"type": "Feature", "geometry": {"type": "Point", "coordinates": [2.639261, 48.874645]}, "properties": {"alarme": "VEHICULE DELOCALISE", "numparc": 4984, "type": "EXPLOITATION", "duree": "00:01:38", "horodatage": "2022-06-09 17:10:37", "statut": "start", "marker-color": "#ff0000"}}, {"type": "Feature", "geometry": {"type": "Point", "coordinates": [2.629465, 48.833511]}, "properties": {"alarme": "VEHICULE DELOCALISE", "numparc": 4997, "type": "EXPLOITATION", "duree": "00:01:22", "horodatage": "2022-06-09 17:22:55", "statut": "start", "marker-color": "#ff0000"}}, {"type": "Feature", "geometry": {"type": "Point", "coordinates": [2.654651, 48.838833]}, "properties": {"alarme": "DEFAUT LIAISON DATA SAEIV / AIGLE", "numparc": 4999, "type": "TECHNIQUE", "duree": "00:00:06", "horodatage": "2022-06-09 17:32:10", "statut": "start", "marker-color": "#ff0000"}}, {"type": "Feature", "geometry": {"type": "Point", "coordinates": [2.642256, 48.864704]}, "properties": {"alarme": "DEFAUT LIAISON DATA SAEIV / AIGLE", "numparc": 4969, "type": "TECHNIQUE", "duree": "00:00:06", "horodatage": "2022-06-09 17:34:11", "statut": "start", "marker-color": "#ff0000"}}, {"type": "Feature", "geometry": {"type": "Point", "coordinates": [2.632974, 48.83334]}, "properties": {"alarme": "VEHICULE DELOCALISE", "numparc": 4999, "type": "EXPLOITATION", "duree": "00:00:49", "horodatage": "2022-06-09 17:54:00", "statut": "start", "marker-color": "#ff0000"}}, {"type": "Feature", "geometry": {"type": "Point", "coordinates": [2.639008, 48.876019]}, "properties": {"alarme": "VEHICULE DELOCALISE", "numparc": 4994, "type": "EXPLOITATION", "duree": "00:00:19", "horodatage": "2022-06-09 18:04:01", "statut": "start", "marker-color": "#ff0000"}}, {"type": "Feature", "geometry": {"type": "Point", "coordinates": [2.63789, 48.853699]}, "properties": {"alarme": "VEHICULE DELOCALISE", "numparc": 4997, "type": "EXPLOITATION", "duree": "00:00:27", "horodatage": "2022-06-09 18:09:55", "statut": "start", "marker-color": "#ff0000"}}, {"type": "Feature", "geometry": {"type": "Point", "coordinates": [2.632204, 48.837605]}, "properties": {"alarme": "DEFAUT LIAISON DATA SAEIV / AIGLE", "numparc": 4995, "type": "TECHNIQUE", "duree": "00:00:06", "horodatage": "2022-06-09 18:12:25", "statut": "start", "marker-color": "#ff0000"}}, {"type": "Feature", "geometry": {"type": "Point", "coordinates": [2.614053, 48.846706]}, "properties": {"alarme": "VEHICULE DELOCALISE", "numparc": 4997, "type": "EXPLOITATION", "duree": "00:00:10", "horodatage": "2022-06-09 18:20:00", "statut": "start", "marker-color": "#ff0000"}}, {"type": "Feature", "geometry": {"type": "Point", "coordinates": [2.654581, 48.838825]}, "properties": {"alarme": "DEFAUT LIAISON DATA SAEIV / AIGLE", "numparc": 4969, "type": "TECHNIQUE", "duree": "00:00:06", "horodatage": "2022-06-09 18:24:42", "statut": "start", "marker-color": "#ff0000"}}, {"type": "Feature", "geometry": {"type": "Point", "coordinates": [2.629428, 48.839966]}, "properties": {"alarme": "VEHICULE DELOCALISE", "numparc": 4994, "type": "EXPLOITATION", "duree": "00:02:48", "horodatage": "2022-06-09 18:26:59", "statut": "start", "marker-color": "#ff0000"}}, {"type": "Feature", "geometry": {"type": "Point", "coordinates": [2.652461, 48.835239]}, "properties": {"alarme": "DEFAUT LIAISON DATA SAEIV / AIGLE", "numparc": 4969, "type": "TECHNIQUE", "duree": "00:00:06", "horodatage": "2022-06-09 18:35:19", "statut": "start", "marker-color": "#ff0000"}}, {"type": "Feature", "geometry": {"type": "Point", "coordinates": [2.645586, 48.842934]}, "properties": {"alarme": "VEHICULE DELOCALISE", "numparc": 4997, "type": "EXPLOITATION", "duree": "00:31:00", "horodatage": "2022-06-09 18:36:30", "statut": "start", "marker-color": "#ff0000"}}, {"type": "Feature", "geometry": {"type": "Point", "coordinates": [2.655478, 48.838535]}, "properties": {"alarme": "VEHICULE DELOCALISE", "numparc": 4995, "type": "EXPLOITATION", "duree": "00:01:49", "horodatage": "2022-06-09 18:49:21", "statut": "start", "marker-color": "#ff0000"}}, {"type": "Feature", "geometry": {"type": "Point", "coordinates": [2.654296, 48.839016]}, "properties": {"alarme": "DEFAUT LIAISON DATA SAEIV / AIGLE", "numparc": 4994, "type": "TECHNIQUE", "duree": "00:00:06", "horodatage": "2022-06-09 18:57:15", "statut": "start", "marker-color": "#ff0000"}}, {"type": "Feature", "geometry": {"type": "Point", "coordinates": [2.646006, 48.843163]}, "properties": {"alarme": "VEHICULE DELOCALISE", "numparc": 4997, "type": "EXPLOITATION", "duree": "00:00:30", "horodatage": "2022-06-09 19:07:57", "statut": "start", "marker-color": "#ff0000"}}, {"type": "Feature", "geometry": {"type": "Point", "coordinates": [2.641586, 48.843967]}, "properties": {"alarme": "VEHICULE DELOCALISE", "numparc": 4997, "type": "EXPLOITATION", "duree": "00:01:36", "horodatage": "2022-06-09 19:08:59", "statut": "start", "marker-color": "#ff0000"}}, {"type": "Feature", "geometry": {"type": "Point", "coordinates": [2.638731, 48.837479]}, "properties": {"alarme": "VEHICULE DELOCALISE", "numparc": 4997, "type": "EXPLOITATION", "duree": "00:02:27", "horodatage": "2022-06-09 19:11:27", "statut": "start", "marker-color": "#ff0000"}}, {"type": "Feature", "geometry": {"type": "Point", "coordinates": [2.629802, 48.834457]}, "properties": {"alarme": "VEHICULE DELOCALISE", "numparc": 4997, "type": "EXPLOITATION", "duree": "00:04:39", "horodatage": "2022-06-09 19:14:34", "statut": "start", "marker-color": "#ff0000"}}, {"type": "Feature", "geometry": {"type": "Point", "coordinates": [2.628555, 48.843315]}, "properties": {"alarme": "VEHICULE DELOCALISE", "numparc": 4997, "type": "EXPLOITATION", "duree": "00:00:21", "horodatage": "2022-06-09 19:19:48", "statut": "start", "marker-color": "#ff0000"}}, {"type": "Feature", "geometry": {"type": "Point", "coordinates": [2.640761, 48.87133]}, "properties": {"alarme": "DEFAUT LIAISON DATA SAEIV / AIGLE", "numparc": 4969, "type": "TECHNIQUE", "duree": "00:00:07", "horodatage": "2022-06-09 19:19:56", "statut": "start", "marker-color": "#ff0000"}}, {"type": "Feature", "geometry": {"type": "Point", "coordinates": [2.625102, 48.844791]}, "properties": {"alarme": "VEHICULE DELOCALISE", "numparc": 4997, "type": "EXPLOITATION", "duree": "00:01:04", "horodatage": "2022-06-09 19:20:40", "statut": "start", "marker-color": "#ff0000"}}, {"type": "Feature", "geometry": {"type": "Point", "coordinates": [2.619328, 48.843765]}, "properties": {"alarme": "VEHICULE DELOCALISE", "numparc": 4997, "type": "EXPLOITATION", "duree": "00:00:42", "horodatage": "2022-06-09 19:22:24", "statut": "start", "marker-color": "#ff0000"}}, {"type": "Feature", "geometry": {"type": "Point", "coordinates": [2.638999, 48.875992]}, "properties": {"alarme": "VEHICULE DELOCALISE", "numparc": 4984, "type": "EXPLOITATION", "duree": "00:00:13", "horodatage": "2022-06-09 19:24:22", "statut": "start", "marker-color": "#ff0000"}}, {"type": "Feature", "geometry": {"type": "Point", "coordinates": [2.614408, 48.845589]}, "properties": {"alarme": "VEHICULE DELOCALISE", "numparc": 4997, "type": "EXPLOITATION", "duree": "00:00:33", "horodatage": "2022-06-09 19:25:21", "statut": "start", "marker-color": "#ff0000"}}, {"type": "Feature", "geometry": {"type": "Point", "coordinates": [2.616691, 48.84705]}, "properties": {"alarme": "VEHICULE DELOCALISE", "numparc": 4997, "type": "EXPLOITATION", "duree": "00:01:57", "horodatage": "2022-06-09 19:28:37", "statut": "start", "marker-color": "#ff0000"}}, {"type": "Feature", "geometry": {"type": "Point", "coordinates": [2.623224, 48.85574]}, "properties": {"alarme": "VEHICULE DELOCALISE", "numparc": 4997, "type": "EXPLOITATION", "duree": "00:00:19", "horodatage": "2022-06-09 19:32:04", "statut": "start", "marker-color": "#ff0000"}}, {"type": "Feature", "geometry": {"type": "Point", "coordinates": [2.626681, 48.854504]}, "properties": {"alarme": "VEHICULE DELOCALISE", "numparc": 4997, "type": "EXPLOITATION", "duree": "00:01:31", "horodatage": "2022-06-09 19:33:44", "statut": "start", "marker-color": "#ff0000"}}, {"type": "Feature", "geometry": {"type": "Point", "coordinates": [2.630544, 48.850475]}, "properties": {"alarme": "VEHICULE DELOCALISE", "numparc": 4997, "type": "EXPLOITATION", "duree": "00:01:39", "horodatage": "2022-06-09 19:35:47", "statut": "start", "marker-color": "#ff0000"}}, {"type": "Feature", "geometry": {"type": "Point", "coordinates": [2.624965, 48.851124]}, "properties": {"alarme": "VEHICULE DELOCALISE", "numparc": 4969, "type": "EXPLOITATION", "duree": "00:02:33", "horodatage": "2022-06-09 19:37:30", "statut": "start", "marker-color": "#ff0000"}}, {"type": "Feature", "geometry": {"type": "Point", "coordinates": [2.638955, 48.875946]}, "properties": {"alarme": "VEHICULE DELOCALISE", "numparc": 4994, "type": "EXPLOITATION", "duree": "00:00:11", "horodatage": "2022-06-09 20:13:57", "statut": "start", "marker-color": "#ff0000"}}, {"type": "Feature", "geometry": {"type": "Point", "coordinates": [2.653698, 48.835762]}, "properties": {"alarme": "VEHICULE DELOCALISE", "numparc": 4997, "type": "EXPLOITATION", "duree": "00:02:51", "horodatage": "2022-06-09 20:29:28", "statut": "start", "marker-color": "#ff0000"}}, {"type": "Feature", "geometry": {"type": "Point", "coordinates": [2.62102, 48.851856]}, "properties": {"alarme": "DEFAUT LIAISON DATA SAEIV / AIGLE", "numparc": 4999, "type": "TECHNIQUE", "duree": "00:00:08", "horodatage": "2022-06-09 20:45:08", "statut": "start", "marker-color": "#ff0000"}}, {"type": "Feature", "geometry": {"type": "Point", "coordinates": [2.655553, 48.838352]}, "properties": {"alarme": "VEHICULE DELOCALISE", "numparc": 4997, "type": "EXPLOITATION", "duree": "00:04:09", "horodatage": "2022-06-09 20:45:32", "statut": "start", "marker-color": "#ff0000"}}, {"type": "Feature", "geometry": {"type": "Point", "coordinates": [2.637019, 48.835037]}, "properties": {"alarme": "VEHICULE DELOCALISE", "numparc": 4997, "type": "EXPLOITATION", "duree": "00:05:16", "horodatage": "2022-06-09 20:55:45", "statut": "start", "marker-color": "#ff0000"}}, {"type": "Feature", "geometry": {"type": "Point", "coordinates": [2.629408, 48.832767]}, "properties": {"alarme": "VEHICULE DELOCALISE", "numparc": 4984, "type": "EXPLOITATION", "duree": "00:04:19", "horodatage": "2022-06-09 21:35:49", "statut": "start", "marker-color": "#ff0000"}}, {"type": "Feature", "geometry": {"type": "Point", "coordinates": [2.648135, 48.842384]}, "properties": {"alarme": "VEHICULE DELOCALISE", "numparc": 4984, "type": "EXPLOITATION", "duree": "00:00:40", "horodatage": "2022-06-09 21:40:52", "statut": "start", "marker-color": "#ff0000"}}, {"type": "Feature", "geometry": {"type": "Point", "coordinates": [2.640439, 48.871811]}, "properties": {"alarme": "VEHICULE DELOCALISE", "numparc": 4994, "type": "EXPLOITATION", "duree": "00:00:57", "horodatage": "2022-06-09 21:49:46", "statut": "start", "marker-color": "#ff0000"}}, {"type": "Feature", "geometry": {"type": "Point", "coordinates": [2.639701, 48.874264]}, "properties": {"alarme": "VEHICULE DELOCALISE", "numparc": 4994, "type": "EXPLOITATION", "duree": "00:18:50", "horodatage": "2022-06-09 23:08:23", "statut": "start", "marker-color": "#ff0000"}}, {"type": "Feature", "geometry": {"type": "Point", "coordinates": [2.659412, 48.842804]}, "properties": {"alarme": "DEFAUT LIAISON DATA SAEIV / AIGLE", "numparc": 4984, "type": "TECHNIQUE", "duree": "00:01:18", "horodatage": "2022-06-09 23:27:20", "statut": "start", "marker-color": "#ff0000"}}, {"type": "Feature", "geometry": {"type": "Point", "coordinates": [2.629474, 48.832592]}, "properties": {"alarme": "VEHICULE DELOCALISE", "numparc": 4984, "type": "EXPLOITATION", "duree": "00:00:45", "horodatage": "2022-06-09 06:06:38", "statut": "end", "marker-color": "#2fe184"}}, {"type": "Feature", "geometry": {"type": "Point", "coordinates": [2.64572, 48.858204]}, "properties": {"alarme": "DEFAUT LIAISON DATA SAEIV / AIGLE", "numparc": 4969, "type": "TECHNIQUE", "duree": "00:00:06", "horodatage": "2022-06-09 07:18:28", "statut": "end", "marker-color": "#2fe184"}}, {"type": "Feature", "geometry": {"type": "Point", "coordinates": [2.641225, 48.87394]}, "properties": {"alarme": "DEFAUT LIAISON DATA SAEIV / AIGLE", "numparc": 4969, "type": "TECHNIQUE", "duree": "00:00:08", "horodatage": "2022-06-09 07:23:41", "statut": "end", "marker-color": "#2fe184"}}, {"type": "Feature", "geometry": {"type": "Point", "coordinates": [2.629656, 48.832111]}, "properties": {"alarme": "DEFAUT LIAISON DATA SAEIV / AIGLE", "numparc": 4995, "type": "TECHNIQUE", "duree": "00:00:06", "horodatage": "2022-06-09 07:58:25", "statut": "end", "marker-color": "#2fe184"}}, {"type": "Feature", "geometry": {"type": "Point", "coordinates": [2.655438, 48.836197]}, "properties": {"alarme": "VEHICULE DELOCALISE", "numparc": 4997, "type": "EXPLOITATION", "duree": "00:01:39", "horodatage": "2022-06-09 08:02:05", "statut": "end", "marker-color": "#2fe184"}}, {"type": "Feature", "geometry": {"type": "Point", "coordinates": [2.649186, 48.838345]}, "properties": {"alarme": "VEHICULE DELOCALISE", "numparc": 4997, "type": "EXPLOITATION", "duree": "00:01:14", "horodatage": "2022-06-09 08:04:28", "statut": "end", "marker-color": "#2fe184"}}, {"type": "Feature", "geometry": {"type": "Point", "coordinates": [2.648881, 48.840523]}, "properties": {"alarme": "VEHICULE DELOCALISE", "numparc": 4997, "type": "EXPLOITATION", "duree": "00:00:25", "horodatage": "2022-06-09 08:05:34", "statut": "end", "marker-color": "#2fe184"}}, {"type": "Feature", "geometry": {"type": "Point", "coordinates": [2.643872, 48.843651]}, "properties": {"alarme": "VEHICULE DELOCALISE", "numparc": 4997, "type": "EXPLOITATION", "duree": "00:01:01", "horodatage": "2022-06-09 08:07:07", "statut": "end", "marker-color": "#2fe184"}}, {"type": "Feature", "geometry": {"type": "Point", "coordinates": [2.641265, 48.843735]}, "properties": {"alarme": "VEHICULE DELOCALISE", "numparc": 4997, "type": "EXPLOITATION", "duree": "00:00:06", "horodatage": "2022-06-09 08:07:43", "statut": "end", "marker-color": "#2fe184"}}, {"type": "Feature", "geometry": {"type": "Point", "coordinates": [2.637602, 48.851555]}, "properties": {"alarme": "DEFAUT LIAISON DATA SAEIV / AIGLE", "numparc": 4994, "type": "TECHNIQUE", "duree": "00:00:08", "horodatage": "2022-06-09 08:09:56", "statut": "end", "marker-color": "#2fe184"}}, {"type": "Feature", "geometry": {"type": "Point", "coordinates": [2.633406, 48.838375]}, "properties": {"alarme": "VEHICULE DELOCALISE", "numparc": 4997, "type": "EXPLOITATION", "duree": "00:03:00", "horodatage": "2022-06-09 08:15:44", "statut": "end", "marker-color": "#2fe184"}}, {"type": "Feature", "geometry": {"type": "Point", "coordinates": [2.632061, 48.836521]}, "properties": {"alarme": "DEFAUT LIAISON DATA SAEIV / AIGLE", "numparc": 4969, "type": "TECHNIQUE", "duree": "00:00:07", "horodatage": "2022-06-09 08:13:06", "statut": "end", "marker-color": "#2fe184"}}, {"type": "Feature", "geometry": {"type": "Point", "coordinates": [2.622416, 48.844315]}, "properties": {"alarme": "VEHICULE DELOCALISE", "numparc": 4997, "type": "EXPLOITATION", "duree": "00:01:53", "horodatage": "2022-06-09 08:19:42", "statut": "end", "marker-color": "#2fe184"}}, {"type": "Feature", "geometry": {"type": "Point", "coordinates": [2.626224, 48.854584]}, "properties": {"alarme": "VEHICULE DELOCALISE", "numparc": 4997, "type": "EXPLOITATION", "duree": "00:00:36", "horodatage": "2022-06-09 08:28:37", "statut": "end", "marker-color": "#2fe184"}}, {"type": "Feature", "geometry": {"type": "Point", "coordinates": [2.642494, 48.866253]}, "properties": {"alarme": "VEHICULE DELOCALISE", "numparc": 4997, "type": "EXPLOITATION", "duree": "00:06:52", "horodatage": "2022-06-09 08:37:47", "statut": "end", "marker-color": "#2fe184"}}, {"type": "Feature", "geometry": {"type": "Point", "coordinates": [2.642268, 48.866615]}, "properties": {"alarme": "VEHICULE DELOCALISE", "numparc": 4984, "type": "EXPLOITATION", "duree": "00:02:56", "horodatage": "2022-06-09 09:04:32", "statut": "end", "marker-color": "#2fe184"}}, {"type": "Feature", "geometry": {"type": "Point", "coordinates": [2.624441, 48.856071]}, "properties": {"alarme": "DEFAUT LIAISON DATA SAEIV / AIGLE", "numparc": 4969, "type": "TECHNIQUE", "duree": "00:00:07", "horodatage": "2022-06-09 09:08:28", "statut": "end", "marker-color": "#2fe184"}}, {"type": "Feature", "geometry": {"type": "Point", "coordinates": [2.626895, 48.851204]}, "properties": {"alarme": "DEFAUT LIAISON DATA SAEIV / AIGLE", "numparc": 4969, "type": "TECHNIQUE", "duree": "00:00:07", "horodatage": "2022-06-09 09:10:15", "statut": "end", "marker-color": "#2fe184"}}, {"type": "Feature", "geometry": {"type": "Point", "coordinates": [2.644289, 48.862423]}, "properties": {"alarme": "DEFAUT LIAISON DATA SAEIV / AIGLE", "numparc": 4969, "type": "TECHNIQUE", "duree": "00:00:07", "horodatage": "2022-06-09 09:17:53", "statut": "end", "marker-color": "#2fe184"}}, {"type": "Feature", "geometry": {"type": "Point", "coordinates": [2.642181, 48.864697]}, "properties": {"alarme": "DEFAUT LIAISON DATA SAEIV / AIGLE", "numparc": 4969, "type": "TECHNIQUE", "duree": "00:00:07", "horodatage": "2022-06-09 09:34:59", "statut": "end", "marker-color": "#2fe184"}}, {"type": "Feature", "geometry": {"type": "Point", "coordinates": [2.644104, 48.862701]}, "properties": {"alarme": "DEFAUT LIAISON DATA SAEIV / AIGLE", "numparc": 4994, "type": "TECHNIQUE", "duree": "00:00:07", "horodatage": "2022-06-09 09:38:15", "statut": "end", "marker-color": "#2fe184"}}, {"type": "Feature", "geometry": {"type": "Point", "coordinates": [2.649284, 48.838081]}, "properties": {"alarme": "VEHICULE DELOCALISE", "numparc": 4997, "type": "EXPLOITATION", "duree": "00:02:12", "horodatage": "2022-06-09 09:41:42", "statut": "end", "marker-color": "#2fe184"}}, {"type": "Feature", "geometry": {"type": "Point", "coordinates": [2.638276, 48.841442]}, "properties": {"alarme": "VEHICULE DELOCALISE", "numparc": 4997, "type": "EXPLOITATION", "duree": "00:02:06", "horodatage": "2022-06-09 09:45:14", "statut": "end", "marker-color": "#2fe184"}}, {"type": "Feature", "geometry": {"type": "Point", "coordinates": [2.633491, 48.838535]}, "properties": {"alarme": "VEHICULE DELOCALISE", "numparc": 4997, "type": "EXPLOITATION", "duree": "00:02:51", "horodatage": "2022-06-09 09:51:40", "statut": "end", "marker-color": "#2fe184"}}, {"type": "Feature", "geometry": {"type": "Point", "coordinates": [2.622515, 48.843876]}, "properties": {"alarme": "VEHICULE DELOCALISE", "numparc": 4997, "type": "EXPLOITATION", "duree": "00:00:56", "horodatage": "2022-06-09 09:55:34", "statut": "end", "marker-color": "#2fe184"}}, {"type": "Feature", "geometry": {"type": "Point", "coordinates": [2.639043, 48.875824]}, "properties": {"alarme": "VEHICULE DELOCALISE", "numparc": 4994, "type": "EXPLOITATION", "duree": "00:00:13", "horodatage": "2022-06-09 10:01:28", "statut": "end", "marker-color": "#2fe184"}}, {"type": "Feature", "geometry": {"type": "Point", "coordinates": [2.654549, 48.838879]}, "properties": {"alarme": "DEFAUT LIAISON DATA SAEIV / AIGLE", "numparc": 4969, "type": "TECHNIQUE", "duree": "00:00:07", "horodatage": "2022-06-09 10:23:34", "statut": "end", "marker-color": "#2fe184"}}, {"type": "Feature", "geometry": {"type": "Point", "coordinates": [2.639023, 48.875854]}, "properties": {"alarme": "VEHICULE DELOCALISE", "numparc": 4984, "type": "EXPLOITATION", "duree": "00:00:12", "horodatage": "2022-06-09 11:00:24", "statut": "end", "marker-color": "#2fe184"}}, {"type": "Feature", "geometry": {"type": "Point", "coordinates": [2.642323, 48.855934]}, "properties": {"alarme": "DEFAUT LIAISON DATA SAEIV / AIGLE", "numparc": 4969, "type": "TECHNIQUE", "duree": "00:00:09", "horodatage": "2022-06-09 11:04:36", "statut": "end", "marker-color": "#2fe184"}}, {"type": "Feature", "geometry": {"type": "Point", "coordinates": [2.633447, 48.83839]}, "properties": {"alarme": "VEHICULE DELOCALISE", "numparc": 4997, "type": "EXPLOITATION", "duree": "00:03:09", "horodatage": "2022-06-09 11:40:59", "statut": "end", "marker-color": "#2fe184"}}, {"type": "Feature", "geometry": {"type": "Point", "coordinates": [2.626882, 48.851181]}, "properties": {"alarme": "VEHICULE DELOCALISE", "numparc": 4997, "type": "EXPLOITATION", "duree": "00:07:44", "horodatage": "2022-06-09 11:55:08", "statut": "end", "marker-color": "#2fe184"}}, {"type": "Feature", "geometry": {"type": "Point", "coordinates": [2.640338, 48.874428]}, "properties": {"alarme": "VEHICULE DELOCALISE", "numparc": 4997, "type": "EXPLOITATION", "duree": "00:07:00", "horodatage": "2022-06-09 12:06:16", "statut": "end", "marker-color": "#2fe184"}}, {"type": "Feature", "geometry": {"type": "Point", "coordinates": [2.627762, 48.854034]}, "properties": {"alarme": "VEHICULE DELOCALISE", "numparc": 4997, "type": "EXPLOITATION", "duree": "00:01:44", "horodatage": "2022-06-09 12:44:04", "statut": "end", "marker-color": "#2fe184"}}, {"type": "Feature", "geometry": {"type": "Point", "coordinates": [2.613613, 48.846516]}, "properties": {"alarme": "VEHICULE DELOCALISE", "numparc": 4997, "type": "EXPLOITATION", "duree": "00:00:22", "horodatage": "2022-06-09 12:50:21", "statut": "end", "marker-color": "#2fe184"}}, {"type": "Feature", "geometry": {"type": "Point", "coordinates": [2.638929, 48.875828]}, "properties": {"alarme": "VEHICULE DELOCALISE", "numparc": 4984, "type": "EXPLOITATION", "duree": "00:00:10", "horodatage": "2022-06-09 12:59:16", "statut": "end", "marker-color": "#2fe184"}}, {"type": "Feature", "geometry": {"type": "Point", "coordinates": [2.637532, 48.851681]}, "properties": {"alarme": "DEFAUT LIAISON DATA SAEIV / AIGLE", "numparc": 4969, "type": "TECHNIQUE", "duree": "00:00:08", "horodatage": "2022-06-09 13:38:56", "statut": "end", "marker-color": "#2fe184"}}, {"type": "Feature", "geometry": {"type": "Point", "coordinates": [2.630916, 48.835827]}, "properties": {"alarme": "VEHICULE DELOCALISE", "numparc": 4997, "type": "EXPLOITATION", "duree": "00:01:15", "horodatage": "2022-06-09 13:40:54", "statut": "end", "marker-color": "#2fe184"}}, {"type": "Feature", "geometry": {"type": "Point", "coordinates": [2.64019, 48.874603]}, "properties": {"alarme": "VEHICULE DELOCALISE", "numparc": 4997, "type": "EXPLOITATION", "duree": "00:01:53", "horodatage": "2022-06-09 14:10:29", "statut": "end", "marker-color": "#2fe184"}}, {"type": "Feature", "geometry": {"type": "Point", "coordinates": [2.640485, 48.855217]}, "properties": {"alarme": "VEHICULE DELOCALISE", "numparc": 4997, "type": "EXPLOITATION", "duree": "00:00:45", "horodatage": "2022-06-09 14:37:42", "statut": "end", "marker-color": "#2fe184"}}, {"type": "Feature", "geometry": {"type": "Point", "coordinates": [2.638359, 48.841175]}, "properties": {"alarme": "VEHICULE DELOCALISE", "numparc": 4997, "type": "EXPLOITATION", "duree": "00:02:07", "horodatage": "2022-06-09 15:34:41", "statut": "end", "marker-color": "#2fe184"}}, {"type": "Feature", "geometry": {"type": "Point", "coordinates": [2.633318, 48.838432]}, "properties": {"alarme": "VEHICULE DELOCALISE", "numparc": 4997, "type": "EXPLOITATION", "duree": "00:03:55", "horodatage": "2022-06-09 15:42:14", "statut": "end", "marker-color": "#2fe184"}}, {"type": "Feature", "geometry": {"type": "Point", "coordinates": [2.622257, 48.844254]}, "properties": {"alarme": "VEHICULE DELOCALISE", "numparc": 4997, "type": "EXPLOITATION", "duree": "00:00:57", "horodatage": "2022-06-09 15:46:15", "statut": "end", "marker-color": "#2fe184"}}, {"type": "Feature", "geometry": {"type": "Point", "coordinates": [2.621328, 48.851376]}, "properties": {"alarme": "VEHICULE DELOCALISE", "numparc": 4997, "type": "EXPLOITATION", "duree": "00:01:46", "horodatage": "2022-06-09 15:52:31", "statut": "end", "marker-color": "#2fe184"}}, {"type": "Feature", "geometry": {"type": "Point", "coordinates": [2.637248, 48.851143]}, "properties": {"alarme": "VEHICULE DELOCALISE", "numparc": 4997, "type": "EXPLOITATION", "duree": "00:01:58", "horodatage": "2022-06-09 15:58:09", "statut": "end", "marker-color": "#2fe184"}}, {"type": "Feature", "geometry": {"type": "Point", "coordinates": [2.645469, 48.857754]}, "properties": {"alarme": "VEHICULE DELOCALISE", "numparc": 4997, "type": "EXPLOITATION", "duree": "00:01:45", "horodatage": "2022-06-09 16:01:21", "statut": "end", "marker-color": "#2fe184"}}, {"type": "Feature", "geometry": {"type": "Point", "coordinates": [2.634449, 48.850624]}, "properties": {"alarme": "VEHICULE DELOCALISE", "numparc": 4997, "type": "EXPLOITATION", "duree": "00:06:43", "horodatage": "2022-06-09 16:21:50", "statut": "end", "marker-color": "#2fe184"}}, {"type": "Feature", "geometry": {"type": "Point", "coordinates": [2.627908, 48.853912]}, "properties": {"alarme": "VEHICULE DELOCALISE", "numparc": 4997, "type": "EXPLOITATION", "duree": "00:01:09", "horodatage": "2022-06-09 16:23:50", "statut": "end", "marker-color": "#2fe184"}}, {"type": "Feature", "geometry": {"type": "Point", "coordinates": [2.616288, 48.84407]}, "properties": {"alarme": "VEHICULE DELOCALISE", "numparc": 4997, "type": "EXPLOITATION", "duree": "00:01:41", "horodatage": "2022-06-09 16:31:11", "statut": "end", "marker-color": "#2fe184"}}, {"type": "Feature", "geometry": {"type": "Point", "coordinates": [2.633446, 48.837933]}, "properties": {"alarme": "DEFAUT LIAISON DATA SAEIV / AIGLE", "numparc": 4969, "type": "TECHNIQUE", "duree": "00:00:06", "horodatage": "2022-06-09 16:47:10", "statut": "end", "marker-color": "#2fe184"}}, {"type": "Feature", "geometry": {"type": "Point", "coordinates": [2.634424, 48.850174]}, "properties": {"alarme": "DEFAUT LIAISON DATA SAEIV / AIGLE", "numparc": 4969, "type": "TECHNIQUE", "duree": "00:00:07", "horodatage": "2022-06-09 17:08:05", "statut": "end", "marker-color": "#2fe184"}}, {"type": "Feature", "geometry": {"type": "Point", "coordinates": [2.641269, 48.869331]}, "properties": {"alarme": "VEHICULE DELOCALISE", "numparc": 4984, "type": "EXPLOITATION", "duree": "00:01:38", "horodatage": "2022-06-09 17:12:15", "statut": "end", "marker-color": "#2fe184"}}, {"type": "Feature", "geometry": {"type": "Point", "coordinates": [2.631161, 48.836102]}, "properties": {"alarme": "VEHICULE DELOCALISE", "numparc": 4997, "type": "EXPLOITATION", "duree": "00:01:22", "horodatage": "2022-06-09 17:24:17", "statut": "end", "marker-color": "#2fe184"}}, {"type": "Feature", "geometry": {"type": "Point", "coordinates": [2.654651, 48.838833]}, "properties": {"alarme": "DEFAUT LIAISON DATA SAEIV / AIGLE", "numparc": 4999, "type": "TECHNIQUE", "duree": "00:00:06", "horodatage": "2022-06-09 17:32:16", "statut": "end", "marker-color": "#2fe184"}}, {"type": "Feature", "geometry": {"type": "Point", "coordinates": [2.642715, 48.864536]}, "properties": {"alarme": "DEFAUT LIAISON DATA SAEIV / AIGLE", "numparc": 4969, "type": "TECHNIQUE", "duree": "00:00:06", "horodatage": "2022-06-09 17:34:17", "statut": "end", "marker-color": "#2fe184"}}, {"type": "Feature", "geometry": {"type": "Point", "coordinates": [2.629493, 48.832581]}, "properties": {"alarme": "VEHICULE DELOCALISE", "numparc": 4999, "type": "EXPLOITATION", "duree": "00:00:49", "horodatage": "2022-06-09 17:54:49", "statut": "end", "marker-color": "#2fe184"}}, {"type": "Feature", "geometry": {"type": "Point", "coordinates": [2.63911, 48.875717]}, "properties": {"alarme": "VEHICULE DELOCALISE", "numparc": 4994, "type": "EXPLOITATION", "duree": "00:00:19", "horodatage": "2022-06-09 18:04:20", "statut": "end", "marker-color": "#2fe184"}}, {"type": "Feature", "geometry": {"type": "Point", "coordinates": [2.637421, 48.851978]}, "properties": {"alarme": "VEHICULE DELOCALISE", "numparc": 4997, "type": "EXPLOITATION", "duree": "00:00:27", "horodatage": "2022-06-09 18:10:22", "statut": "end", "marker-color": "#2fe184"}}, {"type": "Feature", "geometry": {"type": "Point", "coordinates": [2.632204, 48.837605]}, "properties": {"alarme": "DEFAUT LIAISON DATA SAEIV / AIGLE", "numparc": 4995, "type": "TECHNIQUE", "duree": "00:00:06", "horodatage": "2022-06-09 18:12:31", "statut": "end", "marker-color": "#2fe184"}}, {"type": "Feature", "geometry": {"type": "Point", "coordinates": [2.614041, 48.84668]}, "properties": {"alarme": "VEHICULE DELOCALISE", "numparc": 4997, "type": "EXPLOITATION", "duree": "00:00:10", "horodatage": "2022-06-09 18:20:10", "statut": "end", "marker-color": "#2fe184"}}, {"type": "Feature", "geometry": {"type": "Point", "coordinates": [2.654581, 48.838825]}, "properties": {"alarme": "DEFAUT LIAISON DATA SAEIV / AIGLE", "numparc": 4969, "type": "TECHNIQUE", "duree": "00:00:06", "horodatage": "2022-06-09 18:24:48", "statut": "end", "marker-color": "#2fe184"}}, {"type": "Feature", "geometry": {"type": "Point", "coordinates": [2.629478, 48.8325]}, "properties": {"alarme": "VEHICULE DELOCALISE", "numparc": 4994, "type": "EXPLOITATION", "duree": "00:02:48", "horodatage": "2022-06-09 18:29:47", "statut": "end", "marker-color": "#2fe184"}}, {"type": "Feature", "geometry": {"type": "Point", "coordinates": [2.652461, 48.835239]}, "properties": {"alarme": "DEFAUT LIAISON DATA SAEIV / AIGLE", "numparc": 4969, "type": "TECHNIQUE", "duree": "00:00:06", "horodatage": "2022-06-09 18:35:25", "statut": "end", "marker-color": "#2fe184"}}, {"type": "Feature", "geometry": {"type": "Point", "coordinates": [2.647594, 48.842659]}, "properties": {"alarme": "VEHICULE DELOCALISE", "numparc": 4997, "type": "EXPLOITATION", "duree": "00:31:00", "horodatage": "2022-06-09 19:07:30", "statut": "end", "marker-color": "#2fe184"}}, {"type": "Feature", "geometry": {"type": "Point", "coordinates": [2.655541, 48.835991]}, "properties": {"alarme": "VEHICULE DELOCALISE", "numparc": 4995, "type": "EXPLOITATION", "duree": "00:01:49", "horodatage": "2022-06-09 18:51:10", "statut": "end", "marker-color": "#2fe184"}}, {"type": "Feature", "geometry": {"type": "Point", "coordinates": [2.654296, 48.839016]}, "properties": {"alarme": "DEFAUT LIAISON DATA SAEIV / AIGLE", "numparc": 4994, "type": "TECHNIQUE", "duree": "00:00:06", "horodatage": "2022-06-09 18:57:21", "statut": "end", "marker-color": "#2fe184"}}, {"type": "Feature", "geometry": {"type": "Point", "coordinates": [2.643835, 48.843742]}, "properties": {"alarme": "VEHICULE DELOCALISE", "numparc": 4997, "type": "EXPLOITATION", "duree": "00:00:30", "horodatage": "2022-06-09 19:08:27", "statut": "end", "marker-color": "#2fe184"}}, {"type": "Feature", "geometry": {"type": "Point", "coordinates": [2.638966, 48.840836]}, "properties": {"alarme": "VEHICULE DELOCALISE", "numparc": 4997, "type": "EXPLOITATION", "duree": "00:01:36", "horodatage": "2022-06-09 19:10:35", "statut": "end", "marker-color": "#2fe184"}}, {"type": "Feature", "geometry": {"type": "Point", "coordinates": [2.629579, 48.832542]}, "properties": {"alarme": "VEHICULE DELOCALISE", "numparc": 4997, "type": "EXPLOITATION", "duree": "00:02:27", "horodatage": "2022-06-09 19:13:54", "statut": "end", "marker-color": "#2fe184"}}, {"type": "Feature", "geometry": {"type": "Point", "coordinates": [2.630762, 48.841957]}, "properties": {"alarme": "VEHICULE DELOCALISE", "numparc": 4997, "type": "EXPLOITATION", "duree": "00:04:39", "horodatage": "2022-06-09 19:19:13", "statut": "end", "marker-color": "#2fe184"}}, {"type": "Feature", "geometry": {"type": "Point", "coordinates": [2.627394, 48.843876]}, "properties": {"alarme": "VEHICULE DELOCALISE", "numparc": 4997, "type": "EXPLOITATION", "duree": "00:00:21", "horodatage": "2022-06-09 19:20:09", "statut": "end", "marker-color": "#2fe184"}}, {"type": "Feature", "geometry": {"type": "Point", "coordinates": [2.640586, 48.871861]}, "properties": {"alarme": "DEFAUT LIAISON DATA SAEIV / AIGLE", "numparc": 4969, "type": "TECHNIQUE", "duree": "00:00:07", "horodatage": "2022-06-09 19:20:03", "statut": "end", "marker-color": "#2fe184"}}, {"type": "Feature", "geometry": {"type": "Point", "coordinates": [2.622294, 48.844326]}, "properties": {"alarme": "VEHICULE DELOCALISE", "numparc": 4997, "type": "EXPLOITATION", "duree": "00:01:04", "horodatage": "2022-06-09 19:21:44", "statut": "end", "marker-color": "#2fe184"}}, {"type": "Feature", "geometry": {"type": "Point", "coordinates": [2.616026, 48.84383]}, "properties": {"alarme": "VEHICULE DELOCALISE", "numparc": 4997, "type": "EXPLOITATION", "duree": "00:00:42", "horodatage": "2022-06-09 19:23:06", "statut": "end", "marker-color": "#2fe184"}}, {"type": "Feature", "geometry": {"type": "Point", "coordinates": [2.639041, 48.875877]}, "properties": {"alarme": "VEHICULE DELOCALISE", "numparc": 4984, "type": "EXPLOITATION", "duree": "00:00:13", "horodatage": "2022-06-09 19:24:35", "statut": "end", "marker-color": "#2fe184"}}, {"type": "Feature", "geometry": {"type": "Point", "coordinates": [2.613718, 48.846481]}, "properties": {"alarme": "VEHICULE DELOCALISE", "numparc": 4997, "type": "EXPLOITATION", "duree": "00:00:33", "horodatage": "2022-06-09 19:25:54", "statut": "end", "marker-color": "#2fe184"}}, {"type": "Feature", "geometry": {"type": "Point", "coordinates": [2.621329, 48.851639]}, "properties": {"alarme": "VEHICULE DELOCALISE", "numparc": 4997, "type": "EXPLOITATION", "duree": "00:01:57", "horodatage": "2022-06-09 19:30:34", "statut": "end", "marker-color": "#2fe184"}}, {"type": "Feature", "geometry": {"type": "Point", "coordinates": [2.624257, 48.856026]}, "properties": {"alarme": "VEHICULE DELOCALISE", "numparc": 4997, "type": "EXPLOITATION", "duree": "00:00:19", "horodatage": "2022-06-09 19:32:23", "statut": "end", "marker-color": "#2fe184"}}, {"type": "Feature", "geometry": {"type": "Point", "coordinates": [2.627885, 48.850792]}, "properties": {"alarme": "VEHICULE DELOCALISE", "numparc": 4997, "type": "EXPLOITATION", "duree": "00:01:31", "horodatage": "2022-06-09 19:35:15", "statut": "end", "marker-color": "#2fe184"}}, {"type": "Feature", "geometry": {"type": "Point", "coordinates": [2.637832, 48.851288]}, "properties": {"alarme": "VEHICULE DELOCALISE", "numparc": 4997, "type": "EXPLOITATION", "duree": "00:01:39", "horodatage": "2022-06-09 19:37:26", "statut": "end", "marker-color": "#2fe184"}}, {"type": "Feature", "geometry": {"type": "Point", "coordinates": [2.616236, 48.847218]}, "properties": {"alarme": "VEHICULE DELOCALISE", "numparc": 4969, "type": "EXPLOITATION", "duree": "00:02:33", "horodatage": "2022-06-09 19:40:03", "statut": "end", "marker-color": "#2fe184"}}, {"type": "Feature", "geometry": {"type": "Point", "coordinates": [2.638953, 48.875835]}, "properties": {"alarme": "VEHICULE DELOCALISE", "numparc": 4994, "type": "EXPLOITATION", "duree": "00:00:11", "horodatage": "2022-06-09 20:14:08", "statut": "end", "marker-color": "#2fe184"}}, {"type": "Feature", "geometry": {"type": "Point", "coordinates": [2.654624, 48.838833]}, "properties": {"alarme": "VEHICULE DELOCALISE", "numparc": 4997, "type": "EXPLOITATION", "duree": "00:02:51", "horodatage": "2022-06-09 20:32:19", "statut": "end", "marker-color": "#2fe184"}}, {"type": "Feature", "geometry": {"type": "Point", "coordinates": [2.62077, 48.851398]}, "properties": {"alarme": "DEFAUT LIAISON DATA SAEIV / AIGLE", "numparc": 4999, "type": "TECHNIQUE", "duree": "00:00:08", "horodatage": "2022-06-09 20:45:16", "statut": "end", "marker-color": "#2fe184"}}, {"type": "Feature", "geometry": {"type": "Point", "coordinates": [2.648825, 48.840401]}, "properties": {"alarme": "VEHICULE DELOCALISE", "numparc": 4997, "type": "EXPLOITATION", "duree": "00:04:09", "horodatage": "2022-06-09 20:49:41", "statut": "end", "marker-color": "#2fe184"}}, {"type": "Feature", "geometry": {"type": "Point", "coordinates": [2.630879, 48.841408]}, "properties": {"alarme": "VEHICULE DELOCALISE", "numparc": 4997, "type": "EXPLOITATION", "duree": "00:05:16", "horodatage": "2022-06-09 21:01:01", "statut": "end", "marker-color": "#2fe184"}}, {"type": "Feature", "geometry": {"type": "Point", "coordinates": [2.644247, 48.843548]}, "properties": {"alarme": "VEHICULE DELOCALISE", "numparc": 4984, "type": "EXPLOITATION", "duree": "00:04:19", "horodatage": "2022-06-09 21:40:08", "statut": "end", "marker-color": "#2fe184"}}, {"type": "Feature", "geometry": {"type": "Point", "coordinates": [2.648887, 48.840111]}, "properties": {"alarme": "VEHICULE DELOCALISE", "numparc": 4984, "type": "EXPLOITATION", "duree": "00:00:40", "horodatage": "2022-06-09 21:41:32", "statut": "end", "marker-color": "#2fe184"}}, {"type": "Feature", "geometry": {"type": "Point", "coordinates": [2.641475, 48.86882]}, "properties": {"alarme": "VEHICULE DELOCALISE", "numparc": 4994, "type": "EXPLOITATION", "duree": "00:00:57", "horodatage": "2022-06-09 21:50:43", "statut": "end", "marker-color": "#2fe184"}}, {"type": "Feature", "geometry": {"type": "Point", "coordinates": [2.659492, 48.842129]}, "properties": {"alarme": "VEHICULE DELOCALISE", "numparc": 4994, "type": "EXPLOITATION", "duree": "00:18:50", "horodatage": "2022-06-09 23:27:13", "statut": "end", "marker-color": "#2fe184"}}, {"type": "Feature", "geometry": {"type": "Point", "coordinates": [2.659412, 48.842804]}, "properties": {"alarme": "DEFAUT LIAISON DATA SAEIV / AIGLE", "numparc": 4984, "type": "TECHNIQUE", "duree": "00:01:18", "horodatage": "2022-06-09 23:28:38", "statut": "end", "marker-color": "#2fe184"}}]}