{"type": "FeatureCollection", "features": [{"type": "Feature", "geometry": {"type": "Point", "coordinates": [2.428695, 48.87912]}, "properties": {"numparc": 4947, "etat de la localisation": "autre", "ID BDGEO": "271", "horodatage": "2022-02-14 05:39:50", "distance (en metres)": 104.21, "station": "DEPOT DES LILAS SORTIE", "marker-color": "#818181"}}, {"type": "Feature", "geometry": {"type": "Point", "coordinates": [2.428695, 48.87912]}, "properties": {"numparc": 4947, "etat de la localisation": "Delocalise", "ID BDGEO": "271", "horodatage": "2022-02-14 05:44:06", "distance (en metres)": 104.21, "station": "DEPOT DES LILAS SORTIE", "marker-color": "#FF565E"}}, {"type": "Feature", "geometry": {"type": "Point", "coordinates": [2.428135, 48.879112]}, "properties": {"numparc": 4948, "etat de la localisation": "autre", "ID BDGEO": "271", "horodatage": "2022-02-14 05:47:16", "distance (en metres)": 66.46, "station": "DEPOT DES LILAS SORTIE", "marker-color": "#818181"}}, {"type": "Feature", "geometry": {"type": "Point", "coordinates": [2.428857, 48.878319]}, "properties": {"numparc": 4948, "etat de la localisation": "autre", "ID BDGEO": "271", "horodatage": "2022-02-14 05:55:26", "distance (en metres)": 123.1, "station": "DEPOT DES LILAS SORTIE", "marker-color": "#818181"}}, {"type": "Feature", "geometry": {"type": "Point", "coordinates": [2.416905, 48.865158]}, "properties": {"numparc": 4950, "etat de la localisation": "autre", "ID BDGEO": "174", "horodatage": "2022-02-14 06:07:21", "distance (en metres)": 61.6, "station": "GALLIENI", "marker-color": "#818181"}}, {"type": "Feature", "geometry": {"type": "Point", "coordinates": [2.417295, 48.86515]}, "properties": {"numparc": 4950, "etat de la localisation": "autre", "ID BDGEO": "174", "horodatage": "2022-02-14 06:08:42", "distance (en metres)": 59.04, "station": "GALLIENI", "marker-color": "#818181"}}, {"type": "Feature", "geometry": {"type": "Point", "coordinates": [2.41551, 48.869095]}, "properties": {"numparc": 4929, "etat de la localisation": "autre", "ID BDGEO": "175", "horodatage": "2022-02-14 06:13:04", "distance (en metres)": 263.05, "station": "MAIRIE DE BAGNOLET", "marker-color": "#818181"}}, {"type": "Feature", "geometry": {"type": "Point", "coordinates": [2.41703, 48.865234]}, "properties": {"numparc": 4929, "etat de la localisation": "autre", "ID BDGEO": "174", "horodatage": "2022-02-14 06:14:57", "distance (en metres)": 67.96, "station": "GALLIENI", "marker-color": "#818181"}}, {"type": "Feature", "geometry": {"type": "Point", "coordinates": [2.416973, 48.865162]}, "properties": {"numparc": 4948, "etat de la localisation": "autre", "ID BDGEO": "174", "horodatage": "2022-02-14 06:21:57", "distance (en metres)": 60.78, "station": "GALLIENI", "marker-color": "#818181"}}, {"type": "Feature", "geometry": {"type": "Point", "coordinates": [2.427623, 48.878658]}, "properties": {"numparc": 4945, "etat de la localisation": "autre", "ID BDGEO": "430", "horodatage": "2022-02-14 06:22:07", "distance (en metres)": 457.75, "station": "LOUISE MICHEL.", "marker-color": "#818181"}}, {"type": "Feature", "geometry": {"type": "Point", "coordinates": [2.417311, 48.865173]}, "properties": {"numparc": 4948, "etat de la localisation": "autre", "ID BDGEO": "174", "horodatage": "2022-02-14 06:23:16", "distance (en metres)": 61.77, "station": "GALLIENI", "marker-color": "#818181"}}, {"type": "Feature", "geometry": {"type": "Point", "coordinates": [2.431607, 48.875366]}, "properties": {"numparc": 4948, "etat de la localisation": "autre", "ID BDGEO": "2", "horodatage": "2022-02-14 06:35:37", "distance (en metres)": 62.07, "station": "LOUISE MICHEL", "marker-color": "#818181"}}, {"type": "Feature", "geometry": {"type": "Point", "coordinates": [2.35277, 48.857281]}, "properties": {"numparc": 4929, "etat de la localisation": "autre", "ID BDGEO": "155", "horodatage": "2022-02-14 06:36:49", "distance (en metres)": 222.33, "station": "HOTEL DE VILLE", "marker-color": "#818181"}}, {"type": "Feature", "geometry": {"type": "Point", "coordinates": [2.417199, 48.8652]}, "properties": {"numparc": 4947, "etat de la localisation": "Delocalise", "ID BDGEO": "174", "horodatage": "2022-02-14 07:15:35", "distance (en metres)": 63.73, "station": "GALLIENI", "marker-color": "#FF565E"}}, {"type": "Feature", "geometry": {"type": "Point", "coordinates": [2.367563, 48.853432]}, "properties": {"numparc": 4950, "etat de la localisation": "autre", "ID BDGEO": "206", "horodatage": "2022-02-14 07:16:23", "distance (en metres)": 75.48, "station": "BASTILLE - RUE SAINT-ANTOINE", "marker-color": "#818181"}}, {"type": "Feature", "geometry": {"type": "Point", "coordinates": [2.426249, 48.86993]}, "properties": {"numparc": 4929, "etat de la localisation": "autre", "ID BDGEO": "491", "horodatage": "2022-02-14 07:23:33", "distance (en metres)": 208.87, "station": "PIERRE CURIE", "marker-color": "#818181"}}, {"type": "Feature", "geometry": {"type": "Point", "coordinates": [2.431627, 48.875397]}, "properties": {"numparc": 4929, "etat de la localisation": "autre", "ID BDGEO": "2", "horodatage": "2022-02-14 07:26:57", "distance (en metres)": 58.37, "station": "LOUISE MICHEL", "marker-color": "#818181"}}, {"type": "Feature", "geometry": {"type": "Point", "coordinates": [2.431627, 48.875401]}, "properties": {"numparc": 4929, "etat de la localisation": "autre", "ID BDGEO": "2", "horodatage": "2022-02-14 07:27:22", "distance (en metres)": 57.94, "station": "LOUISE MICHEL", "marker-color": "#818181"}}, {"type": "Feature", "geometry": {"type": "Point", "coordinates": [2.4275, 48.879253]}, "properties": {"numparc": 4936, "etat de la localisation": "autre", "ID BDGEO": "271", "horodatage": "2022-02-14 07:27:32", "distance (en metres)": 50.32, "station": "DEPOT DES LILAS SORTIE", "marker-color": "#818181"}}, {"type": "Feature", "geometry": {"type": "Point", "coordinates": [2.375053, 48.851608]}, "properties": {"numparc": 4948, "etat de la localisation": "autre", "ID BDGEO": "203", "horodatage": "2022-02-14 07:28:28", "distance (en metres)": 43.14, "station": "LEDRU-ROLLIN - FAUBOURG SAINT-ANTOINE", "marker-color": "#818181"}}, {"type": "Feature", "geometry": {"type": "Point", "coordinates": [2.367678, 48.853363]}, "properties": {"numparc": 4948, "etat de la localisation": "autre", "ID BDGEO": "206", "horodatage": "2022-02-14 07:32:55", "distance (en metres)": 66.98, "station": "BASTILLE - RUE SAINT-ANTOINE", "marker-color": "#818181"}}, {"type": "Feature", "geometry": {"type": "Point", "coordinates": [2.423544, 48.869789]}, "properties": {"numparc": 4929, "etat de la localisation": "autre", "ID BDGEO": "177", "horodatage": "2022-02-14 07:53:01", "distance (en metres)": 97.27, "station": "PIERRE CURIE", "marker-color": "#818181"}}, {"type": "Feature", "geometry": {"type": "Point", "coordinates": [2.416903, 48.870384]}, "properties": {"numparc": 4929, "etat de la localisation": "autre", "ID BDGEO": "176", "horodatage": "2022-02-14 07:56:09", "distance (en metres)": 269.18, "station": "EGLISE DE BAGNOLET", "marker-color": "#818181"}}, {"type": "Feature", "geometry": {"type": "Point", "coordinates": [2.415454, 48.869102]}, "properties": {"numparc": 4929, "etat de la localisation": "autre", "ID BDGEO": "175", "horodatage": "2022-02-14 07:57:46", "distance (en metres)": 267.13, "station": "MAIRIE DE BAGNOLET", "marker-color": "#818181"}}, {"type": "Feature", "geometry": {"type": "Point", "coordinates": [2.417987, 48.866974]}, "properties": {"numparc": 4929, "etat de la localisation": "autre", "ID BDGEO": "175", "horodatage": "2022-02-14 08:00:10", "distance (en metres)": 148.17, "station": "MAIRIE DE BAGNOLET", "marker-color": "#818181"}}, {"type": "Feature", "geometry": {"type": "Point", "coordinates": [2.416949, 48.865234]}, "properties": {"numparc": 4929, "etat de la localisation": "autre", "ID BDGEO": "174", "horodatage": "2022-02-14 08:02:04", "distance (en metres)": 68.97, "station": "GALLIENI", "marker-color": "#818181"}}, {"type": "Feature", "geometry": {"type": "Point", "coordinates": [2.399566, 48.857777]}, "properties": {"numparc": 4947, "etat de la localisation": "autre", "ID BDGEO": "197", "horodatage": "2022-02-14 08:06:58", "distance (en metres)": 40.54, "station": "LA REUNION", "marker-color": "#818181"}}, {"type": "Feature", "geometry": {"type": "Point", "coordinates": [2.399566, 48.857777]}, "properties": {"numparc": 4947, "etat de la localisation": "autre", "ID BDGEO": "197", "horodatage": "2022-02-14 08:07:21", "distance (en metres)": 40.54, "station": "LA REUNION", "marker-color": "#818181"}}, {"type": "Feature", "geometry": {"type": "Point", "coordinates": [2.417224, 48.865158]}, "properties": {"numparc": 4950, "etat de la localisation": "autre", "ID BDGEO": "174", "horodatage": "2022-02-14 08:11:53", "distance (en metres)": 59.21, "station": "GALLIENI", "marker-color": "#818181"}}, {"type": "Feature", "geometry": {"type": "Point", "coordinates": [2.399602, 48.857704]}, "properties": {"numparc": 4929, "etat de la localisation": "autre", "ID BDGEO": "168", "horodatage": "2022-02-14 08:13:45", "distance (en metres)": 45.77, "station": "LA REUNION", "marker-color": "#818181"}}, {"type": "Feature", "geometry": {"type": "Point", "coordinates": [2.417403, 48.865265]}, "properties": {"numparc": 4948, "etat de la localisation": "autre", "ID BDGEO": "174", "horodatage": "2022-02-14 08:21:52", "distance (en metres)": 73.25, "station": "GALLIENI", "marker-color": "#818181"}}, {"type": "Feature", "geometry": {"type": "Point", "coordinates": [2.384984, 48.854637]}, "properties": {"numparc": 4929, "etat de la localisation": "autre", "ID BDGEO": "165", "horodatage": "2022-02-14 08:25:19", "distance (en metres)": 52.15, "station": "CHARONNE-VOLTAIRE", "marker-color": "#818181"}}, {"type": "Feature", "geometry": {"type": "Point", "coordinates": [2.381714, 48.853821]}, "properties": {"numparc": 4929, "etat de la localisation": "autre", "ID BDGEO": "165", "horodatage": "2022-02-14 08:27:12", "distance (en metres)": 307.81, "station": "CHARONNE-VOLTAIRE", "marker-color": "#818181"}}, {"type": "Feature", "geometry": {"type": "Point", "coordinates": [2.377062, 48.853027]}, "properties": {"numparc": 4929, "etat de la localisation": "autre", "ID BDGEO": "165", "horodatage": "2022-02-14 08:30:30", "distance (en metres)": 658.75, "station": "CHARONNE-VOLTAIRE", "marker-color": "#818181"}}, {"type": "Feature", "geometry": {"type": "Point", "coordinates": [2.375158, 48.85157]}, "properties": {"numparc": 4929, "etat de la localisation": "autre", "ID BDGEO": "165", "horodatage": "2022-02-14 08:32:04", "distance (en metres)": 847.07, "station": "CHARONNE-VOLTAIRE", "marker-color": "#818181"}}, {"type": "Feature", "geometry": {"type": "Point", "coordinates": [2.367608, 48.853428]}, "properties": {"numparc": 4947, "etat de la localisation": "autre", "ID BDGEO": "206", "horodatage": "2022-02-14 08:32:05", "distance (en metres)": 72.17, "station": "BASTILLE - RUE SAINT-ANTOINE", "marker-color": "#818181"}}, {"type": "Feature", "geometry": {"type": "Point", "coordinates": [2.374175, 48.851849]}, "properties": {"numparc": 4929, "etat de la localisation": "autre", "ID BDGEO": "165", "horodatage": "2022-02-14 08:32:35", "distance (en metres)": 901.28, "station": "CHARONNE-VOLTAIRE", "marker-color": "#818181"}}, {"type": "Feature", "geometry": {"type": "Point", "coordinates": [2.373311, 48.852085]}, "properties": {"numparc": 4929, "etat de la localisation": "autre", "ID BDGEO": "165", "horodatage": "2022-02-14 08:33:04", "distance (en metres)": 952.03, "station": "CHARONNE-VOLTAIRE", "marker-color": "#818181"}}, {"type": "Feature", "geometry": {"type": "Point", "coordinates": [2.370765, 48.853111]}, "properties": {"numparc": 4929, "etat de la localisation": "autre", "ID BDGEO": "165", "horodatage": "2022-02-14 08:33:51", "distance (en metres)": 1105.97, "station": "CHARONNE-VOLTAIRE", "marker-color": "#818181"}}, {"type": "Feature", "geometry": {"type": "Point", "coordinates": [2.36761, 48.853439]}, "properties": {"numparc": 4929, "etat de la localisation": "autre", "ID BDGEO": "165", "horodatage": "2022-02-14 08:37:17", "distance (en metres)": 1329.64, "station": "CHARONNE-VOLTAIRE", "marker-color": "#818181"}}, {"type": "Feature", "geometry": {"type": "Point", "coordinates": [2.365265, 48.853931]}, "properties": {"numparc": 4929, "etat de la localisation": "autre", "ID BDGEO": "165", "horodatage": "2022-02-14 08:38:25", "distance (en metres)": 1495.92, "station": "CHARONNE-VOLTAIRE", "marker-color": "#818181"}}, {"type": "Feature", "geometry": {"type": "Point", "coordinates": [2.362138, 48.855003]}, "properties": {"numparc": 4929, "etat de la localisation": "autre", "ID BDGEO": "165", "horodatage": "2022-02-14 08:39:17", "distance (en metres)": 1722.06, "station": "CHARONNE-VOLTAIRE", "marker-color": "#818181"}}, {"type": "Feature", "geometry": {"type": "Point", "coordinates": [2.357605, 48.856121]}, "properties": {"numparc": 4929, "etat de la localisation": "autre", "ID BDGEO": "165", "horodatage": "2022-02-14 08:41:33", "distance (en metres)": 2059.05, "station": "CHARONNE-VOLTAIRE", "marker-color": "#818181"}}, {"type": "Feature", "geometry": {"type": "Point", "coordinates": [2.352749, 48.857285]}, "properties": {"numparc": 4929, "etat de la localisation": "autre", "ID BDGEO": "165", "horodatage": "2022-02-14 08:42:50", "distance (en metres)": 2425.04, "station": "CHARONNE-VOLTAIRE", "marker-color": "#818181"}}, {"type": "Feature", "geometry": {"type": "Point", "coordinates": [2.348628, 48.857555]}, "properties": {"numparc": 4929, "etat de la localisation": "autre", "ID BDGEO": "165", "horodatage": "2022-02-14 08:45:03", "distance (en metres)": 2727.98, "station": "CHARONNE-VOLTAIRE", "marker-color": "#818181"}}, {"type": "Feature", "geometry": {"type": "Point", "coordinates": [2.355334, 48.855919]}, "properties": {"numparc": 4929, "etat de la localisation": "autre", "ID BDGEO": "165", "horodatage": "2022-02-14 09:10:04", "distance (en metres)": 2223.38, "station": "CHARONNE-VOLTAIRE", "marker-color": "#818181"}}, {"type": "Feature", "geometry": {"type": "Point", "coordinates": [2.362081, 48.854801]}, "properties": {"numparc": 4929, "etat de la localisation": "autre", "ID BDGEO": "165", "horodatage": "2022-02-14 09:11:57", "distance (en metres)": 1726.03, "station": "CHARONNE-VOLTAIRE", "marker-color": "#818181"}}, {"type": "Feature", "geometry": {"type": "Point", "coordinates": [2.373342, 48.852013]}, "properties": {"numparc": 4929, "etat de la localisation": "autre", "ID BDGEO": "165", "horodatage": "2022-02-14 09:16:18", "distance (en metres)": 952.42, "station": "CHARONNE-VOLTAIRE", "marker-color": "#818181"}}, {"type": "Feature", "geometry": {"type": "Point", "coordinates": [2.37767, 48.853199]}, "properties": {"numparc": 4929, "etat de la localisation": "autre", "ID BDGEO": "165", "horodatage": "2022-02-14 09:18:52", "distance (en metres)": 610.64, "station": "CHARONNE-VOLTAIRE", "marker-color": "#818181"}}, {"type": "Feature", "geometry": {"type": "Point", "coordinates": [2.39961, 48.857758]}, "properties": {"numparc": 4948, "etat de la localisation": "autre", "ID BDGEO": "197", "horodatage": "2022-02-14 09:20:54", "distance (en metres)": 41.38, "station": "LA REUNION", "marker-color": "#818181"}}, {"type": "Feature", "geometry": {"type": "Point", "coordinates": [2.381767, 48.853855]}, "properties": {"numparc": 4929, "etat de la localisation": "autre", "ID BDGEO": "165", "horodatage": "2022-02-14 09:20:55", "distance (en metres)": 302.89, "station": "CHARONNE-VOLTAIRE", "marker-color": "#818181"}}, {"type": "Feature", "geometry": {"type": "Point", "coordinates": [2.39961, 48.857758]}, "properties": {"numparc": 4948, "etat de la localisation": "autre", "ID BDGEO": "197", "horodatage": "2022-02-14 09:20:56", "distance (en metres)": 41.38, "station": "LA REUNION", "marker-color": "#818181"}}, {"type": "Feature", "geometry": {"type": "Point", "coordinates": [2.367648, 48.853336]}, "properties": {"numparc": 4950, "etat de la localisation": "autre", "ID BDGEO": "206", "horodatage": "2022-02-14 09:34:25", "distance (en metres)": 69.36, "station": "BASTILLE - RUE SAINT-ANTOINE", "marker-color": "#818181"}}, {"type": "Feature", "geometry": {"type": "Point", "coordinates": [2.417371, 48.865234]}, "properties": {"numparc": 4947, "etat de la localisation": "autre", "ID BDGEO": "174", "horodatage": "2022-02-14 09:35:25", "distance (en metres)": 69.33, "station": "GALLIENI", "marker-color": "#818181"}}, {"type": "Feature", "geometry": {"type": "Point", "coordinates": [2.41743, 48.865173]}, "properties": {"numparc": 4929, "etat de la localisation": "autre", "ID BDGEO": "174", "horodatage": "2022-02-14 09:44:44", "distance (en metres)": 64.01, "station": "GALLIENI", "marker-color": "#818181"}}, {"type": "Feature", "geometry": {"type": "Point", "coordinates": [2.417347, 48.865219]}, "properties": {"numparc": 4929, "etat de la localisation": "autre", "ID BDGEO": "174", "horodatage": "2022-02-14 09:45:29", "distance (en metres)": 67.31, "station": "GALLIENI", "marker-color": "#818181"}}, {"type": "Feature", "geometry": {"type": "Point", "coordinates": [2.36763, 48.85342]}, "properties": {"numparc": 4948, "etat de la localisation": "autre", "ID BDGEO": "206", "horodatage": "2022-02-14 09:46:53", "distance (en metres)": 70.51, "station": "BASTILLE - RUE SAINT-ANTOINE", "marker-color": "#818181"}}, {"type": "Feature", "geometry": {"type": "Point", "coordinates": [2.348385, 48.857601]}, "properties": {"numparc": 4950, "etat de la localisation": "autre", "ID BDGEO": "489", "horodatage": "2022-02-14 09:48:13", "distance (en metres)": 49.87, "station": "CHATELET.", "marker-color": "#818181"}}, {"type": "Feature", "geometry": {"type": "Point", "coordinates": [2.348892, 48.857491]}, "properties": {"numparc": 4948, "etat de la localisation": "autre", "ID BDGEO": "488", "horodatage": "2022-02-14 09:53:48", "distance (en metres)": 51.47, "station": "CHATELET", "marker-color": "#818181"}}, {"type": "Feature", "geometry": {"type": "Point", "coordinates": [2.431921, 48.875805]}, "properties": {"numparc": 4929, "etat de la localisation": "autre", "ID BDGEO": "430", "horodatage": "2022-02-14 09:58:12", "distance (en metres)": 48.59, "station": "LOUISE MICHEL.", "marker-color": "#818181"}}, {"type": "Feature", "geometry": {"type": "Point", "coordinates": [2.357947, 48.855492]}, "properties": {"numparc": 4950, "etat de la localisation": "autre", "ID BDGEO": "165", "horodatage": "2022-02-14 10:02:27", "distance (en metres)": 2030.1, "station": "CHARONNE-VOLTAIRE", "marker-color": "#818181"}}, {"type": "Feature", "geometry": {"type": "Point", "coordinates": [2.42358, 48.869843]}, "properties": {"numparc": 4947, "etat de la localisation": "autre", "ID BDGEO": "491", "horodatage": "2022-02-14 10:03:38", "distance (en metres)": 41.42, "station": "PIERRE CURIE", "marker-color": "#818181"}}, {"type": "Feature", "geometry": {"type": "Point", "coordinates": [2.361832, 48.8549]}, "properties": {"numparc": 4950, "etat de la localisation": "autre", "ID BDGEO": "165", "horodatage": "2022-02-14 10:04:07", "distance (en metres)": 1744.31, "station": "CHARONNE-VOLTAIRE", "marker-color": "#818181"}}, {"type": "Feature", "geometry": {"type": "Point", "coordinates": [2.365475, 48.85379]}, "properties": {"numparc": 4950, "etat de la localisation": "autre", "ID BDGEO": "165", "horodatage": "2022-02-14 10:07:05", "distance (en metres)": 1481.64, "station": "CHARONNE-VOLTAIRE", "marker-color": "#818181"}}, {"type": "Feature", "geometry": {"type": "Point", "coordinates": [2.368051, 48.853325]}, "properties": {"numparc": 4950, "etat de la localisation": "autre", "ID BDGEO": "165", "horodatage": "2022-02-14 10:07:50", "distance (en metres)": 1299.07, "station": "CHARONNE-VOLTAIRE", "marker-color": "#818181"}}, {"type": "Feature", "geometry": {"type": "Point", "coordinates": [2.371153, 48.852768]}, "properties": {"numparc": 4950, "etat de la localisation": "autre", "ID BDGEO": "165", "horodatage": "2022-02-14 10:10:39", "distance (en metres)": 1085.12, "station": "CHARONNE-VOLTAIRE", "marker-color": "#818181"}}, {"type": "Feature", "geometry": {"type": "Point", "coordinates": [2.373458, 48.851929]}, "properties": {"numparc": 4950, "etat de la localisation": "autre", "ID BDGEO": "165", "horodatage": "2022-02-14 10:11:46", "distance (en metres)": 947.44, "station": "CHARONNE-VOLTAIRE", "marker-color": "#818181"}}, {"type": "Feature", "geometry": {"type": "Point", "coordinates": [2.376448, 48.851734]}, "properties": {"numparc": 4950, "etat de la localisation": "autre", "ID BDGEO": "165", "horodatage": "2022-02-14 10:13:24", "distance (en metres)": 754.06, "station": "CHARONNE-VOLTAIRE", "marker-color": "#818181"}}, {"type": "Feature", "geometry": {"type": "Point", "coordinates": [2.377621, 48.853268]}, "properties": {"numparc": 4950, "etat de la localisation": "autre", "ID BDGEO": "165", "horodatage": "2022-02-14 10:14:41", "distance (en metres)": 611.95, "station": "CHARONNE-VOLTAIRE", "marker-color": "#818181"}}, {"type": "Feature", "geometry": {"type": "Point", "coordinates": [2.423559, 48.869785]}, "properties": {"numparc": 4929, "etat de la localisation": "autre", "ID BDGEO": "177", "horodatage": "2022-02-14 10:15:40", "distance (en metres)": 96.55, "station": "PIERRE CURIE", "marker-color": "#818181"}}, {"type": "Feature", "geometry": {"type": "Point", "coordinates": [2.3818, 48.853886]}, "properties": {"numparc": 4950, "etat de la localisation": "autre", "ID BDGEO": "165", "horodatage": "2022-02-14 10:15:48", "distance (en metres)": 299.48, "station": "CHARONNE-VOLTAIRE", "marker-color": "#818181"}}, {"type": "Feature", "geometry": {"type": "Point", "coordinates": [2.3818, 48.853886]}, "properties": {"numparc": 4950, "etat de la localisation": "autre", "ID BDGEO": "165", "horodatage": "2022-02-14 10:16:06", "distance (en metres)": 299.48, "station": "CHARONNE-VOLTAIRE", "marker-color": "#818181"}}, {"type": "Feature", "geometry": {"type": "Point", "coordinates": [2.416916, 48.870396]}, "properties": {"numparc": 4929, "etat de la localisation": "autre", "ID BDGEO": "176", "horodatage": "2022-02-14 10:19:15", "distance (en metres)": 268.55, "station": "EGLISE DE BAGNOLET", "marker-color": "#818181"}}, {"type": "Feature", "geometry": {"type": "Point", "coordinates": [2.415471, 48.869095]}, "properties": {"numparc": 4929, "etat de la localisation": "autre", "ID BDGEO": "175", "horodatage": "2022-02-14 10:20:17", "distance (en metres)": 265.69, "station": "MAIRIE DE BAGNOLET", "marker-color": "#818181"}}, {"type": "Feature", "geometry": {"type": "Point", "coordinates": [2.416314, 48.867767]}, "properties": {"numparc": 4929, "etat de la localisation": "autre", "ID BDGEO": "175", "horodatage": "2022-02-14 10:21:24", "distance (en metres)": 189.83, "station": "MAIRIE DE BAGNOLET", "marker-color": "#818181"}}, {"type": "Feature", "geometry": {"type": "Point", "coordinates": [2.418008, 48.867031]}, "properties": {"numparc": 4929, "etat de la localisation": "autre", "ID BDGEO": "175", "horodatage": "2022-02-14 10:23:04", "distance (en metres)": 141.77, "station": "MAIRIE DE BAGNOLET", "marker-color": "#818181"}}, {"type": "Feature", "geometry": {"type": "Point", "coordinates": [2.416996, 48.865364]}, "properties": {"numparc": 4929, "etat de la localisation": "autre", "ID BDGEO": "174", "horodatage": "2022-02-14 10:24:26", "distance (en metres)": 82.62, "station": "GALLIENI", "marker-color": "#818181"}}, {"type": "Feature", "geometry": {"type": "Point", "coordinates": [2.416922, 48.865128]}, "properties": {"numparc": 4929, "etat de la localisation": "autre", "ID BDGEO": "174", "horodatage": "2022-02-14 10:24:58", "distance (en metres)": 58.04, "station": "GALLIENI", "marker-color": "#818181"}}, {"type": "Feature", "geometry": {"type": "Point", "coordinates": [2.39959, 48.857735]}, "properties": {"numparc": 4929, "etat de la localisation": "autre", "ID BDGEO": "168", "horodatage": "2022-02-14 10:36:58", "distance (en metres)": 47.16, "station": "LA REUNION", "marker-color": "#818181"}}, {"type": "Feature", "geometry": {"type": "Point", "coordinates": [2.417352, 48.865192]}, "properties": {"numparc": 4950, "etat de la localisation": "autre", "ID BDGEO": "174", "horodatage": "2022-02-14 10:41:59", "distance (en metres)": 64.47, "station": "GALLIENI", "marker-color": "#818181"}}, {"type": "Feature", "geometry": {"type": "Point", "coordinates": [2.384939, 48.854679]}, "properties": {"numparc": 4929, "etat de la localisation": "autre", "ID BDGEO": "165", "horodatage": "2022-02-14 10:44:16", "distance (en metres)": 54.39, "station": "CHARONNE-VOLTAIRE", "marker-color": "#818181"}}, {"type": "Feature", "geometry": {"type": "Point", "coordinates": [2.381745, 48.853855]}, "properties": {"numparc": 4929, "etat de la localisation": "autre", "ID BDGEO": "165", "horodatage": "2022-02-14 10:45:46", "distance (en metres)": 304.41, "station": "CHARONNE-VOLTAIRE", "marker-color": "#818181"}}, {"type": "Feature", "geometry": {"type": "Point", "coordinates": [2.407532, 48.863533]}, "properties": {"numparc": 4948, "etat de la localisation": "autre", "ID BDGEO": "171", "horodatage": "2022-02-14 10:47:58", "distance (en metres)": 189.8, "station": "PORTE DE BAGNOLET", "marker-color": "#818181"}}, {"type": "Feature", "geometry": {"type": "Point", "coordinates": [2.377095, 48.853043]}, "properties": {"numparc": 4929, "etat de la localisation": "autre", "ID BDGEO": "165", "horodatage": "2022-02-14 10:49:17", "distance (en metres)": 655.92, "station": "CHARONNE-VOLTAIRE", "marker-color": "#818181"}}, {"type": "Feature", "geometry": {"type": "Point", "coordinates": [2.375335, 48.851585]}, "properties": {"numparc": 4929, "etat de la localisation": "autre", "ID BDGEO": "165", "horodatage": "2022-02-14 10:50:39", "distance (en metres)": 834.62, "station": "CHARONNE-VOLTAIRE", "marker-color": "#818181"}}, {"type": "Feature", "geometry": {"type": "Point", "coordinates": [2.373326, 48.852055]}, "properties": {"numparc": 4929, "etat de la localisation": "autre", "ID BDGEO": "165", "horodatage": "2022-02-14 10:51:51", "distance (en metres)": 952.04, "station": "CHARONNE-VOLTAIRE", "marker-color": "#818181"}}, {"type": "Feature", "geometry": {"type": "Point", "coordinates": [2.370717, 48.85305]}, "properties": {"numparc": 4929, "etat de la localisation": "autre", "ID BDGEO": "165", "horodatage": "2022-02-14 10:52:36", "distance (en metres)": 1110.58, "station": "CHARONNE-VOLTAIRE", "marker-color": "#818181"}}, {"type": "Feature", "geometry": {"type": "Point", "coordinates": [2.431897, 48.875782]}, "properties": {"numparc": 4950, "etat de la localisation": "autre", "ID BDGEO": "430", "horodatage": "2022-02-14 10:52:58", "distance (en metres)": 45.48, "station": "LOUISE MICHEL.", "marker-color": "#818181"}}, {"type": "Feature", "geometry": {"type": "Point", "coordinates": [2.348847, 48.857506]}, "properties": {"numparc": 4947, "etat de la localisation": "autre", "ID BDGEO": "488", "horodatage": "2022-02-14 10:53:37", "distance (en metres)": 48.05, "station": "CHATELET", "marker-color": "#818181"}}, {"type": "Feature", "geometry": {"type": "Point", "coordinates": [2.417292, 48.8652]}, "properties": {"numparc": 4948, "etat de la localisation": "autre", "ID BDGEO": "174", "horodatage": "2022-02-14 10:56:13", "distance (en metres)": 64.48, "station": "GALLIENI", "marker-color": "#818181"}}, {"type": "Feature", "geometry": {"type": "Point", "coordinates": [2.362064, 48.85503]}, "properties": {"numparc": 4929, "etat de la localisation": "autre", "ID BDGEO": "165", "horodatage": "2022-02-14 10:56:32", "distance (en metres)": 1727.52, "station": "CHARONNE-VOLTAIRE", "marker-color": "#818181"}}, {"type": "Feature", "geometry": {"type": "Point", "coordinates": [2.417292, 48.8652]}, "properties": {"numparc": 4948, "etat de la localisation": "autre", "ID BDGEO": "174", "horodatage": "2022-02-14 10:57:10", "distance (en metres)": 64.48, "station": "GALLIENI", "marker-color": "#818181"}}, {"type": "Feature", "geometry": {"type": "Point", "coordinates": [2.357651, 48.856136]}, "properties": {"numparc": 4929, "etat de la localisation": "autre", "ID BDGEO": "165", "horodatage": "2022-02-14 10:57:41", "distance (en metres)": 2055.82, "station": "CHARONNE-VOLTAIRE", "marker-color": "#818181"}}, {"type": "Feature", "geometry": {"type": "Point", "coordinates": [2.352732, 48.857246]}, "properties": {"numparc": 4929, "etat de la localisation": "autre", "ID BDGEO": "165", "horodatage": "2022-02-14 10:59:42", "distance (en metres)": 2425.78, "station": "CHARONNE-VOLTAIRE", "marker-color": "#818181"}}, {"type": "Feature", "geometry": {"type": "Point", "coordinates": [2.348919, 48.857491]}, "properties": {"numparc": 4929, "etat de la localisation": "autre", "ID BDGEO": "165", "horodatage": "2022-02-14 11:01:35", "distance (en metres)": 2706.03, "station": "CHARONNE-VOLTAIRE", "marker-color": "#818181"}}, {"type": "Feature", "geometry": {"type": "Point", "coordinates": [2.348684, 48.85743]}, "properties": {"numparc": 4929, "etat de la localisation": "autre", "ID BDGEO": "165", "horodatage": "2022-02-14 11:06:02", "distance (en metres)": 2722.37, "station": "CHARONNE-VOLTAIRE", "marker-color": "#818181"}}, {"type": "Feature", "geometry": {"type": "Point", "coordinates": [2.415545, 48.869041]}, "properties": {"numparc": 4950, "etat de la localisation": "autre", "ID BDGEO": "175", "horodatage": "2022-02-14 11:13:16", "distance (en metres)": 258.42, "station": "MAIRIE DE BAGNOLET", "marker-color": "#818181"}}, {"type": "Feature", "geometry": {"type": "Point", "coordinates": [2.416319, 48.867764]}, "properties": {"numparc": 4950, "etat de la localisation": "autre", "ID BDGEO": "175", "horodatage": "2022-02-14 11:15:32", "distance (en metres)": 189.56, "station": "MAIRIE DE BAGNOLET", "marker-color": "#818181"}}, {"type": "Feature", "geometry": {"type": "Point", "coordinates": [2.418057, 48.866993]}, "properties": {"numparc": 4950, "etat de la localisation": "autre", "ID BDGEO": "175", "horodatage": "2022-02-14 11:17:43", "distance (en metres)": 144.17, "station": "MAIRIE DE BAGNOLET", "marker-color": "#818181"}}, {"type": "Feature", "geometry": {"type": "Point", "coordinates": [2.423575, 48.869854]}, "properties": {"numparc": 4948, "etat de la localisation": "autre", "ID BDGEO": "491", "horodatage": "2022-02-14 11:26:22", "distance (en metres)": 42.56, "station": "PIERRE CURIE", "marker-color": "#818181"}}, {"type": "Feature", "geometry": {"type": "Point", "coordinates": [2.42728, 48.878643]}, "properties": {"numparc": 4929, "etat de la localisation": "autre", "ID BDGEO": "430", "horodatage": "2022-02-14 11:36:35", "distance (en metres)": 472.6, "station": "LOUISE MICHEL.", "marker-color": "#818181"}}, {"type": "Feature", "geometry": {"type": "Point", "coordinates": [2.427531, 48.878605]}, "properties": {"numparc": 4929, "etat de la localisation": "autre", "ID BDGEO": "430", "horodatage": "2022-02-14 11:40:46", "distance (en metres)": 457.45, "station": "LOUISE MICHEL.", "marker-color": "#818181"}}, {"type": "Feature", "geometry": {"type": "Point", "coordinates": [2.378232, 48.853161]}, "properties": {"numparc": 4947, "etat de la localisation": "autre", "ID BDGEO": "163", "horodatage": "2022-02-14 11:42:29", "distance (en metres)": 51.96, "station": "CHARONNE-KELLER", "marker-color": "#818181"}}, {"type": "Feature", "geometry": {"type": "Point", "coordinates": [2.367613, 48.853458]}, "properties": {"numparc": 4950, "etat de la localisation": "autre", "ID BDGEO": "206", "horodatage": "2022-02-14 11:52:34", "distance (en metres)": 72.08, "station": "BASTILLE - RUE SAINT-ANTOINE", "marker-color": "#818181"}}, {"type": "Feature", "geometry": {"type": "Point", "coordinates": [2.348604, 48.85754]}, "properties": {"numparc": 4950, "etat de la localisation": "autre", "ID BDGEO": "165", "horodatage": "2022-02-14 12:00:33", "distance (en metres)": 2729.54, "station": "CHARONNE-VOLTAIRE", "marker-color": "#818181"}}, {"type": "Feature", "geometry": {"type": "Point", "coordinates": [2.348412, 48.857594]}, "properties": {"numparc": 4950, "etat de la localisation": "autre", "ID BDGEO": "165", "horodatage": "2022-02-14 12:11:08", "distance (en metres)": 2744.18, "station": "CHARONNE-VOLTAIRE", "marker-color": "#818181"}}, {"type": "Feature", "geometry": {"type": "Point", "coordinates": [2.417018, 48.865208]}, "properties": {"numparc": 4947, "etat de la localisation": "autre", "ID BDGEO": "174", "horodatage": "2022-02-14 12:13:29", "distance (en metres)": 65.22, "station": "GALLIENI", "marker-color": "#818181"}}, {"type": "Feature", "geometry": {"type": "Point", "coordinates": [2.367577, 48.853367]}, "properties": {"numparc": 4948, "etat de la localisation": "autre", "ID BDGEO": "206", "horodatage": "2022-02-14 12:20:45", "distance (en metres)": 74.34, "station": "BASTILLE - RUE SAINT-ANTOINE", "marker-color": "#818181"}}, {"type": "Feature", "geometry": {"type": "Point", "coordinates": [2.358025, 48.855442]}, "properties": {"numparc": 4950, "etat de la localisation": "autre", "ID BDGEO": "165", "horodatage": "2022-02-14 12:26:57", "distance (en metres)": 2024.18, "station": "CHARONNE-VOLTAIRE", "marker-color": "#818181"}}, {"type": "Feature", "geometry": {"type": "Point", "coordinates": [2.36212, 48.854759]}, "properties": {"numparc": 4950, "etat de la localisation": "autre", "ID BDGEO": "165", "horodatage": "2022-02-14 12:29:10", "distance (en metres)": 1723.17, "station": "CHARONNE-VOLTAIRE", "marker-color": "#818181"}}, {"type": "Feature", "geometry": {"type": "Point", "coordinates": [2.368034, 48.853321]}, "properties": {"numparc": 4950, "etat de la localisation": "autre", "ID BDGEO": "165", "horodatage": "2022-02-14 12:32:21", "distance (en metres)": 1300.36, "station": "CHARONNE-VOLTAIRE", "marker-color": "#818181"}}, {"type": "Feature", "geometry": {"type": "Point", "coordinates": [2.371126, 48.852772]}, "properties": {"numparc": 4950, "etat de la localisation": "autre", "ID BDGEO": "165", "horodatage": "2022-02-14 12:35:14", "distance (en metres)": 1086.96, "station": "CHARONNE-VOLTAIRE", "marker-color": "#818181"}}, {"type": "Feature", "geometry": {"type": "Point", "coordinates": [2.373437, 48.851959]}, "properties": {"numparc": 4950, "etat de la localisation": "autre", "ID BDGEO": "165", "horodatage": "2022-02-14 12:36:00", "distance (en metres)": 947.79, "station": "CHARONNE-VOLTAIRE", "marker-color": "#818181"}}, {"type": "Feature", "geometry": {"type": "Point", "coordinates": [2.376441, 48.851719]}, "properties": {"numparc": 4950, "etat de la localisation": "autre", "ID BDGEO": "165", "horodatage": "2022-02-14 12:37:43", "distance (en metres)": 755.27, "station": "CHARONNE-VOLTAIRE", "marker-color": "#818181"}}, {"type": "Feature", "geometry": {"type": "Point", "coordinates": [2.377678, 48.853233]}, "properties": {"numparc": 4950, "etat de la localisation": "autre", "ID BDGEO": "165", "horodatage": "2022-02-14 12:38:54", "distance (en metres)": 609.01, "station": "CHARONNE-VOLTAIRE", "marker-color": "#818181"}}, {"type": "Feature", "geometry": {"type": "Point", "coordinates": [2.381776, 48.853878]}, "properties": {"numparc": 4950, "etat de la localisation": "autre", "ID BDGEO": "165", "horodatage": "2022-02-14 12:41:30", "distance (en metres)": 301.43, "station": "CHARONNE-VOLTAIRE", "marker-color": "#818181"}}, {"type": "Feature", "geometry": {"type": "Point", "coordinates": [2.4038, 48.852356]}, "properties": {"numparc": 4950, "etat de la localisation": "Delocalise", "ID BDGEO": "168", "horodatage": "2022-02-14 12:51:30", "distance (en metres)": 664.55, "station": "LA REUNION", "marker-color": "#FF565E"}}, {"type": "Feature", "geometry": {"type": "Point", "coordinates": [2.399568, 48.857819]}, "properties": {"numparc": 4947, "etat de la localisation": "autre", "ID BDGEO": "197", "horodatage": "2022-02-14 12:58:27", "distance (en metres)": 44.15, "station": "LA REUNION", "marker-color": "#818181"}}, {"type": "Feature", "geometry": {"type": "Point", "coordinates": [2.417528, 48.86517]}, "properties": {"numparc": 4950, "etat de la localisation": "autre", "ID BDGEO": "174", "horodatage": "2022-02-14 13:04:07", "distance (en metres)": 66.36, "station": "GALLIENI", "marker-color": "#818181"}}, {"type": "Feature", "geometry": {"type": "Point", "coordinates": [2.367654, 48.853401]}, "properties": {"numparc": 4947, "etat de la localisation": "autre", "ID BDGEO": "206", "horodatage": "2022-02-14 13:18:59", "distance (en metres)": 68.68, "station": "BASTILLE - RUE SAINT-ANTOINE", "marker-color": "#818181"}}, {"type": "Feature", "geometry": {"type": "Point", "coordinates": [2.417544, 48.865135]}, "properties": {"numparc": 4948, "etat de la localisation": "autre", "ID BDGEO": "174", "horodatage": "2022-02-14 13:26:34", "distance (en metres)": 63.37, "station": "GALLIENI", "marker-color": "#818181"}}, {"type": "Feature", "geometry": {"type": "Point", "coordinates": [2.423578, 48.869839]}, "properties": {"numparc": 4950, "etat de la localisation": "autre", "ID BDGEO": "491", "horodatage": "2022-02-14 13:38:09", "distance (en metres)": 40.96, "station": "PIERRE CURIE", "marker-color": "#818181"}}, {"type": "Feature", "geometry": {"type": "Point", "coordinates": [2.399613, 48.857761]}, "properties": {"numparc": 4948, "etat de la localisation": "autre", "ID BDGEO": "197", "horodatage": "2022-02-14 14:21:39", "distance (en metres)": 41.76, "station": "LA REUNION", "marker-color": "#818181"}}, {"type": "Feature", "geometry": {"type": "Point", "coordinates": [2.367513, 48.853432]}, "properties": {"numparc": 4950, "etat de la localisation": "autre", "ID BDGEO": "206", "horodatage": "2022-02-14 14:27:38", "distance (en metres)": 79.13, "station": "BASTILLE - RUE SAINT-ANTOINE", "marker-color": "#818181"}}, {"type": "Feature", "geometry": {"type": "Point", "coordinates": [2.348675, 48.857506]}, "properties": {"numparc": 4950, "etat de la localisation": "autre", "ID BDGEO": "174", "horodatage": "2022-02-14 14:36:31", "distance (en metres)": 5071.34, "station": "GALLIENI", "marker-color": "#818181"}}, {"type": "Feature", "geometry": {"type": "Point", "coordinates": [2.348478, 48.857563]}, "properties": {"numparc": 4950, "etat de la localisation": "autre", "ID BDGEO": "174", "horodatage": "2022-02-14 14:38:09", "distance (en metres)": 5084.59, "station": "GALLIENI", "marker-color": "#818181"}}, {"type": "Feature", "geometry": {"type": "Point", "coordinates": [2.41746, 48.8652]}, "properties": {"numparc": 4947, "etat de la localisation": "autre", "ID BDGEO": "174", "horodatage": "2022-02-14 14:39:06", "distance (en metres)": 67.57, "station": "GALLIENI", "marker-color": "#818181"}}, {"type": "Feature", "geometry": {"type": "Point", "coordinates": [2.350352, 48.856331]}, "properties": {"numparc": 4950, "etat de la localisation": "autre", "ID BDGEO": "174", "horodatage": "2022-02-14 14:52:55", "distance (en metres)": 4972.84, "station": "GALLIENI", "marker-color": "#818181"}}, {"type": "Feature", "geometry": {"type": "Point", "coordinates": [2.355409, 48.855797]}, "properties": {"numparc": 4950, "etat de la localisation": "autre", "ID BDGEO": "174", "horodatage": "2022-02-14 14:55:03", "distance (en metres)": 4622.1, "station": "GALLIENI", "marker-color": "#818181"}}, {"type": "Feature", "geometry": {"type": "Point", "coordinates": [2.358089, 48.85537]}, "properties": {"numparc": 4950, "etat de la localisation": "autre", "ID BDGEO": "174", "horodatage": "2022-02-14 14:56:16", "distance (en metres)": 4441.5, "station": "GALLIENI", "marker-color": "#818181"}}, {"type": "Feature", "geometry": {"type": "Point", "coordinates": [2.362149, 48.854736]}, "properties": {"numparc": 4950, "etat de la localisation": "autre", "ID BDGEO": "174", "horodatage": "2022-02-14 14:58:57", "distance (en metres)": 4171.2, "station": "GALLIENI", "marker-color": "#818181"}}, {"type": "Feature", "geometry": {"type": "Point", "coordinates": [2.365479, 48.85376]}, "properties": {"numparc": 4950, "etat de la localisation": "autre", "ID BDGEO": "174", "horodatage": "2022-02-14 15:01:06", "distance (en metres)": 3968.46, "station": "GALLIENI", "marker-color": "#818181"}}, {"type": "Feature", "geometry": {"type": "Point", "coordinates": [2.368077, 48.853302]}, "properties": {"numparc": 4950, "etat de la localisation": "autre", "ID BDGEO": "174", "horodatage": "2022-02-14 15:02:58", "distance (en metres)": 3804.44, "station": "GALLIENI", "marker-color": "#818181"}}, {"type": "Feature", "geometry": {"type": "Point", "coordinates": [2.371209, 48.852757]}, "properties": {"numparc": 4950, "etat de la localisation": "autre", "ID BDGEO": "174", "horodatage": "2022-02-14 15:06:02", "distance (en metres)": 3610.76, "station": "GALLIENI", "marker-color": "#818181"}}, {"type": "Feature", "geometry": {"type": "Point", "coordinates": [2.373575, 48.851925]}, "properties": {"numparc": 4950, "etat de la localisation": "autre", "ID BDGEO": "174", "horodatage": "2022-02-14 15:06:58", "distance (en metres)": 3486.7, "station": "GALLIENI", "marker-color": "#818181"}}, {"type": "Feature", "geometry": {"type": "Point", "coordinates": [2.37649, 48.8517]}, "properties": {"numparc": 4950, "etat de la localisation": "autre", "ID BDGEO": "174", "horodatage": "2022-02-14 15:08:13", "distance (en metres)": 3303.68, "station": "GALLIENI", "marker-color": "#818181"}}, {"type": "Feature", "geometry": {"type": "Point", "coordinates": [2.381839, 48.853825]}, "properties": {"numparc": 4950, "etat de la localisation": "autre", "ID BDGEO": "174", "horodatage": "2022-02-14 15:11:48", "distance (en metres)": 2848.79, "station": "GALLIENI", "marker-color": "#818181"}}, {"type": "Feature", "geometry": {"type": "Point", "coordinates": [2.385923, 48.854824]}, "properties": {"numparc": 4950, "etat de la localisation": "autre", "ID BDGEO": "174", "horodatage": "2022-02-14 15:13:57", "distance (en metres)": 2531.15, "station": "GALLIENI", "marker-color": "#818181"}}, {"type": "Feature", "geometry": {"type": "Point", "coordinates": [2.390848, 48.855713]}, "properties": {"numparc": 4950, "etat de la localisation": "autre", "ID BDGEO": "174", "horodatage": "2022-02-14 15:15:34", "distance (en metres)": 2164.4, "station": "GALLIENI", "marker-color": "#818181"}}, {"type": "Feature", "geometry": {"type": "Point", "coordinates": [2.393771, 48.856335]}, "properties": {"numparc": 4950, "etat de la localisation": "autre", "ID BDGEO": "174", "horodatage": "2022-02-14 15:17:03", "distance (en metres)": 1942.97, "station": "GALLIENI", "marker-color": "#818181"}}, {"type": "Feature", "geometry": {"type": "Point", "coordinates": [2.417602, 48.867516]}, "properties": {"numparc": 4947, "etat de la localisation": "Deviation programmee", "ID BDGEO": "191", "horodatage": "2022-02-14 15:23:43", "distance (en metres)": 68.77, "station": "CENTRE DE SANTE", "marker-color": "#56FF93"}}, {"type": "Feature", "geometry": {"type": "Point", "coordinates": [2.404896, 48.856236]}, "properties": {"numparc": 4950, "etat de la localisation": "autre", "ID BDGEO": "174", "horodatage": "2022-02-14 15:29:41", "distance (en metres)": 1293.91, "station": "GALLIENI", "marker-color": "#818181"}}, {"type": "Feature", "geometry": {"type": "Point", "coordinates": [2.402748, 48.859493]}, "properties": {"numparc": 4950, "etat de la localisation": "autre", "ID BDGEO": "174", "horodatage": "2022-02-14 15:31:55", "distance (en metres)": 1198.24, "station": "GALLIENI", "marker-color": "#818181"}}, {"type": "Feature", "geometry": {"type": "Point", "coordinates": [2.406163, 48.862122]}, "properties": {"numparc": 4950, "etat de la localisation": "autre", "ID BDGEO": "174", "horodatage": "2022-02-14 15:33:37", "distance (en metres)": 850.56, "station": "GALLIENI", "marker-color": "#818181"}}, {"type": "Feature", "geometry": {"type": "Point", "coordinates": [2.409598, 48.864586]}, "properties": {"numparc": 4950, "etat de la localisation": "autre", "ID BDGEO": "174", "horodatage": "2022-02-14 15:38:02", "distance (en metres)": 552.36, "station": "GALLIENI", "marker-color": "#818181"}}, {"type": "Feature", "geometry": {"type": "Point", "coordinates": [2.412002, 48.864769]}, "properties": {"numparc": 4950, "etat de la localisation": "autre", "ID BDGEO": "174", "horodatage": "2022-02-14 15:39:16", "distance (en metres)": 376.82, "station": "GALLIENI", "marker-color": "#818181"}}, {"type": "Feature", "geometry": {"type": "Point", "coordinates": [2.417519, 48.865162]}, "properties": {"numparc": 4950, "etat de la localisation": "autre", "ID BDGEO": "192", "horodatage": "2022-02-14 15:49:15", "distance (en metres)": 45.08, "station": "GALLIENI", "marker-color": "#818181"}}, {"type": "Feature", "geometry": {"type": "Point", "coordinates": [2.417401, 48.865025]}, "properties": {"numparc": 4948, "etat de la localisation": "autre", "ID BDGEO": "174", "horodatage": "2022-02-14 15:49:22", "distance (en metres)": 47.86, "station": "GALLIENI", "marker-color": "#818181"}}, {"type": "Feature", "geometry": {"type": "Point", "coordinates": [2.417418, 48.865063]}, "properties": {"numparc": 4948, "etat de la localisation": "autre", "ID BDGEO": "174", "horodatage": "2022-02-14 15:50:10", "distance (en metres)": 52.24, "station": "GALLIENI", "marker-color": "#818181"}}, {"type": "Feature", "geometry": {"type": "Point", "coordinates": [2.418868, 48.868187]}, "properties": {"numparc": 4950, "etat de la localisation": "autre", "ID BDGEO": "191", "horodatage": "2022-02-14 15:52:01", "distance (en metres)": 147.62, "station": "CENTRE DE SANTE", "marker-color": "#818181"}}, {"type": "Feature", "geometry": {"type": "Point", "coordinates": [2.424057, 48.868935]}, "properties": {"numparc": 4950, "etat de la localisation": "autre", "ID BDGEO": "491", "horodatage": "2022-02-14 15:55:12", "distance (en metres)": 73.63, "station": "PIERRE CURIE", "marker-color": "#818181"}}, {"type": "Feature", "geometry": {"type": "Point", "coordinates": [2.424167, 48.868919]}, "properties": {"numparc": 4950, "etat de la localisation": "autre", "ID BDGEO": "491", "horodatage": "2022-02-14 15:55:46", "distance (en metres)": 79.91, "station": "PIERRE CURIE", "marker-color": "#818181"}}, {"type": "Feature", "geometry": {"type": "Point", "coordinates": [2.426285, 48.869881]}, "properties": {"numparc": 4950, "etat de la localisation": "autre", "ID BDGEO": "491", "horodatage": "2022-02-14 15:57:07", "distance (en metres)": 210.19, "station": "PIERRE CURIE", "marker-color": "#818181"}}, {"type": "Feature", "geometry": {"type": "Point", "coordinates": [2.348802, 48.857475]}, "properties": {"numparc": 4947, "etat de la localisation": "autre", "ID BDGEO": "488", "horodatage": "2022-02-14 16:01:42", "distance (en metres)": 45.15, "station": "CHATELET", "marker-color": "#818181"}}, {"type": "Feature", "geometry": {"type": "Point", "coordinates": [2.431617, 48.875401]}, "properties": {"numparc": 4948, "etat de la localisation": "autre", "ID BDGEO": "2", "horodatage": "2022-02-14 16:04:43", "distance (en metres)": 58.12, "station": "LOUISE MICHEL", "marker-color": "#818181"}}, {"type": "Feature", "geometry": {"type": "Point", "coordinates": [2.423565, 48.869839]}, "properties": {"numparc": 4950, "etat de la localisation": "autre", "ID BDGEO": "491", "horodatage": "2022-02-14 16:13:30", "distance (en metres)": 40.8, "station": "PIERRE CURIE", "marker-color": "#818181"}}, {"type": "Feature", "geometry": {"type": "Point", "coordinates": [2.39958, 48.8578]}, "properties": {"numparc": 4950, "etat de la localisation": "autre", "ID BDGEO": "197", "horodatage": "2022-02-14 16:49:32", "distance (en metres)": 43.11, "station": "LA REUNION", "marker-color": "#818181"}}, {"type": "Feature", "geometry": {"type": "Point", "coordinates": [2.427835, 48.878857]}, "properties": {"numparc": 4929, "etat de la localisation": "autre", "ID BDGEO": "430", "horodatage": "2022-02-14 16:49:47", "distance (en metres)": 466.03, "station": "LOUISE MICHEL.", "marker-color": "#818181"}}, {"type": "Feature", "geometry": {"type": "Point", "coordinates": [2.399616, 48.857746]}, "properties": {"numparc": 4948, "etat de la localisation": "autre", "ID BDGEO": "197", "horodatage": "2022-02-14 17:01:06", "distance (en metres)": 40.84, "station": "LA REUNION", "marker-color": "#818181"}}, {"type": "Feature", "geometry": {"type": "Point", "coordinates": [2.427699, 48.878632]}, "properties": {"numparc": 4929, "etat de la localisation": "autre", "ID BDGEO": "430", "horodatage": "2022-02-14 17:04:54", "distance (en metres)": 452.02, "station": "LOUISE MICHEL.", "marker-color": "#818181"}}, {"type": "Feature", "geometry": {"type": "Point", "coordinates": [2.367574, 48.853394]}, "properties": {"numparc": 4950, "etat de la localisation": "autre", "ID BDGEO": "206", "horodatage": "2022-02-14 17:10:43", "distance (en metres)": 74.52, "station": "BASTILLE - RUE SAINT-ANTOINE", "marker-color": "#818181"}}, {"type": "Feature", "geometry": {"type": "Point", "coordinates": [2.417356, 48.86515]}, "properties": {"numparc": 4947, "etat de la localisation": "autre", "ID BDGEO": "174", "horodatage": "2022-02-14 17:13:03", "distance (en metres)": 60.01, "station": "GALLIENI", "marker-color": "#818181"}}, {"type": "Feature", "geometry": {"type": "Point", "coordinates": [2.348849, 48.857449]}, "properties": {"numparc": 4948, "etat de la localisation": "autre", "ID BDGEO": "488", "horodatage": "2022-02-14 17:28:41", "distance (en metres)": 49.04, "station": "CHATELET", "marker-color": "#818181"}}, {"type": "Feature", "geometry": {"type": "Point", "coordinates": [2.417396, 48.865208]}, "properties": {"numparc": 4929, "etat de la localisation": "Delocalise", "ID BDGEO": "174", "horodatage": "2022-02-14 17:33:42", "distance (en metres)": 67.0, "station": "GALLIENI", "marker-color": "#FF565E"}}, {"type": "Feature", "geometry": {"type": "Point", "coordinates": [2.415491, 48.868191]}, "properties": {"numparc": 4947, "etat de la localisation": "Deviation programmee", "ID BDGEO": "190", "horodatage": "2022-02-14 18:11:36", "distance (en metres)": 70.24, "station": "LA POSTE", "marker-color": "#56FF93"}}, {"type": "Feature", "geometry": {"type": "Point", "coordinates": [2.424862, 48.872345]}, "properties": {"numparc": 4929, "etat de la localisation": "Delocalise", "ID BDGEO": "184", "horodatage": "2022-02-14 18:13:00", "distance (en metres)": 264.29, "station": "LES MALASSIS", "marker-color": "#FF565E"}}, {"type": "Feature", "geometry": {"type": "Point", "coordinates": [2.42355, 48.869858]}, "properties": {"numparc": 4929, "etat de la localisation": "Delocalise", "ID BDGEO": "186", "horodatage": "2022-02-14 18:14:23", "distance (en metres)": 109.34, "station": "PIERRE CURIE", "marker-color": "#FF565E"}}, {"type": "Feature", "geometry": {"type": "Point", "coordinates": [2.417387, 48.86517]}, "properties": {"numparc": 4950, "etat de la localisation": "autre", "ID BDGEO": "174", "horodatage": "2022-02-14 18:24:00", "distance (en metres)": 62.75, "station": "GALLIENI", "marker-color": "#818181"}}, {"type": "Feature", "geometry": {"type": "Point", "coordinates": [2.409467, 48.864727]}, "properties": {"numparc": 4929, "etat de la localisation": "autre", "ID BDGEO": "174", "horodatage": "2022-02-14 18:34:09", "distance (en metres)": 562.03, "station": "GALLIENI", "marker-color": "#818181"}}, {"type": "Feature", "geometry": {"type": "Point", "coordinates": [2.409286, 48.864697]}, "properties": {"numparc": 4929, "etat de la localisation": "autre", "ID BDGEO": "174", "horodatage": "2022-02-14 18:35:11", "distance (en metres)": 575.22, "station": "GALLIENI", "marker-color": "#818181"}}, {"type": "Feature", "geometry": {"type": "Point", "coordinates": [2.431737, 48.875534]}, "properties": {"numparc": 4950, "etat de la localisation": "autre", "ID BDGEO": "2", "horodatage": "2022-02-14 18:40:08", "distance (en metres)": 41.79, "station": "LOUISE MICHEL", "marker-color": "#818181"}}, {"type": "Feature", "geometry": {"type": "Point", "coordinates": [2.417366, 48.865234]}, "properties": {"numparc": 4929, "etat de la localisation": "autre", "ID BDGEO": "174", "horodatage": "2022-02-14 18:41:45", "distance (en metres)": 69.25, "station": "GALLIENI", "marker-color": "#818181"}}, {"type": "Feature", "geometry": {"type": "Point", "coordinates": [2.367633, 48.853397]}, "properties": {"numparc": 4947, "etat de la localisation": "autre", "ID BDGEO": "206", "horodatage": "2022-02-14 18:43:35", "distance (en metres)": 70.21, "station": "BASTILLE - RUE SAINT-ANTOINE", "marker-color": "#818181"}}, {"type": "Feature", "geometry": {"type": "Point", "coordinates": [2.418862, 48.868233]}, "properties": {"numparc": 4948, "etat de la localisation": "autre", "ID BDGEO": "191", "horodatage": "2022-02-14 18:49:52", "distance (en metres)": 152.14, "station": "CENTRE DE SANTE", "marker-color": "#818181"}}, {"type": "Feature", "geometry": {"type": "Point", "coordinates": [2.423999, 48.868958]}, "properties": {"numparc": 4948, "etat de la localisation": "autre", "ID BDGEO": "491", "horodatage": "2022-02-14 18:52:12", "distance (en metres)": 69.13, "station": "PIERRE CURIE", "marker-color": "#818181"}}, {"type": "Feature", "geometry": {"type": "Point", "coordinates": [2.426246, 48.869923]}, "properties": {"numparc": 4948, "etat de la localisation": "autre", "ID BDGEO": "491", "horodatage": "2022-02-14 18:53:27", "distance (en metres)": 208.47, "station": "PIERRE CURIE", "marker-color": "#818181"}}, {"type": "Feature", "geometry": {"type": "Point", "coordinates": [2.43167, 48.875469]}, "properties": {"numparc": 4948, "etat de la localisation": "autre", "ID BDGEO": "2", "horodatage": "2022-02-14 18:58:22", "distance (en metres)": 49.84, "station": "LOUISE MICHEL", "marker-color": "#818181"}}, {"type": "Feature", "geometry": {"type": "Point", "coordinates": [2.417314, 48.865185]}, "properties": {"numparc": 4950, "etat de la localisation": "autre", "ID BDGEO": "174", "horodatage": "2022-02-14 19:10:47", "distance (en metres)": 63.12, "station": "GALLIENI", "marker-color": "#818181"}}, {"type": "Feature", "geometry": {"type": "Point", "coordinates": [2.423545, 48.869858]}, "properties": {"numparc": 4929, "etat de la localisation": "Delocalise", "ID BDGEO": "491", "horodatage": "2022-02-14 19:23:26", "distance (en metres)": 42.7, "station": "PIERRE CURIE", "marker-color": "#FF565E"}}, {"type": "Feature", "geometry": {"type": "Point", "coordinates": [2.427273, 48.87883]}, "properties": {"numparc": 4950, "etat de la localisation": "autre", "ID BDGEO": "430", "horodatage": "2022-02-14 19:28:43", "distance (en metres)": 488.75, "station": "LOUISE MICHEL.", "marker-color": "#818181"}}, {"type": "Feature", "geometry": {"type": "Point", "coordinates": [2.399611, 48.857769]}, "properties": {"numparc": 4929, "etat de la localisation": "autre", "ID BDGEO": "197", "horodatage": "2022-02-14 19:47:13", "distance (en metres)": 42.25, "station": "LA REUNION", "marker-color": "#818181"}}, {"type": "Feature", "geometry": {"type": "Point", "coordinates": [2.417475, 48.8652]}, "properties": {"numparc": 4947, "etat de la localisation": "autre", "ID BDGEO": "174", "horodatage": "2022-02-14 19:50:51", "distance (en metres)": 67.95, "station": "GALLIENI", "marker-color": "#818181"}}, {"type": "Feature", "geometry": {"type": "Point", "coordinates": [2.367625, 48.853424]}, "properties": {"numparc": 4948, "etat de la localisation": "autre", "ID BDGEO": "206", "horodatage": "2022-02-14 20:19:03", "distance (en metres)": 70.9, "station": "BASTILLE - RUE SAINT-ANTOINE", "marker-color": "#818181"}}, {"type": "Feature", "geometry": {"type": "Point", "coordinates": [2.348642, 48.857544]}, "properties": {"numparc": 4929, "etat de la localisation": "autre", "ID BDGEO": "165", "horodatage": "2022-02-14 20:20:42", "distance (en metres)": 2726.83, "station": "CHARONNE-VOLTAIRE", "marker-color": "#818181"}}, {"type": "Feature", "geometry": {"type": "Point", "coordinates": [2.348827, 48.857498]}, "properties": {"numparc": 4948, "etat de la localisation": "autre", "ID BDGEO": "488", "horodatage": "2022-02-14 20:28:42", "distance (en metres)": 46.66, "station": "CHATELET", "marker-color": "#818181"}}, {"type": "Feature", "geometry": {"type": "Point", "coordinates": [2.350275, 48.856255]}, "properties": {"numparc": 4929, "etat de la localisation": "autre", "ID BDGEO": "165", "horodatage": "2022-02-14 20:33:42", "distance (en metres)": 2595.09, "station": "CHARONNE-VOLTAIRE", "marker-color": "#818181"}}, {"type": "Feature", "geometry": {"type": "Point", "coordinates": [2.355326, 48.855919]}, "properties": {"numparc": 4929, "etat de la localisation": "autre", "ID BDGEO": "165", "horodatage": "2022-02-14 20:35:39", "distance (en metres)": 2223.96, "station": "CHARONNE-VOLTAIRE", "marker-color": "#818181"}}, {"type": "Feature", "geometry": {"type": "Point", "coordinates": [2.355326, 48.855919]}, "properties": {"numparc": 4929, "etat de la localisation": "autre", "ID BDGEO": "165", "horodatage": "2022-02-14 20:35:43", "distance (en metres)": 2223.96, "station": "CHARONNE-VOLTAIRE", "marker-color": "#818181"}}, {"type": "Feature", "geometry": {"type": "Point", "coordinates": [2.362092, 48.854839]}, "properties": {"numparc": 4929, "etat de la localisation": "autre", "ID BDGEO": "165", "horodatage": "2022-02-14 20:38:34", "distance (en metres)": 1725.24, "station": "CHARONNE-VOLTAIRE", "marker-color": "#818181"}}, {"type": "Feature", "geometry": {"type": "Point", "coordinates": [2.362097, 48.854839]}, "properties": {"numparc": 4929, "etat de la localisation": "autre", "ID BDGEO": "165", "horodatage": "2022-02-14 20:38:50", "distance (en metres)": 1724.87, "station": "CHARONNE-VOLTAIRE", "marker-color": "#818181"}}, {"type": "Feature", "geometry": {"type": "Point", "coordinates": [2.365439, 48.853783]}, "properties": {"numparc": 4929, "etat de la localisation": "autre", "ID BDGEO": "165", "horodatage": "2022-02-14 20:40:30", "distance (en metres)": 1484.32, "station": "CHARONNE-VOLTAIRE", "marker-color": "#818181"}}, {"type": "Feature", "geometry": {"type": "Point", "coordinates": [2.368025, 48.853333]}, "properties": {"numparc": 4929, "etat de la localisation": "autre", "ID BDGEO": "165", "horodatage": "2022-02-14 20:41:50", "distance (en metres)": 1300.85, "station": "CHARONNE-VOLTAIRE", "marker-color": "#818181"}}, {"type": "Feature", "geometry": {"type": "Point", "coordinates": [2.371207, 48.852779]}, "properties": {"numparc": 4929, "etat de la localisation": "autre", "ID BDGEO": "165", "horodatage": "2022-02-14 20:44:33", "distance (en metres)": 1081.01, "station": "CHARONNE-VOLTAIRE", "marker-color": "#818181"}}, {"type": "Feature", "geometry": {"type": "Point", "coordinates": [2.373546, 48.851948]}, "properties": {"numparc": 4929, "etat de la localisation": "autre", "ID BDGEO": "165", "horodatage": "2022-02-14 20:45:25", "distance (en metres)": 940.66, "station": "CHARONNE-VOLTAIRE", "marker-color": "#818181"}}, {"type": "Feature", "geometry": {"type": "Point", "coordinates": [2.376573, 48.8517]}, "properties": {"numparc": 4929, "etat de la localisation": "autre", "ID BDGEO": "165", "horodatage": "2022-02-14 20:46:31", "distance (en metres)": 747.6, "station": "CHARONNE-VOLTAIRE", "marker-color": "#818181"}}, {"type": "Feature", "geometry": {"type": "Point", "coordinates": [2.377986, 48.853111]}, "properties": {"numparc": 4929, "etat de la localisation": "autre", "ID BDGEO": "165", "horodatage": "2022-02-14 20:47:52", "distance (en metres)": 591.46, "station": "CHARONNE-VOLTAIRE", "marker-color": "#818181"}}, {"type": "Feature", "geometry": {"type": "Point", "coordinates": [2.381989, 48.85371]}, "properties": {"numparc": 4929, "etat de la localisation": "autre", "ID BDGEO": "165", "horodatage": "2022-02-14 20:49:20", "distance (en metres)": 293.64, "station": "CHARONNE-VOLTAIRE", "marker-color": "#818181"}}, {"type": "Feature", "geometry": {"type": "Point", "coordinates": [2.417524, 48.865147]}, "properties": {"numparc": 4929, "etat de la localisation": "autre", "ID BDGEO": "174", "horodatage": "2022-02-14 21:09:20", "distance (en metres)": 63.92, "station": "GALLIENI", "marker-color": "#818181"}}, {"type": "Feature", "geometry": {"type": "Point", "coordinates": [2.431975, 48.875935]}, "properties": {"numparc": 4929, "etat de la localisation": "autre", "ID BDGEO": "271", "horodatage": "2022-02-14 21:20:03", "distance (en metres)": 465.54, "station": "DEPOT DES LILAS SORTIE", "marker-color": "#818181"}}, {"type": "Feature", "geometry": {"type": "Point", "coordinates": [2.423576, 48.869835]}, "properties": {"numparc": 4948, "etat de la localisation": "autre", "ID BDGEO": "491", "horodatage": "2022-02-14 21:42:35", "distance (en metres)": 40.5, "station": "PIERRE CURIE", "marker-color": "#818181"}}, {"type": "Feature", "geometry": {"type": "Point", "coordinates": [2.417316, 48.865234]}, "properties": {"numparc": 4947, "etat de la localisation": "autre", "ID BDGEO": "174", "horodatage": "2022-02-14 21:47:47", "distance (en metres)": 68.5, "station": "GALLIENI", "marker-color": "#818181"}}, {"type": "Feature", "geometry": {"type": "Point", "coordinates": [2.367631, 48.853439]}, "properties": {"numparc": 4948, "etat de la localisation": "autre", "ID BDGEO": "206", "horodatage": "2022-02-14 22:14:26", "distance (en metres)": 70.57, "station": "BASTILLE - RUE SAINT-ANTOINE", "marker-color": "#818181"}}, {"type": "Feature", "geometry": {"type": "Point", "coordinates": [2.348871, 48.857441]}, "properties": {"numparc": 4948, "etat de la localisation": "autre", "ID BDGEO": "488", "horodatage": "2022-02-14 22:22:53", "distance (en metres)": 50.8, "station": "CHATELET", "marker-color": "#818181"}}, {"type": "Feature", "geometry": {"type": "Point", "coordinates": [2.417358, 48.865162]}, "properties": {"numparc": 4948, "etat de la localisation": "autre", "ID BDGEO": "174", "horodatage": "2022-02-14 23:06:53", "distance (en metres)": 61.33, "station": "GALLIENI", "marker-color": "#818181"}}, {"type": "Feature", "geometry": {"type": "Point", "coordinates": [2.348879, 48.857491]}, "properties": {"numparc": 4948, "etat de la localisation": "autre", "ID BDGEO": "488", "horodatage": "2022-02-15 00:09:52", "distance (en metres)": 50.52, "station": "CHATELET", "marker-color": "#818181"}}, {"type": "Feature", "geometry": {"type": "Point", "coordinates": [2.416892, 48.865265]}, "properties": {"numparc": 4948, "etat de la localisation": "Delocalise", "ID BDGEO": "174", "horodatage": "2022-02-15 00:45:09", "distance (en metres)": 73.3, "station": "GALLIENI", "marker-color": "#FF565E"}}, {"type": "Feature", "geometry": {"type": "Point", "coordinates": [2.427408, 48.879181]}, "properties": {"numparc": 4948, "etat de la localisation": "autre", "ID BDGEO": "271", "horodatage": "2022-02-15 01:11:04", "distance (en metres)": 41.31, "station": "DEPOT DES LILAS SORTIE", "marker-color": "#818181"}}, {"type": "Feature", "geometry": {"type": "Point", "coordinates": [2.427349, 48.878812]}, "properties": {"station": "DEPOT DES LILAS SORTIE", "ID BDGEO": "271", "marker-color": "#56B3FF"}}, {"type": "Feature", "geometry": {"type": "Point", "coordinates": [2.417149, 48.864628]}, "properties": {"station": "GALLIENI", "ID BDGEO": "174", "marker-color": "#56B3FF"}}, {"type": "Feature", "geometry": {"type": "Point", "coordinates": [2.41883, 48.868186]}, "properties": {"station": "MAIRIE DE BAGNOLET", "ID BDGEO": "175", "marker-color": "#56B3FF"}}, {"type": "Feature", "geometry": {"type": "Point", "coordinates": [2.43154, 48.875447]}, "properties": {"station": "LOUISE MICHEL.", "ID BDGEO": "430", "marker-color": "#56B3FF"}}, {"type": "Feature", "geometry": {"type": "Point", "coordinates": [2.431827, 48.875905]}, "properties": {"station": "LOUISE MICHEL", "ID BDGEO": "2", "marker-color": "#56B3FF"}}, {"type": "Feature", "geometry": {"type": "Point", "coordinates": [2.350235, 48.856179]}, "properties": {"station": "HOTEL DE VILLE", "ID BDGEO": "155", "marker-color": "#56B3FF"}}, {"type": "Feature", "geometry": {"type": "Point", "coordinates": [2.368593, 48.853389]}, "properties": {"station": "BASTILLE - RUE SAINT-ANTOINE", "ID BDGEO": "206", "marker-color": "#56B3FF"}}, {"type": "Feature", "geometry": {"type": "Point", "coordinates": [2.423478, 48.869477]}, "properties": {"station": "PIERRE CURIE", "ID BDGEO": "491", "marker-color": "#56B3FF"}}, {"type": "Feature", "geometry": {"type": "Point", "coordinates": [2.375523, 48.851374]}, "properties": {"station": "LEDRU-ROLLIN - FAUBOURG SAINT-ANTOINE", "ID BDGEO": "203", "marker-color": "#56B3FF"}}, {"type": "Feature", "geometry": {"type": "Point", "coordinates": [2.423899, 48.868946]}, "properties": {"station": "PIERRE CURIE", "ID BDGEO": "177", "marker-color": "#56B3FF"}}, {"type": "Feature", "geometry": {"type": "Point", "coordinates": [2.420495, 48.869856]}, "properties": {"station": "EGLISE DE BAGNOLET", "ID BDGEO": "176", "marker-color": "#56B3FF"}}, {"type": "Feature", "geometry": {"type": "Point", "coordinates": [2.399186, 48.857511]}, "properties": {"station": "LA REUNION", "ID BDGEO": "197", "marker-color": "#56B3FF"}}, {"type": "Feature", "geometry": {"type": "Point", "coordinates": [2.399091, 48.857467]}, "properties": {"station": "LA REUNION", "ID BDGEO": "168", "marker-color": "#56B3FF"}}, {"type": "Feature", "geometry": {"type": "Point", "coordinates": [2.385672, 48.854759]}, "properties": {"station": "CHARONNE-VOLTAIRE", "ID BDGEO": "165", "marker-color": "#56B3FF"}}, {"type": "Feature", "geometry": {"type": "Point", "coordinates": [2.348927, 48.857329]}, "properties": {"station": "CHATELET.", "ID BDGEO": "489", "marker-color": "#56B3FF"}}, {"type": "Feature", "geometry": {"type": "Point", "coordinates": [2.348192, 48.857536]}, "properties": {"station": "CHATELET", "ID BDGEO": "488", "marker-color": "#56B3FF"}}, {"type": "Feature", "geometry": {"type": "Point", "coordinates": [2.409561, 48.864597]}, "properties": {"station": "PORTE DE BAGNOLET", "ID BDGEO": "171", "marker-color": "#56B3FF"}}, {"type": "Feature", "geometry": {"type": "Point", "coordinates": [2.377527, 48.853216]}, "properties": {"station": "CHARONNE-KELLER", "ID BDGEO": "163", "marker-color": "#56B3FF"}}, {"type": "Feature", "geometry": {"type": "Point", "coordinates": [2.418052, 48.866973]}, "properties": {"station": "CENTRE DE SANTE", "ID BDGEO": "191", "marker-color": "#56B3FF"}}, {"type": "Feature", "geometry": {"type": "Point", "coordinates": [2.41704, 48.864906]}, "properties": {"station": "GALLIENI", "ID BDGEO": "192", "marker-color": "#56B3FF"}}, {"type": "Feature", "geometry": {"type": "Point", "coordinates": [2.4162, 48.867765]}, "properties": {"station": "LA POSTE", "ID BDGEO": "190", "marker-color": "#56B3FF"}}, {"type": "Feature", "geometry": {"type": "Point", "coordinates": [2.426899, 48.870382]}, "properties": {"station": "LES MALASSIS", "ID BDGEO": "184", "marker-color": "#56B3FF"}}, {"type": "Feature", "geometry": {"type": "Point", "coordinates": [2.424035, 48.868928]}, "properties": {"station": "PIERRE CURIE", "ID BDGEO": "186", "marker-color": "#56B3FF"}}]}