{"type": "FeatureCollection", "features": [{"type": "Feature", "geometry": {"type": "Point", "coordinates": [2.390423, 48.82391]}, "properties": {"alarme": "VEHICULE DELOCALISE", "numparc": 2866, "type": "EXPLOITATION", "duree": "00:00:34", "horodatage": "2022-09-13 09:06:55", "statut": "start", "marker-color": "#ff0000"}}, {"type": "Feature", "geometry": {"type": "Point", "coordinates": [2.398755, 48.817417]}, "properties": {"alarme": "VEHICULE DELOCALISE", "numparc": 2859, "type": "EXPLOITATION", "duree": "00:02:28", "horodatage": "2022-09-13 10:04:24", "statut": "start", "marker-color": "#ff0000"}}, {"type": "Feature", "geometry": {"type": "Point", "coordinates": [2.377376, 48.830822]}, "properties": {"alarme": "VEHICULE DELOCALISE", "numparc": 2860, "type": "EXPLOITATION", "duree": "00:00:11", "horodatage": "2022-09-13 13:29:41", "statut": "start", "marker-color": "#ff0000"}}, {"type": "Feature", "geometry": {"type": "Point", "coordinates": [2.378718, 48.828468]}, "properties": {"alarme": "VEHICULE DELOCALISE", "numparc": 2860, "type": "EXPLOITATION", "duree": "00:14:16", "horodatage": "2022-09-13 18:49:28", "statut": "start", "marker-color": "#ff0000"}}, {"type": "Feature", "geometry": {"type": "Point", "coordinates": [2.378687, 48.828499]}, "properties": {"alarme": "VEHICULE DELOCALISE", "numparc": 2867, "type": "EXPLOITATION", "duree": "00:02:05", "horodatage": "2022-09-13 20:18:42", "statut": "start", "marker-color": "#ff0000"}}, {"type": "Feature", "geometry": {"type": "Point", "coordinates": [2.392144, 48.82267]}, "properties": {"alarme": "VEHICULE DELOCALISE", "numparc": 2866, "type": "EXPLOITATION", "duree": "00:00:34", "horodatage": "2022-09-13 09:07:29", "statut": "end", "marker-color": "#2fe184"}}, {"type": "Feature", "geometry": {"type": "Point", "coordinates": [2.398253, 48.817898]}, "properties": {"alarme": "VEHICULE DELOCALISE", "numparc": 2859, "type": "EXPLOITATION", "duree": "00:02:28", "horodatage": "2022-09-13 10:06:52", "statut": "end", "marker-color": "#2fe184"}}, {"type": "Feature", "geometry": {"type": "Point", "coordinates": [2.377398, 48.830841]}, "properties": {"alarme": "VEHICULE DELOCALISE", "numparc": 2860, "type": "EXPLOITATION", "duree": "00:00:11", "horodatage": "2022-09-13 13:29:52", "statut": "end", "marker-color": "#2fe184"}}, {"type": "Feature", "geometry": {"type": "Point", "coordinates": [2.377027, 48.830433]}, "properties": {"alarme": "VEHICULE DELOCALISE", "numparc": 2860, "type": "EXPLOITATION", "duree": "00:14:16", "horodatage": "2022-09-13 19:03:44", "statut": "end", "marker-color": "#2fe184"}}, {"type": "Feature", "geometry": {"type": "Point", "coordinates": [2.377347, 48.830841]}, "properties": {"alarme": "VEHICULE DELOCALISE", "numparc": 2867, "type": "EXPLOITATION", "duree": "00:02:05", "horodatage": "2022-09-13 20:20:47", "statut": "end", "marker-color": "#2fe184"}}]}