{"type": "FeatureCollection", "features": [{"type": "Feature", "geometry": {"type": "Point", "coordinates": [2.42787, 48.87862]}, "properties": {"etat de la localisation": "Delocalise", "numparc": 1542, "duree": "00:20:24", "horodatage": "2022-10-06 05:59:24", "marker-color": "#FF565E"}}, {"type": "Feature", "geometry": {"type": "Point", "coordinates": [2.409763, 48.87785]}, "properties": {"etat de la localisation": "Mission inconnue", "numparc": 1492, "duree": "", "horodatage": "2022-10-06 06:22:12", "marker-color": "#FF9F56"}}, {"type": "Feature", "geometry": {"type": "Point", "coordinates": [2.357774, 48.880596]}, "properties": {"etat de la localisation": "Mission suivante non connue", "numparc": 1492, "duree": "", "horodatage": "2022-10-06 06:49:41", "marker-color": "#7156FF"}}, {"type": "Feature", "geometry": {"type": "Point", "coordinates": [2.357784, 48.880707]}, "properties": {"etat de la localisation": "Delocalise", "numparc": 1542, "duree": "00:00:00", "horodatage": "2022-10-06 06:52:16", "marker-color": "#FF565E"}}, {"type": "Feature", "geometry": {"type": "Point", "coordinates": [2.357584, 48.880432]}, "properties": {"etat de la localisation": "Delocalise", "numparc": 1542, "duree": "00:00:18", "horodatage": "2022-10-06 07:02:02", "marker-color": "#FF565E"}}, {"type": "Feature", "geometry": {"type": "Point", "coordinates": [2.409088, 48.877197]}, "properties": {"etat de la localisation": "Hors service", "numparc": 1542, "duree": "", "horodatage": "2022-10-06 07:26:49", "marker-color": "#707070"}}, {"type": "Feature", "geometry": {"type": "Point", "coordinates": [2.409088, 48.877197]}, "properties": {"etat de la localisation": "Hors service", "numparc": 1542, "duree": "", "horodatage": "2022-10-06 07:38:38", "marker-color": "#707070"}}, {"type": "Feature", "geometry": {"type": "Point", "coordinates": [2.357775, 48.880653]}, "properties": {"etat de la localisation": "Delocalise", "numparc": 1579, "duree": "00:00:00", "horodatage": "2022-10-06 07:47:06", "marker-color": "#FF565E"}}, {"type": "Feature", "geometry": {"type": "Point", "coordinates": [2.357574, 48.880531]}, "properties": {"etat de la localisation": "Delocalise", "numparc": 1579, "duree": "00:00:22", "horodatage": "2022-10-06 07:51:08", "marker-color": "#FF565E"}}, {"type": "Feature", "geometry": {"type": "Point", "coordinates": [2.358034, 48.880585]}, "properties": {"etat de la localisation": "Delocalise", "numparc": 1542, "duree": "00:00:47", "horodatage": "2022-10-06 08:28:05", "marker-color": "#FF565E"}}, {"type": "Feature", "geometry": {"type": "Point", "coordinates": [2.44219, 48.862537]}, "properties": {"etat de la localisation": "Hors service", "numparc": 1492, "duree": "", "horodatage": "2022-10-06 08:37:15", "marker-color": "#707070"}}, {"type": "Feature", "geometry": {"type": "Point", "coordinates": [2.357879, 48.880543]}, "properties": {"etat de la localisation": "Delocalise", "numparc": 1542, "duree": "00:00:29", "horodatage": "2022-10-06 08:37:44", "marker-color": "#FF565E"}}, {"type": "Feature", "geometry": {"type": "Point", "coordinates": [2.357726, 48.880615]}, "properties": {"etat de la localisation": "Delocalise", "numparc": 1579, "duree": "00:01:12", "horodatage": "2022-10-06 09:19:16", "marker-color": "#FF565E"}}, {"type": "Feature", "geometry": {"type": "Point", "coordinates": [2.357542, 48.880512]}, "properties": {"etat de la localisation": "Delocalise", "numparc": 1579, "duree": "00:00:20", "horodatage": "2022-10-06 09:33:50", "marker-color": "#FF565E"}}, {"type": "Feature", "geometry": {"type": "Point", "coordinates": [2.357696, 48.880543]}, "properties": {"etat de la localisation": "Delocalise", "numparc": 1542, "duree": "00:00:41", "horodatage": "2022-10-06 10:09:04", "marker-color": "#FF565E"}}, {"type": "Feature", "geometry": {"type": "Point", "coordinates": [2.357461, 48.880501]}, "properties": {"etat de la localisation": "Delocalise", "numparc": 1542, "duree": "00:01:13", "horodatage": "2022-10-06 10:15:36", "marker-color": "#FF565E"}}, {"type": "Feature", "geometry": {"type": "Point", "coordinates": [2.357721, 48.880623]}, "properties": {"etat de la localisation": "Delocalise", "numparc": 1579, "duree": "00:00:55", "horodatage": "2022-10-06 11:04:58", "marker-color": "#FF565E"}}, {"type": "Feature", "geometry": {"type": "Point", "coordinates": [2.357565, 48.880512]}, "properties": {"etat de la localisation": "Delocalise", "numparc": 1579, "duree": "00:00:26", "horodatage": "2022-10-06 11:10:34", "marker-color": "#FF565E"}}, {"type": "Feature", "geometry": {"type": "Point", "coordinates": [2.35786, 48.880608]}, "properties": {"etat de la localisation": "Delocalise", "numparc": 1542, "duree": "00:00:58", "horodatage": "2022-10-06 11:38:46", "marker-color": "#FF565E"}}, {"type": "Feature", "geometry": {"type": "Point", "coordinates": [2.357735, 48.880558]}, "properties": {"etat de la localisation": "Delocalise", "numparc": 1579, "duree": "00:01:39", "horodatage": "2022-10-06 12:38:18", "marker-color": "#FF565E"}}, {"type": "Feature", "geometry": {"type": "Point", "coordinates": [2.35782, 48.880661]}, "properties": {"etat de la localisation": "Delocalise", "numparc": 1542, "duree": "00:01:09", "horodatage": "2022-10-06 12:59:33", "marker-color": "#FF565E"}}, {"type": "Feature", "geometry": {"type": "Point", "coordinates": [2.35749, 48.880558]}, "properties": {"etat de la localisation": "Delocalise", "numparc": 1542, "duree": "00:00:36", "horodatage": "2022-10-06 13:06:00", "marker-color": "#FF565E"}}, {"type": "Feature", "geometry": {"type": "Point", "coordinates": [2.427858, 48.878674]}, "properties": {"etat de la localisation": "Hors service", "numparc": 1579, "duree": "", "horodatage": "2022-10-06 13:35:27", "marker-color": "#707070"}}, {"type": "Feature", "geometry": {"type": "Point", "coordinates": [2.357824, 48.880638]}, "properties": {"etat de la localisation": "Delocalise", "numparc": 1542, "duree": "00:01:52", "horodatage": "2022-10-06 14:31:41", "marker-color": "#FF565E"}}, {"type": "Feature", "geometry": {"type": "Point", "coordinates": [2.357574, 48.880608]}, "properties": {"etat de la localisation": "Delocalise", "numparc": 1542, "duree": "00:00:23", "horodatage": "2022-10-06 14:50:03", "marker-color": "#FF565E"}}, {"type": "Feature", "geometry": {"type": "Point", "coordinates": [2.408914, 48.877331]}, "properties": {"etat de la localisation": "Hors service", "numparc": 1542, "duree": "", "horodatage": "2022-10-06 15:37:59", "marker-color": "#707070"}}, {"type": "Feature", "geometry": {"type": "Point", "coordinates": [2.427623, 48.878719]}, "properties": {"etat de la localisation": "Mission inconnue", "numparc": 1542, "duree": "", "horodatage": "2022-10-06 21:21:13", "marker-color": "#FF9F56"}}, {"type": "Feature", "geometry": {"type": "Point", "coordinates": [2.427642, 48.878727]}, "properties": {"etat de la localisation": "Hors service", "numparc": 1542, "duree": "", "horodatage": "2022-10-06 21:46:21", "marker-color": "#707070"}}, {"type": "Feature", "geometry": {"type": "Point", "coordinates": [2.427652, 48.878727]}, "properties": {"etat de la localisation": "Mission inconnue", "numparc": 1542, "duree": "", "horodatage": "2022-10-06 23:33:05", "marker-color": "#FF9F56"}}, {"type": "Feature", "geometry": {"type": "Point", "coordinates": [2.427652, 48.878727]}, "properties": {"etat de la localisation": "Mission inconnue", "numparc": 1542, "duree": "", "horodatage": "2022-10-06 23:36:17", "marker-color": "#FF9F56"}}]}